{
  "type": "FeatureCollection",
  "bbox": [
    105.978209,
    21.196167,
    106.027492,
    21.264188
  ],
  "features": [
    {
      "type": "Feature",
      "id": "09205",
      "bbox": [
        105.978209,
        21.196167,
        106.027492,
        21.264188
      ],
      "geometry": {
        "type": "MultiPolygon",
        "coordinates": [
          [
            [
              [
                106.00188,
                21.257927
              ],
              [
                106.002499,
                21.257841
              ],
              [
                106.002804,
                21.257856
              ],
              [
                106.003195,
                21.257876
              ],
              [
                106.003525,
                21.257896
              ],
              [
                106.003686,
                21.257911
              ],
              [
                106.004198,
                21.258037
              ],
              [
                106.004481,
                21.258106
              ],
              [
                106.004861,
                21.258168
              ],
              [
                106.005478,
                21.258275
              ],
              [
                106.005748,
                21.258337
              ],
              [
                106.006035,
                21.258382
              ],
              [
                106.006297,
                21.25842
              ],
              [
                106.006319,
                21.258423
              ],
              [
                106.006521,
                21.258478
              ],
              [
                106.008281,
                21.258562
              ],
              [
                106.009173,
                21.258556
              ],
              [
                106.010182,
                21.25855
              ],
              [
                106.011515,
                21.258314
              ],
              [
                106.012593,
                21.257959
              ],
              [
                106.013635,
                21.257514
              ],
              [
                106.014156,
                21.257289
              ],
              [
                106.014308,
                21.257241
              ],
              [
                106.015086,
                21.25684
              ],
              [
                106.015318,
                21.256721
              ],
              [
                106.015789,
                21.256497
              ],
              [
                106.015912,
                21.256433
              ],
              [
                106.016361,
                21.2562
              ],
              [
                106.016858,
                21.256007
              ],
              [
                106.016942,
                21.255951
              ],
              [
                106.018104,
                21.255556
              ],
              [
                106.018702,
                21.25533
              ],
              [
                106.018988,
                21.255242
              ],
              [
                106.019215,
                21.255153
              ],
              [
                106.019595,
                21.255079
              ],
              [
                106.019661,
                21.255059
              ],
              [
                106.021521,
                21.254535
              ],
              [
                106.022796,
                21.25402
              ],
              [
                106.023781,
                21.25362
              ],
              [
                106.024605,
                21.253235
              ],
              [
                106.024858,
                21.253107
              ],
              [
                106.025858,
                21.25257
              ],
              [
                106.026986,
                21.252073
              ],
              [
                106.027492,
                21.251554
              ],
              [
                106.026955,
                21.250909
              ],
              [
                106.026775,
                21.250693
              ],
              [
                106.02629,
                21.250075
              ],
              [
                106.025859,
                21.250023
              ],
              [
                106.025853,
                21.250025
              ],
              [
                106.025696,
                21.250058
              ],
              [
                106.025508,
                21.250099
              ],
              [
                106.02537,
                21.250128
              ],
              [
                106.025367,
                21.250129
              ],
              [
                106.02535,
                21.250097
              ],
              [
                106.025342,
                21.250083
              ],
              [
                106.02524,
                21.249896
              ],
              [
                106.025211,
                21.249843
              ],
              [
                106.02516,
                21.24975
              ],
              [
                106.025072,
                21.249695
              ],
              [
                106.024988,
                21.249623
              ],
              [
                106.02493,
                21.249612
              ],
              [
                106.024858,
                21.249584
              ],
              [
                106.024809,
                21.249525
              ],
              [
                106.024676,
                21.249363
              ],
              [
                106.024403,
                21.249011
              ],
              [
                106.024355,
                21.248951
              ],
              [
                106.023824,
                21.24831
              ],
              [
                106.023688,
                21.248147
              ],
              [
                106.02347,
                21.247855
              ],
              [
                106.023262,
                21.247578
              ],
              [
                106.023179,
                21.247468
              ],
              [
                106.023018,
                21.247263
              ],
              [
                106.022954,
                21.247216
              ],
              [
                106.022877,
                21.247191
              ],
              [
                106.022728,
                21.247219
              ],
              [
                106.021652,
                21.247588
              ],
              [
                106.021621,
                21.247598
              ],
              [
                106.021506,
                21.247638
              ],
              [
                106.02115,
                21.24776
              ],
              [
                106.020771,
                21.24789
              ],
              [
                106.019965,
                21.248152
              ],
              [
                106.01979,
                21.248209
              ],
              [
                106.019357,
                21.24835
              ],
              [
                106.019132,
                21.248425
              ],
              [
                106.018113,
                21.248762
              ],
              [
                106.017322,
                21.249012
              ],
              [
                106.01541,
                21.249588
              ],
              [
                106.015048,
                21.249012
              ],
              [
                106.01479,
                21.24859
              ],
              [
                106.014514,
                21.248087
              ],
              [
                106.014377,
                21.247868
              ],
              [
                106.014308,
                21.247759
              ],
              [
                106.01425,
                21.247633
              ],
              [
                106.014229,
                21.247586
              ],
              [
                106.014138,
                21.24743
              ],
              [
                106.01405,
                21.247292
              ],
              [
                106.014029,
                21.247265
              ],
              [
                106.01394,
                21.247152
              ],
              [
                106.013827,
                21.247031
              ],
              [
                106.013642,
                21.246833
              ],
              [
                106.013166,
                21.246334
              ],
              [
                106.012955,
                21.246113
              ],
              [
                106.012945,
                21.246105
              ],
              [
                106.012756,
                21.24596
              ],
              [
                106.012746,
                21.245938
              ],
              [
                106.012506,
                21.245779
              ],
              [
                106.01238,
                21.245715
              ],
              [
                106.012367,
                21.245705
              ],
              [
                106.012365,
                21.245691
              ],
              [
                106.011963,
                21.245519
              ],
              [
                106.011899,
                21.245507
              ],
              [
                106.011435,
                21.245277
              ],
              [
                106.01081,
                21.245004
              ],
              [
                106.010502,
                21.24487
              ],
              [
                106.010451,
                21.244864
              ],
              [
                106.010286,
                21.244903
              ],
              [
                106.01027,
                21.244643
              ],
              [
                106.01025,
                21.244506
              ],
              [
                106.010193,
                21.244104
              ],
              [
                106.01015,
                21.243692
              ],
              [
                106.010137,
                21.243566
              ],
              [
                106.010075,
                21.242949
              ],
              [
                106.010033,
                21.242464
              ],
              [
                106.010028,
                21.242365
              ],
              [
                106.01003,
                21.242326
              ],
              [
                106.010064,
                21.242201
              ],
              [
                106.009969,
                21.241127
              ],
              [
                106.009851,
                21.23981
              ],
              [
                106.009858,
                21.234684
              ],
              [
                106.009888,
                21.232929
              ],
              [
                106.009548,
                21.232931
              ],
              [
                106.009286,
                21.232988
              ],
              [
                106.008664,
                21.232645
              ],
              [
                106.008306,
                21.232183
              ],
              [
                106.008301,
                21.232126
              ],
              [
                106.008248,
                21.232055
              ],
              [
                106.008079,
                21.232091
              ],
              [
                106.007971,
                21.232129
              ],
              [
                106.0077,
                21.231802
              ],
              [
                106.007289,
                21.231274
              ],
              [
                106.00741,
                21.231308
              ],
              [
                106.007544,
                21.231343
              ],
              [
                106.00762,
                21.231347
              ],
              [
                106.007654,
                21.231334
              ],
              [
                106.00772,
                21.231318
              ],
              [
                106.007806,
                21.231261
              ],
              [
                106.007851,
                21.231187
              ],
              [
                106.007909,
                21.231144
              ],
              [
                106.00795,
                21.231073
              ],
              [
                106.007997,
                21.230932
              ],
              [
                106.008018,
                21.230851
              ],
              [
                106.00802,
                21.230801
              ],
              [
                106.00802,
                21.230745
              ],
              [
                106.008018,
                21.230705
              ],
              [
                106.008034,
                21.230629
              ],
              [
                106.00808,
                21.23052
              ],
              [
                106.00811,
                21.230504
              ],
              [
                106.008264,
                21.230411
              ],
              [
                106.008282,
                21.230371
              ],
              [
                106.008273,
                21.230327
              ],
              [
                106.008247,
                21.230293
              ],
              [
                106.008213,
                21.230244
              ],
              [
                106.008149,
                21.230218
              ],
              [
                106.008127,
                21.23021
              ],
              [
                106.008124,
                21.230174
              ],
              [
                106.008131,
                21.230134
              ],
              [
                106.008134,
                21.230096
              ],
              [
                106.008143,
                21.230054
              ],
              [
                106.008141,
                21.23002
              ],
              [
                106.008124,
                21.229988
              ],
              [
                106.008095,
                21.229916
              ],
              [
                106.008042,
                21.229805
              ],
              [
                106.008016,
                21.229747
              ],
              [
                106.007992,
                21.229712
              ],
              [
                106.007983,
                21.229691
              ],
              [
                106.007983,
                21.229686
              ],
              [
                106.007995,
                21.229652
              ],
              [
                106.008054,
                21.229535
              ],
              [
                106.008073,
                21.229474
              ],
              [
                106.008064,
                21.229412
              ],
              [
                106.008013,
                21.2293
              ],
              [
                106.007941,
                21.229183
              ],
              [
                106.007908,
                21.229081
              ],
              [
                106.007442,
                21.229081
              ],
              [
                106.007146,
                21.229078
              ],
              [
                106.007113,
                21.229077
              ],
              [
                106.007117,
                21.229026
              ],
              [
                106.007125,
                21.228917
              ],
              [
                106.007128,
                21.228825
              ],
              [
                106.007143,
                21.228679
              ],
              [
                106.007143,
                21.228494
              ],
              [
                106.007146,
                21.228494
              ],
              [
                106.008208,
                21.228363
              ],
              [
                106.008343,
                21.228348
              ],
              [
                106.008344,
                21.228033
              ],
              [
                106.008377,
                21.227788
              ],
              [
                106.008422,
                21.227618
              ],
              [
                106.008342,
                21.227628
              ],
              [
                106.008316,
                21.227237
              ],
              [
                106.008326,
                21.226895
              ],
              [
                106.008019,
                21.226794
              ],
              [
                106.007973,
                21.226398
              ],
              [
                106.007948,
                21.226153
              ],
              [
                106.007822,
                21.225899
              ],
              [
                106.007756,
                21.225763
              ],
              [
                106.007877,
                21.225748
              ],
              [
                106.008093,
                21.225762
              ],
              [
                106.008324,
                21.22579
              ],
              [
                106.00848,
                21.225799
              ],
              [
                106.008555,
                21.22579
              ],
              [
                106.008661,
                21.225738
              ],
              [
                106.008766,
                21.22569
              ],
              [
                106.008952,
                21.225681
              ],
              [
                106.009148,
                21.225699
              ],
              [
                106.009155,
                21.225576
              ],
              [
                106.009139,
                21.225516
              ],
              [
                106.009139,
                21.225473
              ],
              [
                106.009141,
                21.225453
              ],
              [
                106.009141,
                21.22541
              ],
              [
                106.009129,
                21.22536
              ],
              [
                106.009097,
                21.225293
              ],
              [
                106.009088,
                21.225254
              ],
              [
                106.009085,
                21.225172
              ],
              [
                106.009073,
                21.225043
              ],
              [
                106.009073,
                21.224963
              ],
              [
                106.00908,
                21.224933
              ],
              [
                106.00908,
                21.224907
              ],
              [
                106.009119,
                21.224865
              ],
              [
                106.009158,
                21.224805
              ],
              [
                106.009213,
                21.224721
              ],
              [
                106.00926,
                21.224684
              ],
              [
                106.009347,
                21.224658
              ],
              [
                106.009441,
                21.22464
              ],
              [
                106.009617,
                21.224666
              ],
              [
                106.009672,
                21.224677
              ],
              [
                106.009753,
                21.224683
              ],
              [
                106.009792,
                21.224683
              ],
              [
                106.00984,
                21.224668
              ],
              [
                106.009858,
                21.224646
              ],
              [
                106.009852,
                21.224629
              ],
              [
                106.009824,
                21.224601
              ],
              [
                106.009708,
                21.224517
              ],
              [
                106.009453,
                21.224396
              ],
              [
                106.009344,
                21.224323
              ],
              [
                106.009298,
                21.224273
              ],
              [
                106.009263,
                21.224213
              ],
              [
                106.009249,
                21.224118
              ],
              [
                106.009267,
                21.223921
              ],
              [
                106.009286,
                21.223809
              ],
              [
                106.009308,
                21.223701
              ],
              [
                106.009341,
                21.223627
              ],
              [
                106.009391,
                21.223554
              ],
              [
                106.009515,
                21.223452
              ],
              [
                106.009591,
                21.223406
              ],
              [
                106.009649,
                21.223372
              ],
              [
                106.009686,
                21.223333
              ],
              [
                106.009716,
                21.223264
              ],
              [
                106.00975,
                21.223134
              ],
              [
                106.009763,
                21.223017
              ],
              [
                106.009768,
                21.222944
              ],
              [
                106.009772,
                21.222758
              ],
              [
                106.00976,
                21.222587
              ],
              [
                106.009756,
                21.222484
              ],
              [
                106.009753,
                21.222406
              ],
              [
                106.00976,
                21.222363
              ],
              [
                106.009776,
                21.222315
              ],
              [
                106.009836,
                21.222196
              ],
              [
                106.009909,
                21.222118
              ],
              [
                106.009955,
                21.22205
              ],
              [
                106.010014,
                21.222042
              ],
              [
                106.010396,
                21.222012
              ],
              [
                106.010968,
                21.221959
              ],
              [
                106.011179,
                21.221945
              ],
              [
                106.011295,
                21.221946
              ],
              [
                106.011293,
                21.22189
              ],
              [
                106.01128,
                21.221213
              ],
              [
                106.011278,
                21.220903
              ],
              [
                106.011267,
                21.220859
              ],
              [
                106.011243,
                21.220824
              ],
              [
                106.011212,
                21.220807
              ],
              [
                106.011198,
                21.220805
              ],
              [
                106.011146,
                21.220795
              ],
              [
                106.011117,
                21.220786
              ],
              [
                106.011101,
                21.220762
              ],
              [
                106.01109,
                21.22065
              ],
              [
                106.011067,
                21.220267
              ],
              [
                106.011049,
                21.219873
              ],
              [
                106.011014,
                21.21967
              ],
              [
                106.010964,
                21.219419
              ],
              [
                106.010901,
                21.219193
              ],
              [
                106.010838,
                21.218916
              ],
              [
                106.010819,
                21.218824
              ],
              [
                106.010791,
                21.218684
              ],
              [
                106.010774,
                21.218685
              ],
              [
                106.010766,
                21.21866
              ],
              [
                106.010766,
                21.218599
              ],
              [
                106.010689,
                21.218373
              ],
              [
                106.010461,
                21.217601
              ],
              [
                106.010458,
                21.217596
              ],
              [
                106.01045,
                21.217565
              ],
              [
                106.010441,
                21.217528
              ],
              [
                106.011625,
                21.21726
              ],
              [
                106.011515,
                21.216664
              ],
              [
                106.011471,
                21.216397
              ],
              [
                106.011464,
                21.216368
              ],
              [
                106.011353,
                21.215845
              ],
              [
                106.011295,
                21.215546
              ],
              [
                106.010847,
                21.215295
              ],
              [
                106.010325,
                21.214983
              ],
              [
                106.010028,
                21.214817
              ],
              [
                106.00991,
                21.214726
              ],
              [
                106.009846,
                21.214637
              ],
              [
                106.009787,
                21.214553
              ],
              [
                106.009644,
                21.214357
              ],
              [
                106.009562,
                21.214273
              ],
              [
                106.009484,
                21.214216
              ],
              [
                106.009308,
                21.214167
              ],
              [
                106.008816,
                21.214085
              ],
              [
                106.008721,
                21.21407
              ],
              [
                106.007881,
                21.213965
              ],
              [
                106.006825,
                21.213828
              ],
              [
                106.006671,
                21.213804
              ],
              [
                106.006464,
                21.213772
              ],
              [
                106.005853,
                21.213677
              ],
              [
                106.005411,
                21.213611
              ],
              [
                106.004864,
                21.213538
              ],
              [
                106.003978,
                21.213421
              ],
              [
                106.003483,
                21.213357
              ],
              [
                106.003352,
                21.213331
              ],
              [
                106.003314,
                21.213298
              ],
              [
                106.003291,
                21.213238
              ],
              [
                106.003291,
                21.213161
              ],
              [
                106.003273,
                21.212594
              ],
              [
                106.003243,
                21.211898
              ],
              [
                106.003212,
                21.211051
              ],
              [
                106.0032,
                21.210705
              ],
              [
                106.003171,
                21.210126
              ],
              [
                106.003149,
                21.209678
              ],
              [
                106.003147,
                21.20941
              ],
              [
                106.003164,
                21.209245
              ],
              [
                106.003265,
                21.208331
              ],
              [
                106.003408,
                21.206984
              ],
              [
                106.003455,
                21.206456
              ],
              [
                106.003475,
                21.206228
              ],
              [
                106.003546,
                21.205535
              ],
              [
                106.003576,
                21.205246
              ],
              [
                106.003605,
                21.205155
              ],
              [
                106.003633,
                21.20511
              ],
              [
                106.00369,
                21.20506
              ],
              [
                106.003705,
                21.205047
              ],
              [
                106.004192,
                21.204743
              ],
              [
                106.004498,
                21.204523
              ],
              [
                106.004553,
                21.204483
              ],
              [
                106.00467,
                21.204393
              ],
              [
                106.004681,
                21.204379
              ],
              [
                106.004743,
                21.204305
              ],
              [
                106.004848,
                21.204148
              ],
              [
                106.004923,
                21.204021
              ],
              [
                106.005015,
                21.203821
              ],
              [
                106.005075,
                21.203706
              ],
              [
                106.005157,
                21.203606
              ],
              [
                106.005396,
                21.203397
              ],
              [
                106.005459,
                21.203342
              ],
              [
                106.005982,
                21.202964
              ],
              [
                106.006169,
                21.202837
              ],
              [
                106.006202,
                21.202804
              ],
              [
                106.006216,
                21.202739
              ],
              [
                106.006218,
                21.20269
              ],
              [
                106.006218,
                21.202622
              ],
              [
                106.006204,
                21.202547
              ],
              [
                106.00617,
                21.202412
              ],
              [
                106.006163,
                21.202278
              ],
              [
                106.0062,
                21.202114
              ],
              [
                106.00623,
                21.202035
              ],
              [
                106.006239,
                21.20201
              ],
              [
                106.006259,
                21.201956
              ],
              [
                106.00627,
                21.201911
              ],
              [
                106.006259,
                21.201848
              ],
              [
                106.006238,
                21.20181
              ],
              [
                106.006229,
                21.20182
              ],
              [
                106.006227,
                21.201822
              ],
              [
                106.006188,
                21.201841
              ],
              [
                106.006132,
                21.20185
              ],
              [
                106.006123,
                21.201839
              ],
              [
                106.0061,
                21.201808
              ],
              [
                106.006088,
                21.201823
              ],
              [
                106.005996,
                21.201934
              ],
              [
                106.00577,
                21.202207
              ],
              [
                106.005482,
                21.202554
              ],
              [
                106.005109,
                21.202961
              ],
              [
                106.005025,
                21.203053
              ],
              [
                106.004984,
                21.203098
              ],
              [
                106.004352,
                21.203723
              ],
              [
                106.00404,
                21.20403
              ],
              [
                106.004034,
                21.204036
              ],
              [
                106.004034,
                21.204036
              ],
              [
                106.004023,
                21.204025
              ],
              [
                106.004006,
                21.204006
              ],
              [
                106.00324,
                21.203168
              ],
              [
                106.003166,
                21.203084
              ],
              [
                106.0029,
                21.202775
              ],
              [
                106.002854,
                21.202721
              ],
              [
                106.002783,
                21.202636
              ],
              [
                106.002548,
                21.202352
              ],
              [
                106.001876,
                21.201571
              ],
              [
                106.001746,
                21.20142
              ],
              [
                106.000018,
                21.202392
              ],
              [
                105.999978,
                21.202307
              ],
              [
                105.999512,
                21.201191
              ],
              [
                105.999484,
                21.201123
              ],
              [
                105.99853,
                21.198726
              ],
              [
                105.997098,
                21.196167
              ],
              [
                105.996272,
                21.196471
              ],
              [
                105.99562,
                21.196711
              ],
              [
                105.995571,
                21.19673
              ],
              [
                105.993831,
                21.197336
              ],
              [
                105.993826,
                21.197338
              ],
              [
                105.993825,
                21.197338
              ],
              [
                105.993443,
                21.197434
              ],
              [
                105.993593,
                21.1979
              ],
              [
                105.993667,
                21.198152
              ],
              [
                105.994139,
                21.199888
              ],
              [
                105.994115,
                21.199895
              ],
              [
                105.993999,
                21.199927
              ],
              [
                105.993897,
                21.199955
              ],
              [
                105.993629,
                21.200029
              ],
              [
                105.992855,
                21.200138
              ],
              [
                105.989075,
                21.200655
              ],
              [
                105.989047,
                21.200658
              ],
              [
                105.989047,
                21.200659
              ],
              [
                105.989103,
                21.20101
              ],
              [
                105.989108,
                21.201042
              ],
              [
                105.989108,
                21.201042
              ],
              [
                105.988229,
                21.20116
              ],
              [
                105.988225,
                21.201133
              ],
              [
                105.988221,
                21.201111
              ],
              [
                105.988053,
                21.20001
              ],
              [
                105.988013,
                21.199753
              ],
              [
                105.987904,
                21.199767
              ],
              [
                105.98672,
                21.199932
              ],
              [
                105.986494,
                21.198424
              ],
              [
                105.98622,
                21.198462
              ],
              [
                105.984145,
                21.198748
              ],
              [
                105.983894,
                21.198783
              ],
              [
                105.984141,
                21.200292
              ],
              [
                105.985322,
                21.200126
              ],
              [
                105.98547,
                21.201555
              ],
              [
                105.985581,
                21.202392
              ],
              [
                105.985146,
                21.202453
              ],
              [
                105.985096,
                21.202461
              ],
              [
                105.984256,
                21.20258
              ],
              [
                105.98425,
                21.202581
              ],
              [
                105.984371,
                21.203573
              ],
              [
                105.984547,
                21.20463
              ],
              [
                105.984171,
                21.204684
              ],
              [
                105.981041,
                21.205133
              ],
              [
                105.981093,
                21.205451
              ],
              [
                105.981223,
                21.206256
              ],
              [
                105.981263,
                21.206391
              ],
              [
                105.981324,
                21.206484
              ],
              [
                105.981448,
                21.206573
              ],
              [
                105.981526,
                21.206595
              ],
              [
                105.982127,
                21.206542
              ],
              [
                105.982855,
                21.206448
              ],
              [
                105.982887,
                21.206444
              ],
              [
                105.982898,
                21.206579
              ],
              [
                105.982901,
                21.20667
              ],
              [
                105.982914,
                21.206996
              ],
              [
                105.982937,
                21.207575
              ],
              [
                105.982162,
                21.207327
              ],
              [
                105.982155,
                21.207572
              ],
              [
                105.982142,
                21.207806
              ],
              [
                105.982141,
                21.208015
              ],
              [
                105.982142,
                21.208169
              ],
              [
                105.982153,
                21.208506
              ],
              [
                105.982916,
                21.209161
              ],
              [
                105.983169,
                21.210332
              ],
              [
                105.983178,
                21.210366
              ],
              [
                105.982968,
                21.210375
              ],
              [
                105.982912,
                21.210377
              ],
              [
                105.982915,
                21.210491
              ],
              [
                105.982945,
                21.211552
              ],
              [
                105.982447,
                21.211655
              ],
              [
                105.982007,
                21.211775
              ],
              [
                105.982025,
                21.210979
              ],
              [
                105.98207,
                21.210475
              ],
              [
                105.982074,
                21.210403
              ],
              [
                105.981967,
                21.210406
              ],
              [
                105.981576,
                21.210421
              ],
              [
                105.981605,
                21.210463
              ],
              [
                105.981743,
                21.210717
              ],
              [
                105.981386,
                21.210933
              ],
              [
                105.981271,
                21.210831
              ],
              [
                105.980399,
                21.211413
              ],
              [
                105.980316,
                21.211162
              ],
              [
                105.980142,
                21.211156
              ],
              [
                105.979929,
                21.211172
              ],
              [
                105.979923,
                21.211174
              ],
              [
                105.97985,
                21.211647
              ],
              [
                105.979043,
                21.211506
              ],
              [
                105.978888,
                21.211894
              ],
              [
                105.978991,
                21.212036
              ],
              [
                105.979261,
                21.212596
              ],
              [
                105.979335,
                21.212719
              ],
              [
                105.979528,
                21.212668
              ],
              [
                105.979659,
                21.212666
              ],
              [
                105.979758,
                21.212696
              ],
              [
                105.979826,
                21.212732
              ],
              [
                105.979896,
                21.212806
              ],
              [
                105.980027,
                21.213055
              ],
              [
                105.980106,
                21.213177
              ],
              [
                105.980229,
                21.213326
              ],
              [
                105.980343,
                21.213455
              ],
              [
                105.980413,
                21.213554
              ],
              [
                105.980464,
                21.213649
              ],
              [
                105.980509,
                21.213769
              ],
              [
                105.980554,
                21.213852
              ],
              [
                105.98065,
                21.214011
              ],
              [
                105.980751,
                21.214599
              ],
              [
                105.980925,
                21.214606
              ],
              [
                105.981072,
                21.214606
              ],
              [
                105.98121,
                21.215153
              ],
              [
                105.980556,
                21.21525
              ],
              [
                105.980515,
                21.215405
              ],
              [
                105.980432,
                21.215749
              ],
              [
                105.980328,
                21.21618
              ],
              [
                105.980296,
                21.216351
              ],
              [
                105.980264,
                21.216456
              ],
              [
                105.980172,
                21.216531
              ],
              [
                105.980063,
                21.216603
              ],
              [
                105.980048,
                21.218769
              ],
              [
                105.980048,
                21.218833
              ],
              [
                105.979571,
                21.218769
              ],
              [
                105.979552,
                21.218832
              ],
              [
                105.979533,
                21.21883
              ],
              [
                105.978894,
                21.218735
              ],
              [
                105.978853,
                21.218748
              ],
              [
                105.97883,
                21.218784
              ],
              [
                105.978761,
                21.219374
              ],
              [
                105.978765,
                21.219427
              ],
              [
                105.978778,
                21.219606
              ],
              [
                105.978813,
                21.219747
              ],
              [
                105.978819,
                21.219853
              ],
              [
                105.978805,
                21.219916
              ],
              [
                105.978741,
                21.219952
              ],
              [
                105.978675,
                21.219945
              ],
              [
                105.978628,
                21.219989
              ],
              [
                105.978507,
                21.22043
              ],
              [
                105.97824,
                21.22137
              ],
              [
                105.978222,
                21.221515
              ],
              [
                105.978237,
                21.221527
              ],
              [
                105.978368,
                21.221544
              ],
              [
                105.978407,
                21.221512
              ],
              [
                105.97842,
                21.221418
              ],
              [
                105.978435,
                21.221349
              ],
              [
                105.978474,
                21.221344
              ],
              [
                105.978533,
                21.221343
              ],
              [
                105.97866,
                21.221292
              ],
              [
                105.978621,
                21.221612
              ],
              [
                105.978768,
                21.221789
              ],
              [
                105.978634,
                21.222024
              ],
              [
                105.978611,
                21.222054
              ],
              [
                105.978468,
                21.221957
              ],
              [
                105.978262,
                21.222399
              ],
              [
                105.978474,
                21.222442
              ],
              [
                105.978723,
                21.222547
              ],
              [
                105.978868,
                21.222614
              ],
              [
                105.978995,
                21.222685
              ],
              [
                105.979017,
                21.222705
              ],
              [
                105.979048,
                21.222736
              ],
              [
                105.978209,
                21.223587
              ],
              [
                105.978275,
                21.223648
              ],
              [
                105.978355,
                21.223721
              ],
              [
                105.97849,
                21.223884
              ],
              [
                105.978793,
                21.224181
              ],
              [
                105.978941,
                21.224447
              ],
              [
                105.979089,
                21.224815
              ],
              [
                105.979109,
                21.224967
              ],
              [
                105.979122,
                21.225415
              ],
              [
                105.979124,
                21.225651
              ],
              [
                105.979179,
                21.226029
              ],
              [
                105.979306,
                21.226649
              ],
              [
                105.979382,
                21.227096
              ],
              [
                105.979455,
                21.227487
              ],
              [
                105.979888,
                21.229187
              ],
              [
                105.980101,
                21.229731
              ],
              [
                105.980333,
                21.230345
              ],
              [
                105.980826,
                21.23147
              ],
              [
                105.98122,
                21.232118
              ],
              [
                105.981626,
                21.232528
              ],
              [
                105.982322,
                21.232919
              ],
              [
                105.982722,
                21.233097
              ],
              [
                105.982828,
                21.233143
              ],
              [
                105.983365,
                21.23337
              ],
              [
                105.983595,
                21.233448
              ],
              [
                105.98475,
                21.233851
              ],
              [
                105.987101,
                21.23432
              ],
              [
                105.988857,
                21.23478
              ],
              [
                105.989817,
                21.235351
              ],
              [
                105.990006,
                21.235492
              ],
              [
                105.990204,
                21.235639
              ],
              [
                105.990301,
                21.235755
              ],
              [
                105.990577,
                21.236088
              ],
              [
                105.990925,
                21.236605
              ],
              [
                105.991207,
                21.237355
              ],
              [
                105.991346,
                21.237958
              ],
              [
                105.991492,
                21.238533
              ],
              [
                105.991587,
                21.239319
              ],
              [
                105.991549,
                21.240337
              ],
              [
                105.991405,
                21.241181
              ],
              [
                105.990837,
                21.242525
              ],
              [
                105.990782,
                21.24263
              ],
              [
                105.990468,
                21.243141
              ],
              [
                105.98988,
                21.243852
              ],
              [
                105.989018,
                21.245112
              ],
              [
                105.988255,
                21.246377
              ],
              [
                105.987565,
                21.247647
              ],
              [
                105.987272,
                21.249015
              ],
              [
                105.987348,
                21.251021
              ],
              [
                105.98756,
                21.25232
              ],
              [
                105.988062,
                21.254115
              ],
              [
                105.988707,
                21.255947
              ],
              [
                105.989247,
                21.257397
              ],
              [
                105.989826,
                21.258598
              ],
              [
                105.991004,
                21.260963
              ],
              [
                105.992339,
                21.263083
              ],
              [
                105.99241,
                21.263195
              ],
              [
                105.992704,
                21.263645
              ],
              [
                105.992856,
                21.263879
              ],
              [
                105.993051,
                21.264021
              ],
              [
                105.993511,
                21.264133
              ],
              [
                105.993909,
                21.264188
              ],
              [
                105.994184,
                21.264186
              ],
              [
                105.994633,
                21.264136
              ],
              [
                105.994998,
                21.263904
              ],
              [
                105.995093,
                21.263833
              ],
              [
                105.995384,
                21.263615
              ],
              [
                105.995921,
                21.26301
              ],
              [
                105.996194,
                21.262712
              ],
              [
                105.996538,
                21.262289
              ],
              [
                105.996549,
                21.262272
              ],
              [
                105.997567,
                21.260667
              ],
              [
                105.997901,
                21.260139
              ],
              [
                105.998417,
                21.259572
              ],
              [
                105.999127,
                21.258956
              ],
              [
                105.99934,
                21.258773
              ],
              [
                106.000021,
                21.258415
              ],
              [
                106.00058,
                21.258154
              ],
              [
                106.00116,
                21.258016
              ],
              [
                106.001875,
                21.257929
              ],
              [
                106.001878,
                21.257928
              ],
              [
                106.00188,
                21.257927
              ],
              [
                106.00188,
                21.257927
              ]
            ]
          ]
        ]
      },
      "properties": {
        "code": "09205",
        "name": "Yên Trung",
        "nameEn": "Yen Trung",
        "fullName": "Xã Yên Trung",
        "fullNameEn": "Yen Trung Commune",
        "codeName": "yen_trung",
        "postalCode": "16213",
        "postalCodePrefix": "",
        "gisServerId": "diaphanhanhchinhcapxa_2025.2123",
        "areaKm2": 18.34
      }
    }
  ]
}