{
  "type": "FeatureCollection",
  "bbox": [
    106.146313,
    21.129194,
    106.221794,
    21.185639
  ],
  "features": [
    {
      "type": "Feature",
      "id": "09247",
      "bbox": [
        106.146313,
        21.129194,
        106.221794,
        21.185639
      ],
      "geometry": {
        "type": "MultiPolygon",
        "coordinates": [
          [
            [
              [
                106.178044,
                21.177254
              ],
              [
                106.178871,
                21.176887
              ],
              [
                106.179908,
                21.176502
              ],
              [
                106.180989,
                21.176267
              ],
              [
                106.182225,
                21.176223
              ],
              [
                106.184314,
                21.176172
              ],
              [
                106.185169,
                21.176369
              ],
              [
                106.185796,
                21.176616
              ],
              [
                106.186244,
                21.176864
              ],
              [
                106.186577,
                21.17716
              ],
              [
                106.186836,
                21.177601
              ],
              [
                106.187112,
                21.178746
              ],
              [
                106.187437,
                21.179473
              ],
              [
                106.187583,
                21.179732
              ],
              [
                106.188029,
                21.180281
              ],
              [
                106.188593,
                21.180732
              ],
              [
                106.189298,
                21.181193
              ],
              [
                106.19069,
                21.181613
              ],
              [
                106.191864,
                21.181772
              ],
              [
                106.193599,
                21.181999
              ],
              [
                106.195498,
                21.182129
              ],
              [
                106.196684,
                21.182144
              ],
              [
                106.197922,
                21.181958
              ],
              [
                106.198551,
                21.181731
              ],
              [
                106.199422,
                21.181275
              ],
              [
                106.201497,
                21.180186
              ],
              [
                106.204174,
                21.178757
              ],
              [
                106.205317,
                21.178307
              ],
              [
                106.206817,
                21.177695
              ],
              [
                106.20714,
                21.177576
              ],
              [
                106.210892,
                21.1765
              ],
              [
                106.211696,
                21.17636
              ],
              [
                106.211714,
                21.176357
              ],
              [
                106.211845,
                21.17633
              ],
              [
                106.212442,
                21.176255
              ],
              [
                106.213535,
                21.176221
              ],
              [
                106.214286,
                21.176284
              ],
              [
                106.216316,
                21.176674
              ],
              [
                106.217729,
                21.176843
              ],
              [
                106.218595,
                21.176825
              ],
              [
                106.219563,
                21.176687
              ],
              [
                106.220185,
                21.176467
              ],
              [
                106.220756,
                21.176092
              ],
              [
                106.221134,
                21.175635
              ],
              [
                106.221421,
                21.175167
              ],
              [
                106.221794,
                21.174161
              ],
              [
                106.221794,
                21.174137
              ],
              [
                106.221793,
                21.173753
              ],
              [
                106.221793,
                21.173753
              ],
              [
                106.221748,
                21.173418
              ],
              [
                106.221671,
                21.173122
              ],
              [
                106.221536,
                21.172802
              ],
              [
                106.221371,
                21.172497
              ],
              [
                106.221072,
                21.172146
              ],
              [
                106.219596,
                21.17073
              ],
              [
                106.219341,
                21.170468
              ],
              [
                106.21919,
                21.170329
              ],
              [
                106.217982,
                21.169214
              ],
              [
                106.2176,
                21.168819
              ],
              [
                106.217256,
                21.168459
              ],
              [
                106.217014,
                21.168204
              ],
              [
                106.216829,
                21.167973
              ],
              [
                106.215797,
                21.16831
              ],
              [
                106.215516,
                21.168402
              ],
              [
                106.215513,
                21.168405
              ],
              [
                106.215509,
                21.168407
              ],
              [
                106.215506,
                21.16841
              ],
              [
                106.215502,
                21.168412
              ],
              [
                106.215498,
                21.168414
              ],
              [
                106.21549,
                21.168418
              ],
              [
                106.215482,
                21.168422
              ],
              [
                106.215478,
                21.168424
              ],
              [
                106.21547,
                21.168428
              ],
              [
                106.215466,
                21.16843
              ],
              [
                106.215461,
                21.168431
              ],
              [
                106.215457,
                21.168433
              ],
              [
                106.215452,
                21.168434
              ],
              [
                106.215443,
                21.168437
              ],
              [
                106.215356,
                21.168462
              ],
              [
                106.215022,
                21.168559
              ],
              [
                106.21494,
                21.168583
              ],
              [
                106.214885,
                21.168599
              ],
              [
                106.214875,
                21.168602
              ],
              [
                106.214871,
                21.168603
              ],
              [
                106.214866,
                21.168604
              ],
              [
                106.214862,
                21.168605
              ],
              [
                106.214857,
                21.168606
              ],
              [
                106.214853,
                21.168607
              ],
              [
                106.214849,
                21.168607
              ],
              [
                106.214733,
                21.168639
              ],
              [
                106.214613,
                21.168672
              ],
              [
                106.213456,
                21.16903
              ],
              [
                106.213365,
                21.169058
              ],
              [
                106.213303,
                21.169086
              ],
              [
                106.213183,
                21.169117
              ],
              [
                106.212653,
                21.169283
              ],
              [
                106.211104,
                21.169715
              ],
              [
                106.209855,
                21.170071
              ],
              [
                106.208665,
                21.170412
              ],
              [
                106.207936,
                21.169714
              ],
              [
                106.207597,
                21.170271
              ],
              [
                106.208196,
                21.170475
              ],
              [
                106.208197,
                21.170475
              ],
              [
                106.208095,
                21.170497
              ],
              [
                106.207243,
                21.170678
              ],
              [
                106.206409,
                21.170841
              ],
              [
                106.205697,
                21.171039
              ],
              [
                106.204503,
                21.171373
              ],
              [
                106.202997,
                21.171747
              ],
              [
                106.202931,
                21.171701
              ],
              [
                106.202931,
                21.171701
              ],
              [
                106.201449,
                21.170684
              ],
              [
                106.201398,
                21.170718
              ],
              [
                106.200179,
                21.171076
              ],
              [
                106.199536,
                21.170643
              ],
              [
                106.1991,
                21.170786
              ],
              [
                106.198864,
                21.170041
              ],
              [
                106.19881,
                21.170052
              ],
              [
                106.198765,
                21.169897
              ],
              [
                106.198495,
                21.169992
              ],
              [
                106.198285,
                21.169389
              ],
              [
                106.198135,
                21.169435
              ],
              [
                106.197764,
                21.169484
              ],
              [
                106.197661,
                21.169188
              ],
              [
                106.197742,
                21.169162
              ],
              [
                106.197695,
                21.168954
              ],
              [
                106.197684,
                21.168905
              ],
              [
                106.197763,
                21.168888
              ],
              [
                106.197558,
                21.167403
              ],
              [
                106.19756,
                21.166687
              ],
              [
                106.196924,
                21.166466
              ],
              [
                106.19693,
                21.165884
              ],
              [
                106.197277,
                21.165993
              ],
              [
                106.197263,
                21.16512
              ],
              [
                106.195406,
                21.165037
              ],
              [
                106.195172,
                21.165158
              ],
              [
                106.194394,
                21.165209
              ],
              [
                106.194417,
                21.164673
              ],
              [
                106.194313,
                21.164412
              ],
              [
                106.194548,
                21.164148
              ],
              [
                106.194374,
                21.163705
              ],
              [
                106.194164,
                21.163205
              ],
              [
                106.193476,
                21.162931
              ],
              [
                106.19257,
                21.163251
              ],
              [
                106.192215,
                21.162754
              ],
              [
                106.190695,
                21.160415
              ],
              [
                106.190685,
                21.160396
              ],
              [
                106.190658,
                21.160357
              ],
              [
                106.190644,
                21.160336
              ],
              [
                106.190628,
                21.160343
              ],
              [
                106.190608,
                21.160353
              ],
              [
                106.19045,
                21.16043
              ],
              [
                106.189992,
                21.160645
              ],
              [
                106.188492,
                21.158024
              ],
              [
                106.188382,
                21.157639
              ],
              [
                106.188209,
                21.157035
              ],
              [
                106.18821,
                21.157034
              ],
              [
                106.188925,
                21.156892
              ],
              [
                106.188925,
                21.156892
              ],
              [
                106.188927,
                21.156892
              ],
              [
                106.188612,
                21.15579
              ],
              [
                106.188508,
                21.155574
              ],
              [
                106.188223,
                21.155725
              ],
              [
                106.187637,
                21.154754
              ],
              [
                106.186399,
                21.152701
              ],
              [
                106.186313,
                21.152428
              ],
              [
                106.186393,
                21.152406
              ],
              [
                106.187371,
                21.151717
              ],
              [
                106.187833,
                21.151391
              ],
              [
                106.189041,
                21.150632
              ],
              [
                106.189789,
                21.150064
              ],
              [
                106.190115,
                21.149839
              ],
              [
                106.190253,
                21.14975
              ],
              [
                106.191063,
                21.149212
              ],
              [
                106.19159,
                21.148851
              ],
              [
                106.191772,
                21.148725
              ],
              [
                106.193023,
                21.147861
              ],
              [
                106.194079,
                21.147163
              ],
              [
                106.195447,
                21.146251
              ],
              [
                106.195664,
                21.146105
              ],
              [
                106.195669,
                21.146102
              ],
              [
                106.196077,
                21.145825
              ],
              [
                106.196421,
                21.145606
              ],
              [
                106.195998,
                21.144795
              ],
              [
                106.197066,
                21.144244
              ],
              [
                106.195926,
                21.141715
              ],
              [
                106.195922,
                21.141702
              ],
              [
                106.195917,
                21.141686
              ],
              [
                106.195914,
                21.141677
              ],
              [
                106.195911,
                21.141669
              ],
              [
                106.19591,
                21.141665
              ],
              [
                106.195906,
                21.141657
              ],
              [
                106.195903,
                21.141648
              ],
              [
                106.195897,
                21.141636
              ],
              [
                106.195816,
                21.141451
              ],
              [
                106.196101,
                21.141388
              ],
              [
                106.196188,
                21.141088
              ],
              [
                106.196068,
                21.140891
              ],
              [
                106.196231,
                21.140716
              ],
              [
                106.196241,
                21.140725
              ],
              [
                106.196247,
                21.140731
              ],
              [
                106.19625,
                21.140734
              ],
              [
                106.196257,
                21.14074
              ],
              [
                106.19626,
                21.140743
              ],
              [
                106.196263,
                21.140745
              ],
              [
                106.196267,
                21.140748
              ],
              [
                106.19627,
                21.14075
              ],
              [
                106.196274,
                21.140752
              ],
              [
                106.196278,
                21.140754
              ],
              [
                106.196283,
                21.140756
              ],
              [
                106.196287,
                21.140757
              ],
              [
                106.196291,
                21.140759
              ],
              [
                106.196295,
                21.14076
              ],
              [
                106.1963,
                21.140761
              ],
              [
                106.196304,
                21.140761
              ],
              [
                106.196308,
                21.140762
              ],
              [
                106.196312,
                21.140762
              ],
              [
                106.196316,
                21.140762
              ],
              [
                106.19632,
                21.140761
              ],
              [
                106.196323,
                21.14076
              ],
              [
                106.196326,
                21.140759
              ],
              [
                106.196329,
                21.140758
              ],
              [
                106.196332,
                21.140755
              ],
              [
                106.196335,
                21.140753
              ],
              [
                106.196337,
                21.14075
              ],
              [
                106.19634,
                21.140747
              ],
              [
                106.196342,
                21.140743
              ],
              [
                106.196344,
                21.14074
              ],
              [
                106.196346,
                21.140736
              ],
              [
                106.196348,
                21.140733
              ],
              [
                106.19635,
                21.140729
              ],
              [
                106.196352,
                21.140725
              ],
              [
                106.196354,
                21.140721
              ],
              [
                106.196355,
                21.140717
              ],
              [
                106.196358,
                21.140708
              ],
              [
                106.196377,
                21.140649
              ],
              [
                106.196393,
                21.140599
              ],
              [
                106.196402,
                21.140569
              ],
              [
                106.196433,
                21.140476
              ],
              [
                106.196456,
                21.140409
              ],
              [
                106.196458,
                21.1404
              ],
              [
                106.196462,
                21.140388
              ],
              [
                106.196464,
                21.14038
              ],
              [
                106.196466,
                21.140372
              ],
              [
                106.196467,
                21.140367
              ],
              [
                106.196468,
                21.140363
              ],
              [
                106.196469,
                21.140359
              ],
              [
                106.196469,
                21.140355
              ],
              [
                106.196469,
                21.140351
              ],
              [
                106.196469,
                21.140347
              ],
              [
                106.196468,
                21.140343
              ],
              [
                106.196467,
                21.140339
              ],
              [
                106.196465,
                21.140335
              ],
              [
                106.196464,
                21.140332
              ],
              [
                106.196461,
                21.140329
              ],
              [
                106.196459,
                21.140326
              ],
              [
                106.196456,
                21.140323
              ],
              [
                106.196453,
                21.14032
              ],
              [
                106.19645,
                21.140317
              ],
              [
                106.196447,
                21.140315
              ],
              [
                106.196443,
                21.140312
              ],
              [
                106.19644,
                21.14031
              ],
              [
                106.196436,
                21.140308
              ],
              [
                106.196432,
                21.140306
              ],
              [
                106.196424,
                21.140302
              ],
              [
                106.196403,
                21.140292
              ],
              [
                106.196387,
                21.140284
              ],
              [
                106.196379,
                21.14028
              ],
              [
                106.196375,
                21.140278
              ],
              [
                106.196357,
                21.140271
              ],
              [
                106.196321,
                21.140256
              ],
              [
                106.196297,
                21.140246
              ],
              [
                106.196241,
                21.140223
              ],
              [
                106.196223,
                21.140216
              ],
              [
                106.196214,
                21.140213
              ],
              [
                106.19621,
                21.140211
              ],
              [
                106.196206,
                21.14021
              ],
              [
                106.196197,
                21.140207
              ],
              [
                106.196179,
                21.140202
              ],
              [
                106.19617,
                21.140199
              ],
              [
                106.196161,
                21.140197
              ],
              [
                106.196144,
                21.140191
              ],
              [
                106.19614,
                21.140189
              ],
              [
                106.196136,
                21.140188
              ],
              [
                106.196132,
                21.140187
              ],
              [
                106.196127,
                21.140186
              ],
              [
                106.196123,
                21.140186
              ],
              [
                106.196118,
                21.140185
              ],
              [
                106.195674,
                21.140095
              ],
              [
                106.195672,
                21.140099
              ],
              [
                106.195669,
                21.140107
              ],
              [
                106.195661,
                21.140126
              ],
              [
                106.195658,
                21.140134
              ],
              [
                106.195657,
                21.140135
              ],
              [
                106.195656,
                21.140138
              ],
              [
                106.195654,
                21.140142
              ],
              [
                106.195652,
                21.140146
              ],
              [
                106.19565,
                21.140149
              ],
              [
                106.195646,
                21.140157
              ],
              [
                106.195641,
                21.140164
              ],
              [
                106.195634,
                21.140176
              ],
              [
                106.195627,
                21.140187
              ],
              [
                106.19562,
                21.140198
              ],
              [
                106.195617,
                21.140201
              ],
              [
                106.195612,
                21.140209
              ],
              [
                106.195607,
                21.140216
              ],
              [
                106.195595,
                21.140231
              ],
              [
                106.195555,
                21.140281
              ],
              [
                106.195507,
                21.140342
              ],
              [
                106.195499,
                21.140353
              ],
              [
                106.195493,
                21.14036
              ],
              [
                106.195487,
                21.140367
              ],
              [
                106.195484,
                21.140371
              ],
              [
                106.195474,
                21.140381
              ],
              [
                106.195455,
                21.140401
              ],
              [
                106.195423,
                21.140435
              ],
              [
                106.195416,
                21.140442
              ],
              [
                106.195413,
                21.140445
              ],
              [
                106.19541,
                21.140448
              ],
              [
                106.195177,
                21.139868
              ],
              [
                106.195064,
                21.139482
              ],
              [
                106.195063,
                21.139477
              ],
              [
                106.195045,
                21.139318
              ],
              [
                106.195013,
                21.139034
              ],
              [
                106.19484,
                21.138751
              ],
              [
                106.194805,
                21.138693
              ],
              [
                106.194792,
                21.138646
              ],
              [
                106.194761,
                21.13867
              ],
              [
                106.194639,
                21.138724
              ],
              [
                106.194629,
                21.138729
              ],
              [
                106.194475,
                21.13878
              ],
              [
                106.19434,
                21.138836
              ],
              [
                106.19428,
                21.138862
              ],
              [
                106.194083,
                21.138947
              ],
              [
                106.193966,
                21.138974
              ],
              [
                106.193894,
                21.138972
              ],
              [
                106.193825,
                21.138961
              ],
              [
                106.193785,
                21.13894
              ],
              [
                106.193748,
                21.138911
              ],
              [
                106.19373,
                21.138882
              ],
              [
                106.193717,
                21.138845
              ],
              [
                106.193703,
                21.138805
              ],
              [
                106.193675,
                21.138641
              ],
              [
                106.19366,
                21.138482
              ],
              [
                106.193661,
                21.138372
              ],
              [
                106.193661,
                21.138337
              ],
              [
                106.193656,
                21.138212
              ],
              [
                106.193651,
                21.138183
              ],
              [
                106.193622,
                21.137997
              ],
              [
                106.193589,
                21.137844
              ],
              [
                106.193504,
                21.137689
              ],
              [
                106.193386,
                21.137516
              ],
              [
                106.193369,
                21.137492
              ],
              [
                106.193223,
                21.137303
              ],
              [
                106.19312,
                21.137179
              ],
              [
                106.193105,
                21.137161
              ],
              [
                106.193058,
                21.137112
              ],
              [
                106.193021,
                21.137073
              ],
              [
                106.192998,
                21.137055
              ],
              [
                106.192904,
                21.136984
              ],
              [
                106.192772,
                21.136904
              ],
              [
                106.192688,
                21.13687
              ],
              [
                106.192622,
                21.136857
              ],
              [
                106.192536,
                21.136847
              ],
              [
                106.192391,
                21.136844
              ],
              [
                106.192338,
                21.13685
              ],
              [
                106.192163,
                21.136871
              ],
              [
                106.192042,
                21.136889
              ],
              [
                106.192041,
                21.136889
              ],
              [
                106.191981,
                21.136885
              ],
              [
                106.191912,
                21.136861
              ],
              [
                106.191904,
                21.136857
              ],
              [
                106.191874,
                21.136845
              ],
              [
                106.191809,
                21.136815
              ],
              [
                106.191731,
                21.136786
              ],
              [
                106.191658,
                21.136778
              ],
              [
                106.191549,
                21.136775
              ],
              [
                106.191415,
                21.136792
              ],
              [
                106.191289,
                21.136832
              ],
              [
                106.191268,
                21.136842
              ],
              [
                106.191225,
                21.136862
              ],
              [
                106.191175,
                21.136897
              ],
              [
                106.191171,
                21.136899
              ],
              [
                106.191117,
                21.136936
              ],
              [
                106.191086,
                21.136954
              ],
              [
                106.191061,
                21.136973
              ],
              [
                106.190907,
                21.137049
              ],
              [
                106.19077,
                21.137083
              ],
              [
                106.190747,
                21.137089
              ],
              [
                106.190528,
                21.137123
              ],
              [
                106.190257,
                21.137167
              ],
              [
                106.190057,
                21.137165
              ],
              [
                106.189969,
                21.137146
              ],
              [
                106.189859,
                21.137078
              ],
              [
                106.189746,
                21.137008
              ],
              [
                106.189661,
                21.136964
              ],
              [
                106.189592,
                21.13694
              ],
              [
                106.189489,
                21.136922
              ],
              [
                106.189396,
                21.1369
              ],
              [
                106.189291,
                21.136866
              ],
              [
                106.189132,
                21.136773
              ],
              [
                106.188932,
                21.13668
              ],
              [
                106.188814,
                21.136643
              ],
              [
                106.188727,
                21.136632
              ],
              [
                106.18868,
                21.136634
              ],
              [
                106.188619,
                21.136647
              ],
              [
                106.188561,
                21.136671
              ],
              [
                106.188551,
                21.136675
              ],
              [
                106.188356,
                21.136734
              ],
              [
                106.188104,
                21.136787
              ],
              [
                106.187965,
                21.13679
              ],
              [
                106.187811,
                21.136764
              ],
              [
                106.18763,
                21.136717
              ],
              [
                106.187592,
                21.136708
              ],
              [
                106.187279,
                21.136601
              ],
              [
                106.187133,
                21.136551
              ],
              [
                106.187077,
                21.136543
              ],
              [
                106.186974,
                21.136536
              ],
              [
                106.186799,
                21.136539
              ],
              [
                106.186652,
                21.136534
              ],
              [
                106.186575,
                21.136512
              ],
              [
                106.186431,
                21.13644
              ],
              [
                106.186289,
                21.136314
              ],
              [
                106.186212,
                21.136265
              ],
              [
                106.18612,
                21.136227
              ],
              [
                106.186047,
                21.136197
              ],
              [
                106.185965,
                21.136145
              ],
              [
                106.185948,
                21.136135
              ],
              [
                106.185658,
                21.135932
              ],
              [
                106.185332,
                21.135686
              ],
              [
                106.185011,
                21.1355
              ],
              [
                106.184747,
                21.135364
              ],
              [
                106.184599,
                21.135314
              ],
              [
                106.184401,
                21.135291
              ],
              [
                106.184302,
                21.135267
              ],
              [
                106.184228,
                21.135236
              ],
              [
                106.184167,
                21.13519
              ],
              [
                106.184062,
                21.135077
              ],
              [
                106.183917,
                21.135165
              ],
              [
                106.183879,
                21.135124
              ],
              [
                106.18386,
                21.135104
              ],
              [
                106.183774,
                21.135014
              ],
              [
                106.18374,
                21.134985
              ],
              [
                106.183735,
                21.134981
              ],
              [
                106.183517,
                21.134785
              ],
              [
                106.183443,
                21.134718
              ],
              [
                106.18325,
                21.134525
              ],
              [
                106.183227,
                21.1345
              ],
              [
                106.183193,
                21.134463
              ],
              [
                106.18308,
                21.13436
              ],
              [
                106.183037,
                21.134321
              ],
              [
                106.182924,
                21.134208
              ],
              [
                106.182921,
                21.134204
              ],
              [
                106.182895,
                21.134178
              ],
              [
                106.182811,
                21.134087
              ],
              [
                106.182733,
                21.133973
              ],
              [
                106.182708,
                21.133907
              ],
              [
                106.182678,
                21.133796
              ],
              [
                106.182532,
                21.133465
              ],
              [
                106.182405,
                21.133215
              ],
              [
                106.182291,
                21.133033
              ],
              [
                106.182251,
                21.132953
              ],
              [
                106.182226,
                21.132885
              ],
              [
                106.181371,
                21.132302
              ],
              [
                106.181289,
                21.132325
              ],
              [
                106.181194,
                21.132351
              ],
              [
                106.181112,
                21.132374
              ],
              [
                106.180945,
                21.13242
              ],
              [
                106.180913,
                21.132427
              ],
              [
                106.180595,
                21.132491
              ],
              [
                106.18058,
                21.132384
              ],
              [
                106.180353,
                21.132437
              ],
              [
                106.180269,
                21.132164
              ],
              [
                106.180194,
                21.132177
              ],
              [
                106.180149,
                21.131954
              ],
              [
                106.180063,
                21.131788
              ],
              [
                106.180072,
                21.131578
              ],
              [
                106.179661,
                21.131523
              ],
              [
                106.179657,
                21.131525
              ],
              [
                106.179653,
                21.131526
              ],
              [
                106.179648,
                21.131526
              ],
              [
                106.179644,
                21.131527
              ],
              [
                106.179639,
                21.131527
              ],
              [
                106.17963,
                21.131528
              ],
              [
                106.179621,
                21.131528
              ],
              [
                106.179607,
                21.131529
              ],
              [
                106.179598,
                21.131529
              ],
              [
                106.179593,
                21.131529
              ],
              [
                106.179588,
                21.131529
              ],
              [
                106.179579,
                21.131528
              ],
              [
                106.17956,
                21.131527
              ],
              [
                106.179433,
                21.131517
              ],
              [
                106.179419,
                21.131516
              ],
              [
                106.179357,
                21.13151
              ],
              [
                106.179348,
                21.131509
              ],
              [
                106.179338,
                21.131508
              ],
              [
                106.179334,
                21.131507
              ],
              [
                106.179329,
                21.131506
              ],
              [
                106.179324,
                21.131506
              ],
              [
                106.17932,
                21.131505
              ],
              [
                106.179316,
                21.131504
              ],
              [
                106.179311,
                21.131503
              ],
              [
                106.179307,
                21.131502
              ],
              [
                106.179303,
                21.1315
              ],
              [
                106.179299,
                21.131499
              ],
              [
                106.179295,
                21.131497
              ],
              [
                106.179291,
                21.131495
              ],
              [
                106.179288,
                21.131492
              ],
              [
                106.179285,
                21.13149
              ],
              [
                106.179282,
                21.131487
              ],
              [
                106.17928,
                21.131484
              ],
              [
                106.179278,
                21.13148
              ],
              [
                106.179276,
                21.131477
              ],
              [
                106.179275,
                21.131473
              ],
              [
                106.179274,
                21.131469
              ],
              [
                106.179273,
                21.131465
              ],
              [
                106.179273,
                21.131461
              ],
              [
                106.179273,
                21.131456
              ],
              [
                106.179273,
                21.131452
              ],
              [
                106.179273,
                21.131444
              ],
              [
                106.179273,
                21.131431
              ],
              [
                106.179274,
                21.131426
              ],
              [
                106.179274,
                21.131422
              ],
              [
                106.179274,
                21.131418
              ],
              [
                106.179275,
                21.131414
              ],
              [
                106.179275,
                21.13141
              ],
              [
                106.179276,
                21.131405
              ],
              [
                106.179278,
                21.131397
              ],
              [
                106.179282,
                21.131379
              ],
              [
                106.179292,
                21.131336
              ],
              [
                106.179298,
                21.131311
              ],
              [
                106.17931,
                21.131259
              ],
              [
                106.179576,
                21.130426
              ],
              [
                106.179673,
                21.129949
              ],
              [
                106.179583,
                21.129726
              ],
              [
                106.179553,
                21.129194
              ],
              [
                106.179368,
                21.12925
              ],
              [
                106.179392,
                21.130376
              ],
              [
                106.178751,
                21.130201
              ],
              [
                106.178,
                21.129996
              ],
              [
                106.177573,
                21.12988
              ],
              [
                106.177365,
                21.129823
              ],
              [
                106.177281,
                21.130657
              ],
              [
                106.177188,
                21.131512
              ],
              [
                106.177406,
                21.132811
              ],
              [
                106.177331,
                21.132988
              ],
              [
                106.177349,
                21.133027
              ],
              [
                106.177169,
                21.133142
              ],
              [
                106.176593,
                21.133394
              ],
              [
                106.176102,
                21.133601
              ],
              [
                106.175713,
                21.133022
              ],
              [
                106.17528,
                21.133028
              ],
              [
                106.175436,
                21.133706
              ],
              [
                106.174233,
                21.133925
              ],
              [
                106.174186,
                21.133849
              ],
              [
                106.174017,
                21.133923
              ],
              [
                106.173859,
                21.133947
              ],
              [
                106.173832,
                21.134404
              ],
              [
                106.173334,
                21.135257
              ],
              [
                106.170299,
                21.134814
              ],
              [
                106.170025,
                21.134765
              ],
              [
                106.169965,
                21.134755
              ],
              [
                106.169332,
                21.13531
              ],
              [
                106.168983,
                21.13562
              ],
              [
                106.168509,
                21.136041
              ],
              [
                106.168335,
                21.136195
              ],
              [
                106.168298,
                21.136229
              ],
              [
                106.167002,
                21.137382
              ],
              [
                106.166902,
                21.137468
              ],
              [
                106.164596,
                21.137132
              ],
              [
                106.164268,
                21.137094
              ],
              [
                106.164095,
                21.137861
              ],
              [
                106.163086,
                21.137735
              ],
              [
                106.162952,
                21.13772
              ],
              [
                106.162817,
                21.1377
              ],
              [
                106.162785,
                21.137696
              ],
              [
                106.162662,
                21.137678
              ],
              [
                106.161469,
                21.137489
              ],
              [
                106.161662,
                21.13635
              ],
              [
                106.160116,
                21.136188
              ],
              [
                106.159583,
                21.136158
              ],
              [
                106.158986,
                21.136109
              ],
              [
                106.158626,
                21.136085
              ],
              [
                106.158562,
                21.136093
              ],
              [
                106.158538,
                21.136103
              ],
              [
                106.158526,
                21.136141
              ],
              [
                106.158472,
                21.136593
              ],
              [
                106.15844,
                21.137073
              ],
              [
                106.158364,
                21.137814
              ],
              [
                106.158256,
                21.138889
              ],
              [
                106.158255,
                21.139008
              ],
              [
                106.158175,
                21.139765
              ],
              [
                106.158138,
                21.13977
              ],
              [
                106.15811,
                21.139774
              ],
              [
                106.158077,
                21.139778
              ],
              [
                106.158059,
                21.139781
              ],
              [
                106.158031,
                21.139785
              ],
              [
                106.158022,
                21.139787
              ],
              [
                106.158017,
                21.139788
              ],
              [
                106.158012,
                21.139789
              ],
              [
                106.158008,
                21.13979
              ],
              [
                106.158003,
                21.139791
              ],
              [
                106.157999,
                21.139792
              ],
              [
                106.157995,
                21.139793
              ],
              [
                106.15799,
                21.139795
              ],
              [
                106.157986,
                21.139797
              ],
              [
                106.157982,
                21.139798
              ],
              [
                106.157978,
                21.1398
              ],
              [
                106.157974,
                21.139803
              ],
              [
                106.157971,
                21.139805
              ],
              [
                106.157968,
                21.139808
              ],
              [
                106.157965,
                21.139812
              ],
              [
                106.157962,
                21.139815
              ],
              [
                106.157959,
                21.139819
              ],
              [
                106.157957,
                21.139822
              ],
              [
                106.157955,
                21.139826
              ],
              [
                106.157953,
                21.13983
              ],
              [
                106.157951,
                21.139834
              ],
              [
                106.15795,
                21.139838
              ],
              [
                106.157949,
                21.139842
              ],
              [
                106.157948,
                21.139846
              ],
              [
                106.157947,
                21.13985
              ],
              [
                106.157947,
                21.139855
              ],
              [
                106.157945,
                21.139863
              ],
              [
                106.157944,
                21.139876
              ],
              [
                106.157943,
                21.139885
              ],
              [
                106.157943,
                21.139889
              ],
              [
                106.157942,
                21.139898
              ],
              [
                106.157942,
                21.139907
              ],
              [
                106.157941,
                21.140006
              ],
              [
                106.157941,
                21.140019
              ],
              [
                106.157942,
                21.140033
              ],
              [
                106.157942,
                21.140055
              ],
              [
                106.157953,
                21.140323
              ],
              [
                106.157953,
                21.140336
              ],
              [
                106.157954,
                21.140345
              ],
              [
                106.157955,
                21.140358
              ],
              [
                106.157956,
                21.140376
              ],
              [
                106.157959,
                21.140403
              ],
              [
                106.15796,
                21.140413
              ],
              [
                106.157965,
                21.140423
              ],
              [
                106.157989,
                21.140456
              ],
              [
                106.157978,
                21.140484
              ],
              [
                106.15798,
                21.140487
              ],
              [
                106.157983,
                21.140489
              ],
              [
                106.157987,
                21.140491
              ],
              [
                106.15799,
                21.140492
              ],
              [
                106.157993,
                21.140493
              ],
              [
                106.157996,
                21.140494
              ],
              [
                106.158,
                21.140493
              ],
              [
                106.158004,
                21.140492
              ],
              [
                106.158007,
                21.140491
              ],
              [
                106.158011,
                21.140489
              ],
              [
                106.158012,
                21.140488
              ],
              [
                106.158014,
                21.14049
              ],
              [
                106.157941,
                21.140692
              ],
              [
                106.157937,
                21.140704
              ],
              [
                106.157864,
                21.140943
              ],
              [
                106.157763,
                21.14118
              ],
              [
                106.157743,
                21.141205
              ],
              [
                106.157732,
                21.141219
              ],
              [
                106.157722,
                21.141294
              ],
              [
                106.157707,
                21.141385
              ],
              [
                106.157545,
                21.141361
              ],
              [
                106.157338,
                21.141317
              ],
              [
                106.157178,
                21.141282
              ],
              [
                106.15717,
                21.141366
              ],
              [
                106.157123,
                21.141857
              ],
              [
                106.157123,
                21.141857
              ],
              [
                106.15712,
                21.141855
              ],
              [
                106.157117,
                21.141852
              ],
              [
                106.157113,
                21.14185
              ],
              [
                106.157109,
                21.141847
              ],
              [
                106.157105,
                21.141845
              ],
              [
                106.157101,
                21.141843
              ],
              [
                106.157093,
                21.14184
              ],
              [
                106.157075,
                21.141833
              ],
              [
                106.157062,
                21.141828
              ],
              [
                106.157053,
                21.141825
              ],
              [
                106.157049,
                21.141823
              ],
              [
                106.157044,
                21.141822
              ],
              [
                106.157035,
                21.14182
              ],
              [
                106.157027,
                21.141817
              ],
              [
                106.156991,
                21.141809
              ],
              [
                106.156977,
                21.141806
              ],
              [
                106.156969,
                21.141804
              ],
              [
                106.156964,
                21.141802
              ],
              [
                106.156956,
                21.1418
              ],
              [
                106.156948,
                21.141797
              ],
              [
                106.156944,
                21.141795
              ],
              [
                106.156939,
                21.141794
              ],
              [
                106.156936,
                21.141792
              ],
              [
                106.156932,
                21.14179
              ],
              [
                106.156928,
                21.141789
              ],
              [
                106.156924,
                21.141786
              ],
              [
                106.156921,
                21.141784
              ],
              [
                106.156918,
                21.141781
              ],
              [
                106.156915,
                21.141778
              ],
              [
                106.156913,
                21.141775
              ],
              [
                106.15691,
                21.141772
              ],
              [
                106.156908,
                21.141769
              ],
              [
                106.156905,
                21.141765
              ],
              [
                106.156903,
                21.141762
              ],
              [
                106.156901,
                21.141758
              ],
              [
                106.156899,
                21.141754
              ],
              [
                106.156895,
                21.141746
              ],
              [
                106.156889,
                21.141734
              ],
              [
                106.156878,
                21.141709
              ],
              [
                106.156873,
                21.141697
              ],
              [
                106.156869,
                21.141689
              ],
              [
                106.156868,
                21.141685
              ],
              [
                106.156866,
                21.14168
              ],
              [
                106.156865,
                21.141676
              ],
              [
                106.156862,
                21.141668
              ],
              [
                106.15686,
                21.14166
              ],
              [
                106.156857,
                21.141647
              ],
              [
                106.156854,
                21.141635
              ],
              [
                106.156853,
                21.141626
              ],
              [
                106.156852,
                21.141622
              ],
              [
                106.156851,
                21.141618
              ],
              [
                106.156851,
                21.141614
              ],
              [
                106.15685,
                21.141609
              ],
              [
                106.15685,
                21.141605
              ],
              [
                106.15685,
                21.141601
              ],
              [
                106.15685,
                21.141592
              ],
              [
                106.156851,
                21.141579
              ],
              [
                106.156852,
                21.141561
              ],
              [
                106.156853,
                21.141552
              ],
              [
                106.156854,
                21.141544
              ],
              [
                106.156855,
                21.141535
              ],
              [
                106.156856,
                21.141526
              ],
              [
                106.156859,
                21.141508
              ],
              [
                106.156862,
                21.141495
              ],
              [
                106.156812,
                21.141473
              ],
              [
                106.156567,
                21.141357
              ],
              [
                106.156453,
                21.141495
              ],
              [
                106.156182,
                21.141697
              ],
              [
                106.156089,
                21.141744
              ],
              [
                106.154565,
                21.142485
              ],
              [
                106.154284,
                21.142588
              ],
              [
                106.154252,
                21.142373
              ],
              [
                106.154128,
                21.141136
              ],
              [
                106.153043,
                21.141159
              ],
              [
                106.153043,
                21.141159
              ],
              [
                106.152667,
                21.14286
              ],
              [
                106.152643,
                21.142967
              ],
              [
                106.152402,
                21.144054
              ],
              [
                106.152327,
                21.144393
              ],
              [
                106.152299,
                21.144521
              ],
              [
                106.15212,
                21.145459
              ],
              [
                106.152058,
                21.145785
              ],
              [
                106.152039,
                21.145932
              ],
              [
                106.151938,
                21.146709
              ],
              [
                106.151914,
                21.146901
              ],
              [
                106.151921,
                21.147334
              ],
              [
                106.151923,
                21.147456
              ],
              [
                106.151937,
                21.148293
              ],
              [
                106.15194,
                21.148453
              ],
              [
                106.151877,
                21.148826
              ],
              [
                106.151856,
                21.148872
              ],
              [
                106.151681,
                21.149253
              ],
              [
                106.15132,
                21.149899
              ],
              [
                106.151257,
                21.150013
              ],
              [
                106.151169,
                21.150169
              ],
              [
                106.15114,
                21.150221
              ],
              [
                106.14933,
                21.150483
              ],
              [
                106.148616,
                21.150603
              ],
              [
                106.148536,
                21.150621
              ],
              [
                106.148534,
                21.150621
              ],
              [
                106.148694,
                21.150994
              ],
              [
                106.148867,
                21.151419
              ],
              [
                106.148937,
                21.15159
              ],
              [
                106.14902,
                21.151784
              ],
              [
                106.148357,
                21.152043
              ],
              [
                106.146313,
                21.152782
              ],
              [
                106.146543,
                21.153211
              ],
              [
                106.146875,
                21.153722
              ],
              [
                106.146876,
                21.153727
              ],
              [
                106.146951,
                21.153917
              ],
              [
                106.146953,
                21.154056
              ],
              [
                106.147068,
                21.154289
              ],
              [
                106.147107,
                21.154368
              ],
              [
                106.147547,
                21.155257
              ],
              [
                106.14774,
                21.155624
              ],
              [
                106.148165,
                21.156452
              ],
              [
                106.148857,
                21.157826
              ],
              [
                106.148832,
                21.157986
              ],
              [
                106.14852,
                21.159946
              ],
              [
                106.148128,
                21.162185
              ],
              [
                106.148127,
                21.162188
              ],
              [
                106.147118,
                21.162158
              ],
              [
                106.147072,
                21.162156
              ],
              [
                106.147169,
                21.162478
              ],
              [
                106.147348,
                21.162784
              ],
              [
                106.147524,
                21.162937
              ],
              [
                106.147829,
                21.163107
              ],
              [
                106.14797,
                21.163158
              ],
              [
                106.148797,
                21.163382
              ],
              [
                106.148942,
                21.163422
              ],
              [
                106.149601,
                21.163606
              ],
              [
                106.149601,
                21.163606
              ],
              [
                106.149601,
                21.163606
              ],
              [
                106.149673,
                21.163627
              ],
              [
                106.149632,
                21.163737
              ],
              [
                106.149623,
                21.163765
              ],
              [
                106.149612,
                21.163798
              ],
              [
                106.149583,
                21.163883
              ],
              [
                106.149486,
                21.164169
              ],
              [
                106.149113,
                21.165421
              ],
              [
                106.149051,
                21.165627
              ],
              [
                106.148784,
                21.166523
              ],
              [
                106.148456,
                21.16762
              ],
              [
                106.148328,
                21.168051
              ],
              [
                106.148314,
                21.168097
              ],
              [
                106.147989,
                21.169187
              ],
              [
                106.147943,
                21.16934
              ],
              [
                106.147942,
                21.169343
              ],
              [
                106.147804,
                21.169824
              ],
              [
                106.14784,
                21.169852
              ],
              [
                106.148074,
                21.170036
              ],
              [
                106.14857,
                21.170411
              ],
              [
                106.148655,
                21.170476
              ],
              [
                106.148703,
                21.170514
              ],
              [
                106.149225,
                21.170906
              ],
              [
                106.149887,
                21.171415
              ],
              [
                106.149924,
                21.171444
              ],
              [
                106.150175,
                21.171641
              ],
              [
                106.150539,
                21.171926
              ],
              [
                106.150783,
                21.172116
              ],
              [
                106.150976,
                21.172256
              ],
              [
                106.151323,
                21.17251
              ],
              [
                106.151348,
                21.172528
              ],
              [
                106.151352,
                21.172531
              ],
              [
                106.151918,
                21.172928
              ],
              [
                106.152037,
                21.173016
              ],
              [
                106.152829,
                21.173567
              ],
              [
                106.152905,
                21.17362
              ],
              [
                106.153218,
                21.173853
              ],
              [
                106.15387,
                21.174301
              ],
              [
                106.154465,
                21.174715
              ],
              [
                106.154703,
                21.174914
              ],
              [
                106.1548,
                21.174987
              ],
              [
                106.154887,
                21.17492
              ],
              [
                106.156833,
                21.174062
              ],
              [
                106.156842,
                21.174076
              ],
              [
                106.158704,
                21.176847
              ],
              [
                106.16001,
                21.175724
              ],
              [
                106.161171,
                21.176848
              ],
              [
                106.160895,
                21.177155
              ],
              [
                106.16101,
                21.17724
              ],
              [
                106.161044,
                21.177246
              ],
              [
                106.161081,
                21.177252
              ],
              [
                106.161144,
                21.17718
              ],
              [
                106.161151,
                21.177171
              ],
              [
                106.161431,
                21.176848
              ],
              [
                106.161592,
                21.176724
              ],
              [
                106.161636,
                21.176682
              ],
              [
                106.161826,
                21.176499
              ],
              [
                106.162028,
                21.176737
              ],
              [
                106.16217,
                21.176577
              ],
              [
                106.162393,
                21.176753
              ],
              [
                106.162331,
                21.176892
              ],
              [
                106.162336,
                21.176892
              ],
              [
                106.16234,
                21.176893
              ],
              [
                106.162344,
                21.176895
              ],
              [
                106.162348,
                21.176897
              ],
              [
                106.162352,
                21.176899
              ],
              [
                106.162356,
                21.176901
              ],
              [
                106.16236,
                21.176904
              ],
              [
                106.162364,
                21.176907
              ],
              [
                106.162372,
                21.176913
              ],
              [
                106.162398,
                21.176933
              ],
              [
                106.1624,
                21.176934
              ],
              [
                106.162401,
                21.176935
              ],
              [
                106.162476,
                21.177006
              ],
              [
                106.162486,
                21.177015
              ],
              [
                106.162493,
                21.177021
              ],
              [
                106.162497,
                21.177024
              ],
              [
                106.162504,
                21.177029
              ],
              [
                106.162515,
                21.177037
              ],
              [
                106.16253,
                21.177048
              ],
              [
                106.162549,
                21.17706
              ],
              [
                106.162564,
                21.17707
              ],
              [
                106.162591,
                21.177087
              ],
              [
                106.162598,
                21.177092
              ],
              [
                106.162602,
                21.177094
              ],
              [
                106.162605,
                21.177097
              ],
              [
                106.162609,
                21.177099
              ],
              [
                106.162612,
                21.177102
              ],
              [
                106.162615,
                21.177104
              ],
              [
                106.162618,
                21.177107
              ],
              [
                106.162621,
                21.17711
              ],
              [
                106.162624,
                21.177114
              ],
              [
                106.162627,
                21.177117
              ],
              [
                106.16263,
                21.177121
              ],
              [
                106.162633,
                21.177125
              ],
              [
                106.162635,
                21.177128
              ],
              [
                106.16264,
                21.177136
              ],
              [
                106.162655,
                21.177159
              ],
              [
                106.16266,
                21.177165
              ],
              [
                106.162662,
                21.177169
              ],
              [
                106.162665,
                21.177172
              ],
              [
                106.162667,
                21.177175
              ],
              [
                106.16267,
                21.177178
              ],
              [
                106.162673,
                21.177181
              ],
              [
                106.162677,
                21.177184
              ],
              [
                106.16268,
                21.177187
              ],
              [
                106.162684,
                21.17719
              ],
              [
                106.162688,
                21.177192
              ],
              [
                106.162695,
                21.177198
              ],
              [
                106.162741,
                21.177229
              ],
              [
                106.162786,
                21.17726
              ],
              [
                106.162794,
                21.177265
              ],
              [
                106.162801,
                21.17727
              ],
              [
                106.162809,
                21.177275
              ],
              [
                106.162817,
                21.17728
              ],
              [
                106.162821,
                21.177282
              ],
              [
                106.162824,
                21.177284
              ],
              [
                106.162828,
                21.177286
              ],
              [
                106.162832,
                21.177288
              ],
              [
                106.162836,
                21.177289
              ],
              [
                106.16284,
                21.177291
              ],
              [
                106.162844,
                21.177292
              ],
              [
                106.162848,
                21.177293
              ],
              [
                106.162853,
                21.177294
              ],
              [
                106.162857,
                21.177295
              ],
              [
                106.162861,
                21.177295
              ],
              [
                106.162865,
                21.177295
              ],
              [
                106.162869,
                21.177295
              ],
              [
                106.162873,
                21.177295
              ],
              [
                106.162877,
                21.177294
              ],
              [
                106.162882,
                21.177293
              ],
              [
                106.162886,
                21.177291
              ],
              [
                106.16289,
                21.17729
              ],
              [
                106.162894,
                21.177288
              ],
              [
                106.162898,
                21.177287
              ],
              [
                106.162915,
                21.177279
              ],
              [
                106.162919,
                21.177277
              ],
              [
                106.162923,
                21.177275
              ],
              [
                106.162928,
                21.177273
              ],
              [
                106.162932,
                21.177272
              ],
              [
                106.162936,
                21.177271
              ],
              [
                106.16294,
                21.17727
              ],
              [
                106.162944,
                21.177269
              ],
              [
                106.162949,
                21.177269
              ],
              [
                106.162953,
                21.177269
              ],
              [
                106.162957,
                21.177269
              ],
              [
                106.162961,
                21.17727
              ],
              [
                106.162965,
                21.177271
              ],
              [
                106.162969,
                21.177273
              ],
              [
                106.162973,
                21.177275
              ],
              [
                106.162977,
                21.177277
              ],
              [
                106.162984,
                21.177282
              ],
              [
                106.162992,
                21.177286
              ],
              [
                106.163014,
                21.177301
              ],
              [
                106.163032,
                21.177313
              ],
              [
                106.163044,
                21.177321
              ],
              [
                106.16307,
                21.177339
              ],
              [
                106.163082,
                21.177346
              ],
              [
                106.16309,
                21.177351
              ],
              [
                106.163097,
                21.177356
              ],
              [
                106.163101,
                21.177358
              ],
              [
                106.163105,
                21.17736
              ],
              [
                106.163114,
                21.177364
              ],
              [
                106.163122,
                21.177368
              ],
              [
                106.163144,
                21.177377
              ],
              [
                106.163152,
                21.177381
              ],
              [
                106.163161,
                21.177385
              ],
              [
                106.163169,
                21.177389
              ],
              [
                106.163177,
                21.177393
              ],
              [
                106.163188,
                21.1774
              ],
              [
                106.163196,
                21.177404
              ],
              [
                106.163204,
                21.177409
              ],
              [
                106.163212,
                21.177413
              ],
              [
                106.163215,
                21.177416
              ],
              [
                106.163219,
                21.177418
              ],
              [
                106.163226,
                21.177423
              ],
              [
                106.163234,
                21.177429
              ],
              [
                106.163237,
                21.177431
              ],
              [
                106.163244,
                21.177437
              ],
              [
                106.163248,
                21.17744
              ],
              [
                106.163251,
                21.177443
              ],
              [
                106.163254,
                21.177446
              ],
              [
                106.16326,
                21.177452
              ],
              [
                106.163266,
                21.177459
              ],
              [
                106.163268,
                21.177462
              ],
              [
                106.163271,
                21.177465
              ],
              [
                106.163273,
                21.177469
              ],
              [
                106.163276,
                21.177473
              ],
              [
                106.163278,
                21.177476
              ],
              [
                106.16328,
                21.17748
              ],
              [
                106.163285,
                21.177488
              ],
              [
                106.163289,
                21.177496
              ],
              [
                106.163291,
                21.1775
              ],
              [
                106.163292,
                21.177504
              ],
              [
                106.163294,
                21.177508
              ],
              [
                106.163296,
                21.177512
              ],
              [
                106.163299,
                21.177521
              ],
              [
                106.16331,
                21.177554
              ],
              [
                106.163316,
                21.17757
              ],
              [
                106.16332,
                21.177582
              ],
              [
                106.163323,
                21.17759
              ],
              [
                106.163327,
                21.177598
              ],
              [
                106.163329,
                21.177602
              ],
              [
                106.163331,
                21.177606
              ],
              [
                106.163333,
                21.17761
              ],
              [
                106.163336,
                21.177613
              ],
              [
                106.163338,
                21.177617
              ],
              [
                106.163344,
                21.177625
              ],
              [
                106.16335,
                21.177632
              ],
              [
                106.163353,
                21.177635
              ],
              [
                106.163356,
                21.177638
              ],
              [
                106.163359,
                21.177642
              ],
              [
                106.163362,
                21.177645
              ],
              [
                106.163366,
                21.177648
              ],
              [
                106.163369,
                21.17765
              ],
              [
                106.163373,
                21.177653
              ],
              [
                106.16338,
                21.177657
              ],
              [
                106.163388,
                21.177662
              ],
              [
                106.163395,
                21.177667
              ],
              [
                106.163403,
                21.177671
              ],
              [
                106.16341,
                21.177675
              ],
              [
                106.163414,
                21.177677
              ],
              [
                106.163419,
                21.177679
              ],
              [
                106.163423,
                21.177681
              ],
              [
                106.163431,
                21.177685
              ],
              [
                106.163444,
                21.177691
              ],
              [
                106.163475,
                21.177704
              ],
              [
                106.163492,
                21.177711
              ],
              [
                106.1635,
                21.177715
              ],
              [
                106.163513,
                21.177722
              ],
              [
                106.163547,
                21.177739
              ],
              [
                106.16356,
                21.177745
              ],
              [
                106.163568,
                21.17775
              ],
              [
                106.163584,
                21.177759
              ],
              [
                106.163596,
                21.177766
              ],
              [
                106.163604,
                21.177771
              ],
              [
                106.163612,
                21.177776
              ],
              [
                106.163616,
                21.177778
              ],
              [
                106.163623,
                21.177783
              ],
              [
                106.163644,
                21.177799
              ],
              [
                106.163651,
                21.177804
              ],
              [
                106.163655,
                21.177807
              ],
              [
                106.163666,
                21.177814
              ],
              [
                106.163695,
                21.177834
              ],
              [
                106.163706,
                21.177842
              ],
              [
                106.163718,
                21.17785
              ],
              [
                106.163725,
                21.177856
              ],
              [
                106.163729,
                21.177859
              ],
              [
                106.163733,
                21.177861
              ],
              [
                106.163736,
                21.177865
              ],
              [
                106.163739,
                21.177868
              ],
              [
                106.163742,
                21.177871
              ],
              [
                106.163745,
                21.177874
              ],
              [
                106.163747,
                21.177877
              ],
              [
                106.163749,
                21.17788
              ],
              [
                106.163751,
                21.177883
              ],
              [
                106.164271,
                21.178491
              ],
              [
                106.165655,
                21.180276
              ],
              [
                106.165927,
                21.180542
              ],
              [
                106.167796,
                21.181931
              ],
              [
                106.168295,
                21.182318
              ],
              [
                106.168239,
                21.182346
              ],
              [
                106.168103,
                21.182412
              ],
              [
                106.16795,
                21.182585
              ],
              [
                106.167749,
                21.182855
              ],
              [
                106.167689,
                21.182946
              ],
              [
                106.167457,
                21.18328
              ],
              [
                106.167232,
                21.183679
              ],
              [
                106.167098,
                21.184
              ],
              [
                106.167,
                21.184313
              ],
              [
                106.166998,
                21.184543
              ],
              [
                106.167003,
                21.18463
              ],
              [
                106.16707,
                21.184863
              ],
              [
                106.167074,
                21.184917
              ],
              [
                106.167067,
                21.184974
              ],
              [
                106.167054,
                21.184999
              ],
              [
                106.168224,
                21.185639
              ],
              [
                106.168328,
                21.185403
              ],
              [
                106.16909,
                21.183784
              ],
              [
                106.169362,
                21.183303
              ],
              [
                106.17004,
                21.182307
              ],
              [
                106.170773,
                21.181477
              ],
              [
                106.171835,
                21.18049
              ],
              [
                106.172977,
                21.179849
              ],
              [
                106.175059,
                21.178854
              ],
              [
                106.177491,
                21.177499
              ],
              [
                106.177651,
                21.177429
              ],
              [
                106.178044,
                21.177254
              ],
              [
                106.178044,
                21.177254
              ]
            ]
          ]
        ]
      },
      "properties": {
        "code": "09247",
        "name": "Quế Võ",
        "nameEn": "Que Vo",
        "fullName": "Phường Quế Võ",
        "fullNameEn": "Que Vo Ward",
        "codeName": "que_vo",
        "postalCode": "16827",
        "postalCodePrefix": "",
        "gisServerId": "diaphanhanhchinhcapxa_2025.2178",
        "areaKm2": 23.51
      }
    }
  ]
}