{
  "type": "FeatureCollection",
  "bbox": [
    105.952377,
    21.124139,
    106.005569,
    21.166864
  ],
  "features": [
    {
      "type": "Feature",
      "id": "09370",
      "bbox": [
        105.952377,
        21.124139,
        106.005569,
        21.166864
      ],
      "geometry": {
        "type": "MultiPolygon",
        "coordinates": [
          [
            [
              [
                105.96642,
                21.164642
              ],
              [
                105.966846,
                21.163889
              ],
              [
                105.967194,
                21.163304
              ],
              [
                105.967339,
                21.162955
              ],
              [
                105.96739,
                21.162812
              ],
              [
                105.967633,
                21.162452
              ],
              [
                105.967854,
                21.162338
              ],
              [
                105.968101,
                21.162314
              ],
              [
                105.968677,
                21.162455
              ],
              [
                105.969395,
                21.162682
              ],
              [
                105.96943,
                21.162508
              ],
              [
                105.969438,
                21.162468
              ],
              [
                105.96946,
                21.162358
              ],
              [
                105.969499,
                21.162166
              ],
              [
                105.969671,
                21.162116
              ],
              [
                105.97025,
                21.161929
              ],
              [
                105.970978,
                21.161708
              ],
              [
                105.971559,
                21.161523
              ],
              [
                105.972174,
                21.161331
              ],
              [
                105.972185,
                21.161311
              ],
              [
                105.972226,
                21.161367
              ],
              [
                105.972275,
                21.161489
              ],
              [
                105.972303,
                21.161575
              ],
              [
                105.972355,
                21.161619
              ],
              [
                105.972396,
                21.161663
              ],
              [
                105.972614,
                21.161761
              ],
              [
                105.972995,
                21.161944
              ],
              [
                105.97338,
                21.162112
              ],
              [
                105.97373,
                21.162312
              ],
              [
                105.973821,
                21.162349
              ],
              [
                105.973912,
                21.16238
              ],
              [
                105.974259,
                21.16255
              ],
              [
                105.974528,
                21.16268
              ],
              [
                105.974533,
                21.162683
              ],
              [
                105.974649,
                21.162739
              ],
              [
                105.974698,
                21.162754
              ],
              [
                105.974803,
                21.162754
              ],
              [
                105.974915,
                21.162747
              ],
              [
                105.975063,
                21.162725
              ],
              [
                105.975167,
                21.162673
              ],
              [
                105.975229,
                21.162631
              ],
              [
                105.975273,
                21.162622
              ],
              [
                105.97539,
                21.16263
              ],
              [
                105.975563,
                21.16266
              ],
              [
                105.975641,
                21.16268
              ],
              [
                105.97565,
                21.162885
              ],
              [
                105.97567,
                21.1633
              ],
              [
                105.975688,
                21.163321
              ],
              [
                105.975722,
                21.163327
              ],
              [
                105.976228,
                21.163335
              ],
              [
                105.976508,
                21.163338
              ],
              [
                105.976563,
                21.163354
              ],
              [
                105.976652,
                21.163385
              ],
              [
                105.976702,
                21.163397
              ],
              [
                105.977085,
                21.163392
              ],
              [
                105.977116,
                21.163384
              ],
              [
                105.977547,
                21.16337
              ],
              [
                105.977789,
                21.1633
              ],
              [
                105.978078,
                21.163235
              ],
              [
                105.978467,
                21.163182
              ],
              [
                105.978753,
                21.163211
              ],
              [
                105.978956,
                21.163228
              ],
              [
                105.978985,
                21.16323
              ],
              [
                105.979122,
                21.163253
              ],
              [
                105.979298,
                21.163305
              ],
              [
                105.979437,
                21.163327
              ],
              [
                105.979818,
                21.163312
              ],
              [
                105.980064,
                21.163299
              ],
              [
                105.98013,
                21.16331
              ],
              [
                105.980619,
                21.163291
              ],
              [
                105.981018,
                21.163276
              ],
              [
                105.981711,
                21.163266
              ],
              [
                105.982207,
                21.163261
              ],
              [
                105.982269,
                21.163235
              ],
              [
                105.983472,
                21.16317
              ],
              [
                105.984507,
                21.163118
              ],
              [
                105.985164,
                21.163082
              ],
              [
                105.985274,
                21.16306
              ],
              [
                105.985244,
                21.162886
              ],
              [
                105.985399,
                21.162851
              ],
              [
                105.985569,
                21.162783
              ],
              [
                105.985616,
                21.162727
              ],
              [
                105.98564,
                21.162698
              ],
              [
                105.98574,
                21.162688
              ],
              [
                105.986186,
                21.162682
              ],
              [
                105.986323,
                21.162683
              ],
              [
                105.987695,
                21.162815
              ],
              [
                105.987716,
                21.162817
              ],
              [
                105.988293,
                21.162818
              ],
              [
                105.990186,
                21.162888
              ],
              [
                105.990228,
                21.162867
              ],
              [
                105.990254,
                21.162853
              ],
              [
                105.990249,
                21.162813
              ],
              [
                105.990244,
                21.162778
              ],
              [
                105.990146,
                21.162623
              ],
              [
                105.989906,
                21.162236
              ],
              [
                105.989568,
                21.161745
              ],
              [
                105.989535,
                21.161689
              ],
              [
                105.991062,
                21.16166
              ],
              [
                105.991203,
                21.162117
              ],
              [
                105.991678,
                21.162047
              ],
              [
                105.99331,
                21.161782
              ],
              [
                105.993553,
                21.161744
              ],
              [
                105.993673,
                21.161725
              ],
              [
                105.994039,
                21.161589
              ],
              [
                105.994058,
                21.161582
              ],
              [
                105.994366,
                21.161427
              ],
              [
                105.995689,
                21.16041
              ],
              [
                105.996111,
                21.160071
              ],
              [
                105.99617,
                21.159994
              ],
              [
                105.996191,
                21.159887
              ],
              [
                105.99615,
                21.15931
              ],
              [
                105.996167,
                21.159217
              ],
              [
                105.996282,
                21.159083
              ],
              [
                105.997276,
                21.158262
              ],
              [
                105.99736,
                21.158194
              ],
              [
                105.99882,
                21.157002
              ],
              [
                105.999512,
                21.156471
              ],
              [
                105.999566,
                21.156422
              ],
              [
                105.999603,
                21.156388
              ],
              [
                106.000175,
                21.156857
              ],
              [
                106.000223,
                21.156811
              ],
              [
                106.000238,
                21.1568
              ],
              [
                106.00025,
                21.156791
              ],
              [
                106.001553,
                21.155841
              ],
              [
                106.001821,
                21.155645
              ],
              [
                106.001876,
                21.15562
              ],
              [
                106.001877,
                21.15562
              ],
              [
                106.001923,
                21.1556
              ],
              [
                106.002317,
                21.15545
              ],
              [
                106.002342,
                21.155441
              ],
              [
                106.003177,
                21.155137
              ],
              [
                106.003536,
                21.155007
              ],
              [
                106.003568,
                21.154993
              ],
              [
                106.004957,
                21.154411
              ],
              [
                106.005246,
                21.154288
              ],
              [
                106.005296,
                21.154242
              ],
              [
                106.0053,
                21.154187
              ],
              [
                106.005296,
                21.15416
              ],
              [
                106.005285,
                21.154083
              ],
              [
                106.005276,
                21.154011
              ],
              [
                106.005138,
                21.152845
              ],
              [
                106.005105,
                21.152567
              ],
              [
                106.004994,
                21.151625
              ],
              [
                106.004957,
                21.151384
              ],
              [
                106.004941,
                21.151272
              ],
              [
                106.00484,
                21.150601
              ],
              [
                106.00484,
                21.150595
              ],
              [
                106.004839,
                21.150594
              ],
              [
                106.004829,
                21.150525
              ],
              [
                106.004823,
                21.150471
              ],
              [
                106.004836,
                21.150436
              ],
              [
                106.004887,
                21.150394
              ],
              [
                106.005224,
                21.150291
              ],
              [
                106.005515,
                21.15022
              ],
              [
                106.005566,
                21.15019
              ],
              [
                106.005569,
                21.150161
              ],
              [
                106.005524,
                21.149921
              ],
              [
                106.0055,
                21.149794
              ],
              [
                106.00549,
                21.149739
              ],
              [
                106.005479,
                21.149678
              ],
              [
                106.005447,
                21.149515
              ],
              [
                106.005386,
                21.149199
              ],
              [
                106.005286,
                21.148675
              ],
              [
                106.005284,
                21.148668
              ],
              [
                106.005259,
                21.148529
              ],
              [
                106.005219,
                21.148308
              ],
              [
                106.005206,
                21.148238
              ],
              [
                106.005169,
                21.148031
              ],
              [
                106.005154,
                21.147952
              ],
              [
                106.005109,
                21.147707
              ],
              [
                106.004782,
                21.145943
              ],
              [
                106.003511,
                21.146515
              ],
              [
                106.003309,
                21.146606
              ],
              [
                106.003027,
                21.146733
              ],
              [
                106.00299,
                21.146749
              ],
              [
                106.001915,
                21.147204
              ],
              [
                106.001877,
                21.147223
              ],
              [
                106.001877,
                21.147223
              ],
              [
                106.001876,
                21.147223
              ],
              [
                106.001845,
                21.147234
              ],
              [
                106.001563,
                21.147358
              ],
              [
                106.001125,
                21.147565
              ],
              [
                106.000706,
                21.147757
              ],
              [
                106.000169,
                21.145033
              ],
              [
                105.999208,
                21.145226
              ],
              [
                105.999131,
                21.144862
              ],
              [
                105.998962,
                21.144069
              ],
              [
                105.998787,
                21.14326
              ],
              [
                105.998655,
                21.142635
              ],
              [
                105.998589,
                21.142347
              ],
              [
                105.998597,
                21.142301
              ],
              [
                105.998638,
                21.142053
              ],
              [
                105.99866,
                21.141924
              ],
              [
                105.99772,
                21.14178
              ],
              [
                105.997745,
                21.141565
              ],
              [
                105.99776,
                21.141372
              ],
              [
                105.997762,
                21.141348
              ],
              [
                105.997769,
                21.140835
              ],
              [
                105.99815,
                21.140666
              ],
              [
                105.998402,
                21.140574
              ],
              [
                105.998524,
                21.140501
              ],
              [
                105.998702,
                21.140393
              ],
              [
                105.998817,
                21.140311
              ],
              [
                105.998838,
                21.140252
              ],
              [
                105.998821,
                21.140166
              ],
              [
                105.998786,
                21.140117
              ],
              [
                105.998684,
                21.140039
              ],
              [
                105.99866,
                21.139999
              ],
              [
                105.998659,
                21.139865
              ],
              [
                105.998686,
                21.139327
              ],
              [
                105.998868,
                21.13931
              ],
              [
                105.998972,
                21.138713
              ],
              [
                105.998993,
                21.138611
              ],
              [
                105.998999,
                21.138503
              ],
              [
                105.998664,
                21.138395
              ],
              [
                105.99836,
                21.138222
              ],
              [
                105.998547,
                21.137776
              ],
              [
                105.998605,
                21.13765
              ],
              [
                105.998654,
                21.137152
              ],
              [
                105.998707,
                21.136636
              ],
              [
                105.998786,
                21.136611
              ],
              [
                105.998842,
                21.136609
              ],
              [
                105.999005,
                21.136619
              ],
              [
                105.999112,
                21.136621
              ],
              [
                105.999159,
                21.136617
              ],
              [
                105.999246,
                21.13661
              ],
              [
                105.999305,
                21.136593
              ],
              [
                105.999361,
                21.136591
              ],
              [
                105.999453,
                21.136596
              ],
              [
                105.99954,
                21.136603
              ],
              [
                105.999572,
                21.136599
              ],
              [
                105.999522,
                21.13652
              ],
              [
                105.99927,
                21.136458
              ],
              [
                105.99905,
                21.136385
              ],
              [
                105.99891,
                21.136333
              ],
              [
                105.998832,
                21.136293
              ],
              [
                105.998704,
                21.136209
              ],
              [
                105.998483,
                21.136117
              ],
              [
                105.998286,
                21.136033
              ],
              [
                105.998244,
                21.136006
              ],
              [
                105.998223,
                21.13599
              ],
              [
                105.998332,
                21.135806
              ],
              [
                105.99766,
                21.13553
              ],
              [
                105.996838,
                21.135197
              ],
              [
                105.996154,
                21.13491
              ],
              [
                105.995988,
                21.13484
              ],
              [
                105.995999,
                21.134817
              ],
              [
                105.996153,
                21.134367
              ],
              [
                105.996202,
                21.134207
              ],
              [
                105.996246,
                21.134075
              ],
              [
                105.995972,
                21.133927
              ],
              [
                105.995725,
                21.133777
              ],
              [
                105.996013,
                21.133022
              ],
              [
                105.996024,
                21.132993
              ],
              [
                105.996084,
                21.132836
              ],
              [
                105.996157,
                21.132609
              ],
              [
                105.996065,
                21.132591
              ],
              [
                105.995437,
                21.132469
              ],
              [
                105.995477,
                21.132369
              ],
              [
                105.995756,
                21.131597
              ],
              [
                105.995782,
                21.131517
              ],
              [
                105.995914,
                21.131544
              ],
              [
                105.996479,
                21.131657
              ],
              [
                105.996479,
                21.131656
              ],
              [
                105.996489,
                21.131612
              ],
              [
                105.996578,
                21.131226
              ],
              [
                105.996872,
                21.129946
              ],
              [
                105.996982,
                21.129468
              ],
              [
                105.997079,
                21.129049
              ],
              [
                105.997099,
                21.128963
              ],
              [
                105.997099,
                21.128962
              ],
              [
                105.997208,
                21.128497
              ],
              [
                105.99737,
                21.127806
              ],
              [
                105.997437,
                21.127504
              ],
              [
                105.997585,
                21.126841
              ],
              [
                105.997823,
                21.125809
              ],
              [
                105.997851,
                21.125687
              ],
              [
                105.997849,
                21.125686
              ],
              [
                105.997849,
                21.125686
              ],
              [
                105.997601,
                21.125636
              ],
              [
                105.9961,
                21.125332
              ],
              [
                105.995725,
                21.125261
              ],
              [
                105.99518,
                21.125144
              ],
              [
                105.994294,
                21.124973
              ],
              [
                105.994127,
                21.124932
              ],
              [
                105.993458,
                21.1248
              ],
              [
                105.99324,
                21.124757
              ],
              [
                105.991061,
                21.124315
              ],
              [
                105.99046,
                21.124192
              ],
              [
                105.990443,
                21.124189
              ],
              [
                105.990201,
                21.124139
              ],
              [
                105.990174,
                21.124256
              ],
              [
                105.99015,
                21.124357
              ],
              [
                105.989414,
                21.127489
              ],
              [
                105.988922,
                21.129665
              ],
              [
                105.988818,
                21.130122
              ],
              [
                105.988028,
                21.129967
              ],
              [
                105.988028,
                21.129968
              ],
              [
                105.987999,
                21.130023
              ],
              [
                105.987992,
                21.130022
              ],
              [
                105.987117,
                21.131356
              ],
              [
                105.987075,
                21.13142
              ],
              [
                105.986341,
                21.131344
              ],
              [
                105.985752,
                21.131243
              ],
              [
                105.985136,
                21.131104
              ],
              [
                105.984929,
                21.131062
              ],
              [
                105.984647,
                21.130996
              ],
              [
                105.984421,
                21.131588
              ],
              [
                105.984398,
                21.131582
              ],
              [
                105.983974,
                21.13146
              ],
              [
                105.983397,
                21.131267
              ],
              [
                105.982542,
                21.13095
              ],
              [
                105.981969,
                21.130714
              ],
              [
                105.981453,
                21.130472
              ],
              [
                105.98143,
                21.130544
              ],
              [
                105.981269,
                21.131265
              ],
              [
                105.981093,
                21.132127
              ],
              [
                105.980994,
                21.132572
              ],
              [
                105.980914,
                21.132982
              ],
              [
                105.980911,
                21.133
              ],
              [
                105.980884,
                21.133149
              ],
              [
                105.980837,
                21.133407
              ],
              [
                105.980757,
                21.133796
              ],
              [
                105.980754,
                21.133812
              ],
              [
                105.980655,
                21.13429
              ],
              [
                105.980514,
                21.135037
              ],
              [
                105.980485,
                21.135083
              ],
              [
                105.980476,
                21.135097
              ],
              [
                105.980328,
                21.135794
              ],
              [
                105.980126,
                21.136671
              ],
              [
                105.979987,
                21.137335
              ],
              [
                105.979806,
                21.138297
              ],
              [
                105.979799,
                21.138331
              ],
              [
                105.97974,
                21.13877
              ],
              [
                105.978828,
                21.138508
              ],
              [
                105.978828,
                21.138562
              ],
              [
                105.978829,
                21.138609
              ],
              [
                105.978832,
                21.138711
              ],
              [
                105.978857,
                21.138797
              ],
              [
                105.978915,
                21.138909
              ],
              [
                105.979158,
                21.13928
              ],
              [
                105.979103,
                21.139303
              ],
              [
                105.978999,
                21.139358
              ],
              [
                105.978313,
                21.139655
              ],
              [
                105.978231,
                21.13969
              ],
              [
                105.976945,
                21.140252
              ],
              [
                105.976958,
                21.140374
              ],
              [
                105.976726,
                21.140419
              ],
              [
                105.976255,
                21.140537
              ],
              [
                105.974414,
                21.141003
              ],
              [
                105.974089,
                21.141074
              ],
              [
                105.973698,
                21.14114
              ],
              [
                105.973505,
                21.141178
              ],
              [
                105.973123,
                21.141303
              ],
              [
                105.972577,
                21.141434
              ],
              [
                105.972555,
                21.141439
              ],
              [
                105.972304,
                21.141502
              ],
              [
                105.972321,
                21.141453
              ],
              [
                105.972424,
                21.141131
              ],
              [
                105.972774,
                21.140042
              ],
              [
                105.972774,
                21.140042
              ],
              [
                105.972198,
                21.139904
              ],
              [
                105.97015,
                21.140297
              ],
              [
                105.969341,
                21.140451
              ],
              [
                105.968532,
                21.140605
              ],
              [
                105.967491,
                21.140775
              ],
              [
                105.967489,
                21.140951
              ],
              [
                105.967537,
                21.141618
              ],
              [
                105.967544,
                21.142329
              ],
              [
                105.966017,
                21.142017
              ],
              [
                105.964023,
                21.141607
              ],
              [
                105.963869,
                21.141575
              ],
              [
                105.961759,
                21.141153
              ],
              [
                105.96115,
                21.141032
              ],
              [
                105.96115,
                21.141032
              ],
              [
                105.960747,
                21.140933
              ],
              [
                105.960516,
                21.14166
              ],
              [
                105.960516,
                21.14166
              ],
              [
                105.960516,
                21.14166
              ],
              [
                105.960401,
                21.141621
              ],
              [
                105.959089,
                21.14126
              ],
              [
                105.958324,
                21.141035
              ],
              [
                105.958306,
                21.14103
              ],
              [
                105.957753,
                21.140885
              ],
              [
                105.957612,
                21.141306
              ],
              [
                105.957227,
                21.142406
              ],
              [
                105.957204,
                21.142519
              ],
              [
                105.957147,
                21.142695
              ],
              [
                105.956994,
                21.143159
              ],
              [
                105.956537,
                21.144505
              ],
              [
                105.956418,
                21.144861
              ],
              [
                105.956322,
                21.145149
              ],
              [
                105.95629,
                21.145242
              ],
              [
                105.95629,
                21.145242
              ],
              [
                105.956234,
                21.14541
              ],
              [
                105.95615,
                21.145658
              ],
              [
                105.95615,
                21.145658
              ],
              [
                105.955947,
                21.146308
              ],
              [
                105.955928,
                21.146367
              ],
              [
                105.955727,
                21.146998
              ],
              [
                105.95548,
                21.147738
              ],
              [
                105.955422,
                21.147924
              ],
              [
                105.955043,
                21.148046
              ],
              [
                105.954205,
                21.148359
              ],
              [
                105.953838,
                21.148407
              ],
              [
                105.953667,
                21.148464
              ],
              [
                105.952531,
                21.148648
              ],
              [
                105.952517,
                21.149445
              ],
              [
                105.952501,
                21.149721
              ],
              [
                105.952502,
                21.150031
              ],
              [
                105.952476,
                21.150371
              ],
              [
                105.952454,
                21.150732
              ],
              [
                105.952441,
                21.151042
              ],
              [
                105.95243,
                21.15133
              ],
              [
                105.952419,
                21.151582
              ],
              [
                105.952391,
                21.152004
              ],
              [
                105.952377,
                21.152632
              ],
              [
                105.952381,
                21.152812
              ],
              [
                105.952388,
                21.153215
              ],
              [
                105.952387,
                21.153252
              ],
              [
                105.952377,
                21.153278
              ],
              [
                105.952932,
                21.15324
              ],
              [
                105.952991,
                21.153235
              ],
              [
                105.952995,
                21.153262
              ],
              [
                105.953049,
                21.15353
              ],
              [
                105.953105,
                21.153828
              ],
              [
                105.953588,
                21.156327
              ],
              [
                105.953832,
                21.156316
              ],
              [
                105.954121,
                21.156359
              ],
              [
                105.954344,
                21.156392
              ],
              [
                105.955185,
                21.156518
              ],
              [
                105.956388,
                21.156696
              ],
              [
                105.957258,
                21.156836
              ],
              [
                105.957663,
                21.156902
              ],
              [
                105.957688,
                21.157632
              ],
              [
                105.957722,
                21.159729
              ],
              [
                105.957724,
                21.159814
              ],
              [
                105.957715,
                21.160239
              ],
              [
                105.957707,
                21.160645
              ],
              [
                105.95748,
                21.162852
              ],
              [
                105.957425,
                21.163394
              ],
              [
                105.957385,
                21.163779
              ],
              [
                105.95738,
                21.163857
              ],
              [
                105.957354,
                21.164227
              ],
              [
                105.957349,
                21.164292
              ],
              [
                105.957344,
                21.164366
              ],
              [
                105.957612,
                21.164365
              ],
              [
                105.958045,
                21.164336
              ],
              [
                105.958204,
                21.164348
              ],
              [
                105.95852,
                21.164459
              ],
              [
                105.95949,
                21.164946
              ],
              [
                105.960224,
                21.165351
              ],
              [
                105.960425,
                21.165464
              ],
              [
                105.960689,
                21.165614
              ],
              [
                105.961197,
                21.165901
              ],
              [
                105.961779,
                21.16638
              ],
              [
                105.962084,
                21.166548
              ],
              [
                105.962499,
                21.166708
              ],
              [
                105.963036,
                21.166855
              ],
              [
                105.963206,
                21.166864
              ],
              [
                105.963307,
                21.16685
              ],
              [
                105.963483,
                21.166826
              ],
              [
                105.963636,
                21.166739
              ],
              [
                105.96424,
                21.166305
              ],
              [
                105.964767,
                21.165939
              ],
              [
                105.965696,
                21.165396
              ],
              [
                105.96609,
                21.165073
              ],
              [
                105.96642,
                21.164642
              ],
              [
                105.96642,
                21.164642
              ]
            ]
          ]
        ]
      },
      "properties": {
        "code": "09370",
        "name": "Tam Sơn",
        "nameEn": "Tam Son",
        "fullName": "Phường Tam Sơn",
        "fullNameEn": "Tam Son Ward",
        "codeName": "tam_son",
        "postalCode": "16309",
        "postalCodePrefix": "",
        "gisServerId": "diaphanhanhchinhcapxa_2025.2187",
        "areaKm2": 14.11
      }
    }
  ]
}