{
  "type": "FeatureCollection",
  "bbox": [
    105.748108,
    19.816469,
    105.805999,
    19.877552
  ],
  "features": [
    {
      "type": "Feature",
      "id": "14758",
      "bbox": [
        105.748108,
        19.816469,
        105.805999,
        19.877552
      ],
      "geometry": {
        "type": "MultiPolygon",
        "coordinates": [
          [
            [
              [
                105.764818,
                19.826898
              ],
              [
                105.764967,
                19.827025
              ],
              [
                105.764939,
                19.827044
              ],
              [
                105.764613,
                19.827277
              ],
              [
                105.764681,
                19.827639
              ],
              [
                105.764366,
                19.827679
              ],
              [
                105.764004,
                19.827725
              ],
              [
                105.764018,
                19.827928
              ],
              [
                105.763895,
                19.827942
              ],
              [
                105.763732,
                19.828149
              ],
              [
                105.763647,
                19.828258
              ],
              [
                105.763622,
                19.82829
              ],
              [
                105.763416,
                19.828552
              ],
              [
                105.763419,
                19.829022
              ],
              [
                105.763425,
                19.83024
              ],
              [
                105.76231,
                19.830824
              ],
              [
                105.761881,
                19.830863
              ],
              [
                105.761361,
                19.831142
              ],
              [
                105.760766,
                19.831462
              ],
              [
                105.760297,
                19.831916
              ],
              [
                105.760394,
                19.832068
              ],
              [
                105.760518,
                19.832266
              ],
              [
                105.760307,
                19.832414
              ],
              [
                105.760284,
                19.83243
              ],
              [
                105.759754,
                19.83279
              ],
              [
                105.759255,
                19.833142
              ],
              [
                105.758599,
                19.833662
              ],
              [
                105.758725,
                19.834005
              ],
              [
                105.758737,
                19.834036
              ],
              [
                105.758127,
                19.834605
              ],
              [
                105.757697,
                19.835018
              ],
              [
                105.757503,
                19.835203
              ],
              [
                105.757285,
                19.835413
              ],
              [
                105.756906,
                19.835777
              ],
              [
                105.756784,
                19.835913
              ],
              [
                105.757712,
                19.836407
              ],
              [
                105.757948,
                19.836533
              ],
              [
                105.757359,
                19.837583
              ],
              [
                105.757819,
                19.837903
              ],
              [
                105.757334,
                19.838636
              ],
              [
                105.757282,
                19.838714
              ],
              [
                105.756697,
                19.838328
              ],
              [
                105.756696,
                19.838327
              ],
              [
                105.756695,
                19.838328
              ],
              [
                105.75636,
                19.838808
              ],
              [
                105.756118,
                19.839148
              ],
              [
                105.756118,
                19.839149
              ],
              [
                105.756098,
                19.839194
              ],
              [
                105.756521,
                19.839301
              ],
              [
                105.756634,
                19.839331
              ],
              [
                105.756611,
                19.839367
              ],
              [
                105.756498,
                19.839462
              ],
              [
                105.756371,
                19.839641
              ],
              [
                105.756343,
                19.839683
              ],
              [
                105.755959,
                19.840268
              ],
              [
                105.755415,
                19.840133
              ],
              [
                105.754745,
                19.83998
              ],
              [
                105.753993,
                19.839828
              ],
              [
                105.753258,
                19.839677
              ],
              [
                105.752295,
                19.840119
              ],
              [
                105.752111,
                19.84003
              ],
              [
                105.752082,
                19.840317
              ],
              [
                105.751863,
                19.840206
              ],
              [
                105.751861,
                19.840205
              ],
              [
                105.751691,
                19.840097
              ],
              [
                105.751474,
                19.840319
              ],
              [
                105.751445,
                19.840586
              ],
              [
                105.751038,
                19.840462
              ],
              [
                105.750841,
                19.840703
              ],
              [
                105.750579,
                19.840792
              ],
              [
                105.750327,
                19.840827
              ],
              [
                105.749928,
                19.840882
              ],
              [
                105.749462,
                19.840506
              ],
              [
                105.749149,
                19.840711
              ],
              [
                105.748704,
                19.840599
              ],
              [
                105.748558,
                19.841149
              ],
              [
                105.748294,
                19.841537
              ],
              [
                105.748108,
                19.841885
              ],
              [
                105.748116,
                19.841957
              ],
              [
                105.748122,
                19.842011
              ],
              [
                105.749897,
                19.844167
              ],
              [
                105.749862,
                19.844529
              ],
              [
                105.749889,
                19.844894
              ],
              [
                105.749884,
                19.845235
              ],
              [
                105.74986,
                19.845342
              ],
              [
                105.749614,
                19.845624
              ],
              [
                105.749414,
                19.845878
              ],
              [
                105.74933,
                19.845962
              ],
              [
                105.749263,
                19.846059
              ],
              [
                105.749203,
                19.84619
              ],
              [
                105.749118,
                19.846461
              ],
              [
                105.749084,
                19.846665
              ],
              [
                105.749044,
                19.846864
              ],
              [
                105.749008,
                19.846998
              ],
              [
                105.748959,
                19.847099
              ],
              [
                105.748878,
                19.847227
              ],
              [
                105.74876,
                19.847386
              ],
              [
                105.748682,
                19.847501
              ],
              [
                105.748656,
                19.847589
              ],
              [
                105.748638,
                19.847779
              ],
              [
                105.748706,
                19.848061
              ],
              [
                105.748838,
                19.848418
              ],
              [
                105.748995,
                19.848842
              ],
              [
                105.748992,
                19.848916
              ],
              [
                105.74915,
                19.850262
              ],
              [
                105.749226,
                19.85084
              ],
              [
                105.749253,
                19.851102
              ],
              [
                105.749269,
                19.851214
              ],
              [
                105.749271,
                19.851213
              ],
              [
                105.749451,
                19.851197
              ],
              [
                105.75016,
                19.851168
              ],
              [
                105.750214,
                19.851329
              ],
              [
                105.750323,
                19.851667
              ],
              [
                105.750437,
                19.852474
              ],
              [
                105.750792,
                19.852496
              ],
              [
                105.750782,
                19.852652
              ],
              [
                105.750748,
                19.8532
              ],
              [
                105.750763,
                19.853226
              ],
              [
                105.751809,
                19.853559
              ],
              [
                105.751862,
                19.853575
              ],
              [
                105.751864,
                19.853576
              ],
              [
                105.752655,
                19.853838
              ],
              [
                105.75266,
                19.853981
              ],
              [
                105.752784,
                19.854628
              ],
              [
                105.753649,
                19.855566
              ],
              [
                105.753747,
                19.855538
              ],
              [
                105.754508,
                19.855312
              ],
              [
                105.754659,
                19.855281
              ],
              [
                105.754811,
                19.85525
              ],
              [
                105.755096,
                19.855196
              ],
              [
                105.755572,
                19.855106
              ],
              [
                105.756282,
                19.854972
              ],
              [
                105.756333,
                19.854962
              ],
              [
                105.756534,
                19.85493
              ],
              [
                105.757275,
                19.854812
              ],
              [
                105.758636,
                19.854594
              ],
              [
                105.759142,
                19.854535
              ],
              [
                105.759369,
                19.854534
              ],
              [
                105.759465,
                19.854563
              ],
              [
                105.759511,
                19.854625
              ],
              [
                105.75958,
                19.854838
              ],
              [
                105.759664,
                19.854998
              ],
              [
                105.759762,
                19.855341
              ],
              [
                105.759816,
                19.855534
              ],
              [
                105.760014,
                19.855684
              ],
              [
                105.760101,
                19.855772
              ],
              [
                105.760113,
                19.855778
              ],
              [
                105.759645,
                19.856271
              ],
              [
                105.759547,
                19.856388
              ],
              [
                105.759504,
                19.856478
              ],
              [
                105.759482,
                19.856603
              ],
              [
                105.759409,
                19.857518
              ],
              [
                105.759355,
                19.857993
              ],
              [
                105.759339,
                19.858169
              ],
              [
                105.759297,
                19.858374
              ],
              [
                105.759287,
                19.858453
              ],
              [
                105.759287,
                19.858517
              ],
              [
                105.759306,
                19.858625
              ],
              [
                105.759378,
                19.858909
              ],
              [
                105.759432,
                19.859136
              ],
              [
                105.759491,
                19.859377
              ],
              [
                105.759579,
                19.859671
              ],
              [
                105.759579,
                19.859672
              ],
              [
                105.759643,
                19.859926
              ],
              [
                105.759654,
                19.860034
              ],
              [
                105.759654,
                19.860106
              ],
              [
                105.759611,
                19.860218
              ],
              [
                105.75961,
                19.860221
              ],
              [
                105.759549,
                19.860367
              ],
              [
                105.759496,
                19.860467
              ],
              [
                105.759399,
                19.860621
              ],
              [
                105.758494,
                19.861779
              ],
              [
                105.758394,
                19.861911
              ],
              [
                105.758321,
                19.861983
              ],
              [
                105.757825,
                19.862361
              ],
              [
                105.75708,
                19.862922
              ],
              [
                105.757097,
                19.862966
              ],
              [
                105.757143,
                19.863082
              ],
              [
                105.757338,
                19.863573
              ],
              [
                105.75751,
                19.864017
              ],
              [
                105.75782,
                19.864819
              ],
              [
                105.757963,
                19.865167
              ],
              [
                105.758015,
                19.865294
              ],
              [
                105.758118,
                19.865561
              ],
              [
                105.758192,
                19.865759
              ],
              [
                105.758254,
                19.86589
              ],
              [
                105.758294,
                19.865964
              ],
              [
                105.758399,
                19.866091
              ],
              [
                105.758589,
                19.866268
              ],
              [
                105.758186,
                19.86675
              ],
              [
                105.758769,
                19.867188
              ],
              [
                105.759187,
                19.867515
              ],
              [
                105.758902,
                19.867878
              ],
              [
                105.759415,
                19.868947
              ],
              [
                105.759448,
                19.870129
              ],
              [
                105.759896,
                19.87052
              ],
              [
                105.760347,
                19.870546
              ],
              [
                105.761482,
                19.872004
              ],
              [
                105.761916,
                19.871757
              ],
              [
                105.762124,
                19.872018
              ],
              [
                105.762858,
                19.872972
              ],
              [
                105.763209,
                19.87327
              ],
              [
                105.763912,
                19.87387
              ],
              [
                105.764088,
                19.874012
              ],
              [
                105.764091,
                19.874014
              ],
              [
                105.764408,
                19.874269
              ],
              [
                105.764628,
                19.87447
              ],
              [
                105.764582,
                19.874528
              ],
              [
                105.764577,
                19.874552
              ],
              [
                105.76458,
                19.874566
              ],
              [
                105.764596,
                19.874588
              ],
              [
                105.764618,
                19.87461
              ],
              [
                105.764735,
                19.874613
              ],
              [
                105.764811,
                19.874604
              ],
              [
                105.764879,
                19.874628
              ],
              [
                105.764951,
                19.874656
              ],
              [
                105.765031,
                19.874643
              ],
              [
                105.765091,
                19.874618
              ],
              [
                105.765168,
                19.874614
              ],
              [
                105.765265,
                19.874647
              ],
              [
                105.76538,
                19.874694
              ],
              [
                105.765608,
                19.874682
              ],
              [
                105.765913,
                19.874985
              ],
              [
                105.766319,
                19.875384
              ],
              [
                105.766757,
                19.875783
              ],
              [
                105.768635,
                19.877552
              ],
              [
                105.769507,
                19.877168
              ],
              [
                105.772432,
                19.875931
              ],
              [
                105.774359,
                19.875362
              ],
              [
                105.774734,
                19.875252
              ],
              [
                105.775964,
                19.874673
              ],
              [
                105.776706,
                19.874017
              ],
              [
                105.776709,
                19.874015
              ],
              [
                105.77708,
                19.873392
              ],
              [
                105.777608,
                19.872804
              ],
              [
                105.778111,
                19.872372
              ],
              [
                105.778791,
                19.871914
              ],
              [
                105.78067,
                19.871057
              ],
              [
                105.781577,
                19.870527
              ],
              [
                105.782307,
                19.869974
              ],
              [
                105.783125,
                19.869265
              ],
              [
                105.783816,
                19.868426
              ],
              [
                105.784267,
                19.867802
              ],
              [
                105.784955,
                19.866365
              ],
              [
                105.785339,
                19.865324
              ],
              [
                105.785532,
                19.864759
              ],
              [
                105.785591,
                19.864307
              ],
              [
                105.785707,
                19.863281
              ],
              [
                105.785759,
                19.862405
              ],
              [
                105.785676,
                19.8621
              ],
              [
                105.785405,
                19.860485
              ],
              [
                105.78535,
                19.859947
              ],
              [
                105.785313,
                19.858786
              ],
              [
                105.785411,
                19.856918
              ],
              [
                105.785413,
                19.856874
              ],
              [
                105.785654,
                19.855592
              ],
              [
                105.78598,
                19.854243
              ],
              [
                105.786475,
                19.852935
              ],
              [
                105.787464,
                19.850873
              ],
              [
                105.789298,
                19.847371
              ],
              [
                105.789959,
                19.846141
              ],
              [
                105.790628,
                19.845185
              ],
              [
                105.79179,
                19.843924
              ],
              [
                105.793034,
                19.84275
              ],
              [
                105.793749,
                19.841924
              ],
              [
                105.794283,
                19.840886
              ],
              [
                105.794485,
                19.84029
              ],
              [
                105.794551,
                19.839716
              ],
              [
                105.794487,
                19.839164
              ],
              [
                105.794251,
                19.838649
              ],
              [
                105.794085,
                19.83818
              ],
              [
                105.793988,
                19.837877
              ],
              [
                105.793934,
                19.837601
              ],
              [
                105.793925,
                19.83733
              ],
              [
                105.793954,
                19.837008
              ],
              [
                105.794152,
                19.8358
              ],
              [
                105.794157,
                19.835767
              ],
              [
                105.79424,
                19.835528
              ],
              [
                105.794347,
                19.835271
              ],
              [
                105.794585,
                19.834852
              ],
              [
                105.79478,
                19.83454
              ],
              [
                105.794984,
                19.834244
              ],
              [
                105.795319,
                19.833787
              ],
              [
                105.795513,
                19.83352
              ],
              [
                105.795807,
                19.833144
              ],
              [
                105.796149,
                19.832745
              ],
              [
                105.796685,
                19.832147
              ],
              [
                105.797067,
                19.831689
              ],
              [
                105.797712,
                19.83108
              ],
              [
                105.798354,
                19.830491
              ],
              [
                105.798878,
                19.83005
              ],
              [
                105.79946,
                19.829572
              ],
              [
                105.800159,
                19.829038
              ],
              [
                105.800839,
                19.828561
              ],
              [
                105.801752,
                19.827843
              ],
              [
                105.802315,
                19.82731
              ],
              [
                105.802802,
                19.826907
              ],
              [
                105.804089,
                19.825901
              ],
              [
                105.804893,
                19.825203
              ],
              [
                105.805999,
                19.824303
              ],
              [
                105.805842,
                19.824191
              ],
              [
                105.805382,
                19.823929
              ],
              [
                105.80471,
                19.823621
              ],
              [
                105.804391,
                19.823493
              ],
              [
                105.803783,
                19.82325
              ],
              [
                105.803624,
                19.823235
              ],
              [
                105.803212,
                19.823101
              ],
              [
                105.802128,
                19.822618
              ],
              [
                105.800939,
                19.822131
              ],
              [
                105.800839,
                19.822097
              ],
              [
                105.80059,
                19.822057
              ],
              [
                105.80001,
                19.822031
              ],
              [
                105.799732,
                19.82201
              ],
              [
                105.799583,
                19.821991
              ],
              [
                105.79942,
                19.82196
              ],
              [
                105.799325,
                19.821936
              ],
              [
                105.799239,
                19.821905
              ],
              [
                105.799098,
                19.821848
              ],
              [
                105.798991,
                19.821804
              ],
              [
                105.798913,
                19.821766
              ],
              [
                105.798716,
                19.821665
              ],
              [
                105.798598,
                19.821627
              ],
              [
                105.798577,
                19.82162
              ],
              [
                105.798047,
                19.821402
              ],
              [
                105.797607,
                19.821213
              ],
              [
                105.797452,
                19.821155
              ],
              [
                105.797336,
                19.821097
              ],
              [
                105.797181,
                19.821005
              ],
              [
                105.797025,
                19.820902
              ],
              [
                105.796892,
                19.820812
              ],
              [
                105.796757,
                19.820707
              ],
              [
                105.79667,
                19.820629
              ],
              [
                105.796614,
                19.820544
              ],
              [
                105.796573,
                19.82046
              ],
              [
                105.796491,
                19.820324
              ],
              [
                105.796266,
                19.820132
              ],
              [
                105.796145,
                19.820048
              ],
              [
                105.795981,
                19.81996
              ],
              [
                105.795687,
                19.819812
              ],
              [
                105.79547,
                19.819703
              ],
              [
                105.794927,
                19.819439
              ],
              [
                105.794329,
                19.819175
              ],
              [
                105.793415,
                19.818793
              ],
              [
                105.793184,
                19.818689
              ],
              [
                105.792926,
                19.818577
              ],
              [
                105.792471,
                19.818388
              ],
              [
                105.791994,
                19.81817
              ],
              [
                105.791764,
                19.818058
              ],
              [
                105.790312,
                19.817414
              ],
              [
                105.789382,
                19.817032
              ],
              [
                105.788923,
                19.816795
              ],
              [
                105.788537,
                19.816555
              ],
              [
                105.788325,
                19.816495
              ],
              [
                105.788184,
                19.816469
              ],
              [
                105.788012,
                19.816893
              ],
              [
                105.787884,
                19.817091
              ],
              [
                105.787635,
                19.817336
              ],
              [
                105.787359,
                19.817509
              ],
              [
                105.787083,
                19.817614
              ],
              [
                105.786807,
                19.817666
              ],
              [
                105.786401,
                19.817724
              ],
              [
                105.78627,
                19.817777
              ],
              [
                105.786133,
                19.817887
              ],
              [
                105.785509,
                19.818484
              ],
              [
                105.785424,
                19.818571
              ],
              [
                105.784915,
                19.818974
              ],
              [
                105.784728,
                19.819138
              ],
              [
                105.784583,
                19.81928
              ],
              [
                105.784247,
                19.819526
              ],
              [
                105.783788,
                19.819833
              ],
              [
                105.783173,
                19.820202
              ],
              [
                105.783026,
                19.820296
              ],
              [
                105.782837,
                19.820392
              ],
              [
                105.782317,
                19.820641
              ],
              [
                105.781948,
                19.820797
              ],
              [
                105.781623,
                19.820924
              ],
              [
                105.78147,
                19.820983
              ],
              [
                105.781192,
                19.821064
              ],
              [
                105.780713,
                19.821204
              ],
              [
                105.780646,
                19.821223
              ],
              [
                105.780587,
                19.821232
              ],
              [
                105.780536,
                19.821236
              ],
              [
                105.777576,
                19.82167
              ],
              [
                105.774146,
                19.821497
              ],
              [
                105.771963,
                19.826318
              ],
              [
                105.764818,
                19.826898
              ],
              [
                105.764818,
                19.826898
              ]
            ]
          ]
        ]
      },
      "properties": {
        "code": "14758",
        "name": "Hàm Rồng",
        "nameEn": "Ham Rong",
        "fullName": "Phường Hàm Rồng",
        "fullNameEn": "Ham Rong Ward",
        "codeName": "ham_rong",
        "postalCode": "40106",
        "postalCodePrefix": "",
        "gisServerId": "diaphanhanhchinhcapxa_2025.2595",
        "areaKm2": 20.88
      }
    }
  ]
}