{
  "type": "FeatureCollection",
  "bbox": [
    105.726211,
    19.401563,
    105.813866,
    19.482333
  ],
  "features": [
    {
      "type": "Feature",
      "id": "16561",
      "bbox": [
        105.726211,
        19.401563,
        105.813866,
        19.482333
      ],
      "geometry": {
        "type": "MultiPolygon",
        "coordinates": [
          [
            [
              [
                105.747406,
                19.454526
              ],
              [
                105.747138,
                19.454726
              ],
              [
                105.745479,
                19.455338
              ],
              [
                105.745035,
                19.455563
              ],
              [
                105.744679,
                19.455718
              ],
              [
                105.744507,
                19.45577
              ],
              [
                105.744442,
                19.455813
              ],
              [
                105.744389,
                19.455823
              ],
              [
                105.744307,
                19.455816
              ],
              [
                105.743824,
                19.455721
              ],
              [
                105.743682,
                19.455723
              ],
              [
                105.743373,
                19.455803
              ],
              [
                105.743035,
                19.455933
              ],
              [
                105.742333,
                19.456182
              ],
              [
                105.741909,
                19.456435
              ],
              [
                105.741334,
                19.456937
              ],
              [
                105.740873,
                19.457394
              ],
              [
                105.740202,
                19.458066
              ],
              [
                105.739995,
                19.458311
              ],
              [
                105.739675,
                19.458871
              ],
              [
                105.739504,
                19.459109
              ],
              [
                105.73936,
                19.459329
              ],
              [
                105.739163,
                19.459452
              ],
              [
                105.738522,
                19.459827
              ],
              [
                105.738046,
                19.460199
              ],
              [
                105.737671,
                19.460592
              ],
              [
                105.73761,
                19.460644
              ],
              [
                105.736914,
                19.461212
              ],
              [
                105.736815,
                19.461295
              ],
              [
                105.73656,
                19.461561
              ],
              [
                105.736267,
                19.461792
              ],
              [
                105.736146,
                19.461939
              ],
              [
                105.735955,
                19.46225
              ],
              [
                105.735804,
                19.462557
              ],
              [
                105.735586,
                19.463043
              ],
              [
                105.735393,
                19.463463
              ],
              [
                105.735063,
                19.463966
              ],
              [
                105.734658,
                19.464516
              ],
              [
                105.733805,
                19.465358
              ],
              [
                105.733015,
                19.466079
              ],
              [
                105.732446,
                19.466686
              ],
              [
                105.7321,
                19.467079
              ],
              [
                105.731758,
                19.467643
              ],
              [
                105.730914,
                19.468322
              ],
              [
                105.730188,
                19.468555
              ],
              [
                105.729926,
                19.468668
              ],
              [
                105.729676,
                19.468824
              ],
              [
                105.729605,
                19.468861
              ],
              [
                105.729555,
                19.468893
              ],
              [
                105.729396,
                19.469009
              ],
              [
                105.728878,
                19.469164
              ],
              [
                105.728677,
                19.469239
              ],
              [
                105.728412,
                19.469413
              ],
              [
                105.728273,
                19.469508
              ],
              [
                105.728138,
                19.469617
              ],
              [
                105.727983,
                19.469836
              ],
              [
                105.727829,
                19.470037
              ],
              [
                105.727646,
                19.470252
              ],
              [
                105.727355,
                19.470523
              ],
              [
                105.727107,
                19.470721
              ],
              [
                105.727059,
                19.470751
              ],
              [
                105.727008,
                19.470793
              ],
              [
                105.726828,
                19.470902
              ],
              [
                105.726562,
                19.47105
              ],
              [
                105.726312,
                19.471254
              ],
              [
                105.726211,
                19.471317
              ],
              [
                105.726951,
                19.471457
              ],
              [
                105.734269,
                19.472847
              ],
              [
                105.734292,
                19.474116
              ],
              [
                105.7347,
                19.474949
              ],
              [
                105.735295,
                19.475415
              ],
              [
                105.735768,
                19.475626
              ],
              [
                105.736148,
                19.475703
              ],
              [
                105.736159,
                19.475709
              ],
              [
                105.738408,
                19.475966
              ],
              [
                105.738668,
                19.476101
              ],
              [
                105.739002,
                19.4764
              ],
              [
                105.739922,
                19.477065
              ],
              [
                105.74002,
                19.477153
              ],
              [
                105.740952,
                19.478025
              ],
              [
                105.741434,
                19.478383
              ],
              [
                105.742748,
                19.478829
              ],
              [
                105.744018,
                19.479057
              ],
              [
                105.744623,
                19.478931
              ],
              [
                105.74527,
                19.478518
              ],
              [
                105.746032,
                19.478173
              ],
              [
                105.746934,
                19.477571
              ],
              [
                105.748318,
                19.476836
              ],
              [
                105.748921,
                19.476183
              ],
              [
                105.749317,
                19.476109
              ],
              [
                105.749452,
                19.476076
              ],
              [
                105.749697,
                19.476036
              ],
              [
                105.749773,
                19.476021
              ],
              [
                105.749855,
                19.476021
              ],
              [
                105.750132,
                19.476029
              ],
              [
                105.750494,
                19.476042
              ],
              [
                105.751045,
                19.476145
              ],
              [
                105.751303,
                19.476195
              ],
              [
                105.751492,
                19.476233
              ],
              [
                105.751857,
                19.476351
              ],
              [
                105.751859,
                19.476352
              ],
              [
                105.751945,
                19.47636
              ],
              [
                105.752822,
                19.476457
              ],
              [
                105.753897,
                19.476739
              ],
              [
                105.75511,
                19.47725
              ],
              [
                105.755959,
                19.477634
              ],
              [
                105.756807,
                19.477889
              ],
              [
                105.758299,
                19.478299
              ],
              [
                105.759625,
                19.47881
              ],
              [
                105.761115,
                19.479596
              ],
              [
                105.762006,
                19.480338
              ],
              [
                105.763119,
                19.481156
              ],
              [
                105.764192,
                19.481955
              ],
              [
                105.765,
                19.482296
              ],
              [
                105.765303,
                19.482333
              ],
              [
                105.767046,
                19.48223
              ],
              [
                105.768296,
                19.482094
              ],
              [
                105.769143,
                19.482109
              ],
              [
                105.769808,
                19.482059
              ],
              [
                105.770494,
                19.482046
              ],
              [
                105.771543,
                19.482099
              ],
              [
                105.771703,
                19.48185
              ],
              [
                105.771782,
                19.481467
              ],
              [
                105.771922,
                19.481093
              ],
              [
                105.772374,
                19.480728
              ],
              [
                105.772967,
                19.480324
              ],
              [
                105.77352,
                19.480121
              ],
              [
                105.773792,
                19.479967
              ],
              [
                105.774346,
                19.479974
              ],
              [
                105.774851,
                19.479981
              ],
              [
                105.775264,
                19.479979
              ],
              [
                105.775698,
                19.480035
              ],
              [
                105.776354,
                19.480089
              ],
              [
                105.776981,
                19.48045
              ],
              [
                105.777628,
                19.480763
              ],
              [
                105.777881,
                19.480982
              ],
              [
                105.778578,
                19.481208
              ],
              [
                105.778941,
                19.481264
              ],
              [
                105.779426,
                19.481501
              ],
              [
                105.77982,
                19.48171
              ],
              [
                105.780052,
                19.481671
              ],
              [
                105.780384,
                19.481449
              ],
              [
                105.780796,
                19.481266
              ],
              [
                105.781673,
                19.481042
              ],
              [
                105.782307,
                19.480791
              ],
              [
                105.782609,
                19.480684
              ],
              [
                105.783243,
                19.480548
              ],
              [
                105.783979,
                19.48041
              ],
              [
                105.784738,
                19.48031
              ],
              [
                105.785003,
                19.480292
              ],
              [
                105.78516,
                19.480125
              ],
              [
                105.785583,
                19.479572
              ],
              [
                105.785873,
                19.478997
              ],
              [
                105.786032,
                19.478595
              ],
              [
                105.786461,
                19.477551
              ],
              [
                105.786491,
                19.476685
              ],
              [
                105.786451,
                19.476136
              ],
              [
                105.786522,
                19.475263
              ],
              [
                105.786521,
                19.474952
              ],
              [
                105.786469,
                19.474629
              ],
              [
                105.786136,
                19.473877
              ],
              [
                105.786106,
                19.473756
              ],
              [
                105.786325,
                19.473123
              ],
              [
                105.786459,
                19.472707
              ],
              [
                105.786478,
                19.472501
              ],
              [
                105.786467,
                19.4723
              ],
              [
                105.78643,
                19.471937
              ],
              [
                105.786437,
                19.471852
              ],
              [
                105.787603,
                19.471785
              ],
              [
                105.787522,
                19.469534
              ],
              [
                105.787517,
                19.468461
              ],
              [
                105.787611,
                19.468047
              ],
              [
                105.788308,
                19.467786
              ],
              [
                105.788037,
                19.466609
              ],
              [
                105.788239,
                19.465873
              ],
              [
                105.788985,
                19.465862
              ],
              [
                105.789076,
                19.465519
              ],
              [
                105.789098,
                19.465333
              ],
              [
                105.789006,
                19.465269
              ],
              [
                105.788878,
                19.465248
              ],
              [
                105.788757,
                19.465248
              ],
              [
                105.788682,
                19.465478
              ],
              [
                105.788607,
                19.465493
              ],
              [
                105.788432,
                19.4654
              ],
              [
                105.789012,
                19.463073
              ],
              [
                105.789018,
                19.463057
              ],
              [
                105.78911,
                19.46256
              ],
              [
                105.789319,
                19.462591
              ],
              [
                105.789243,
                19.463097
              ],
              [
                105.790418,
                19.463304
              ],
              [
                105.792155,
                19.463514
              ],
              [
                105.792276,
                19.463224
              ],
              [
                105.793331,
                19.461049
              ],
              [
                105.793835,
                19.461114
              ],
              [
                105.795182,
                19.461257
              ],
              [
                105.795296,
                19.46127
              ],
              [
                105.795374,
                19.461042
              ],
              [
                105.795395,
                19.461051
              ],
              [
                105.795502,
                19.461096
              ],
              [
                105.796892,
                19.462142
              ],
              [
                105.797637,
                19.462413
              ],
              [
                105.79877,
                19.462412
              ],
              [
                105.799394,
                19.462208
              ],
              [
                105.799845,
                19.461594
              ],
              [
                105.801321,
                19.460402
              ],
              [
                105.802164,
                19.459518
              ],
              [
                105.802826,
                19.458789
              ],
              [
                105.804396,
                19.459365
              ],
              [
                105.806126,
                19.459495
              ],
              [
                105.806979,
                19.459554
              ],
              [
                105.807416,
                19.459584
              ],
              [
                105.80759,
                19.45756
              ],
              [
                105.807999,
                19.4527
              ],
              [
                105.808103,
                19.450589
              ],
              [
                105.808157,
                19.449927
              ],
              [
                105.808293,
                19.448245
              ],
              [
                105.808305,
                19.448167
              ],
              [
                105.808439,
                19.447304
              ],
              [
                105.808909,
                19.445065
              ],
              [
                105.809259,
                19.442347
              ],
              [
                105.809431,
                19.441297
              ],
              [
                105.809611,
                19.440203
              ],
              [
                105.810544,
                19.435274
              ],
              [
                105.810644,
                19.435082
              ],
              [
                105.810921,
                19.434868
              ],
              [
                105.811006,
                19.434802
              ],
              [
                105.811369,
                19.4348
              ],
              [
                105.811691,
                19.434608
              ],
              [
                105.811832,
                19.434473
              ],
              [
                105.812198,
                19.43381
              ],
              [
                105.812574,
                19.433227
              ],
              [
                105.812631,
                19.433112
              ],
              [
                105.812654,
                19.432924
              ],
              [
                105.812689,
                19.432633
              ],
              [
                105.812748,
                19.432269
              ],
              [
                105.812685,
                19.431715
              ],
              [
                105.812622,
                19.431352
              ],
              [
                105.812702,
                19.431084
              ],
              [
                105.813244,
                19.43066
              ],
              [
                105.813766,
                19.430276
              ],
              [
                105.813866,
                19.430065
              ],
              [
                105.813743,
                19.429721
              ],
              [
                105.813256,
                19.429054
              ],
              [
                105.81287,
                19.428386
              ],
              [
                105.812706,
                19.427851
              ],
              [
                105.812673,
                19.427587
              ],
              [
                105.812622,
                19.427182
              ],
              [
                105.81268,
                19.426742
              ],
              [
                105.812881,
                19.426569
              ],
              [
                105.812941,
                19.426416
              ],
              [
                105.812838,
                19.426148
              ],
              [
                105.812433,
                19.425767
              ],
              [
                105.812191,
                19.425673
              ],
              [
                105.811889,
                19.425674
              ],
              [
                105.811385,
                19.425734
              ],
              [
                105.810962,
                19.425774
              ],
              [
                105.810578,
                19.425738
              ],
              [
                105.810236,
                19.425796
              ],
              [
                105.809914,
                19.426008
              ],
              [
                105.809554,
                19.426565
              ],
              [
                105.809355,
                19.426948
              ],
              [
                105.809235,
                19.427274
              ],
              [
                105.809095,
                19.427523
              ],
              [
                105.808895,
                19.427734
              ],
              [
                105.808644,
                19.427863
              ],
              [
                105.808395,
                19.427936
              ],
              [
                105.808063,
                19.427944
              ],
              [
                105.807763,
                19.427947
              ],
              [
                105.807606,
                19.427989
              ],
              [
                105.807465,
                19.428142
              ],
              [
                105.807346,
                19.428506
              ],
              [
                105.807006,
                19.429139
              ],
              [
                105.805837,
                19.42978
              ],
              [
                105.805337,
                19.430054
              ],
              [
                105.804924,
                19.43019
              ],
              [
                105.804491,
                19.430211
              ],
              [
                105.803825,
                19.43008
              ],
              [
                105.802673,
                19.429645
              ],
              [
                105.801622,
                19.429114
              ],
              [
                105.799883,
                19.427964
              ],
              [
                105.798567,
                19.426947
              ],
              [
                105.797442,
                19.425689
              ],
              [
                105.795981,
                19.423716
              ],
              [
                105.795521,
                19.422924
              ],
              [
                105.794653,
                19.421188
              ],
              [
                105.794067,
                19.419775
              ],
              [
                105.793391,
                19.417674
              ],
              [
                105.793051,
                19.416011
              ],
              [
                105.792595,
                19.413603
              ],
              [
                105.792322,
                19.411223
              ],
              [
                105.791899,
                19.407759
              ],
              [
                105.79214,
                19.407486
              ],
              [
                105.792541,
                19.407006
              ],
              [
                105.792942,
                19.40665
              ],
              [
                105.793032,
                19.406487
              ],
              [
                105.792981,
                19.406277
              ],
              [
                105.792564,
                19.405657
              ],
              [
                105.792188,
                19.404951
              ],
              [
                105.792086,
                19.404751
              ],
              [
                105.792086,
                19.404627
              ],
              [
                105.792125,
                19.404473
              ],
              [
                105.792205,
                19.40432
              ],
              [
                105.792195,
                19.404224
              ],
              [
                105.792104,
                19.404158
              ],
              [
                105.791902,
                19.404092
              ],
              [
                105.791559,
                19.404017
              ],
              [
                105.791094,
                19.403856
              ],
              [
                105.790761,
                19.403772
              ],
              [
                105.790418,
                19.403658
              ],
              [
                105.790155,
                19.403526
              ],
              [
                105.790054,
                19.403402
              ],
              [
                105.789952,
                19.40322
              ],
              [
                105.789729,
                19.402896
              ],
              [
                105.789476,
                19.402716
              ],
              [
                105.789121,
                19.402363
              ],
              [
                105.788959,
                19.402144
              ],
              [
                105.788787,
                19.401953
              ],
              [
                105.788625,
                19.401839
              ],
              [
                105.788484,
                19.40185
              ],
              [
                105.788303,
                19.401946
              ],
              [
                105.788011,
                19.402005
              ],
              [
                105.787548,
                19.402227
              ],
              [
                105.787357,
                19.402304
              ],
              [
                105.786093,
                19.401563
              ],
              [
                105.786514,
                19.402705
              ],
              [
                105.786746,
                19.403334
              ],
              [
                105.787058,
                19.404057
              ],
              [
                105.787011,
                19.404631
              ],
              [
                105.786748,
                19.405088
              ],
              [
                105.786611,
                19.405327
              ],
              [
                105.785829,
                19.406598
              ],
              [
                105.785211,
                19.407604
              ],
              [
                105.784611,
                19.408683
              ],
              [
                105.784187,
                19.409593
              ],
              [
                105.784317,
                19.410381
              ],
              [
                105.784547,
                19.411002
              ],
              [
                105.78481,
                19.411337
              ],
              [
                105.784902,
                19.411455
              ],
              [
                105.785061,
                19.411559
              ],
              [
                105.785483,
                19.411835
              ],
              [
                105.78624,
                19.412095
              ],
              [
                105.786294,
                19.413105
              ],
              [
                105.786213,
                19.413535
              ],
              [
                105.785875,
                19.413917
              ],
              [
                105.785242,
                19.414278
              ],
              [
                105.784567,
                19.414574
              ],
              [
                105.783596,
                19.414888
              ],
              [
                105.782312,
                19.41513
              ],
              [
                105.781873,
                19.4152
              ],
              [
                105.78132,
                19.415229
              ],
              [
                105.780914,
                19.415251
              ],
              [
                105.780742,
                19.415272
              ],
              [
                105.780552,
                19.415296
              ],
              [
                105.779832,
                19.415546
              ],
              [
                105.779139,
                19.41568
              ],
              [
                105.778407,
                19.415647
              ],
              [
                105.777476,
                19.415505
              ],
              [
                105.777243,
                19.415411
              ],
              [
                105.777235,
                19.415409
              ],
              [
                105.777227,
                19.415404
              ],
              [
                105.776809,
                19.415235
              ],
              [
                105.776022,
                19.414938
              ],
              [
                105.775446,
                19.414602
              ],
              [
                105.774126,
                19.415548
              ],
              [
                105.774325,
                19.415725
              ],
              [
                105.774377,
                19.415772
              ],
              [
                105.773824,
                19.416202
              ],
              [
                105.773775,
                19.416346
              ],
              [
                105.773839,
                19.416573
              ],
              [
                105.773853,
                19.416919
              ],
              [
                105.773715,
                19.417099
              ],
              [
                105.773645,
                19.417211
              ],
              [
                105.773646,
                19.41728
              ],
              [
                105.77369,
                19.417402
              ],
              [
                105.77371,
                19.417516
              ],
              [
                105.773669,
                19.417602
              ],
              [
                105.773692,
                19.417683
              ],
              [
                105.773733,
                19.417752
              ],
              [
                105.773601,
                19.418379
              ],
              [
                105.773842,
                19.418358
              ],
              [
                105.774418,
                19.418756
              ],
              [
                105.774436,
                19.418767
              ],
              [
                105.774424,
                19.418785
              ],
              [
                105.774394,
                19.418821
              ],
              [
                105.774356,
                19.418888
              ],
              [
                105.774719,
                19.419123
              ],
              [
                105.774825,
                19.419071
              ],
              [
                105.775039,
                19.419252
              ],
              [
                105.775192,
                19.419202
              ],
              [
                105.775221,
                19.419248
              ],
              [
                105.775303,
                19.419471
              ],
              [
                105.775188,
                19.419494
              ],
              [
                105.775263,
                19.419709
              ],
              [
                105.775286,
                19.419738
              ],
              [
                105.775563,
                19.419659
              ],
              [
                105.775661,
                19.419856
              ],
              [
                105.774305,
                19.420345
              ],
              [
                105.773832,
                19.420517
              ],
              [
                105.773879,
                19.420625
              ],
              [
                105.77398,
                19.420858
              ],
              [
                105.774028,
                19.420966
              ],
              [
                105.774174,
                19.421301
              ],
              [
                105.774214,
                19.421391
              ],
              [
                105.774356,
                19.421718
              ],
              [
                105.774411,
                19.421844
              ],
              [
                105.774551,
                19.422164
              ],
              [
                105.774587,
                19.422246
              ],
              [
                105.774734,
                19.422583
              ],
              [
                105.774784,
                19.422698
              ],
              [
                105.774914,
                19.422995
              ],
              [
                105.774984,
                19.423156
              ],
              [
                105.775141,
                19.423515
              ],
              [
                105.775197,
                19.423643
              ],
              [
                105.773844,
                19.4243
              ],
              [
                105.774243,
                19.425034
              ],
              [
                105.773356,
                19.425455
              ],
              [
                105.773574,
                19.425802
              ],
              [
                105.775225,
                19.425047
              ],
              [
                105.775623,
                19.425694
              ],
              [
                105.775804,
                19.425601
              ],
              [
                105.775985,
                19.425918
              ],
              [
                105.778945,
                19.425
              ],
              [
                105.779177,
                19.425489
              ],
              [
                105.779459,
                19.42572
              ],
              [
                105.779555,
                19.42583
              ],
              [
                105.780085,
                19.426742
              ],
              [
                105.78093,
                19.428845
              ],
              [
                105.781094,
                19.42938
              ],
              [
                105.781276,
                19.429513
              ],
              [
                105.781599,
                19.429531
              ],
              [
                105.782043,
                19.429701
              ],
              [
                105.782347,
                19.429949
              ],
              [
                105.782187,
                19.430332
              ],
              [
                105.782028,
                19.430715
              ],
              [
                105.782151,
                19.431081
              ],
              [
                105.782617,
                19.431729
              ],
              [
                105.783511,
                19.432658
              ],
              [
                105.78357,
                19.432719
              ],
              [
                105.783046,
                19.433117
              ],
              [
                105.782818,
                19.43342
              ],
              [
                105.782595,
                19.433832
              ],
              [
                105.78242,
                19.434101
              ],
              [
                105.782401,
                19.434258
              ],
              [
                105.78243,
                19.434448
              ],
              [
                105.78241,
                19.434658
              ],
              [
                105.782371,
                19.434983
              ],
              [
                105.782232,
                19.435367
              ],
              [
                105.781963,
                19.435923
              ],
              [
                105.781683,
                19.436526
              ],
              [
                105.780962,
                19.437486
              ],
              [
                105.780196,
                19.438653
              ],
              [
                105.780085,
                19.438984
              ],
              [
                105.780053,
                19.439078
              ],
              [
                105.780042,
                19.439164
              ],
              [
                105.780029,
                19.439258
              ],
              [
                105.779998,
                19.439395
              ],
              [
                105.77981,
                19.440086
              ],
              [
                105.779606,
                19.440844
              ],
              [
                105.779517,
                19.441177
              ],
              [
                105.779509,
                19.441206
              ],
              [
                105.779504,
                19.441206
              ],
              [
                105.779102,
                19.441186
              ],
              [
                105.77699,
                19.440769
              ],
              [
                105.775134,
                19.440395
              ],
              [
                105.774998,
                19.440133
              ],
              [
                105.774886,
                19.439946
              ],
              [
                105.774416,
                19.440989
              ],
              [
                105.774416,
                19.441037
              ],
              [
                105.774316,
                19.441162
              ],
              [
                105.774165,
                19.441348
              ],
              [
                105.774105,
                19.441506
              ],
              [
                105.774103,
                19.44151
              ],
              [
                105.774047,
                19.44163
              ],
              [
                105.773928,
                19.441792
              ],
              [
                105.773834,
                19.441924
              ],
              [
                105.773809,
                19.442007
              ],
              [
                105.773809,
                19.442009
              ],
              [
                105.773809,
                19.442075
              ],
              [
                105.773805,
                19.442106
              ],
              [
                105.773798,
                19.44227
              ],
              [
                105.773742,
                19.442396
              ],
              [
                105.773719,
                19.442442
              ],
              [
                105.773686,
                19.44251
              ],
              [
                105.773579,
                19.442624
              ],
              [
                105.773454,
                19.442702
              ],
              [
                105.773441,
                19.442708
              ],
              [
                105.773051,
                19.442883
              ],
              [
                105.772999,
                19.442938
              ],
              [
                105.772982,
                19.442955
              ],
              [
                105.772926,
                19.443057
              ],
              [
                105.772845,
                19.443237
              ],
              [
                105.772857,
                19.443462
              ],
              [
                105.772859,
                19.443488
              ],
              [
                105.77291,
                19.443733
              ],
              [
                105.772918,
                19.443811
              ],
              [
                105.772935,
                19.443988
              ],
              [
                105.772934,
                19.443995
              ],
              [
                105.772994,
                19.444001
              ],
              [
                105.773033,
                19.444006
              ],
              [
                105.773247,
                19.44403
              ],
              [
                105.773241,
                19.444057
              ],
              [
                105.773175,
                19.444359
              ],
              [
                105.77306,
                19.444784
              ],
              [
                105.77299,
                19.445011
              ],
              [
                105.772979,
                19.445064
              ],
              [
                105.772961,
                19.445155
              ],
              [
                105.772961,
                19.445191
              ],
              [
                105.772993,
                19.445239
              ],
              [
                105.773025,
                19.445274
              ],
              [
                105.772982,
                19.44562
              ],
              [
                105.77115,
                19.445172
              ],
              [
                105.766359,
                19.446686
              ],
              [
                105.749932,
                19.451874
              ],
              [
                105.747689,
                19.454187
              ],
              [
                105.747524,
                19.454356
              ],
              [
                105.747406,
                19.454526
              ],
              [
                105.747406,
                19.454526
              ]
            ]
          ]
        ]
      },
      "properties": {
        "code": "16561",
        "name": "Tĩnh Gia",
        "nameEn": "Tinh Gia",
        "fullName": "Phường Tĩnh Gia",
        "fullNameEn": "Tinh Gia Ward",
        "codeName": "tinh_gia",
        "postalCode": "42741",
        "postalCodePrefix": "",
        "gisServerId": "diaphanhanhchinhcapxa_2025.2573",
        "areaKm2": 32.18
      }
    }
  ]
}