{
  "type": "FeatureCollection",
  "bbox": [
    105.692115,
    19.393885,
    105.78357,
    19.474774
  ],
  "features": [
    {
      "type": "Feature",
      "id": "16609",
      "bbox": [
        105.692115,
        19.393885,
        105.78357,
        19.474774
      ],
      "geometry": {
        "type": "MultiPolygon",
        "coordinates": [
          [
            [
              [
                105.692279,
                19.470238
              ],
              [
                105.692502,
                19.47081
              ],
              [
                105.692917,
                19.471409
              ],
              [
                105.693101,
                19.471714
              ],
              [
                105.693107,
                19.471723
              ],
              [
                105.693107,
                19.471733
              ],
              [
                105.693111,
                19.472163
              ],
              [
                105.693106,
                19.472673
              ],
              [
                105.693083,
                19.472795
              ],
              [
                105.692984,
                19.473323
              ],
              [
                105.692979,
                19.473823
              ],
              [
                105.692979,
                19.474111
              ],
              [
                105.700091,
                19.472226
              ],
              [
                105.702276,
                19.47259
              ],
              [
                105.703595,
                19.47282
              ],
              [
                105.705686,
                19.473186
              ],
              [
                105.709449,
                19.473765
              ],
              [
                105.71255,
                19.47432
              ],
              [
                105.714529,
                19.474774
              ],
              [
                105.714593,
                19.474714
              ],
              [
                105.714616,
                19.474603
              ],
              [
                105.714614,
                19.474565
              ],
              [
                105.714588,
                19.474045
              ],
              [
                105.714575,
                19.474026
              ],
              [
                105.714368,
                19.473697
              ],
              [
                105.714025,
                19.473184
              ],
              [
                105.713907,
                19.472975
              ],
              [
                105.713877,
                19.472807
              ],
              [
                105.71386,
                19.472527
              ],
              [
                105.713764,
                19.472071
              ],
              [
                105.713721,
                19.471917
              ],
              [
                105.713657,
                19.471687
              ],
              [
                105.713662,
                19.471644
              ],
              [
                105.713694,
                19.471398
              ],
              [
                105.713709,
                19.471376
              ],
              [
                105.713902,
                19.47108
              ],
              [
                105.714263,
                19.470648
              ],
              [
                105.714426,
                19.470394
              ],
              [
                105.714487,
                19.470188
              ],
              [
                105.714524,
                19.470019
              ],
              [
                105.714558,
                19.469895
              ],
              [
                105.714615,
                19.469778
              ],
              [
                105.71466,
                19.469747
              ],
              [
                105.714712,
                19.469711
              ],
              [
                105.715044,
                19.469521
              ],
              [
                105.715262,
                19.469377
              ],
              [
                105.715486,
                19.469227
              ],
              [
                105.715631,
                19.469135
              ],
              [
                105.716062,
                19.468861
              ],
              [
                105.716414,
                19.468637
              ],
              [
                105.716939,
                19.468356
              ],
              [
                105.716979,
                19.468348
              ],
              [
                105.717173,
                19.468313
              ],
              [
                105.717289,
                19.468325
              ],
              [
                105.717333,
                19.468386
              ],
              [
                105.717338,
                19.468425
              ],
              [
                105.717342,
                19.468448
              ],
              [
                105.717279,
                19.468685
              ],
              [
                105.717252,
                19.46882
              ],
              [
                105.717251,
                19.468994
              ],
              [
                105.717295,
                19.469175
              ],
              [
                105.717296,
                19.469182
              ],
              [
                105.717509,
                19.469331
              ],
              [
                105.717676,
                19.469385
              ],
              [
                105.717678,
                19.469385
              ],
              [
                105.717746,
                19.469377
              ],
              [
                105.717797,
                19.469318
              ],
              [
                105.717988,
                19.468942
              ],
              [
                105.718029,
                19.468896
              ],
              [
                105.718139,
                19.468771
              ],
              [
                105.718171,
                19.468742
              ],
              [
                105.718276,
                19.468708
              ],
              [
                105.71839,
                19.468715
              ],
              [
                105.718539,
                19.468755
              ],
              [
                105.718597,
                19.468835
              ],
              [
                105.718724,
                19.469013
              ],
              [
                105.718801,
                19.469073
              ],
              [
                105.71888,
                19.469079
              ],
              [
                105.719023,
                19.469029
              ],
              [
                105.719496,
                19.468925
              ],
              [
                105.719978,
                19.468787
              ],
              [
                105.721066,
                19.468515
              ],
              [
                105.721809,
                19.468467
              ],
              [
                105.721971,
                19.468511
              ],
              [
                105.722269,
                19.468627
              ],
              [
                105.723703,
                19.469784
              ],
              [
                105.726211,
                19.471317
              ],
              [
                105.726312,
                19.471254
              ],
              [
                105.726562,
                19.47105
              ],
              [
                105.726828,
                19.470902
              ],
              [
                105.727008,
                19.470793
              ],
              [
                105.727059,
                19.470751
              ],
              [
                105.727107,
                19.470721
              ],
              [
                105.727355,
                19.470523
              ],
              [
                105.727646,
                19.470252
              ],
              [
                105.727829,
                19.470037
              ],
              [
                105.727983,
                19.469836
              ],
              [
                105.728138,
                19.469617
              ],
              [
                105.728273,
                19.469508
              ],
              [
                105.728412,
                19.469413
              ],
              [
                105.728677,
                19.469239
              ],
              [
                105.728878,
                19.469164
              ],
              [
                105.729396,
                19.469009
              ],
              [
                105.729555,
                19.468893
              ],
              [
                105.729605,
                19.468861
              ],
              [
                105.729676,
                19.468824
              ],
              [
                105.729926,
                19.468668
              ],
              [
                105.730188,
                19.468555
              ],
              [
                105.730914,
                19.468322
              ],
              [
                105.731758,
                19.467643
              ],
              [
                105.7321,
                19.467079
              ],
              [
                105.732446,
                19.466686
              ],
              [
                105.733015,
                19.466079
              ],
              [
                105.733805,
                19.465358
              ],
              [
                105.734658,
                19.464516
              ],
              [
                105.735063,
                19.463966
              ],
              [
                105.735393,
                19.463463
              ],
              [
                105.735586,
                19.463043
              ],
              [
                105.735804,
                19.462557
              ],
              [
                105.735955,
                19.46225
              ],
              [
                105.736146,
                19.461939
              ],
              [
                105.736267,
                19.461792
              ],
              [
                105.73656,
                19.461561
              ],
              [
                105.736815,
                19.461295
              ],
              [
                105.736914,
                19.461212
              ],
              [
                105.73761,
                19.460644
              ],
              [
                105.737671,
                19.460592
              ],
              [
                105.738046,
                19.460199
              ],
              [
                105.738522,
                19.459827
              ],
              [
                105.739163,
                19.459452
              ],
              [
                105.73936,
                19.459329
              ],
              [
                105.739504,
                19.459109
              ],
              [
                105.739675,
                19.458871
              ],
              [
                105.739995,
                19.458311
              ],
              [
                105.740202,
                19.458066
              ],
              [
                105.740873,
                19.457394
              ],
              [
                105.741334,
                19.456937
              ],
              [
                105.741909,
                19.456435
              ],
              [
                105.742333,
                19.456182
              ],
              [
                105.743035,
                19.455933
              ],
              [
                105.743373,
                19.455803
              ],
              [
                105.743682,
                19.455723
              ],
              [
                105.743824,
                19.455721
              ],
              [
                105.744307,
                19.455816
              ],
              [
                105.744389,
                19.455823
              ],
              [
                105.744442,
                19.455813
              ],
              [
                105.744507,
                19.45577
              ],
              [
                105.744679,
                19.455718
              ],
              [
                105.745035,
                19.455563
              ],
              [
                105.745479,
                19.455338
              ],
              [
                105.747138,
                19.454726
              ],
              [
                105.747406,
                19.454526
              ],
              [
                105.747524,
                19.454356
              ],
              [
                105.747689,
                19.454187
              ],
              [
                105.749932,
                19.451874
              ],
              [
                105.766359,
                19.446686
              ],
              [
                105.77115,
                19.445172
              ],
              [
                105.772982,
                19.44562
              ],
              [
                105.773025,
                19.445274
              ],
              [
                105.772993,
                19.445239
              ],
              [
                105.772961,
                19.445191
              ],
              [
                105.772961,
                19.445155
              ],
              [
                105.772979,
                19.445064
              ],
              [
                105.77299,
                19.445011
              ],
              [
                105.77306,
                19.444784
              ],
              [
                105.773175,
                19.444359
              ],
              [
                105.773241,
                19.444057
              ],
              [
                105.773247,
                19.44403
              ],
              [
                105.773033,
                19.444006
              ],
              [
                105.772994,
                19.444001
              ],
              [
                105.772934,
                19.443995
              ],
              [
                105.772935,
                19.443988
              ],
              [
                105.772918,
                19.443811
              ],
              [
                105.77291,
                19.443733
              ],
              [
                105.772859,
                19.443488
              ],
              [
                105.772857,
                19.443462
              ],
              [
                105.772845,
                19.443237
              ],
              [
                105.772926,
                19.443057
              ],
              [
                105.772982,
                19.442955
              ],
              [
                105.772999,
                19.442938
              ],
              [
                105.773051,
                19.442883
              ],
              [
                105.773441,
                19.442708
              ],
              [
                105.773454,
                19.442702
              ],
              [
                105.773579,
                19.442624
              ],
              [
                105.773686,
                19.44251
              ],
              [
                105.773719,
                19.442442
              ],
              [
                105.773742,
                19.442396
              ],
              [
                105.773798,
                19.44227
              ],
              [
                105.773805,
                19.442106
              ],
              [
                105.773809,
                19.442075
              ],
              [
                105.773809,
                19.442009
              ],
              [
                105.773809,
                19.442007
              ],
              [
                105.773834,
                19.441924
              ],
              [
                105.773928,
                19.441792
              ],
              [
                105.774047,
                19.44163
              ],
              [
                105.774103,
                19.44151
              ],
              [
                105.774105,
                19.441506
              ],
              [
                105.774165,
                19.441348
              ],
              [
                105.774316,
                19.441162
              ],
              [
                105.774416,
                19.441037
              ],
              [
                105.774416,
                19.440989
              ],
              [
                105.774886,
                19.439946
              ],
              [
                105.774998,
                19.440133
              ],
              [
                105.775134,
                19.440395
              ],
              [
                105.77699,
                19.440769
              ],
              [
                105.779102,
                19.441186
              ],
              [
                105.779504,
                19.441206
              ],
              [
                105.779509,
                19.441206
              ],
              [
                105.779517,
                19.441177
              ],
              [
                105.779606,
                19.440844
              ],
              [
                105.77981,
                19.440086
              ],
              [
                105.779998,
                19.439395
              ],
              [
                105.780029,
                19.439258
              ],
              [
                105.780042,
                19.439164
              ],
              [
                105.780053,
                19.439078
              ],
              [
                105.780085,
                19.438984
              ],
              [
                105.780196,
                19.438653
              ],
              [
                105.780962,
                19.437486
              ],
              [
                105.781683,
                19.436526
              ],
              [
                105.781963,
                19.435923
              ],
              [
                105.782232,
                19.435367
              ],
              [
                105.782371,
                19.434983
              ],
              [
                105.78241,
                19.434658
              ],
              [
                105.78243,
                19.434448
              ],
              [
                105.782401,
                19.434258
              ],
              [
                105.78242,
                19.434101
              ],
              [
                105.782595,
                19.433832
              ],
              [
                105.782818,
                19.43342
              ],
              [
                105.783046,
                19.433117
              ],
              [
                105.78357,
                19.432719
              ],
              [
                105.783511,
                19.432658
              ],
              [
                105.782617,
                19.431729
              ],
              [
                105.782151,
                19.431081
              ],
              [
                105.782028,
                19.430715
              ],
              [
                105.782187,
                19.430332
              ],
              [
                105.782347,
                19.429949
              ],
              [
                105.782043,
                19.429701
              ],
              [
                105.781599,
                19.429531
              ],
              [
                105.781276,
                19.429513
              ],
              [
                105.781094,
                19.42938
              ],
              [
                105.78093,
                19.428845
              ],
              [
                105.780085,
                19.426742
              ],
              [
                105.779555,
                19.42583
              ],
              [
                105.779459,
                19.42572
              ],
              [
                105.779177,
                19.425489
              ],
              [
                105.778945,
                19.425
              ],
              [
                105.775985,
                19.425918
              ],
              [
                105.775804,
                19.425601
              ],
              [
                105.775623,
                19.425694
              ],
              [
                105.775225,
                19.425047
              ],
              [
                105.773574,
                19.425802
              ],
              [
                105.773356,
                19.425455
              ],
              [
                105.774243,
                19.425034
              ],
              [
                105.773844,
                19.4243
              ],
              [
                105.775197,
                19.423643
              ],
              [
                105.775141,
                19.423515
              ],
              [
                105.774984,
                19.423156
              ],
              [
                105.774914,
                19.422995
              ],
              [
                105.774784,
                19.422698
              ],
              [
                105.774734,
                19.422583
              ],
              [
                105.774587,
                19.422246
              ],
              [
                105.774551,
                19.422164
              ],
              [
                105.774411,
                19.421844
              ],
              [
                105.774356,
                19.421718
              ],
              [
                105.774214,
                19.421391
              ],
              [
                105.774174,
                19.421301
              ],
              [
                105.774028,
                19.420966
              ],
              [
                105.77398,
                19.420858
              ],
              [
                105.773879,
                19.420625
              ],
              [
                105.773832,
                19.420517
              ],
              [
                105.774305,
                19.420345
              ],
              [
                105.775661,
                19.419856
              ],
              [
                105.775563,
                19.419659
              ],
              [
                105.775286,
                19.419738
              ],
              [
                105.775263,
                19.419709
              ],
              [
                105.775188,
                19.419494
              ],
              [
                105.775303,
                19.419471
              ],
              [
                105.775221,
                19.419248
              ],
              [
                105.775192,
                19.419202
              ],
              [
                105.775039,
                19.419252
              ],
              [
                105.774825,
                19.419071
              ],
              [
                105.774719,
                19.419123
              ],
              [
                105.774356,
                19.418888
              ],
              [
                105.774394,
                19.418821
              ],
              [
                105.774424,
                19.418785
              ],
              [
                105.774436,
                19.418767
              ],
              [
                105.774418,
                19.418756
              ],
              [
                105.773842,
                19.418358
              ],
              [
                105.773601,
                19.418379
              ],
              [
                105.773733,
                19.417752
              ],
              [
                105.773692,
                19.417683
              ],
              [
                105.773669,
                19.417602
              ],
              [
                105.77371,
                19.417516
              ],
              [
                105.77369,
                19.417402
              ],
              [
                105.773646,
                19.41728
              ],
              [
                105.773645,
                19.417211
              ],
              [
                105.773715,
                19.417099
              ],
              [
                105.773853,
                19.416919
              ],
              [
                105.773839,
                19.416573
              ],
              [
                105.773775,
                19.416346
              ],
              [
                105.773824,
                19.416202
              ],
              [
                105.774377,
                19.415772
              ],
              [
                105.774325,
                19.415725
              ],
              [
                105.774126,
                19.415548
              ],
              [
                105.775446,
                19.414602
              ],
              [
                105.775328,
                19.414533
              ],
              [
                105.774891,
                19.413983
              ],
              [
                105.774199,
                19.412847
              ],
              [
                105.774081,
                19.412704
              ],
              [
                105.77359,
                19.412108
              ],
              [
                105.771491,
                19.41046
              ],
              [
                105.76929,
                19.408647
              ],
              [
                105.768835,
                19.408272
              ],
              [
                105.768703,
                19.408087
              ],
              [
                105.768301,
                19.40752
              ],
              [
                105.768094,
                19.407228
              ],
              [
                105.767843,
                19.406393
              ],
              [
                105.76789,
                19.405738
              ],
              [
                105.768039,
                19.405215
              ],
              [
                105.768729,
                19.403842
              ],
              [
                105.769084,
                19.402489
              ],
              [
                105.769116,
                19.401353
              ],
              [
                105.768961,
                19.40041
              ],
              [
                105.768804,
                19.400065
              ],
              [
                105.768074,
                19.39822
              ],
              [
                105.767728,
                19.397542
              ],
              [
                105.767262,
                19.397028
              ],
              [
                105.76626,
                19.396217
              ],
              [
                105.766038,
                19.395964
              ],
              [
                105.765772,
                19.395563
              ],
              [
                105.765772,
                19.395562
              ],
              [
                105.765719,
                19.395483
              ],
              [
                105.765614,
                19.395325
              ],
              [
                105.765561,
                19.395246
              ],
              [
                105.765561,
                19.395245
              ],
              [
                105.765167,
                19.394651
              ],
              [
                105.764706,
                19.393885
              ],
              [
                105.764481,
                19.393977
              ],
              [
                105.764085,
                19.394139
              ],
              [
                105.763915,
                19.394251
              ],
              [
                105.76367,
                19.394644
              ],
              [
                105.763066,
                19.395538
              ],
              [
                105.763281,
                19.395911
              ],
              [
                105.763328,
                19.395992
              ],
              [
                105.763421,
                19.396153
              ],
              [
                105.763468,
                19.396234
              ],
              [
                105.763468,
                19.396234
              ],
              [
                105.76369,
                19.396618
              ],
              [
                105.763751,
                19.39679
              ],
              [
                105.763994,
                19.39709
              ],
              [
                105.763934,
                19.397191
              ],
              [
                105.763597,
                19.397514
              ],
              [
                105.763521,
                19.397587
              ],
              [
                105.763492,
                19.397615
              ],
              [
                105.763376,
                19.397726
              ],
              [
                105.763365,
                19.397736
              ],
              [
                105.763347,
                19.397753
              ],
              [
                105.763438,
                19.397901
              ],
              [
                105.763406,
                19.397913
              ],
              [
                105.76337,
                19.397927
              ],
              [
                105.763351,
                19.397935
              ],
              [
                105.763342,
                19.397939
              ],
              [
                105.763292,
                19.397959
              ],
              [
                105.763273,
                19.397968
              ],
              [
                105.763217,
                19.398006
              ],
              [
                105.763135,
                19.398079
              ],
              [
                105.763097,
                19.398105
              ],
              [
                105.763016,
                19.39815
              ],
              [
                105.76297,
                19.398169
              ],
              [
                105.763091,
                19.398523
              ],
              [
                105.762997,
                19.398605
              ],
              [
                105.762984,
                19.398631
              ],
              [
                105.762942,
                19.398648
              ],
              [
                105.762245,
                19.398904
              ],
              [
                105.761964,
                19.399116
              ],
              [
                105.761997,
                19.399718
              ],
              [
                105.761941,
                19.400684
              ],
              [
                105.76214,
                19.401219
              ],
              [
                105.762518,
                19.40176
              ],
              [
                105.76246,
                19.401801
              ],
              [
                105.761691,
                19.402337
              ],
              [
                105.761309,
                19.402603
              ],
              [
                105.761286,
                19.402619
              ],
              [
                105.760819,
                19.402858
              ],
              [
                105.760734,
                19.402902
              ],
              [
                105.760444,
                19.402417
              ],
              [
                105.758168,
                19.403252
              ],
              [
                105.758105,
                19.403066
              ],
              [
                105.758175,
                19.403015
              ],
              [
                105.758097,
                19.402792
              ],
              [
                105.757639,
                19.40292
              ],
              [
                105.757326,
                19.40183
              ],
              [
                105.757195,
                19.401692
              ],
              [
                105.756954,
                19.401784
              ],
              [
                105.756984,
                19.401873
              ],
              [
                105.756869,
                19.401905
              ],
              [
                105.756604,
                19.401513
              ],
              [
                105.756502,
                19.401525
              ],
              [
                105.756384,
                19.401397
              ],
              [
                105.755278,
                19.401735
              ],
              [
                105.755049,
                19.401777
              ],
              [
                105.754999,
                19.401863
              ],
              [
                105.754986,
                19.402818
              ],
              [
                105.754813,
                19.402864
              ],
              [
                105.75495,
                19.403836
              ],
              [
                105.753897,
                19.403969
              ],
              [
                105.7539,
                19.404064
              ],
              [
                105.753208,
                19.404045
              ],
              [
                105.753174,
                19.403884
              ],
              [
                105.753165,
                19.403838
              ],
              [
                105.752948,
                19.403834
              ],
              [
                105.75295,
                19.403946
              ],
              [
                105.752185,
                19.404156
              ],
              [
                105.752205,
                19.40426
              ],
              [
                105.752226,
                19.404365
              ],
              [
                105.752041,
                19.40448
              ],
              [
                105.751989,
                19.404512
              ],
              [
                105.751933,
                19.404546
              ],
              [
                105.75189,
                19.404575
              ],
              [
                105.751858,
                19.404537
              ],
              [
                105.751742,
                19.404399
              ],
              [
                105.750948,
                19.403457
              ],
              [
                105.750613,
                19.403659
              ],
              [
                105.750563,
                19.403553
              ],
              [
                105.750522,
                19.403523
              ],
              [
                105.750405,
                19.403532
              ],
              [
                105.750329,
                19.40354
              ],
              [
                105.750239,
                19.403556
              ],
              [
                105.750231,
                19.403593
              ],
              [
                105.750147,
                19.403612
              ],
              [
                105.75,
                19.403647
              ],
              [
                105.749837,
                19.403699
              ],
              [
                105.749825,
                19.403676
              ],
              [
                105.749767,
                19.403594
              ],
              [
                105.749747,
                19.403577
              ],
              [
                105.749693,
                19.403539
              ],
              [
                105.749689,
                19.403535
              ],
              [
                105.749646,
                19.403501
              ],
              [
                105.749604,
                19.403514
              ],
              [
                105.749551,
                19.403535
              ],
              [
                105.749505,
                19.40357
              ],
              [
                105.749464,
                19.40362
              ],
              [
                105.74945,
                19.403664
              ],
              [
                105.749456,
                19.403791
              ],
              [
                105.749455,
                19.40382
              ],
              [
                105.749438,
                19.403865
              ],
              [
                105.749407,
                19.403845
              ],
              [
                105.74936,
                19.40383
              ],
              [
                105.749308,
                19.403826
              ],
              [
                105.749242,
                19.40383
              ],
              [
                105.749184,
                19.403852
              ],
              [
                105.749056,
                19.403923
              ],
              [
                105.748991,
                19.403956
              ],
              [
                105.748924,
                19.403989
              ],
              [
                105.748871,
                19.404009
              ],
              [
                105.748557,
                19.404089
              ],
              [
                105.748412,
                19.404125
              ],
              [
                105.747962,
                19.404237
              ],
              [
                105.746714,
                19.404481
              ],
              [
                105.746721,
                19.404552
              ],
              [
                105.746899,
                19.406329
              ],
              [
                105.747049,
                19.408496
              ],
              [
                105.746297,
                19.413354
              ],
              [
                105.736319,
                19.415049
              ],
              [
                105.735032,
                19.415268
              ],
              [
                105.734715,
                19.415322
              ],
              [
                105.734625,
                19.415334
              ],
              [
                105.734307,
                19.415398
              ],
              [
                105.733999,
                19.415512
              ],
              [
                105.733644,
                19.415684
              ],
              [
                105.733346,
                19.415875
              ],
              [
                105.73149,
                19.41669
              ],
              [
                105.731439,
                19.416671
              ],
              [
                105.731384,
                19.416674
              ],
              [
                105.73133,
                19.416696
              ],
              [
                105.731254,
                19.416757
              ],
              [
                105.731104,
                19.416863
              ],
              [
                105.731003,
                19.417011
              ],
              [
                105.730879,
                19.417145
              ],
              [
                105.730738,
                19.417319
              ],
              [
                105.730647,
                19.417421
              ],
              [
                105.730562,
                19.417511
              ],
              [
                105.730511,
                19.417595
              ],
              [
                105.730463,
                19.41768
              ],
              [
                105.730435,
                19.417741
              ],
              [
                105.730401,
                19.417823
              ],
              [
                105.730366,
                19.417905
              ],
              [
                105.730325,
                19.41798
              ],
              [
                105.730285,
                19.418015
              ],
              [
                105.730209,
                19.418052
              ],
              [
                105.730019,
                19.418202
              ],
              [
                105.729951,
                19.418267
              ],
              [
                105.729897,
                19.418343
              ],
              [
                105.729863,
                19.41843
              ],
              [
                105.729813,
                19.418498
              ],
              [
                105.729759,
                19.418599
              ],
              [
                105.729729,
                19.418647
              ],
              [
                105.729651,
                19.418699
              ],
              [
                105.729548,
                19.41877
              ],
              [
                105.729413,
                19.418839
              ],
              [
                105.729202,
                19.418968
              ],
              [
                105.729185,
                19.418943
              ],
              [
                105.729139,
                19.418935
              ],
              [
                105.729081,
                19.418947
              ],
              [
                105.728848,
                19.419072
              ],
              [
                105.728657,
                19.419158
              ],
              [
                105.728466,
                19.419286
              ],
              [
                105.728422,
                19.419339
              ],
              [
                105.728368,
                19.419487
              ],
              [
                105.72819,
                19.419685
              ],
              [
                105.728093,
                19.419745
              ],
              [
                105.727971,
                19.419753
              ],
              [
                105.727577,
                19.419884
              ],
              [
                105.727269,
                19.420063
              ],
              [
                105.726936,
                19.420353
              ],
              [
                105.726897,
                19.420373
              ],
              [
                105.726804,
                19.420393
              ],
              [
                105.726736,
                19.42045
              ],
              [
                105.726707,
                19.420519
              ],
              [
                105.726751,
                19.420583
              ],
              [
                105.726757,
                19.42062
              ],
              [
                105.726749,
                19.420652
              ],
              [
                105.726559,
                19.420842
              ],
              [
                105.726419,
                19.421031
              ],
              [
                105.726366,
                19.421115
              ],
              [
                105.726338,
                19.421263
              ],
              [
                105.726309,
                19.421306
              ],
              [
                105.726249,
                19.421342
              ],
              [
                105.726145,
                19.421378
              ],
              [
                105.726044,
                19.421394
              ],
              [
                105.725754,
                19.421534
              ],
              [
                105.725485,
                19.421638
              ],
              [
                105.725331,
                19.421676
              ],
              [
                105.725143,
                19.421775
              ],
              [
                105.725044,
                19.421797
              ],
              [
                105.724909,
                19.421811
              ],
              [
                105.724737,
                19.421883
              ],
              [
                105.724596,
                19.421921
              ],
              [
                105.724485,
                19.421923
              ],
              [
                105.724321,
                19.421906
              ],
              [
                105.72404,
                19.421928
              ],
              [
                105.723991,
                19.421942
              ],
              [
                105.723933,
                19.422012
              ],
              [
                105.723848,
                19.422289
              ],
              [
                105.723801,
                19.422377
              ],
              [
                105.723729,
                19.422443
              ],
              [
                105.723687,
                19.42244
              ],
              [
                105.72357,
                19.422371
              ],
              [
                105.723483,
                19.422345
              ],
              [
                105.723417,
                19.422344
              ],
              [
                105.723358,
                19.422389
              ],
              [
                105.723277,
                19.422525
              ],
              [
                105.723195,
                19.42256
              ],
              [
                105.723132,
                19.42255
              ],
              [
                105.723053,
                19.422515
              ],
              [
                105.722902,
                19.422487
              ],
              [
                105.722692,
                19.422495
              ],
              [
                105.722471,
                19.422546
              ],
              [
                105.72235,
                19.422606
              ],
              [
                105.722257,
                19.422648
              ],
              [
                105.72211,
                19.422709
              ],
              [
                105.722051,
                19.422718
              ],
              [
                105.721968,
                19.422731
              ],
              [
                105.72189,
                19.422744
              ],
              [
                105.721814,
                19.422763
              ],
              [
                105.721745,
                19.422775
              ],
              [
                105.721645,
                19.422796
              ],
              [
                105.721566,
                19.422823
              ],
              [
                105.721465,
                19.422824
              ],
              [
                105.721381,
                19.422837
              ],
              [
                105.721316,
                19.422887
              ],
              [
                105.721151,
                19.423136
              ],
              [
                105.721089,
                19.423299
              ],
              [
                105.721047,
                19.423339
              ],
              [
                105.720856,
                19.42345
              ],
              [
                105.720672,
                19.423557
              ],
              [
                105.720608,
                19.423626
              ],
              [
                105.720477,
                19.423878
              ],
              [
                105.720374,
                19.424075
              ],
              [
                105.720325,
                19.424125
              ],
              [
                105.720265,
                19.424181
              ],
              [
                105.720198,
                19.424227
              ],
              [
                105.720161,
                19.424269
              ],
              [
                105.720162,
                19.424302
              ],
              [
                105.720184,
                19.424359
              ],
              [
                105.720208,
                19.424397
              ],
              [
                105.720201,
                19.424428
              ],
              [
                105.720151,
                19.42447
              ],
              [
                105.72008,
                19.424552
              ],
              [
                105.720017,
                19.424614
              ],
              [
                105.719967,
                19.424686
              ],
              [
                105.71994,
                19.424742
              ],
              [
                105.719889,
                19.424841
              ],
              [
                105.719841,
                19.424906
              ],
              [
                105.719787,
                19.424941
              ],
              [
                105.719718,
                19.424984
              ],
              [
                105.719673,
                19.425046
              ],
              [
                105.71964,
                19.425122
              ],
              [
                105.719634,
                19.425231
              ],
              [
                105.719627,
                19.425323
              ],
              [
                105.7196,
                19.425376
              ],
              [
                105.719558,
                19.425409
              ],
              [
                105.719464,
                19.425444
              ],
              [
                105.719392,
                19.425482
              ],
              [
                105.719347,
                19.425517
              ],
              [
                105.719336,
                19.425526
              ],
              [
                105.719299,
                19.425575
              ],
              [
                105.719251,
                19.425579
              ],
              [
                105.719171,
                19.425619
              ],
              [
                105.71901,
                19.425735
              ],
              [
                105.718864,
                19.42591
              ],
              [
                105.718777,
                19.42602
              ],
              [
                105.718686,
                19.426222
              ],
              [
                105.71865,
                19.426261
              ],
              [
                105.718454,
                19.42633
              ],
              [
                105.718386,
                19.426354
              ],
              [
                105.718289,
                19.426388
              ],
              [
                105.718124,
                19.426509
              ],
              [
                105.718077,
                19.426561
              ],
              [
                105.717994,
                19.426653
              ],
              [
                105.71799,
                19.426657
              ],
              [
                105.717865,
                19.42687
              ],
              [
                105.717838,
                19.426916
              ],
              [
                105.717767,
                19.427065
              ],
              [
                105.717757,
                19.427088
              ],
              [
                105.717712,
                19.427182
              ],
              [
                105.717658,
                19.427308
              ],
              [
                105.717608,
                19.427424
              ],
              [
                105.717606,
                19.427427
              ],
              [
                105.717577,
                19.427463
              ],
              [
                105.717528,
                19.427525
              ],
              [
                105.717454,
                19.427574
              ],
              [
                105.717265,
                19.427653
              ],
              [
                105.717194,
                19.427677
              ],
              [
                105.717061,
                19.427754
              ],
              [
                105.717028,
                19.42778
              ],
              [
                105.716989,
                19.427811
              ],
              [
                105.716845,
                19.427976
              ],
              [
                105.716839,
                19.427984
              ],
              [
                105.716814,
                19.428021
              ],
              [
                105.716754,
                19.428107
              ],
              [
                105.716738,
                19.428142
              ],
              [
                105.716725,
                19.428189
              ],
              [
                105.716721,
                19.428203
              ],
              [
                105.716687,
                19.428261
              ],
              [
                105.716659,
                19.428298
              ],
              [
                105.716646,
                19.428315
              ],
              [
                105.716591,
                19.428387
              ],
              [
                105.716577,
                19.428405
              ],
              [
                105.716536,
                19.428458
              ],
              [
                105.716503,
                19.428472
              ],
              [
                105.716459,
                19.428464
              ],
              [
                105.716427,
                19.42845
              ],
              [
                105.716371,
                19.428455
              ],
              [
                105.716314,
                19.428483
              ],
              [
                105.716238,
                19.428495
              ],
              [
                105.716138,
                19.428522
              ],
              [
                105.716019,
                19.42857
              ],
              [
                105.715891,
                19.428574
              ],
              [
                105.715851,
                19.428573
              ],
              [
                105.715812,
                19.428572
              ],
              [
                105.715743,
                19.428558
              ],
              [
                105.715706,
                19.428527
              ],
              [
                105.715689,
                19.428477
              ],
              [
                105.715676,
                19.428423
              ],
              [
                105.715654,
                19.428369
              ],
              [
                105.715629,
                19.428319
              ],
              [
                105.715581,
                19.428286
              ],
              [
                105.715532,
                19.428263
              ],
              [
                105.715502,
                19.428263
              ],
              [
                105.715441,
                19.428277
              ],
              [
                105.715408,
                19.428294
              ],
              [
                105.715283,
                19.428444
              ],
              [
                105.715241,
                19.428466
              ],
              [
                105.715146,
                19.428491
              ],
              [
                105.715065,
                19.428539
              ],
              [
                105.715022,
                19.428546
              ],
              [
                105.714994,
                19.428544
              ],
              [
                105.714988,
                19.428542
              ],
              [
                105.714912,
                19.428512
              ],
              [
                105.714872,
                19.428488
              ],
              [
                105.714861,
                19.428483
              ],
              [
                105.714829,
                19.428479
              ],
              [
                105.714796,
                19.428488
              ],
              [
                105.714741,
                19.428527
              ],
              [
                105.714626,
                19.428625
              ],
              [
                105.714563,
                19.428707
              ],
              [
                105.714453,
                19.428791
              ],
              [
                105.714364,
                19.428849
              ],
              [
                105.71433,
                19.428872
              ],
              [
                105.71424,
                19.428906
              ],
              [
                105.714182,
                19.428911
              ],
              [
                105.714034,
                19.428912
              ],
              [
                105.71372,
                19.428867
              ],
              [
                105.713409,
                19.428806
              ],
              [
                105.713363,
                19.428794
              ],
              [
                105.713303,
                19.428778
              ],
              [
                105.713244,
                19.428777
              ],
              [
                105.713189,
                19.428796
              ],
              [
                105.713117,
                19.42882
              ],
              [
                105.713059,
                19.428822
              ],
              [
                105.712987,
                19.428804
              ],
              [
                105.712947,
                19.428772
              ],
              [
                105.712899,
                19.428698
              ],
              [
                105.712874,
                19.428545
              ],
              [
                105.712814,
                19.428365
              ],
              [
                105.712777,
                19.428219
              ],
              [
                105.71275,
                19.428105
              ],
              [
                105.712748,
                19.42804
              ],
              [
                105.712765,
                19.427985
              ],
              [
                105.712778,
                19.427967
              ],
              [
                105.712806,
                19.42793
              ],
              [
                105.712826,
                19.427888
              ],
              [
                105.712829,
                19.427834
              ],
              [
                105.712812,
                19.427787
              ],
              [
                105.712779,
                19.427735
              ],
              [
                105.712719,
                19.427669
              ],
              [
                105.712679,
                19.427654
              ],
              [
                105.712622,
                19.42765
              ],
              [
                105.712552,
                19.427686
              ],
              [
                105.712444,
                19.427751
              ],
              [
                105.712349,
                19.427808
              ],
              [
                105.712315,
                19.427868
              ],
              [
                105.712298,
                19.427933
              ],
              [
                105.712296,
                19.42794
              ],
              [
                105.712241,
                19.428006
              ],
              [
                105.712202,
                19.428039
              ],
              [
                105.71215,
                19.42804
              ],
              [
                105.712089,
                19.428005
              ],
              [
                105.712022,
                19.42794
              ],
              [
                105.711995,
                19.427911
              ],
              [
                105.711951,
                19.427865
              ],
              [
                105.71185,
                19.427788
              ],
              [
                105.711802,
                19.427764
              ],
              [
                105.711749,
                19.427747
              ],
              [
                105.711685,
                19.427742
              ],
              [
                105.711584,
                19.427742
              ],
              [
                105.711437,
                19.427768
              ],
              [
                105.711291,
                19.427837
              ],
              [
                105.711278,
                19.427844
              ],
              [
                105.711215,
                19.427891
              ],
              [
                105.711128,
                19.42796
              ],
              [
                105.711107,
                19.427978
              ],
              [
                105.711082,
                19.427982
              ],
              [
                105.711037,
                19.427978
              ],
              [
                105.710976,
                19.427937
              ],
              [
                105.71087,
                19.427887
              ],
              [
                105.710802,
                19.427823
              ],
              [
                105.710757,
                19.427703
              ],
              [
                105.710751,
                19.427689
              ],
              [
                105.710726,
                19.42766
              ],
              [
                105.710683,
                19.427651
              ],
              [
                105.710645,
                19.427663
              ],
              [
                105.710552,
                19.427716
              ],
              [
                105.710499,
                19.427728
              ],
              [
                105.710448,
                19.427715
              ],
              [
                105.71034,
                19.427655
              ],
              [
                105.710255,
                19.427593
              ],
              [
                105.710195,
                19.427584
              ],
              [
                105.710126,
                19.427617
              ],
              [
                105.710088,
                19.427657
              ],
              [
                105.710035,
                19.427713
              ],
              [
                105.709953,
                19.427761
              ],
              [
                105.709768,
                19.427825
              ],
              [
                105.709613,
                19.427914
              ],
              [
                105.70951,
                19.427945
              ],
              [
                105.709425,
                19.427946
              ],
              [
                105.709377,
                19.427935
              ],
              [
                105.70933,
                19.427925
              ],
              [
                105.709276,
                19.427889
              ],
              [
                105.709244,
                19.4278
              ],
              [
                105.709238,
                19.427698
              ],
              [
                105.709235,
                19.427651
              ],
              [
                105.709349,
                19.427405
              ],
              [
                105.709403,
                19.427212
              ],
              [
                105.709439,
                19.427085
              ],
              [
                105.70943,
                19.427016
              ],
              [
                105.709374,
                19.426949
              ],
              [
                105.709291,
                19.426908
              ],
              [
                105.709202,
                19.426881
              ],
              [
                105.709103,
                19.42687
              ],
              [
                105.70894,
                19.426806
              ],
              [
                105.708486,
                19.426736
              ],
              [
                105.708182,
                19.4267
              ],
              [
                105.707858,
                19.426653
              ],
              [
                105.70741,
                19.426549
              ],
              [
                105.707266,
                19.426524
              ],
              [
                105.707284,
                19.426787
              ],
              [
                105.707353,
                19.42698
              ],
              [
                105.707384,
                19.427124
              ],
              [
                105.707437,
                19.427177
              ],
              [
                105.707728,
                19.427704
              ],
              [
                105.707894,
                19.428664
              ],
              [
                105.707978,
                19.429003
              ],
              [
                105.708008,
                19.429122
              ],
              [
                105.708009,
                19.429418
              ],
              [
                105.708009,
                19.429441
              ],
              [
                105.708004,
                19.42973
              ],
              [
                105.707998,
                19.429969
              ],
              [
                105.707781,
                19.430285
              ],
              [
                105.707549,
                19.430448
              ],
              [
                105.707404,
                19.430622
              ],
              [
                105.707392,
                19.430636
              ],
              [
                105.706939,
                19.431224
              ],
              [
                105.706803,
                19.431583
              ],
              [
                105.706717,
                19.431811
              ],
              [
                105.706636,
                19.431991
              ],
              [
                105.706635,
                19.431992
              ],
              [
                105.706479,
                19.432294
              ],
              [
                105.70636,
                19.432635
              ],
              [
                105.706141,
                19.432851
              ],
              [
                105.705742,
                19.433074
              ],
              [
                105.705709,
                19.433092
              ],
              [
                105.705293,
                19.43332
              ],
              [
                105.704909,
                19.433584
              ],
              [
                105.704576,
                19.4338
              ],
              [
                105.704334,
                19.434071
              ],
              [
                105.704182,
                19.434154
              ],
              [
                105.704157,
                19.434167
              ],
              [
                105.704029,
                19.434247
              ],
              [
                105.703871,
                19.434477
              ],
              [
                105.703686,
                19.435382
              ],
              [
                105.703676,
                19.435672
              ],
              [
                105.703653,
                19.435911
              ],
              [
                105.703574,
                19.436175
              ],
              [
                105.703446,
                19.43651
              ],
              [
                105.703232,
                19.436811
              ],
              [
                105.702983,
                19.437043
              ],
              [
                105.702797,
                19.437228
              ],
              [
                105.702627,
                19.437404
              ],
              [
                105.702492,
                19.437548
              ],
              [
                105.702296,
                19.437723
              ],
              [
                105.702011,
                19.43801
              ],
              [
                105.701594,
                19.438418
              ],
              [
                105.701301,
                19.438749
              ],
              [
                105.701166,
                19.439072
              ],
              [
                105.700947,
                19.439229
              ],
              [
                105.700676,
                19.439339
              ],
              [
                105.700111,
                19.439837
              ],
              [
                105.700036,
                19.440074
              ],
              [
                105.700212,
                19.44041
              ],
              [
                105.700326,
                19.440646
              ],
              [
                105.700317,
                19.440793
              ],
              [
                105.70013,
                19.440848
              ],
              [
                105.699903,
                19.440865
              ],
              [
                105.699759,
                19.440927
              ],
              [
                105.69958,
                19.441252
              ],
              [
                105.699581,
                19.441481
              ],
              [
                105.699553,
                19.441926
              ],
              [
                105.699532,
                19.442457
              ],
              [
                105.699531,
                19.442467
              ],
              [
                105.699482,
                19.443038
              ],
              [
                105.699415,
                19.443397
              ],
              [
                105.699397,
                19.443481
              ],
              [
                105.699342,
                19.444
              ],
              [
                105.69933,
                19.444041
              ],
              [
                105.699305,
                19.44412
              ],
              [
                105.699186,
                19.44451
              ],
              [
                105.698973,
                19.44488
              ],
              [
                105.698767,
                19.445071
              ],
              [
                105.69869,
                19.445142
              ],
              [
                105.698275,
                19.445374
              ],
              [
                105.698168,
                19.445449
              ],
              [
                105.698152,
                19.445584
              ],
              [
                105.697986,
                19.445834
              ],
              [
                105.697725,
                19.445931
              ],
              [
                105.697634,
                19.446027
              ],
              [
                105.697585,
                19.44619
              ],
              [
                105.697494,
                19.446314
              ],
              [
                105.697311,
                19.446382
              ],
              [
                105.696993,
                19.44659
              ],
              [
                105.696859,
                19.44685
              ],
              [
                105.696756,
                19.447122
              ],
              [
                105.696687,
                19.447302
              ],
              [
                105.696507,
                19.447568
              ],
              [
                105.6963,
                19.447772
              ],
              [
                105.696213,
                19.447856
              ],
              [
                105.696054,
                19.448162
              ],
              [
                105.695906,
                19.448446
              ],
              [
                105.695751,
                19.448898
              ],
              [
                105.695689,
                19.449078
              ],
              [
                105.695473,
                19.449739
              ],
              [
                105.695421,
                19.450085
              ],
              [
                105.695427,
                19.451331
              ],
              [
                105.695354,
                19.452013
              ],
              [
                105.695287,
                19.452286
              ],
              [
                105.69516,
                19.452516
              ],
              [
                105.695092,
                19.452745
              ],
              [
                105.695057,
                19.453284
              ],
              [
                105.694952,
                19.453542
              ],
              [
                105.694832,
                19.453779
              ],
              [
                105.694804,
                19.454167
              ],
              [
                105.694736,
                19.454296
              ],
              [
                105.694382,
                19.454692
              ],
              [
                105.694345,
                19.454915
              ],
              [
                105.694361,
                19.455094
              ],
              [
                105.694506,
                19.455308
              ],
              [
                105.694795,
                19.455666
              ],
              [
                105.694871,
                19.455809
              ],
              [
                105.694872,
                19.455938
              ],
              [
                105.694782,
                19.456096
              ],
              [
                105.694511,
                19.456406
              ],
              [
                105.69439,
                19.456578
              ],
              [
                105.694301,
                19.456837
              ],
              [
                105.694264,
                19.457189
              ],
              [
                105.694274,
                19.457514
              ],
              [
                105.694208,
                19.457923
              ],
              [
                105.694201,
                19.458365
              ],
              [
                105.694067,
                19.458689
              ],
              [
                105.693947,
                19.459026
              ],
              [
                105.693841,
                19.459583
              ],
              [
                105.693868,
                19.459995
              ],
              [
                105.693938,
                19.460375
              ],
              [
                105.694121,
                19.46069
              ],
              [
                105.694374,
                19.460928
              ],
              [
                105.694608,
                19.461414
              ],
              [
                105.694692,
                19.462227
              ],
              [
                105.694624,
                19.462687
              ],
              [
                105.694516,
                19.462988
              ],
              [
                105.694102,
                19.463329
              ],
              [
                105.693906,
                19.46361
              ],
              [
                105.693835,
                19.463831
              ],
              [
                105.693802,
                19.463933
              ],
              [
                105.693595,
                19.464106
              ],
              [
                105.693508,
                19.464178
              ],
              [
                105.693509,
                19.464451
              ],
              [
                105.693616,
                19.464708
              ],
              [
                105.693678,
                19.465067
              ],
              [
                105.693679,
                19.465404
              ],
              [
                105.693635,
                19.465677
              ],
              [
                105.693508,
                19.465935
              ],
              [
                105.693049,
                19.466489
              ],
              [
                105.693062,
                19.466723
              ],
              [
                105.693076,
                19.467175
              ],
              [
                105.693004,
                19.467706
              ],
              [
                105.692948,
                19.468182
              ],
              [
                105.692953,
                19.468607
              ],
              [
                105.692916,
                19.468729
              ],
              [
                105.692468,
                19.469111
              ],
              [
                105.692272,
                19.469352
              ],
              [
                105.692156,
                19.469539
              ],
              [
                105.69215,
                19.469563
              ],
              [
                105.692115,
                19.469722
              ],
              [
                105.692279,
                19.470238
              ],
              [
                105.692279,
                19.470238
              ]
            ]
          ]
        ]
      },
      "properties": {
        "code": "16609",
        "name": "Đào Duy Từ",
        "nameEn": "Dao Duy Tu",
        "fullName": "Phường Đào Duy Từ",
        "fullNameEn": "Dao Duy Tu Ward",
        "codeName": "dao_duy_tu",
        "postalCode": "42742",
        "postalCodePrefix": "",
        "gisServerId": "diaphanhanhchinhcapxa_2025.2572",
        "areaKm2": 42.86
      }
    }
  ]
}