{
  "type": "FeatureCollection",
  "bbox": [
    104.601513,
    20.758942,
    104.700759,
    20.865056
  ],
  "features": [
    {
      "type": "Feature",
      "id": "03979",
      "bbox": [
        104.601513,
        20.758942,
        104.700759,
        20.865056
      ],
      "geometry": {
        "type": "MultiPolygon",
        "coordinates": [
          [
            [
              [
                104.64808,
                20.865056
              ],
              [
                104.65208,
                20.860457
              ],
              [
                104.654329,
                20.859049
              ],
              [
                104.656646,
                20.857994
              ],
              [
                104.656954,
                20.852703
              ],
              [
                104.656955,
                20.852694
              ],
              [
                104.657443,
                20.851844
              ],
              [
                104.659127,
                20.848916
              ],
              [
                104.659708,
                20.848385
              ],
              [
                104.659849,
                20.848158
              ],
              [
                104.659904,
                20.848043
              ],
              [
                104.659903,
                20.847946
              ],
              [
                104.659862,
                20.847623
              ],
              [
                104.659829,
                20.847311
              ],
              [
                104.659806,
                20.847141
              ],
              [
                104.659766,
                20.846834
              ],
              [
                104.659743,
                20.84667
              ],
              [
                104.659716,
                20.846471
              ],
              [
                104.659666,
                20.846108
              ],
              [
                104.659488,
                20.844519
              ],
              [
                104.659469,
                20.844346
              ],
              [
                104.656682,
                20.837726
              ],
              [
                104.656549,
                20.837348
              ],
              [
                104.656389,
                20.837019
              ],
              [
                104.656409,
                20.836782
              ],
              [
                104.656386,
                20.836586
              ],
              [
                104.656331,
                20.836248
              ],
              [
                104.656379,
                20.836096
              ],
              [
                104.656478,
                20.835979
              ],
              [
                104.656478,
                20.835979
              ],
              [
                104.656615,
                20.835788
              ],
              [
                104.656837,
                20.835324
              ],
              [
                104.656871,
                20.835153
              ],
              [
                104.656489,
                20.834839
              ],
              [
                104.656317,
                20.834714
              ],
              [
                104.655976,
                20.834487
              ],
              [
                104.655658,
                20.834084
              ],
              [
                104.655394,
                20.833769
              ],
              [
                104.655167,
                20.833536
              ],
              [
                104.654777,
                20.833333
              ],
              [
                104.654391,
                20.833149
              ],
              [
                104.654229,
                20.833015
              ],
              [
                104.654077,
                20.832691
              ],
              [
                104.654036,
                20.832465
              ],
              [
                104.654026,
                20.832261
              ],
              [
                104.65405,
                20.832066
              ],
              [
                104.654269,
                20.831624
              ],
              [
                104.654328,
                20.831472
              ],
              [
                104.654449,
                20.831299
              ],
              [
                104.654735,
                20.831132
              ],
              [
                104.654735,
                20.831132
              ],
              [
                104.654971,
                20.831062
              ],
              [
                104.654971,
                20.831062
              ],
              [
                104.655178,
                20.831
              ],
              [
                104.655178,
                20.831
              ],
              [
                104.655387,
                20.830986
              ],
              [
                104.655514,
                20.83099
              ],
              [
                104.655649,
                20.831046
              ],
              [
                104.65582,
                20.831166
              ],
              [
                104.655948,
                20.831196
              ],
              [
                104.656114,
                20.831209
              ],
              [
                104.656272,
                20.831197
              ],
              [
                104.656301,
                20.830898
              ],
              [
                104.656532,
                20.830369
              ],
              [
                104.656653,
                20.829951
              ],
              [
                104.656862,
                20.829582
              ],
              [
                104.657094,
                20.829348
              ],
              [
                104.657329,
                20.828985
              ],
              [
                104.657402,
                20.828679
              ],
              [
                104.657417,
                20.828451
              ],
              [
                104.657346,
                20.828268
              ],
              [
                104.6571,
                20.827899
              ],
              [
                104.657008,
                20.827574
              ],
              [
                104.657002,
                20.827306
              ],
              [
                104.656998,
                20.82711
              ],
              [
                104.656998,
                20.826796
              ],
              [
                104.656729,
                20.826689
              ],
              [
                104.656465,
                20.826594
              ],
              [
                104.656328,
                20.82645
              ],
              [
                104.656187,
                20.826133
              ],
              [
                104.656029,
                20.825847
              ],
              [
                104.65589,
                20.825493
              ],
              [
                104.655908,
                20.82531
              ],
              [
                104.655945,
                20.825124
              ],
              [
                104.655975,
                20.82487
              ],
              [
                104.655986,
                20.824706
              ],
              [
                104.655807,
                20.824119
              ],
              [
                104.655775,
                20.82383
              ],
              [
                104.655704,
                20.82364
              ],
              [
                104.655688,
                20.823484
              ],
              [
                104.655697,
                20.823185
              ],
              [
                104.655745,
                20.822871
              ],
              [
                104.655773,
                20.822786
              ],
              [
                104.655926,
                20.822729
              ],
              [
                104.656311,
                20.822707
              ],
              [
                104.656859,
                20.82234
              ],
              [
                104.656859,
                20.82234
              ],
              [
                104.65739,
                20.822185
              ],
              [
                104.657714,
                20.822065
              ],
              [
                104.657714,
                20.822065
              ],
              [
                104.657896,
                20.821932
              ],
              [
                104.657896,
                20.821932
              ],
              [
                104.657683,
                20.821624
              ],
              [
                104.657341,
                20.821107
              ],
              [
                104.657243,
                20.820885
              ],
              [
                104.657181,
                20.820668
              ],
              [
                104.657097,
                20.820328
              ],
              [
                104.657074,
                20.820092
              ],
              [
                104.656918,
                20.819652
              ],
              [
                104.65686,
                20.819386
              ],
              [
                104.656911,
                20.819079
              ],
              [
                104.657071,
                20.818997
              ],
              [
                104.657071,
                20.818997
              ],
              [
                104.657232,
                20.818986
              ],
              [
                104.657433,
                20.818957
              ],
              [
                104.657998,
                20.818772
              ],
              [
                104.657998,
                20.818772
              ],
              [
                104.658814,
                20.812102
              ],
              [
                104.660244,
                20.81153
              ],
              [
                104.662792,
                20.810513
              ],
              [
                104.665261,
                20.804918
              ],
              [
                104.665238,
                20.804772
              ],
              [
                104.665248,
                20.804655
              ],
              [
                104.665253,
                20.804431
              ],
              [
                104.665577,
                20.804393
              ],
              [
                104.665943,
                20.80434
              ],
              [
                104.666256,
                20.803602
              ],
              [
                104.6668,
                20.802885
              ],
              [
                104.668012,
                20.801307
              ],
              [
                104.6681,
                20.801069
              ],
              [
                104.668173,
                20.800888
              ],
              [
                104.668215,
                20.80081
              ],
              [
                104.668322,
                20.800681
              ],
              [
                104.668483,
                20.8005
              ],
              [
                104.668579,
                20.800421
              ],
              [
                104.668631,
                20.800334
              ],
              [
                104.668644,
                20.800274
              ],
              [
                104.668644,
                20.800179
              ],
              [
                104.668624,
                20.800055
              ],
              [
                104.66856,
                20.799845
              ],
              [
                104.668357,
                20.799246
              ],
              [
                104.668329,
                20.799027
              ],
              [
                104.668334,
                20.798729
              ],
              [
                104.668351,
                20.798525
              ],
              [
                104.668419,
                20.798397
              ],
              [
                104.66849,
                20.79833
              ],
              [
                104.668516,
                20.798303
              ],
              [
                104.668582,
                20.798282
              ],
              [
                104.668714,
                20.798256
              ],
              [
                104.668901,
                20.798234
              ],
              [
                104.669312,
                20.798207
              ],
              [
                104.669776,
                20.798127
              ],
              [
                104.670422,
                20.798017
              ],
              [
                104.671023,
                20.797878
              ],
              [
                104.671599,
                20.797884
              ],
              [
                104.671641,
                20.797884
              ],
              [
                104.671699,
                20.7979
              ],
              [
                104.671747,
                20.797915
              ],
              [
                104.671808,
                20.797953
              ],
              [
                104.671978,
                20.798074
              ],
              [
                104.672444,
                20.79838
              ],
              [
                104.672533,
                20.798422
              ],
              [
                104.672631,
                20.798456
              ],
              [
                104.672737,
                20.79847
              ],
              [
                104.672882,
                20.798445
              ],
              [
                104.673068,
                20.798419
              ],
              [
                104.673327,
                20.798356
              ],
              [
                104.673648,
                20.798243
              ],
              [
                104.673882,
                20.798152
              ],
              [
                104.673958,
                20.798131
              ],
              [
                104.674068,
                20.798055
              ],
              [
                104.674164,
                20.797955
              ],
              [
                104.674276,
                20.797764
              ],
              [
                104.674305,
                20.797688
              ],
              [
                104.674325,
                20.79748
              ],
              [
                104.674445,
                20.797033
              ],
              [
                104.674475,
                20.796656
              ],
              [
                104.674452,
                20.796236
              ],
              [
                104.674431,
                20.796071
              ],
              [
                104.674423,
                20.795686
              ],
              [
                104.674388,
                20.795482
              ],
              [
                104.674313,
                20.79523
              ],
              [
                104.674103,
                20.794889
              ],
              [
                104.674025,
                20.794626
              ],
              [
                104.674028,
                20.794596
              ],
              [
                104.674036,
                20.794545
              ],
              [
                104.67405,
                20.794468
              ],
              [
                104.674077,
                20.794326
              ],
              [
                104.674093,
                20.79422
              ],
              [
                104.674113,
                20.793959
              ],
              [
                104.674265,
                20.793693
              ],
              [
                104.674444,
                20.793375
              ],
              [
                104.674568,
                20.793243
              ],
              [
                104.674792,
                20.793149
              ],
              [
                104.675022,
                20.793121
              ],
              [
                104.675196,
                20.79316
              ],
              [
                104.675562,
                20.793193
              ],
              [
                104.675944,
                20.79321
              ],
              [
                104.676562,
                20.793127
              ],
              [
                104.676931,
                20.793113
              ],
              [
                104.677049,
                20.793063
              ],
              [
                104.677252,
                20.792746
              ],
              [
                104.677512,
                20.792498
              ],
              [
                104.677828,
                20.792319
              ],
              [
                104.677873,
                20.792254
              ],
              [
                104.677901,
                20.792183
              ],
              [
                104.677901,
                20.792147
              ],
              [
                104.677898,
                20.792021
              ],
              [
                104.677919,
                20.791866
              ],
              [
                104.677915,
                20.791565
              ],
              [
                104.677817,
                20.791329
              ],
              [
                104.677767,
                20.791148
              ],
              [
                104.677851,
                20.790812
              ],
              [
                104.677897,
                20.790672
              ],
              [
                104.678149,
                20.790264
              ],
              [
                104.678287,
                20.790092
              ],
              [
                104.67847,
                20.789978
              ],
              [
                104.678718,
                20.789867
              ],
              [
                104.67892,
                20.789774
              ],
              [
                104.679066,
                20.789669
              ],
              [
                104.679103,
                20.789631
              ],
              [
                104.679149,
                20.789566
              ],
              [
                104.679226,
                20.78943
              ],
              [
                104.679397,
                20.788933
              ],
              [
                104.67969,
                20.788405
              ],
              [
                104.679697,
                20.788391
              ],
              [
                104.67993,
                20.787965
              ],
              [
                104.680007,
                20.78785
              ],
              [
                104.680626,
                20.787072
              ],
              [
                104.680813,
                20.786775
              ],
              [
                104.680957,
                20.786585
              ],
              [
                104.681016,
                20.786549
              ],
              [
                104.681067,
                20.786528
              ],
              [
                104.681117,
                20.78652
              ],
              [
                104.681193,
                20.786519
              ],
              [
                104.681323,
                20.78653
              ],
              [
                104.681429,
                20.78652
              ],
              [
                104.681519,
                20.786479
              ],
              [
                104.681678,
                20.786352
              ],
              [
                104.681755,
                20.786255
              ],
              [
                104.681884,
                20.786031
              ],
              [
                104.681885,
                20.786029
              ],
              [
                104.682084,
                20.785757
              ],
              [
                104.682222,
                20.785606
              ],
              [
                104.682422,
                20.785338
              ],
              [
                104.682611,
                20.785
              ],
              [
                104.682818,
                20.78478
              ],
              [
                104.68291,
                20.784697
              ],
              [
                104.683088,
                20.784566
              ],
              [
                104.683322,
                20.784394
              ],
              [
                104.683923,
                20.784017
              ],
              [
                104.684484,
                20.78363
              ],
              [
                104.684609,
                20.783504
              ],
              [
                104.684893,
                20.783187
              ],
              [
                104.685072,
                20.782912
              ],
              [
                104.685221,
                20.782688
              ],
              [
                104.68544,
                20.782455
              ],
              [
                104.685679,
                20.782255
              ],
              [
                104.685995,
                20.782022
              ],
              [
                104.686506,
                20.781693
              ],
              [
                104.686962,
                20.781353
              ],
              [
                104.687424,
                20.781003
              ],
              [
                104.687215,
                20.780706
              ],
              [
                104.687117,
                20.780458
              ],
              [
                104.686916,
                20.780132
              ],
              [
                104.68672,
                20.779849
              ],
              [
                104.686706,
                20.779809
              ],
              [
                104.686874,
                20.779626
              ],
              [
                104.687087,
                20.779451
              ],
              [
                104.687289,
                20.7793
              ],
              [
                104.687477,
                20.779194
              ],
              [
                104.687581,
                20.779124
              ],
              [
                104.687666,
                20.77902
              ],
              [
                104.687815,
                20.778676
              ],
              [
                104.687955,
                20.778433
              ],
              [
                104.688154,
                20.778247
              ],
              [
                104.688353,
                20.778112
              ],
              [
                104.688651,
                20.777982
              ],
              [
                104.688859,
                20.777959
              ],
              [
                104.689569,
                20.77796
              ],
              [
                104.689772,
                20.777988
              ],
              [
                104.689901,
                20.778031
              ],
              [
                104.690099,
                20.77811
              ],
              [
                104.690394,
                20.778244
              ],
              [
                104.691285,
                20.778598
              ],
              [
                104.691348,
                20.778613
              ],
              [
                104.691379,
                20.778589
              ],
              [
                104.691404,
                20.778528
              ],
              [
                104.691459,
                20.77836
              ],
              [
                104.69154,
                20.778048
              ],
              [
                104.691564,
                20.777922
              ],
              [
                104.691594,
                20.777861
              ],
              [
                104.691723,
                20.777768
              ],
              [
                104.692081,
                20.777554
              ],
              [
                104.692493,
                20.777209
              ],
              [
                104.692866,
                20.776892
              ],
              [
                104.693135,
                20.776673
              ],
              [
                104.693214,
                20.776575
              ],
              [
                104.693299,
                20.776444
              ],
              [
                104.693383,
                20.776376
              ],
              [
                104.693756,
                20.776113
              ],
              [
                104.69387,
                20.77602
              ],
              [
                104.69399,
                20.77589
              ],
              [
                104.694109,
                20.775661
              ],
              [
                104.694332,
                20.775159
              ],
              [
                104.694503,
                20.774896
              ],
              [
                104.694712,
                20.774625
              ],
              [
                104.694821,
                20.774509
              ],
              [
                104.694965,
                20.774425
              ],
              [
                104.695268,
                20.774285
              ],
              [
                104.695723,
                20.774131
              ],
              [
                104.696599,
                20.77383
              ],
              [
                104.697671,
                20.773495
              ],
              [
                104.698253,
                20.77337
              ],
              [
                104.698521,
                20.773249
              ],
              [
                104.69871,
                20.773119
              ],
              [
                104.699043,
                20.77276
              ],
              [
                104.699212,
                20.772522
              ],
              [
                104.699297,
                20.772359
              ],
              [
                104.699342,
                20.7722
              ],
              [
                104.699359,
                20.772083
              ],
              [
                104.699348,
                20.771761
              ],
              [
                104.699383,
                20.771649
              ],
              [
                104.699442,
                20.771551
              ],
              [
                104.699582,
                20.77135
              ],
              [
                104.699776,
                20.771061
              ],
              [
                104.69994,
                20.770776
              ],
              [
                104.700065,
                20.770608
              ],
              [
                104.70022,
                20.770394
              ],
              [
                104.700562,
                20.769923
              ],
              [
                104.700759,
                20.769582
              ],
              [
                104.70039,
                20.769404
              ],
              [
                104.700142,
                20.769226
              ],
              [
                104.700018,
                20.769058
              ],
              [
                104.699989,
                20.768899
              ],
              [
                104.699984,
                20.76874
              ],
              [
                104.700009,
                20.768637
              ],
              [
                104.700084,
                20.768497
              ],
              [
                104.700247,
                20.768232
              ],
              [
                104.700508,
                20.767737
              ],
              [
                104.699873,
                20.767696
              ],
              [
                104.699258,
                20.76764
              ],
              [
                104.697533,
                20.767498
              ],
              [
                104.695284,
                20.767245
              ],
              [
                104.69455,
                20.767065
              ],
              [
                104.694149,
                20.766975
              ],
              [
                104.6939,
                20.766929
              ],
              [
                104.693441,
                20.7669
              ],
              [
                104.693132,
                20.766951
              ],
              [
                104.692854,
                20.767047
              ],
              [
                104.69285,
                20.767021
              ],
              [
                104.692819,
                20.766836
              ],
              [
                104.692863,
                20.766152
              ],
              [
                104.692841,
                20.766118
              ],
              [
                104.692627,
                20.766102
              ],
              [
                104.692503,
                20.766101
              ],
              [
                104.69236,
                20.766124
              ],
              [
                104.692233,
                20.766124
              ],
              [
                104.692066,
                20.76613
              ],
              [
                104.691994,
                20.766144
              ],
              [
                104.691842,
                20.766144
              ],
              [
                104.691663,
                20.766139
              ],
              [
                104.691471,
                20.766175
              ],
              [
                104.691471,
                20.766175
              ],
              [
                104.691251,
                20.766261
              ],
              [
                104.691251,
                20.766262
              ],
              [
                104.691055,
                20.766402
              ],
              [
                104.691055,
                20.766402
              ],
              [
                104.690954,
                20.766484
              ],
              [
                104.690794,
                20.766611
              ],
              [
                104.690794,
                20.766611
              ],
              [
                104.690521,
                20.76686
              ],
              [
                104.690425,
                20.766953
              ],
              [
                104.690425,
                20.766953
              ],
              [
                104.690233,
                20.767207
              ],
              [
                104.690233,
                20.767207
              ],
              [
                104.690183,
                20.767253
              ],
              [
                104.690183,
                20.767253
              ],
              [
                104.690039,
                20.767407
              ],
              [
                104.69001,
                20.767448
              ],
              [
                104.689989,
                20.767478
              ],
              [
                104.689965,
                20.767532
              ],
              [
                104.689947,
                20.767547
              ],
              [
                104.689934,
                20.767552
              ],
              [
                104.689855,
                20.767548
              ],
              [
                104.689692,
                20.767451
              ],
              [
                104.689615,
                20.767381
              ],
              [
                104.689575,
                20.767353
              ],
              [
                104.689512,
                20.76727
              ],
              [
                104.689383,
                20.767221
              ],
              [
                104.689267,
                20.767113
              ],
              [
                104.688766,
                20.767499
              ],
              [
                104.688766,
                20.767499
              ],
              [
                104.688621,
                20.767611
              ],
              [
                104.688472,
                20.76774
              ],
              [
                104.688169,
                20.768024
              ],
              [
                104.687967,
                20.768337
              ],
              [
                104.687872,
                20.768464
              ],
              [
                104.687872,
                20.768464
              ],
              [
                104.687765,
                20.768545
              ],
              [
                104.687623,
                20.768595
              ],
              [
                104.687623,
                20.768595
              ],
              [
                104.687558,
                20.768608
              ],
              [
                104.687497,
                20.768613
              ],
              [
                104.687175,
                20.768622
              ],
              [
                104.686956,
                20.768618
              ],
              [
                104.686843,
                20.768649
              ],
              [
                104.686697,
                20.768705
              ],
              [
                104.686598,
                20.768777
              ],
              [
                104.686598,
                20.768777
              ],
              [
                104.686528,
                20.768839
              ],
              [
                104.686528,
                20.768839
              ],
              [
                104.686109,
                20.769216
              ],
              [
                104.686109,
                20.769216
              ],
              [
                104.685767,
                20.7696
              ],
              [
                104.685106,
                20.77031
              ],
              [
                104.684866,
                20.770562
              ],
              [
                104.684866,
                20.770562
              ],
              [
                104.684724,
                20.770699
              ],
              [
                104.684657,
                20.770786
              ],
              [
                104.684624,
                20.770846
              ],
              [
                104.684604,
                20.770936
              ],
              [
                104.684587,
                20.771045
              ],
              [
                104.684563,
                20.771151
              ],
              [
                104.684444,
                20.771164
              ],
              [
                104.684252,
                20.771148
              ],
              [
                104.683807,
                20.771141
              ],
              [
                104.683579,
                20.77114
              ],
              [
                104.683436,
                20.771112
              ],
              [
                104.683347,
                20.771074
              ],
              [
                104.683244,
                20.770977
              ],
              [
                104.68259,
                20.770466
              ],
              [
                104.682294,
                20.770214
              ],
              [
                104.682112,
                20.770086
              ],
              [
                104.682009,
                20.770015
              ],
              [
                104.681579,
                20.769754
              ],
              [
                104.681506,
                20.769682
              ],
              [
                104.681341,
                20.769454
              ],
              [
                104.681142,
                20.769126
              ],
              [
                104.68106,
                20.769004
              ],
              [
                104.680993,
                20.768941
              ],
              [
                104.680931,
                20.768904
              ],
              [
                104.680811,
                20.768891
              ],
              [
                104.680685,
                20.768881
              ],
              [
                104.680536,
                20.768922
              ],
              [
                104.680536,
                20.768922
              ],
              [
                104.680425,
                20.768971
              ],
              [
                104.680026,
                20.768662
              ],
              [
                104.676884,
                20.766003
              ],
              [
                104.676877,
                20.765742
              ],
              [
                104.676828,
                20.765587
              ],
              [
                104.676782,
                20.765469
              ],
              [
                104.676684,
                20.765364
              ],
              [
                104.67633,
                20.765058
              ],
              [
                104.675992,
                20.764704
              ],
              [
                104.675477,
                20.764171
              ],
              [
                104.675163,
                20.763793
              ],
              [
                104.675054,
                20.763658
              ],
              [
                104.674936,
                20.763574
              ],
              [
                104.67478,
                20.763534
              ],
              [
                104.674296,
                20.763379
              ],
              [
                104.674097,
                20.763275
              ],
              [
                104.673895,
                20.763111
              ],
              [
                104.673834,
                20.763052
              ],
              [
                104.673773,
                20.762992
              ],
              [
                104.67355,
                20.762638
              ],
              [
                104.673285,
                20.762098
              ],
              [
                104.673269,
                20.762059
              ],
              [
                104.673055,
                20.761553
              ],
              [
                104.672978,
                20.761418
              ],
              [
                104.672861,
                20.761212
              ],
              [
                104.672772,
                20.760964
              ],
              [
                104.672755,
                20.760856
              ],
              [
                104.672354,
                20.75925
              ],
              [
                104.672266,
                20.758942
              ],
              [
                104.668751,
                20.759784
              ],
              [
                104.668751,
                20.759784
              ],
              [
                104.666248,
                20.760247
              ],
              [
                104.666248,
                20.760247
              ],
              [
                104.664562,
                20.760118
              ],
              [
                104.663118,
                20.760441
              ],
              [
                104.66192,
                20.761807
              ],
              [
                104.66192,
                20.761807
              ],
              [
                104.661247,
                20.762173
              ],
              [
                104.661247,
                20.762173
              ],
              [
                104.659269,
                20.7615
              ],
              [
                104.656963,
                20.763006
              ],
              [
                104.655957,
                20.764416
              ],
              [
                104.655957,
                20.764416
              ],
              [
                104.654181,
                20.76583
              ],
              [
                104.653069,
                20.764835
              ],
              [
                104.652587,
                20.764837
              ],
              [
                104.652587,
                20.764837
              ],
              [
                104.651049,
                20.76566
              ],
              [
                104.650667,
                20.766478
              ],
              [
                104.648806,
                20.770523
              ],
              [
                104.647855,
                20.773522
              ],
              [
                104.650474,
                20.777641
              ],
              [
                104.652207,
                20.777181
              ],
              [
                104.654327,
                20.777309
              ],
              [
                104.654419,
                20.777314
              ],
              [
                104.654397,
                20.777374
              ],
              [
                104.654173,
                20.777979
              ],
              [
                104.654176,
                20.778593
              ],
              [
                104.654507,
                20.779719
              ],
              [
                104.654295,
                20.781102
              ],
              [
                104.653544,
                20.78341
              ],
              [
                104.653007,
                20.785
              ],
              [
                104.652743,
                20.786793
              ],
              [
                104.651983,
                20.789429
              ],
              [
                104.650325,
                20.787715
              ],
              [
                104.649503,
                20.787173
              ],
              [
                104.647624,
                20.787044
              ],
              [
                104.646757,
                20.787138
              ],
              [
                104.646757,
                20.787138
              ],
              [
                104.644884,
                20.788643
              ],
              [
                104.644884,
                20.788643
              ],
              [
                104.643055,
                20.789194
              ],
              [
                104.643055,
                20.789194
              ],
              [
                104.641952,
                20.79015
              ],
              [
                104.641952,
                20.79015
              ],
              [
                104.641951,
                20.790152
              ],
              [
                104.641951,
                20.790152
              ],
              [
                104.641817,
                20.791159
              ],
              [
                104.641817,
                20.791159
              ],
              [
                104.641876,
                20.791334
              ],
              [
                104.641906,
                20.791419
              ],
              [
                104.641906,
                20.791419
              ],
              [
                104.643097,
                20.793724
              ],
              [
                104.64374,
                20.79467
              ],
              [
                104.644895,
                20.794666
              ],
              [
                104.645659,
                20.795149
              ],
              [
                104.645685,
                20.795381
              ],
              [
                104.645685,
                20.795381
              ],
              [
                104.645269,
                20.795915
              ],
              [
                104.645269,
                20.795915
              ],
              [
                104.64483,
                20.796657
              ],
              [
                104.644124,
                20.79828
              ],
              [
                104.642776,
                20.799165
              ],
              [
                104.642776,
                20.799165
              ],
              [
                104.641625,
                20.80035
              ],
              [
                104.641625,
                20.80035
              ],
              [
                104.640867,
                20.80121
              ],
              [
                104.640237,
                20.803573
              ],
              [
                104.639871,
                20.80413
              ],
              [
                104.638914,
                20.804643
              ],
              [
                104.638914,
                20.804643
              ],
              [
                104.637788,
                20.805782
              ],
              [
                104.637788,
                20.805782
              ],
              [
                104.636538,
                20.806573
              ],
              [
                104.636538,
                20.806573
              ],
              [
                104.63514,
                20.807389
              ],
              [
                104.63514,
                20.807389
              ],
              [
                104.635042,
                20.807621
              ],
              [
                104.635167,
                20.80806
              ],
              [
                104.635365,
                20.808407
              ],
              [
                104.636374,
                20.808634
              ],
              [
                104.636819,
                20.809142
              ],
              [
                104.636994,
                20.809859
              ],
              [
                104.636981,
                20.811376
              ],
              [
                104.636192,
                20.81223
              ],
              [
                104.633687,
                20.814969
              ],
              [
                104.63314,
                20.814997
              ],
              [
                104.631415,
                20.814643
              ],
              [
                104.630103,
                20.814853
              ],
              [
                104.630103,
                20.814853
              ],
              [
                104.628056,
                20.815968
              ],
              [
                104.628056,
                20.815968
              ],
              [
                104.624997,
                20.8174
              ],
              [
                104.624997,
                20.8174
              ],
              [
                104.622882,
                20.818499
              ],
              [
                104.622882,
                20.818499
              ],
              [
                104.620232,
                20.819972
              ],
              [
                104.620232,
                20.819972
              ],
              [
                104.619556,
                20.820639
              ],
              [
                104.618406,
                20.822692
              ],
              [
                104.618468,
                20.824049
              ],
              [
                104.61816,
                20.824715
              ],
              [
                104.61816,
                20.824715
              ],
              [
                104.617484,
                20.825383
              ],
              [
                104.617484,
                20.825383
              ],
              [
                104.616019,
                20.826506
              ],
              [
                104.616019,
                20.826506
              ],
              [
                104.614497,
                20.827309
              ],
              [
                104.614497,
                20.827309
              ],
              [
                104.614073,
                20.827497
              ],
              [
                104.613055,
                20.827208
              ],
              [
                104.611045,
                20.826497
              ],
              [
                104.610054,
                20.825809
              ],
              [
                104.607906,
                20.82579
              ],
              [
                104.607906,
                20.82579
              ],
              [
                104.606749,
                20.826193
              ],
              [
                104.606749,
                20.826193
              ],
              [
                104.606411,
                20.826194
              ],
              [
                104.60624,
                20.826195
              ],
              [
                104.605979,
                20.826066
              ],
              [
                104.606055,
                20.826128
              ],
              [
                104.606106,
                20.826219
              ],
              [
                104.606157,
                20.826373
              ],
              [
                104.606169,
                20.826483
              ],
              [
                104.606126,
                20.826686
              ],
              [
                104.606023,
                20.82689
              ],
              [
                104.605754,
                20.827169
              ],
              [
                104.605203,
                20.827739
              ],
              [
                104.604249,
                20.828694
              ],
              [
                104.60397,
                20.82892
              ],
              [
                104.603679,
                20.829151
              ],
              [
                104.603422,
                20.829332
              ],
              [
                104.602944,
                20.829599
              ],
              [
                104.602465,
                20.829866
              ],
              [
                104.602219,
                20.829938
              ],
              [
                104.602009,
                20.829916
              ],
              [
                104.601513,
                20.829798
              ],
              [
                104.601982,
                20.830339
              ],
              [
                104.602249,
                20.830698
              ],
              [
                104.602321,
                20.830798
              ],
              [
                104.602546,
                20.830994
              ],
              [
                104.602721,
                20.831138
              ],
              [
                104.602862,
                20.831184
              ],
              [
                104.603035,
                20.831169
              ],
              [
                104.603301,
                20.831158
              ],
              [
                104.603429,
                20.831173
              ],
              [
                104.603512,
                20.831215
              ],
              [
                104.603557,
                20.831255
              ],
              [
                104.603684,
                20.83143
              ],
              [
                104.60381,
                20.831569
              ],
              [
                104.604209,
                20.831726
              ],
              [
                104.604349,
                20.831805
              ],
              [
                104.604461,
                20.831884
              ],
              [
                104.60455,
                20.831968
              ],
              [
                104.604669,
                20.832108
              ],
              [
                104.605103,
                20.832028
              ],
              [
                104.605337,
                20.83198
              ],
              [
                104.605508,
                20.8319
              ],
              [
                104.605609,
                20.831857
              ],
              [
                104.605833,
                20.832006
              ],
              [
                104.605941,
                20.832063
              ],
              [
                104.606191,
                20.832076
              ],
              [
                104.606582,
                20.832013
              ],
              [
                104.60695,
                20.831934
              ],
              [
                104.607341,
                20.831919
              ],
              [
                104.607674,
                20.832064
              ],
              [
                104.607928,
                20.832106
              ],
              [
                104.608207,
                20.832219
              ],
              [
                104.60839,
                20.832377
              ],
              [
                104.608496,
                20.832257
              ],
              [
                104.60861,
                20.832172
              ],
              [
                104.60872,
                20.832119
              ],
              [
                104.608873,
                20.832087
              ],
              [
                104.60905,
                20.832084
              ],
              [
                104.609192,
                20.832085
              ],
              [
                104.609308,
                20.832084
              ],
              [
                104.60946,
                20.832162
              ],
              [
                104.609833,
                20.832652
              ],
              [
                104.609976,
                20.833038
              ],
              [
                104.609975,
                20.833183
              ],
              [
                104.609782,
                20.833598
              ],
              [
                104.609652,
                20.83391
              ],
              [
                104.609832,
                20.834057
              ],
              [
                104.610001,
                20.834136
              ],
              [
                104.610033,
                20.834136
              ],
              [
                104.610216,
                20.834154
              ],
              [
                104.610323,
                20.834136
              ],
              [
                104.610613,
                20.834039
              ],
              [
                104.610959,
                20.833894
              ],
              [
                104.611185,
                20.833926
              ],
              [
                104.611467,
                20.833995
              ],
              [
                104.611698,
                20.834121
              ],
              [
                104.611759,
                20.834188
              ],
              [
                104.611813,
                20.834278
              ],
              [
                104.611869,
                20.834382
              ],
              [
                104.611918,
                20.83451
              ],
              [
                104.611988,
                20.834688
              ],
              [
                104.612097,
                20.834866
              ],
              [
                104.612221,
                20.834983
              ],
              [
                104.613054,
                20.835281
              ],
              [
                104.613688,
                20.835385
              ],
              [
                104.613935,
                20.835439
              ],
              [
                104.614147,
                20.835511
              ],
              [
                104.614126,
                20.835327
              ],
              [
                104.614138,
                20.835263
              ],
              [
                104.614157,
                20.835223
              ],
              [
                104.614241,
                20.835156
              ],
              [
                104.614341,
                20.835148
              ],
              [
                104.614606,
                20.835139
              ],
              [
                104.614835,
                20.835129
              ],
              [
                104.615502,
                20.835067
              ],
              [
                104.615681,
                20.835014
              ],
              [
                104.615958,
                20.834972
              ],
              [
                104.616168,
                20.83499
              ],
              [
                104.616374,
                20.835055
              ],
              [
                104.616574,
                20.835119
              ],
              [
                104.616841,
                20.835186
              ],
              [
                104.617059,
                20.835197
              ],
              [
                104.617304,
                20.835216
              ],
              [
                104.617466,
                20.835278
              ],
              [
                104.61828,
                20.835863
              ],
              [
                104.618519,
                20.836119
              ],
              [
                104.618637,
                20.836309
              ],
              [
                104.618789,
                20.836625
              ],
              [
                104.618836,
                20.836763
              ],
              [
                104.618866,
                20.836813
              ],
              [
                104.618903,
                20.836855
              ],
              [
                104.618931,
                20.836922
              ],
              [
                104.618938,
                20.837004
              ],
              [
                104.618925,
                20.837086
              ],
              [
                104.618882,
                20.837191
              ],
              [
                104.618839,
                20.837341
              ],
              [
                104.618886,
                20.837551
              ],
              [
                104.619009,
                20.837727
              ],
              [
                104.619084,
                20.837816
              ],
              [
                104.619179,
                20.837948
              ],
              [
                104.619241,
                20.838062
              ],
              [
                104.619304,
                20.838241
              ],
              [
                104.619367,
                20.838426
              ],
              [
                104.619408,
                20.838589
              ],
              [
                104.619431,
                20.838645
              ],
              [
                104.619478,
                20.838683
              ],
              [
                104.619582,
                20.838754
              ],
              [
                104.619767,
                20.838822
              ],
              [
                104.619919,
                20.838869
              ],
              [
                104.62012,
                20.838884
              ],
              [
                104.620297,
                20.838874
              ],
              [
                104.620435,
                20.838845
              ],
              [
                104.620508,
                20.839087
              ],
              [
                104.620539,
                20.839202
              ],
              [
                104.620556,
                20.839248
              ],
              [
                104.620574,
                20.83927
              ],
              [
                104.620708,
                20.839382
              ],
              [
                104.620983,
                20.839551
              ],
              [
                104.621183,
                20.839683
              ],
              [
                104.621319,
                20.839752
              ],
              [
                104.621514,
                20.839779
              ],
              [
                104.621716,
                20.839734
              ],
              [
                104.621996,
                20.839584
              ],
              [
                104.622217,
                20.839442
              ],
              [
                104.622402,
                20.83937
              ],
              [
                104.622633,
                20.83935
              ],
              [
                104.622874,
                20.839364
              ],
              [
                104.622945,
                20.839367
              ],
              [
                104.623088,
                20.839447
              ],
              [
                104.623195,
                20.839522
              ],
              [
                104.623395,
                20.839703
              ],
              [
                104.623729,
                20.840056
              ],
              [
                104.623895,
                20.840122
              ],
              [
                104.624072,
                20.840144
              ],
              [
                104.624244,
                20.840152
              ],
              [
                104.624404,
                20.840136
              ],
              [
                104.624609,
                20.840089
              ],
              [
                104.62496,
                20.84006
              ],
              [
                104.625173,
                20.840064
              ],
              [
                104.625368,
                20.840115
              ],
              [
                104.625614,
                20.840206
              ],
              [
                104.625771,
                20.840252
              ],
              [
                104.626059,
                20.840319
              ],
              [
                104.626537,
                20.840412
              ],
              [
                104.626876,
                20.840431
              ],
              [
                104.626878,
                20.840431
              ],
              [
                104.627387,
                20.840348
              ],
              [
                104.627919,
                20.840187
              ],
              [
                104.628389,
                20.839937
              ],
              [
                104.628811,
                20.83966
              ],
              [
                104.62913,
                20.839314
              ],
              [
                104.62942,
                20.839063
              ],
              [
                104.629293,
                20.839364
              ],
              [
                104.629149,
                20.839661
              ],
              [
                104.629027,
                20.840004
              ],
              [
                104.62894,
                20.840179
              ],
              [
                104.628552,
                20.840706
              ],
              [
                104.628512,
                20.840949
              ],
              [
                104.628506,
                20.841201
              ],
              [
                104.628691,
                20.841613
              ],
              [
                104.628779,
                20.841988
              ],
              [
                104.628786,
                20.842159
              ],
              [
                104.628669,
                20.842308
              ],
              [
                104.628548,
                20.842549
              ],
              [
                104.628415,
                20.842665
              ],
              [
                104.62821,
                20.842858
              ],
              [
                104.628036,
                20.842982
              ],
              [
                104.627188,
                20.844041
              ],
              [
                104.629089,
                20.845629
              ],
              [
                104.629795,
                20.847598
              ],
              [
                104.630866,
                20.848795
              ],
              [
                104.630751,
                20.849306
              ],
              [
                104.630827,
                20.849922
              ],
              [
                104.630889,
                20.850434
              ],
              [
                104.631162,
                20.852661
              ],
              [
                104.631467,
                20.853927
              ],
              [
                104.632985,
                20.855579
              ],
              [
                104.633012,
                20.855588
              ],
              [
                104.633697,
                20.85585
              ],
              [
                104.634068,
                20.856087
              ],
              [
                104.634358,
                20.856293
              ],
              [
                104.634648,
                20.856499
              ],
              [
                104.634905,
                20.856783
              ],
              [
                104.634986,
                20.857007
              ],
              [
                104.634965,
                20.857236
              ],
              [
                104.634959,
                20.857524
              ],
              [
                104.634959,
                20.857968
              ],
              [
                104.635162,
                20.857938
              ],
              [
                104.635324,
                20.85792
              ],
              [
                104.635548,
                20.85799
              ],
              [
                104.635747,
                20.858026
              ],
              [
                104.636027,
                20.858006
              ],
              [
                104.636184,
                20.858012
              ],
              [
                104.636327,
                20.85805
              ],
              [
                104.636531,
                20.858147
              ],
              [
                104.636832,
                20.858397
              ],
              [
                104.637743,
                20.858836
              ],
              [
                104.638242,
                20.859141
              ],
              [
                104.638675,
                20.859447
              ],
              [
                104.638974,
                20.859811
              ],
              [
                104.639176,
                20.86012
              ],
              [
                104.639529,
                20.860515
              ],
              [
                104.639993,
                20.860863
              ],
              [
                104.640274,
                20.861029
              ],
              [
                104.640757,
                20.861256
              ],
              [
                104.641413,
                20.861431
              ],
              [
                104.642083,
                20.861647
              ],
              [
                104.642436,
                20.861538
              ],
              [
                104.64283,
                20.861457
              ],
              [
                104.643511,
                20.861372
              ],
              [
                104.643905,
                20.861303
              ],
              [
                104.644147,
                20.861226
              ],
              [
                104.644307,
                20.861197
              ],
              [
                104.644446,
                20.861246
              ],
              [
                104.645031,
                20.86156
              ],
              [
                104.64524,
                20.861708
              ],
              [
                104.645358,
                20.861803
              ],
              [
                104.645528,
                20.861865
              ],
              [
                104.645597,
                20.861867
              ],
              [
                104.64597,
                20.86187
              ],
              [
                104.64604,
                20.862164
              ],
              [
                104.64633,
                20.863071
              ],
              [
                104.646705,
                20.86405
              ],
              [
                104.647166,
                20.86448
              ],
              [
                104.647494,
                20.864821
              ],
              [
                104.647586,
                20.864902
              ],
              [
                104.647732,
                20.864981
              ],
              [
                104.647946,
                20.865024
              ],
              [
                104.64808,
                20.865056
              ],
              [
                104.64808,
                20.865056
              ]
            ]
          ]
        ]
      },
      "properties": {
        "code": "03979",
        "name": "Mộc Sơn",
        "nameEn": "Moc Son",
        "fullName": "Phường Mộc Sơn",
        "fullNameEn": "Moc Son Ward",
        "codeName": "moc_son",
        "postalCode": "34721",
        "postalCodePrefix": "",
        "gisServerId": "diaphanhanhchinhcapxa_2025.1379",
        "areaKm2": 37.88
      }
    }
  ]
}