{
  "type": "FeatureCollection",
  "bbox": [
    106.153119,
    20.098739,
    106.202773,
    20.209863
  ],
  "features": [
    {
      "type": "Feature",
      "id": "13918",
      "bbox": [
        106.153119,
        20.098739,
        106.202773,
        20.209863
      ],
      "geometry": {
        "type": "MultiPolygon",
        "coordinates": [
          [
            [
              [
                106.187926,
                20.205895
              ],
              [
                106.188058,
                20.205809
              ],
              [
                106.188142,
                20.205746
              ],
              [
                106.188227,
                20.205698
              ],
              [
                106.188313,
                20.205649
              ],
              [
                106.188346,
                20.205632
              ],
              [
                106.188468,
                20.205558
              ],
              [
                106.188677,
                20.205421
              ],
              [
                106.188833,
                20.205308
              ],
              [
                106.188895,
                20.205254
              ],
              [
                106.188944,
                20.205204
              ],
              [
                106.189043,
                20.205113
              ],
              [
                106.189074,
                20.205084
              ],
              [
                106.189124,
                20.205003
              ],
              [
                106.189447,
                20.204575
              ],
              [
                106.189638,
                20.204139
              ],
              [
                106.189764,
                20.203892
              ],
              [
                106.190169,
                20.203148
              ],
              [
                106.190588,
                20.202012
              ],
              [
                106.190181,
                20.201576
              ],
              [
                106.188964,
                20.200016
              ],
              [
                106.187595,
                20.19808
              ],
              [
                106.186588,
                20.196523
              ],
              [
                106.185962,
                20.19538
              ],
              [
                106.185396,
                20.194198
              ],
              [
                106.184859,
                20.19292
              ],
              [
                106.184289,
                20.191222
              ],
              [
                106.183307,
                20.188513
              ],
              [
                106.182623,
                20.186528
              ],
              [
                106.182145,
                20.184858
              ],
              [
                106.181727,
                20.183216
              ],
              [
                106.181435,
                20.182004
              ],
              [
                106.181168,
                20.180256
              ],
              [
                106.180744,
                20.177667
              ],
              [
                106.180226,
                20.174355
              ],
              [
                106.180169,
                20.17399
              ],
              [
                106.179543,
                20.170179
              ],
              [
                106.179115,
                20.167141
              ],
              [
                106.178797,
                20.163901
              ],
              [
                106.178586,
                20.161407
              ],
              [
                106.178321,
                20.157125
              ],
              [
                106.178323,
                20.155128
              ],
              [
                106.17806,
                20.151941
              ],
              [
                106.178314,
                20.147787
              ],
              [
                106.178232,
                20.142628
              ],
              [
                106.178229,
                20.142413
              ],
              [
                106.178303,
                20.142174
              ],
              [
                106.178499,
                20.141539
              ],
              [
                106.178574,
                20.14092
              ],
              [
                106.178695,
                20.14021
              ],
              [
                106.17877,
                20.139772
              ],
              [
                106.178818,
                20.139608
              ],
              [
                106.178978,
                20.139062
              ],
              [
                106.17937,
                20.137724
              ],
              [
                106.1807,
                20.133892
              ],
              [
                106.181373,
                20.132489
              ],
              [
                106.181897,
                20.131489
              ],
              [
                106.182429,
                20.13056
              ],
              [
                106.18312,
                20.129559
              ],
              [
                106.184038,
                20.12842
              ],
              [
                106.186474,
                20.125678
              ],
              [
                106.187998,
                20.124016
              ],
              [
                106.18849,
                20.12338
              ],
              [
                106.188951,
                20.122942
              ],
              [
                106.189186,
                20.122715
              ],
              [
                106.191927,
                20.1202
              ],
              [
                106.192207,
                20.119955
              ],
              [
                106.192675,
                20.119549
              ],
              [
                106.193092,
                20.11918
              ],
              [
                106.195069,
                20.117272
              ],
              [
                106.197111,
                20.114655
              ],
              [
                106.197968,
                20.113198
              ],
              [
                106.198414,
                20.112332
              ],
              [
                106.19859,
                20.111993
              ],
              [
                106.198702,
                20.111697
              ],
              [
                106.198762,
                20.111512
              ],
              [
                106.198917,
                20.111056
              ],
              [
                106.199074,
                20.110619
              ],
              [
                106.199241,
                20.110126
              ],
              [
                106.199401,
                20.109661
              ],
              [
                106.199547,
                20.109192
              ],
              [
                106.199702,
                20.108702
              ],
              [
                106.199869,
                20.108219
              ],
              [
                106.200026,
                20.107731
              ],
              [
                106.200174,
                20.107245
              ],
              [
                106.200336,
                20.106765
              ],
              [
                106.200506,
                20.106284
              ],
              [
                106.200673,
                20.105798
              ],
              [
                106.200825,
                20.105308
              ],
              [
                106.200983,
                20.104813
              ],
              [
                106.201157,
                20.104326
              ],
              [
                106.201343,
                20.103979
              ],
              [
                106.20169,
                20.10298
              ],
              [
                106.201988,
                20.102058
              ],
              [
                106.20232,
                20.101113
              ],
              [
                106.202705,
                20.100363
              ],
              [
                106.202773,
                20.100227
              ],
              [
                106.201503,
                20.100207
              ],
              [
                106.201002,
                20.100171
              ],
              [
                106.199951,
                20.100095
              ],
              [
                106.199587,
                20.100043
              ],
              [
                106.199477,
                20.100019
              ],
              [
                106.199091,
                20.100011
              ],
              [
                106.198703,
                20.100003
              ],
              [
                106.19853,
                20.09999
              ],
              [
                106.198505,
                20.099988
              ],
              [
                106.198505,
                20.099988
              ],
              [
                106.198505,
                20.099988
              ],
              [
                106.198159,
                20.09996
              ],
              [
                106.197515,
                20.099904
              ],
              [
                106.196377,
                20.099825
              ],
              [
                106.195039,
                20.099725
              ],
              [
                106.194715,
                20.099701
              ],
              [
                106.194715,
                20.099701
              ],
              [
                106.194424,
                20.099679
              ],
              [
                106.193487,
                20.099625
              ],
              [
                106.192665,
                20.099567
              ],
              [
                106.191616,
                20.099482
              ],
              [
                106.190364,
                20.099406
              ],
              [
                106.189061,
                20.09931
              ],
              [
                106.187895,
                20.099221
              ],
              [
                106.187075,
                20.099155
              ],
              [
                106.186223,
                20.099106
              ],
              [
                106.18589,
                20.099084
              ],
              [
                106.185558,
                20.099062
              ],
              [
                106.18441,
                20.098973
              ],
              [
                106.183577,
                20.098911
              ],
              [
                106.182969,
                20.098863
              ],
              [
                106.182272,
                20.098826
              ],
              [
                106.181556,
                20.098781
              ],
              [
                106.181295,
                20.098765
              ],
              [
                106.181004,
                20.098739
              ],
              [
                106.180886,
                20.098743
              ],
              [
                106.180818,
                20.099151
              ],
              [
                106.180755,
                20.099531
              ],
              [
                106.180644,
                20.100164
              ],
              [
                106.180644,
                20.100164
              ],
              [
                106.180628,
                20.100247
              ],
              [
                106.180605,
                20.100371
              ],
              [
                106.180583,
                20.100482
              ],
              [
                106.180564,
                20.100581
              ],
              [
                106.180545,
                20.100674
              ],
              [
                106.180528,
                20.100763
              ],
              [
                106.180512,
                20.100851
              ],
              [
                106.180497,
                20.100936
              ],
              [
                106.180483,
                20.101018
              ],
              [
                106.18047,
                20.101099
              ],
              [
                106.180459,
                20.101179
              ],
              [
                106.18045,
                20.101256
              ],
              [
                106.180443,
                20.101331
              ],
              [
                106.180438,
                20.101402
              ],
              [
                106.180435,
                20.101468
              ],
              [
                106.180435,
                20.101503
              ],
              [
                106.180434,
                20.101531
              ],
              [
                106.180436,
                20.10157
              ],
              [
                106.180436,
                20.10159
              ],
              [
                106.180439,
                20.101643
              ],
              [
                106.180443,
                20.10169
              ],
              [
                106.180447,
                20.101729
              ],
              [
                106.180451,
                20.101767
              ],
              [
                106.180457,
                20.101812
              ],
              [
                106.180458,
                20.101816
              ],
              [
                106.180467,
                20.101875
              ],
              [
                106.180481,
                20.101956
              ],
              [
                106.180497,
                20.102047
              ],
              [
                106.180515,
                20.102142
              ],
              [
                106.180533,
                20.102236
              ],
              [
                106.180552,
                20.102323
              ],
              [
                106.18057,
                20.102404
              ],
              [
                106.180585,
                20.102466
              ],
              [
                106.180589,
                20.102479
              ],
              [
                106.180608,
                20.102551
              ],
              [
                106.180627,
                20.102619
              ],
              [
                106.180646,
                20.102683
              ],
              [
                106.180666,
                20.102745
              ],
              [
                106.180687,
                20.102804
              ],
              [
                106.18071,
                20.10286
              ],
              [
                106.180735,
                20.102914
              ],
              [
                106.180762,
                20.102966
              ],
              [
                106.180791,
                20.103018
              ],
              [
                106.180822,
                20.103069
              ],
              [
                106.180854,
                20.103122
              ],
              [
                106.180887,
                20.103175
              ],
              [
                106.180919,
                20.103227
              ],
              [
                106.180934,
                20.10325
              ],
              [
                106.180949,
                20.103275
              ],
              [
                106.180973,
                20.103319
              ],
              [
                106.180991,
                20.103358
              ],
              [
                106.181007,
                20.103397
              ],
              [
                106.181022,
                20.103441
              ],
              [
                106.181038,
                20.103488
              ],
              [
                106.181055,
                20.103539
              ],
              [
                106.18107,
                20.103594
              ],
              [
                106.181078,
                20.103626
              ],
              [
                106.181084,
                20.103651
              ],
              [
                106.181093,
                20.1037
              ],
              [
                106.181094,
                20.103709
              ],
              [
                106.181104,
                20.103765
              ],
              [
                106.181112,
                20.103817
              ],
              [
                106.181118,
                20.103861
              ],
              [
                106.181121,
                20.103899
              ],
              [
                106.181123,
                20.103932
              ],
              [
                106.181124,
                20.103963
              ],
              [
                106.181123,
                20.103994
              ],
              [
                106.181119,
                20.104026
              ],
              [
                106.181114,
                20.104059
              ],
              [
                106.181105,
                20.104094
              ],
              [
                106.181094,
                20.104132
              ],
              [
                106.18108,
                20.104176
              ],
              [
                106.181073,
                20.104194
              ],
              [
                106.181061,
                20.104226
              ],
              [
                106.181037,
                20.104281
              ],
              [
                106.181012,
                20.104336
              ],
              [
                106.180986,
                20.104387
              ],
              [
                106.180959,
                20.104432
              ],
              [
                106.180932,
                20.104471
              ],
              [
                106.180905,
                20.104506
              ],
              [
                106.180881,
                20.104536
              ],
              [
                106.18086,
                20.104562
              ],
              [
                106.180859,
                20.104563
              ],
              [
                106.180838,
                20.104587
              ],
              [
                106.180817,
                20.104607
              ],
              [
                106.180796,
                20.104625
              ],
              [
                106.180773,
                20.104639
              ],
              [
                106.180772,
                20.10464
              ],
              [
                106.180746,
                20.104652
              ],
              [
                106.180716,
                20.104662
              ],
              [
                106.180684,
                20.10467
              ],
              [
                106.180649,
                20.104677
              ],
              [
                106.180619,
                20.104683
              ],
              [
                106.180618,
                20.104683
              ],
              [
                106.180613,
                20.104684
              ],
              [
                106.180539,
                20.104694
              ],
              [
                106.180508,
                20.104698
              ],
              [
                106.180456,
                20.104702
              ],
              [
                106.180408,
                20.104705
              ],
              [
                106.180366,
                20.104704
              ],
              [
                106.180329,
                20.1047
              ],
              [
                106.180296,
                20.104696
              ],
              [
                106.180267,
                20.104692
              ],
              [
                106.18025,
                20.104689
              ],
              [
                106.180189,
                20.104679
              ],
              [
                106.180125,
                20.10465
              ],
              [
                106.180112,
                20.104644
              ],
              [
                106.180091,
                20.104635
              ],
              [
                106.180085,
                20.104632
              ],
              [
                106.180046,
                20.104611
              ],
              [
                106.180045,
                20.104613
              ],
              [
                106.180029,
                20.104724
              ],
              [
                106.180008,
                20.104858
              ],
              [
                106.179866,
                20.105803
              ],
              [
                106.179774,
                20.10582
              ],
              [
                106.179526,
                20.105847
              ],
              [
                106.179486,
                20.105851
              ],
              [
                106.179405,
                20.10586
              ],
              [
                106.178613,
                20.105948
              ],
              [
                106.178446,
                20.105966
              ],
              [
                106.177627,
                20.106056
              ],
              [
                106.17682,
                20.106161
              ],
              [
                106.176739,
                20.106172
              ],
              [
                106.175265,
                20.106332
              ],
              [
                106.174414,
                20.106446
              ],
              [
                106.172796,
                20.106625
              ],
              [
                106.172432,
                20.106663
              ],
              [
                106.171997,
                20.106709
              ],
              [
                106.171342,
                20.106779
              ],
              [
                106.170117,
                20.10694
              ],
              [
                106.169865,
                20.106973
              ],
              [
                106.168773,
                20.107099
              ],
              [
                106.16751,
                20.107271
              ],
              [
                106.166137,
                20.107414
              ],
              [
                106.166134,
                20.107414
              ],
              [
                106.164655,
                20.107573
              ],
              [
                106.163751,
                20.107645
              ],
              [
                106.162858,
                20.107735
              ],
              [
                106.162316,
                20.1078
              ],
              [
                106.161515,
                20.107924
              ],
              [
                106.161029,
                20.108
              ],
              [
                106.160501,
                20.108046
              ],
              [
                106.16025,
                20.108068
              ],
              [
                106.160063,
                20.108093
              ],
              [
                106.159852,
                20.108101
              ],
              [
                106.159605,
                20.10811
              ],
              [
                106.159534,
                20.108118
              ],
              [
                106.159372,
                20.108135
              ],
              [
                106.159253,
                20.108144
              ],
              [
                106.159147,
                20.108152
              ],
              [
                106.158919,
                20.108182
              ],
              [
                106.158839,
                20.1082
              ],
              [
                106.158699,
                20.108222
              ],
              [
                106.158667,
                20.108227
              ],
              [
                106.158618,
                20.108236
              ],
              [
                106.158465,
                20.108292
              ],
              [
                106.158273,
                20.108341
              ],
              [
                106.158263,
                20.108344
              ],
              [
                106.158021,
                20.108379
              ],
              [
                106.157501,
                20.108465
              ],
              [
                106.15723,
                20.108492
              ],
              [
                106.157154,
                20.108496
              ],
              [
                106.157055,
                20.108505
              ],
              [
                106.156962,
                20.108528
              ],
              [
                106.156878,
                20.108552
              ],
              [
                106.156688,
                20.108637
              ],
              [
                106.156618,
                20.108667
              ],
              [
                106.156447,
                20.108761
              ],
              [
                106.156208,
                20.108898
              ],
              [
                106.155966,
                20.109024
              ],
              [
                106.155765,
                20.109132
              ],
              [
                106.155523,
                20.109275
              ],
              [
                106.155372,
                20.109345
              ],
              [
                106.1548,
                20.109645
              ],
              [
                106.154593,
                20.109758
              ],
              [
                106.154533,
                20.109791
              ],
              [
                106.154395,
                20.109849
              ],
              [
                106.153976,
                20.110071
              ],
              [
                106.153119,
                20.110493
              ],
              [
                106.15384,
                20.111991
              ],
              [
                106.153906,
                20.112175
              ],
              [
                106.157077,
                20.118195
              ],
              [
                106.159781,
                20.121255
              ],
              [
                106.160221,
                20.121641
              ],
              [
                106.161516,
                20.122776
              ],
              [
                106.161953,
                20.123158
              ],
              [
                106.162409,
                20.123559
              ],
              [
                106.162617,
                20.123712
              ],
              [
                106.162625,
                20.123717
              ],
              [
                106.162927,
                20.123932
              ],
              [
                106.163054,
                20.124014
              ],
              [
                106.163113,
                20.124069
              ],
              [
                106.16369,
                20.124595
              ],
              [
                106.164247,
                20.125104
              ],
              [
                106.164767,
                20.125551
              ],
              [
                106.165612,
                20.12649
              ],
              [
                106.166118,
                20.127052
              ],
              [
                106.167419,
                20.128775
              ],
              [
                106.167907,
                20.130009
              ],
              [
                106.168051,
                20.130713
              ],
              [
                106.168249,
                20.132264
              ],
              [
                106.168397,
                20.134643
              ],
              [
                106.168333,
                20.135506
              ],
              [
                106.168213,
                20.137131
              ],
              [
                106.167999,
                20.139045
              ],
              [
                106.167756,
                20.140421
              ],
              [
                106.167173,
                20.142989
              ],
              [
                106.166833,
                20.144181
              ],
              [
                106.166685,
                20.144677
              ],
              [
                106.166029,
                20.147446
              ],
              [
                106.164883,
                20.152285
              ],
              [
                106.1641,
                20.1559
              ],
              [
                106.163301,
                20.160878
              ],
              [
                106.163088,
                20.162815
              ],
              [
                106.163084,
                20.162902
              ],
              [
                106.162903,
                20.166752
              ],
              [
                106.162663,
                20.177233
              ],
              [
                106.162626,
                20.182354
              ],
              [
                106.162432,
                20.185675
              ],
              [
                106.162422,
                20.185838
              ],
              [
                106.161874,
                20.188956
              ],
              [
                106.161338,
                20.191756
              ],
              [
                106.160701,
                20.194701
              ],
              [
                106.159914,
                20.197766
              ],
              [
                106.159154,
                20.200107
              ],
              [
                106.158417,
                20.202195
              ],
              [
                106.157884,
                20.203431
              ],
              [
                106.15968,
                20.203715
              ],
              [
                106.160972,
                20.203812
              ],
              [
                106.161332,
                20.203845
              ],
              [
                106.161463,
                20.203857
              ],
              [
                106.162731,
                20.203929
              ],
              [
                106.16275,
                20.20393
              ],
              [
                106.162797,
                20.204817
              ],
              [
                106.162839,
                20.204833
              ],
              [
                106.163004,
                20.204885
              ],
              [
                106.163061,
                20.204901
              ],
              [
                106.163228,
                20.204945
              ],
              [
                106.163314,
                20.204969
              ],
              [
                106.163612,
                20.205178
              ],
              [
                106.163831,
                20.205329
              ],
              [
                106.163852,
                20.205347
              ],
              [
                106.164149,
                20.205562
              ],
              [
                106.164237,
                20.205626
              ],
              [
                106.164472,
                20.205726
              ],
              [
                106.164521,
                20.205735
              ],
              [
                106.164562,
                20.205742
              ],
              [
                106.165549,
                20.205922
              ],
              [
                106.166107,
                20.206008
              ],
              [
                106.166161,
                20.206008
              ],
              [
                106.166272,
                20.206009
              ],
              [
                106.166506,
                20.206011
              ],
              [
                106.166959,
                20.205995
              ],
              [
                106.16703,
                20.205993
              ],
              [
                106.167341,
                20.205982
              ],
              [
                106.168384,
                20.205953
              ],
              [
                106.168791,
                20.205942
              ],
              [
                106.169124,
                20.205946
              ],
              [
                106.169267,
                20.205947
              ],
              [
                106.169641,
                20.205951
              ],
              [
                106.169673,
                20.205951
              ],
              [
                106.170608,
                20.205966
              ],
              [
                106.170991,
                20.206
              ],
              [
                106.171267,
                20.206028
              ],
              [
                106.171367,
                20.206054
              ],
              [
                106.171552,
                20.206103
              ],
              [
                106.171637,
                20.206148
              ],
              [
                106.17184,
                20.206256
              ],
              [
                106.171992,
                20.206337
              ],
              [
                106.172041,
                20.206362
              ],
              [
                106.172179,
                20.206415
              ],
              [
                106.172232,
                20.206742
              ],
              [
                106.172271,
                20.206942
              ],
              [
                106.17238,
                20.207221
              ],
              [
                106.172419,
                20.207355
              ],
              [
                106.172424,
                20.207436
              ],
              [
                106.172415,
                20.207534
              ],
              [
                106.172366,
                20.207754
              ],
              [
                106.172297,
                20.208003
              ],
              [
                106.172273,
                20.20825
              ],
              [
                106.172253,
                20.208558
              ],
              [
                106.172273,
                20.208914
              ],
              [
                106.172277,
                20.209139
              ],
              [
                106.172266,
                20.209314
              ],
              [
                106.172254,
                20.20945
              ],
              [
                106.172198,
                20.209675
              ],
              [
                106.172188,
                20.209761
              ],
              [
                106.172189,
                20.209811
              ],
              [
                106.172197,
                20.209835
              ],
              [
                106.172214,
                20.209854
              ],
              [
                106.172278,
                20.209863
              ],
              [
                106.172657,
                20.209822
              ],
              [
                106.173682,
                20.209713
              ],
              [
                106.174198,
                20.209643
              ],
              [
                106.174565,
                20.209583
              ],
              [
                106.174906,
                20.209506
              ],
              [
                106.175285,
                20.209382
              ],
              [
                106.175689,
                20.209221
              ],
              [
                106.176269,
                20.20895
              ],
              [
                106.176896,
                20.208702
              ],
              [
                106.177396,
                20.208529
              ],
              [
                106.177755,
                20.208431
              ],
              [
                106.178197,
                20.208311
              ],
              [
                106.178796,
                20.208187
              ],
              [
                106.179332,
                20.208093
              ],
              [
                106.179825,
                20.208027
              ],
              [
                106.180413,
                20.207973
              ],
              [
                106.180622,
                20.207966
              ],
              [
                106.180643,
                20.207964
              ],
              [
                106.180683,
                20.207957
              ],
              [
                106.181245,
                20.207864
              ],
              [
                106.181822,
                20.207764
              ],
              [
                106.182243,
                20.207675
              ],
              [
                106.182781,
                20.207528
              ],
              [
                106.183254,
                20.207403
              ],
              [
                106.183315,
                20.207389
              ],
              [
                106.183581,
                20.207332
              ],
              [
                106.183631,
                20.207321
              ],
              [
                106.183888,
                20.207266
              ],
              [
                106.184305,
                20.207209
              ],
              [
                106.184622,
                20.207185
              ],
              [
                106.184658,
                20.207181
              ],
              [
                106.18485,
                20.207155
              ],
              [
                106.185048,
                20.207126
              ],
              [
                106.185253,
                20.207095
              ],
              [
                106.185437,
                20.207066
              ],
              [
                106.185606,
                20.207038
              ],
              [
                106.185775,
                20.207011
              ],
              [
                106.185906,
                20.206988
              ],
              [
                106.185994,
                20.206968
              ],
              [
                106.186087,
                20.206941
              ],
              [
                106.186227,
                20.206902
              ],
              [
                106.186402,
                20.206855
              ],
              [
                106.186438,
                20.206844
              ],
              [
                106.18684,
                20.206586
              ],
              [
                106.186994,
                20.206487
              ],
              [
                106.187049,
                20.206451
              ],
              [
                106.187076,
                20.20643
              ],
              [
                106.187128,
                20.206394
              ],
              [
                106.187249,
                20.206316
              ],
              [
                106.18746,
                20.206185
              ],
              [
                106.187713,
                20.206028
              ],
              [
                106.187926,
                20.205895
              ],
              [
                106.187926,
                20.205895
              ]
            ]
          ]
        ]
      },
      "properties": {
        "code": "13918",
        "name": "Nghĩa Sơn",
        "nameEn": "Nghia Son",
        "fullName": "Xã Nghĩa Sơn",
        "fullNameEn": "Nghia Son Commune",
        "codeName": "nghia_son",
        "postalCode": "07414",
        "postalCodePrefix": "",
        "gisServerId": "diaphanhanhchinhcapxa_2025.829",
        "areaKm2": 26.83
      }
    }
  ]
}