{
  "type": "FeatureCollection",
  "bbox": [
    106.147744,
    20.251178,
    106.215647,
    20.321615
  ],
  "features": [
    {
      "type": "Feature",
      "id": "14014",
      "bbox": [
        106.147744,
        20.251178,
        106.215647,
        20.321615
      ],
      "geometry": {
        "type": "MultiPolygon",
        "coordinates": [
          [
            [
              [
                106.168804,
                20.314837
              ],
              [
                106.169388,
                20.313748
              ],
              [
                106.169389,
                20.313749
              ],
              [
                106.169474,
                20.313785
              ],
              [
                106.16989,
                20.313937
              ],
              [
                106.169916,
                20.313947
              ],
              [
                106.170061,
                20.313577
              ],
              [
                106.170168,
                20.313377
              ],
              [
                106.170243,
                20.31331
              ],
              [
                106.170304,
                20.313311
              ],
              [
                106.170548,
                20.313403
              ],
              [
                106.170766,
                20.313485
              ],
              [
                106.171463,
                20.313733
              ],
              [
                106.171652,
                20.313838
              ],
              [
                106.171762,
                20.313854
              ],
              [
                106.171849,
                20.313854
              ],
              [
                106.171994,
                20.313854
              ],
              [
                106.17194,
                20.313619
              ],
              [
                106.171913,
                20.313498
              ],
              [
                106.171892,
                20.313062
              ],
              [
                106.171886,
                20.312917
              ],
              [
                106.171945,
                20.312672
              ],
              [
                106.17195,
                20.31264
              ],
              [
                106.171954,
                20.312596
              ],
              [
                106.172252,
                20.312639
              ],
              [
                106.172625,
                20.312694
              ],
              [
                106.174144,
                20.313003
              ],
              [
                106.175046,
                20.313209
              ],
              [
                106.175493,
                20.311474
              ],
              [
                106.1756,
                20.311068
              ],
              [
                106.1756,
                20.311068
              ],
              [
                106.175595,
                20.311066
              ],
              [
                106.174812,
                20.310626
              ],
              [
                106.173757,
                20.310032
              ],
              [
                106.174483,
                20.307093
              ],
              [
                106.174159,
                20.307019
              ],
              [
                106.174159,
                20.307018
              ],
              [
                106.174307,
                20.304126
              ],
              [
                106.174467,
                20.304194
              ],
              [
                106.175146,
                20.304456
              ],
              [
                106.175811,
                20.304717
              ],
              [
                106.17612,
                20.304836
              ],
              [
                106.176689,
                20.305041
              ],
              [
                106.177096,
                20.305184
              ],
              [
                106.17721,
                20.305215
              ],
              [
                106.177311,
                20.305237
              ],
              [
                106.177808,
                20.304296
              ],
              [
                106.178129,
                20.304462
              ],
              [
                106.178719,
                20.304698
              ],
              [
                106.178943,
                20.304788
              ],
              [
                106.179895,
                20.305037
              ],
              [
                106.180022,
                20.304449
              ],
              [
                106.180554,
                20.304588
              ],
              [
                106.180574,
                20.304593
              ],
              [
                106.180836,
                20.304625
              ],
              [
                106.180898,
                20.304636
              ],
              [
                106.180916,
                20.304564
              ],
              [
                106.180943,
                20.304453
              ],
              [
                106.180983,
                20.30431
              ],
              [
                106.181042,
                20.304121
              ],
              [
                106.18108,
                20.304004
              ],
              [
                106.181101,
                20.303905
              ],
              [
                106.181144,
                20.303704
              ],
              [
                106.181175,
                20.303569
              ],
              [
                106.18119,
                20.303477
              ],
              [
                106.181192,
                20.30347
              ],
              [
                106.181197,
                20.303473
              ],
              [
                106.181267,
                20.303509
              ],
              [
                106.181268,
                20.303507
              ],
              [
                106.181286,
                20.303517
              ],
              [
                106.182138,
                20.303981
              ],
              [
                106.18256,
                20.30421
              ],
              [
                106.182615,
                20.30405
              ],
              [
                106.182667,
                20.303857
              ],
              [
                106.182752,
                20.303552
              ],
              [
                106.182931,
                20.302915
              ],
              [
                106.182933,
                20.302909
              ],
              [
                106.184384,
                20.303473
              ],
              [
                106.184342,
                20.303647
              ],
              [
                106.18467,
                20.30375
              ],
              [
                106.186122,
                20.304168
              ],
              [
                106.186193,
                20.304194
              ],
              [
                106.186306,
                20.303925
              ],
              [
                106.186421,
                20.303617
              ],
              [
                106.186501,
                20.303385
              ],
              [
                106.186523,
                20.303167
              ],
              [
                106.18658,
                20.302788
              ],
              [
                106.186604,
                20.302544
              ],
              [
                106.186682,
                20.301972
              ],
              [
                106.186747,
                20.301471
              ],
              [
                106.186825,
                20.300923
              ],
              [
                106.18697,
                20.300077
              ],
              [
                106.186999,
                20.299732
              ],
              [
                106.187071,
                20.29922
              ],
              [
                106.187194,
                20.298667
              ],
              [
                106.187298,
                20.297968
              ],
              [
                106.187517,
                20.296658
              ],
              [
                106.187644,
                20.295627
              ],
              [
                106.187849,
                20.293905
              ],
              [
                106.187875,
                20.293757
              ],
              [
                106.187965,
                20.293226
              ],
              [
                106.188043,
                20.292684
              ],
              [
                106.188084,
                20.292267
              ],
              [
                106.188142,
                20.291644
              ],
              [
                106.188163,
                20.290979
              ],
              [
                106.188259,
                20.290318
              ],
              [
                106.188389,
                20.289352
              ],
              [
                106.188443,
                20.288457
              ],
              [
                106.188514,
                20.287468
              ],
              [
                106.188515,
                20.287454
              ],
              [
                106.18859,
                20.286859
              ],
              [
                106.188719,
                20.285463
              ],
              [
                106.188873,
                20.284043
              ],
              [
                106.1889,
                20.283779
              ],
              [
                106.188926,
                20.283531
              ],
              [
                106.189,
                20.283546
              ],
              [
                106.190324,
                20.283976
              ],
              [
                106.192014,
                20.28461
              ],
              [
                106.192938,
                20.284927
              ],
              [
                106.193825,
                20.285242
              ],
              [
                106.194087,
                20.285335
              ],
              [
                106.195211,
                20.285712
              ],
              [
                106.196002,
                20.285988
              ],
              [
                106.197596,
                20.286556
              ],
              [
                106.198331,
                20.286799
              ],
              [
                106.198391,
                20.286807
              ],
              [
                106.198399,
                20.28669
              ],
              [
                106.19844,
                20.286561
              ],
              [
                106.19851,
                20.286238
              ],
              [
                106.198679,
                20.285218
              ],
              [
                106.198783,
                20.284641
              ],
              [
                106.198831,
                20.284656
              ],
              [
                106.199128,
                20.284749
              ],
              [
                106.202216,
                20.285736
              ],
              [
                106.20248,
                20.283134
              ],
              [
                106.20249,
                20.283033
              ],
              [
                106.202873,
                20.283132
              ],
              [
                106.203511,
                20.283311
              ],
              [
                106.204553,
                20.283593
              ],
              [
                106.204605,
                20.283607
              ],
              [
                106.204732,
                20.283642
              ],
              [
                106.205362,
                20.283817
              ],
              [
                106.205696,
                20.28391
              ],
              [
                106.206517,
                20.284139
              ],
              [
                106.207638,
                20.284443
              ],
              [
                106.207738,
                20.28447
              ],
              [
                106.208554,
                20.284699
              ],
              [
                106.208554,
                20.284699
              ],
              [
                106.208629,
                20.28472
              ],
              [
                106.20888,
                20.283687
              ],
              [
                106.208896,
                20.283622
              ],
              [
                106.208987,
                20.283257
              ],
              [
                106.209113,
                20.282812
              ],
              [
                106.209196,
                20.282542
              ],
              [
                106.209253,
                20.282565
              ],
              [
                106.21059,
                20.283072
              ],
              [
                106.210999,
                20.283196
              ],
              [
                106.211025,
                20.283128
              ],
              [
                106.211217,
                20.282537
              ],
              [
                106.211285,
                20.282327
              ],
              [
                106.211368,
                20.281982
              ],
              [
                106.211405,
                20.281995
              ],
              [
                106.211765,
                20.282121
              ],
              [
                106.211885,
                20.282318
              ],
              [
                106.212021,
                20.282446
              ],
              [
                106.21218,
                20.282546
              ],
              [
                106.212171,
                20.282609
              ],
              [
                106.212146,
                20.282786
              ],
              [
                106.212109,
                20.283028
              ],
              [
                106.21208,
                20.283239
              ],
              [
                106.212075,
                20.283268
              ],
              [
                106.211997,
                20.283721
              ],
              [
                106.212015,
                20.283756
              ],
              [
                106.212641,
                20.283977
              ],
              [
                106.213106,
                20.284139
              ],
              [
                106.21362,
                20.284276
              ],
              [
                106.21415,
                20.284423
              ],
              [
                106.214177,
                20.284178
              ],
              [
                106.214255,
                20.283804
              ],
              [
                106.21438,
                20.283502
              ],
              [
                106.21461,
                20.283014
              ],
              [
                106.214695,
                20.282699
              ],
              [
                106.214737,
                20.2825
              ],
              [
                106.214803,
                20.282075
              ],
              [
                106.214805,
                20.282069
              ],
              [
                106.214897,
                20.281736
              ],
              [
                106.21498,
                20.281539
              ],
              [
                106.215152,
                20.281403
              ],
              [
                106.215647,
                20.280799
              ],
              [
                106.215516,
                20.280759
              ],
              [
                106.215373,
                20.280702
              ],
              [
                106.215285,
                20.280675
              ],
              [
                106.215091,
                20.280632
              ],
              [
                106.214871,
                20.280578
              ],
              [
                106.214566,
                20.280533
              ],
              [
                106.214402,
                20.280479
              ],
              [
                106.214081,
                20.280364
              ],
              [
                106.213623,
                20.280202
              ],
              [
                106.213196,
                20.280059
              ],
              [
                106.212453,
                20.279798
              ],
              [
                106.212188,
                20.279708
              ],
              [
                106.212234,
                20.279513
              ],
              [
                106.212366,
                20.278943
              ],
              [
                106.212511,
                20.278461
              ],
              [
                106.212663,
                20.278072
              ],
              [
                106.212695,
                20.278093
              ],
              [
                106.212847,
                20.278106
              ],
              [
                106.213256,
                20.278124
              ],
              [
                106.213487,
                20.278114
              ],
              [
                106.213695,
                20.278044
              ],
              [
                106.213733,
                20.278018
              ],
              [
                106.213713,
                20.277903
              ],
              [
                106.213712,
                20.277723
              ],
              [
                106.213722,
                20.277481
              ],
              [
                106.213739,
                20.277262
              ],
              [
                106.213739,
                20.277262
              ],
              [
                106.213757,
                20.277066
              ],
              [
                106.213839,
                20.276145
              ],
              [
                106.21386,
                20.27592
              ],
              [
                106.213919,
                20.27529
              ],
              [
                106.213937,
                20.275096
              ],
              [
                106.213983,
                20.274613
              ],
              [
                106.214032,
                20.274052
              ],
              [
                106.214057,
                20.273696
              ],
              [
                106.214058,
                20.273683
              ],
              [
                106.214077,
                20.273418
              ],
              [
                106.214089,
                20.273304
              ],
              [
                106.214095,
                20.273241
              ],
              [
                106.214114,
                20.272978
              ],
              [
                106.21417,
                20.272414
              ],
              [
                106.214205,
                20.272125
              ],
              [
                106.214219,
                20.271992
              ],
              [
                106.214252,
                20.271575
              ],
              [
                106.214265,
                20.271413
              ],
              [
                106.214266,
                20.271413
              ],
              [
                106.214295,
                20.271047
              ],
              [
                106.214348,
                20.270458
              ],
              [
                106.214067,
                20.270436
              ],
              [
                106.213395,
                20.270375
              ],
              [
                106.212672,
                20.270318
              ],
              [
                106.21244,
                20.270303
              ],
              [
                106.212221,
                20.270022
              ],
              [
                106.211967,
                20.269762
              ],
              [
                106.211566,
                20.269437
              ],
              [
                106.211437,
                20.269138
              ],
              [
                106.211294,
                20.268878
              ],
              [
                106.211154,
                20.268643
              ],
              [
                106.211146,
                20.268334
              ],
              [
                106.211119,
                20.268014
              ],
              [
                106.211113,
                20.2677
              ],
              [
                106.211152,
                20.267407
              ],
              [
                106.211148,
                20.267223
              ],
              [
                106.211198,
                20.267199
              ],
              [
                106.211221,
                20.266924
              ],
              [
                106.211264,
                20.266781
              ],
              [
                106.211266,
                20.266762
              ],
              [
                106.211289,
                20.266517
              ],
              [
                106.210681,
                20.266545
              ],
              [
                106.209779,
                20.26664
              ],
              [
                106.208909,
                20.266698
              ],
              [
                106.208427,
                20.266649
              ],
              [
                106.208141,
                20.26661
              ],
              [
                106.208131,
                20.266853
              ],
              [
                106.208125,
                20.267009
              ],
              [
                106.208045,
                20.267031
              ],
              [
                106.208035,
                20.267208
              ],
              [
                106.208174,
                20.267251
              ],
              [
                106.208421,
                20.267809
              ],
              [
                106.208447,
                20.267867
              ],
              [
                106.208506,
                20.268036
              ],
              [
                106.208542,
                20.268151
              ],
              [
                106.208571,
                20.26827
              ],
              [
                106.208619,
                20.268389
              ],
              [
                106.208674,
                20.26853
              ],
              [
                106.208711,
                20.268645
              ],
              [
                106.208651,
                20.268666
              ],
              [
                106.208626,
                20.269035
              ],
              [
                106.208495,
                20.269014
              ],
              [
                106.208054,
                20.268984
              ],
              [
                106.206957,
                20.268895
              ],
              [
                106.206003,
                20.268835
              ],
              [
                106.206125,
                20.268529
              ],
              [
                106.206173,
                20.268415
              ],
              [
                106.206192,
                20.268319
              ],
              [
                106.206186,
                20.268276
              ],
              [
                106.206137,
                20.268249
              ],
              [
                106.206042,
                20.268215
              ],
              [
                106.205936,
                20.268182
              ],
              [
                106.205791,
                20.268178
              ],
              [
                106.205619,
                20.268203
              ],
              [
                106.205509,
                20.268272
              ],
              [
                106.205389,
                20.268363
              ],
              [
                106.205311,
                20.268411
              ],
              [
                106.205222,
                20.268428
              ],
              [
                106.205124,
                20.268403
              ],
              [
                106.204971,
                20.268334
              ],
              [
                106.204744,
                20.268153
              ],
              [
                106.204773,
                20.267844
              ],
              [
                106.204871,
                20.267381
              ],
              [
                106.204985,
                20.266856
              ],
              [
                106.205122,
                20.266581
              ],
              [
                106.205268,
                20.266283
              ],
              [
                106.204359,
                20.266035
              ],
              [
                106.203747,
                20.26582
              ],
              [
                106.203618,
                20.265761
              ],
              [
                106.203478,
                20.265682
              ],
              [
                106.20338,
                20.265619
              ],
              [
                106.203298,
                20.265579
              ],
              [
                106.203133,
                20.265549
              ],
              [
                106.203,
                20.265525
              ],
              [
                106.202954,
                20.265523
              ],
              [
                106.202936,
                20.265509
              ],
              [
                106.202891,
                20.265489
              ],
              [
                106.202511,
                20.265341
              ],
              [
                106.201839,
                20.265102
              ],
              [
                106.201894,
                20.264605
              ],
              [
                106.201922,
                20.264344
              ],
              [
                106.200445,
                20.263705
              ],
              [
                106.19944,
                20.263269
              ],
              [
                106.199377,
                20.263593
              ],
              [
                106.199387,
                20.263609
              ],
              [
                106.199388,
                20.263636
              ],
              [
                106.199386,
                20.263644
              ],
              [
                106.199374,
                20.263698
              ],
              [
                106.199335,
                20.263885
              ],
              [
                106.199319,
                20.263981
              ],
              [
                106.199317,
                20.264014
              ],
              [
                106.199318,
                20.26404
              ],
              [
                106.199322,
                20.264056
              ],
              [
                106.199305,
                20.264076
              ],
              [
                106.199277,
                20.264083
              ],
              [
                106.19922,
                20.26408
              ],
              [
                106.199086,
                20.264054
              ],
              [
                106.199059,
                20.264049
              ],
              [
                106.199008,
                20.264039
              ],
              [
                106.198967,
                20.264036
              ],
              [
                106.198958,
                20.264038
              ],
              [
                106.198948,
                20.264037
              ],
              [
                106.198947,
                20.264041
              ],
              [
                106.198946,
                20.264046
              ],
              [
                106.198815,
                20.264454
              ],
              [
                106.198747,
                20.264666
              ],
              [
                106.198651,
                20.264966
              ],
              [
                106.198601,
                20.26499
              ],
              [
                106.197974,
                20.264964
              ],
              [
                106.19741,
                20.264924
              ],
              [
                106.197408,
                20.264948
              ],
              [
                106.197385,
                20.265191
              ],
              [
                106.197371,
                20.265526
              ],
              [
                106.197353,
                20.265952
              ],
              [
                106.197283,
                20.266755
              ],
              [
                106.197254,
                20.267108
              ],
              [
                106.19678,
                20.267089
              ],
              [
                106.195837,
                20.267013
              ],
              [
                106.195546,
                20.266989
              ],
              [
                106.195472,
                20.266983
              ],
              [
                106.194543,
                20.266903
              ],
              [
                106.194437,
                20.266892
              ],
              [
                106.194434,
                20.266892
              ],
              [
                106.194035,
                20.266856
              ],
              [
                106.193532,
                20.266821
              ],
              [
                106.193187,
                20.266796
              ],
              [
                106.192224,
                20.266722
              ],
              [
                106.191636,
                20.266676
              ],
              [
                106.191506,
                20.266668
              ],
              [
                106.191238,
                20.266653
              ],
              [
                106.191157,
                20.266641
              ],
              [
                106.191249,
                20.266146
              ],
              [
                106.191377,
                20.265306
              ],
              [
                106.191538,
                20.264315
              ],
              [
                106.191722,
                20.263175
              ],
              [
                106.191826,
                20.262469
              ],
              [
                106.191877,
                20.26212
              ],
              [
                106.191791,
                20.262101
              ],
              [
                106.191639,
                20.262069
              ],
              [
                106.191607,
                20.262065
              ],
              [
                106.19108,
                20.261997
              ],
              [
                106.190866,
                20.261969
              ],
              [
                106.189545,
                20.26179
              ],
              [
                106.189117,
                20.261732
              ],
              [
                106.188889,
                20.261683
              ],
              [
                106.188716,
                20.261662
              ],
              [
                106.188695,
                20.261642
              ],
              [
                106.188669,
                20.261602
              ],
              [
                106.188669,
                20.261534
              ],
              [
                106.188664,
                20.261442
              ],
              [
                106.188628,
                20.261317
              ],
              [
                106.188584,
                20.261236
              ],
              [
                106.188544,
                20.261172
              ],
              [
                106.1884,
                20.261035
              ],
              [
                106.188219,
                20.260887
              ],
              [
                106.188086,
                20.260776
              ],
              [
                106.187924,
                20.260632
              ],
              [
                106.187844,
                20.260541
              ],
              [
                106.187768,
                20.26045
              ],
              [
                106.187685,
                20.260342
              ],
              [
                106.187598,
                20.260187
              ],
              [
                106.187558,
                20.260075
              ],
              [
                106.187503,
                20.259907
              ],
              [
                106.187476,
                20.259714
              ],
              [
                106.187472,
                20.259636
              ],
              [
                106.187478,
                20.259555
              ],
              [
                106.187502,
                20.259392
              ],
              [
                106.187635,
                20.258954
              ],
              [
                106.187786,
                20.258589
              ],
              [
                106.187819,
                20.258509
              ],
              [
                106.187928,
                20.258246
              ],
              [
                106.186754,
                20.257913
              ],
              [
                106.186726,
                20.257905
              ],
              [
                106.185853,
                20.25773
              ],
              [
                106.185092,
                20.257515
              ],
              [
                106.184828,
                20.25742
              ],
              [
                106.184264,
                20.257217
              ],
              [
                106.183712,
                20.256965
              ],
              [
                106.183132,
                20.256669
              ],
              [
                106.182541,
                20.256246
              ],
              [
                106.182443,
                20.25612
              ],
              [
                106.182398,
                20.256062
              ],
              [
                106.182202,
                20.25581
              ],
              [
                106.181987,
                20.255667
              ],
              [
                106.181858,
                20.255595
              ],
              [
                106.181691,
                20.255502
              ],
              [
                106.181376,
                20.255289
              ],
              [
                106.181121,
                20.255042
              ],
              [
                106.180941,
                20.254785
              ],
              [
                106.180776,
                20.254423
              ],
              [
                106.180672,
                20.254036
              ],
              [
                106.180603,
                20.25364
              ],
              [
                106.18055,
                20.253215
              ],
              [
                106.180532,
                20.252502
              ],
              [
                106.180526,
                20.25236
              ],
              [
                106.180481,
                20.251999
              ],
              [
                106.180339,
                20.251674
              ],
              [
                106.180174,
                20.251442
              ],
              [
                106.179949,
                20.251276
              ],
              [
                106.17979,
                20.251211
              ],
              [
                106.1795,
                20.251178
              ],
              [
                106.179291,
                20.251197
              ],
              [
                106.179123,
                20.251259
              ],
              [
                106.178882,
                20.251376
              ],
              [
                106.178594,
                20.251558
              ],
              [
                106.178304,
                20.251841
              ],
              [
                106.178081,
                20.252082
              ],
              [
                106.177977,
                20.25218
              ],
              [
                106.177845,
                20.252247
              ],
              [
                106.177658,
                20.25226
              ],
              [
                106.177542,
                20.252327
              ],
              [
                106.177451,
                20.252374
              ],
              [
                106.177342,
                20.25243
              ],
              [
                106.177086,
                20.252516
              ],
              [
                106.17701,
                20.252524
              ],
              [
                106.176867,
                20.252539
              ],
              [
                106.176787,
                20.252676
              ],
              [
                106.176752,
                20.252735
              ],
              [
                106.176473,
                20.253029
              ],
              [
                106.176211,
                20.253267
              ],
              [
                106.176107,
                20.253332
              ],
              [
                106.173656,
                20.254997
              ],
              [
                106.173434,
                20.255148
              ],
              [
                106.173382,
                20.255263
              ],
              [
                106.173241,
                20.255737
              ],
              [
                106.172763,
                20.256773
              ],
              [
                106.172285,
                20.257763
              ],
              [
                106.172164,
                20.258025
              ],
              [
                106.171738,
                20.258895
              ],
              [
                106.170885,
                20.26073
              ],
              [
                106.170655,
                20.261211
              ],
              [
                106.169942,
                20.262708
              ],
              [
                106.169478,
                20.263687
              ],
              [
                106.168955,
                20.264766
              ],
              [
                106.168393,
                20.265736
              ],
              [
                106.167361,
                20.267464
              ],
              [
                106.167248,
                20.267668
              ],
              [
                106.166179,
                20.26948
              ],
              [
                106.16536,
                20.270884
              ],
              [
                106.165022,
                20.271412
              ],
              [
                106.164427,
                20.272432
              ],
              [
                106.163364,
                20.274244
              ],
              [
                106.163279,
                20.274382
              ],
              [
                106.162401,
                20.275864
              ],
              [
                106.16125,
                20.277808
              ],
              [
                106.160656,
                20.278804
              ],
              [
                106.159843,
                20.280184
              ],
              [
                106.158791,
                20.281992
              ],
              [
                106.158855,
                20.282024
              ],
              [
                106.158979,
                20.282086
              ],
              [
                106.159382,
                20.282237
              ],
              [
                106.159911,
                20.282436
              ],
              [
                106.160542,
                20.282683
              ],
              [
                106.160918,
                20.282829
              ],
              [
                106.161285,
                20.282971
              ],
              [
                106.161628,
                20.283104
              ],
              [
                106.161985,
                20.283242
              ],
              [
                106.162338,
                20.283376
              ],
              [
                106.162746,
                20.283533
              ],
              [
                106.163355,
                20.283769
              ],
              [
                106.163256,
                20.283943
              ],
              [
                106.163164,
                20.284099
              ],
              [
                106.163127,
                20.284153
              ],
              [
                106.163122,
                20.28416
              ],
              [
                106.163114,
                20.284173
              ],
              [
                106.163058,
                20.284243
              ],
              [
                106.163033,
                20.284286
              ],
              [
                106.162915,
                20.284493
              ],
              [
                106.162875,
                20.284566
              ],
              [
                106.162789,
                20.284725
              ],
              [
                106.162679,
                20.284928
              ],
              [
                106.162544,
                20.28518
              ],
              [
                106.162482,
                20.285296
              ],
              [
                106.162403,
                20.285444
              ],
              [
                106.162275,
                20.285695
              ],
              [
                106.162225,
                20.285787
              ],
              [
                106.162158,
                20.285912
              ],
              [
                106.162021,
                20.286193
              ],
              [
                106.161979,
                20.286275
              ],
              [
                106.161894,
                20.286439
              ],
              [
                106.161808,
                20.286608
              ],
              [
                106.161697,
                20.286827
              ],
              [
                106.161679,
                20.286862
              ],
              [
                106.161558,
                20.287096
              ],
              [
                106.161501,
                20.287208
              ],
              [
                106.161464,
                20.287281
              ],
              [
                106.161331,
                20.287534
              ],
              [
                106.161295,
                20.287609
              ],
              [
                106.161214,
                20.287777
              ],
              [
                106.161094,
                20.288012
              ],
              [
                106.161042,
                20.288123
              ],
              [
                106.16104,
                20.288173
              ],
              [
                106.161052,
                20.288221
              ],
              [
                106.161081,
                20.288279
              ],
              [
                106.16113,
                20.28839
              ],
              [
                106.161134,
                20.288409
              ],
              [
                106.161138,
                20.288429
              ],
              [
                106.161145,
                20.288467
              ],
              [
                106.161132,
                20.28852
              ],
              [
                106.161127,
                20.28854
              ],
              [
                106.161084,
                20.28864
              ],
              [
                106.161019,
                20.288761
              ],
              [
                106.160984,
                20.288824
              ],
              [
                106.160914,
                20.288953
              ],
              [
                106.160774,
                20.289212
              ],
              [
                106.160613,
                20.289532
              ],
              [
                106.160545,
                20.289674
              ],
              [
                106.160481,
                20.289809
              ],
              [
                106.160432,
                20.289911
              ],
              [
                106.160366,
                20.290053
              ],
              [
                106.160265,
                20.290271
              ],
              [
                106.160098,
                20.29061
              ],
              [
                106.159993,
                20.29082
              ],
              [
                106.159937,
                20.290934
              ],
              [
                106.159827,
                20.291157
              ],
              [
                106.15981,
                20.29119
              ],
              [
                106.159708,
                20.291396
              ],
              [
                106.159588,
                20.291626
              ],
              [
                106.159511,
                20.291791
              ],
              [
                106.159486,
                20.291852
              ],
              [
                106.159324,
                20.292205
              ],
              [
                106.159309,
                20.292276
              ],
              [
                106.159301,
                20.292354
              ],
              [
                106.1593,
                20.2925
              ],
              [
                106.1593,
                20.292695
              ],
              [
                106.159288,
                20.292865
              ],
              [
                106.159297,
                20.293071
              ],
              [
                106.159299,
                20.293306
              ],
              [
                106.159315,
                20.293545
              ],
              [
                106.159332,
                20.293754
              ],
              [
                106.159288,
                20.293759
              ],
              [
                106.159147,
                20.29376
              ],
              [
                106.159004,
                20.293761
              ],
              [
                106.158913,
                20.293767
              ],
              [
                106.158724,
                20.2938
              ],
              [
                106.158501,
                20.293852
              ],
              [
                106.158446,
                20.293859
              ],
              [
                106.158148,
                20.293894
              ],
              [
                106.157929,
                20.293933
              ],
              [
                106.157813,
                20.293969
              ],
              [
                106.157647,
                20.294054
              ],
              [
                106.157453,
                20.294174
              ],
              [
                106.157352,
                20.294236
              ],
              [
                106.157251,
                20.294297
              ],
              [
                106.157107,
                20.294412
              ],
              [
                106.157006,
                20.294518
              ],
              [
                106.15691,
                20.294623
              ],
              [
                106.156895,
                20.294641
              ],
              [
                106.156689,
                20.294875
              ],
              [
                106.156475,
                20.295078
              ],
              [
                106.156381,
                20.295229
              ],
              [
                106.156313,
                20.29547
              ],
              [
                106.156225,
                20.295748
              ],
              [
                106.156113,
                20.29592
              ],
              [
                106.155805,
                20.296264
              ],
              [
                106.155511,
                20.296622
              ],
              [
                106.155317,
                20.29687
              ],
              [
                106.155278,
                20.296967
              ],
              [
                106.155217,
                20.297162
              ],
              [
                106.155152,
                20.297344
              ],
              [
                106.155035,
                20.297623
              ],
              [
                106.154933,
                20.297875
              ],
              [
                106.154862,
                20.298006
              ],
              [
                106.154778,
                20.298172
              ],
              [
                106.15475,
                20.298222
              ],
              [
                106.154715,
                20.298285
              ],
              [
                106.154926,
                20.298441
              ],
              [
                106.154917,
                20.298647
              ],
              [
                106.154872,
                20.298873
              ],
              [
                106.154824,
                20.298983
              ],
              [
                106.154769,
                20.299086
              ],
              [
                106.154581,
                20.300262
              ],
              [
                106.154522,
                20.300776
              ],
              [
                106.154494,
                20.30083
              ],
              [
                106.154482,
                20.300873
              ],
              [
                106.15443,
                20.301133
              ],
              [
                106.154418,
                20.301227
              ],
              [
                106.15425,
                20.301577
              ],
              [
                106.154036,
                20.302048
              ],
              [
                106.153975,
                20.302184
              ],
              [
                106.153845,
                20.302469
              ],
              [
                106.153667,
                20.302878
              ],
              [
                106.153593,
                20.30302
              ],
              [
                106.153591,
                20.303023
              ],
              [
                106.153554,
                20.303094
              ],
              [
                106.153533,
                20.303178
              ],
              [
                106.153489,
                20.303227
              ],
              [
                106.153435,
                20.303306
              ],
              [
                106.153381,
                20.303375
              ],
              [
                106.153315,
                20.30346
              ],
              [
                106.153274,
                20.303506
              ],
              [
                106.153226,
                20.303582
              ],
              [
                106.153162,
                20.303672
              ],
              [
                106.153157,
                20.30368
              ],
              [
                106.153107,
                20.303752
              ],
              [
                106.153071,
                20.303792
              ],
              [
                106.153036,
                20.303848
              ],
              [
                106.152975,
                20.303934
              ],
              [
                106.152954,
                20.303963
              ],
              [
                106.152935,
                20.303989
              ],
              [
                106.152898,
                20.30404
              ],
              [
                106.152838,
                20.304124
              ],
              [
                106.152785,
                20.304193
              ],
              [
                106.152782,
                20.304198
              ],
              [
                106.152717,
                20.304293
              ],
              [
                106.152653,
                20.304383
              ],
              [
                106.152603,
                20.304454
              ],
              [
                106.152563,
                20.304513
              ],
              [
                106.15252,
                20.304566
              ],
              [
                106.152481,
                20.304614
              ],
              [
                106.152444,
                20.304677
              ],
              [
                106.152403,
                20.304738
              ],
              [
                106.152357,
                20.304796
              ],
              [
                106.15232,
                20.304858
              ],
              [
                106.152299,
                20.304889
              ],
              [
                106.152254,
                20.304955
              ],
              [
                106.152228,
                20.304988
              ],
              [
                106.152209,
                20.305011
              ],
              [
                106.15219,
                20.305036
              ],
              [
                106.152176,
                20.305054
              ],
              [
                106.15216,
                20.305074
              ],
              [
                106.152147,
                20.305091
              ],
              [
                106.152124,
                20.305121
              ],
              [
                106.152088,
                20.305178
              ],
              [
                106.152046,
                20.305233
              ],
              [
                106.152032,
                20.305258
              ],
              [
                106.152031,
                20.30526
              ],
              [
                106.151981,
                20.305329
              ],
              [
                106.151954,
                20.305369
              ],
              [
                106.151923,
                20.305414
              ],
              [
                106.151905,
                20.305437
              ],
              [
                106.151893,
                20.305456
              ],
              [
                106.151862,
                20.3055
              ],
              [
                106.151832,
                20.305538
              ],
              [
                106.151799,
                20.305579
              ],
              [
                106.151763,
                20.305641
              ],
              [
                106.151725,
                20.305694
              ],
              [
                106.151699,
                20.305721
              ],
              [
                106.151654,
                20.305786
              ],
              [
                106.151609,
                20.305852
              ],
              [
                106.151559,
                20.305921
              ],
              [
                106.151521,
                20.305977
              ],
              [
                106.151486,
                20.306024
              ],
              [
                106.151475,
                20.306038
              ],
              [
                106.151464,
                20.306054
              ],
              [
                106.151402,
                20.306139
              ],
              [
                106.151352,
                20.306206
              ],
              [
                106.151313,
                20.306265
              ],
              [
                106.151273,
                20.306322
              ],
              [
                106.151242,
                20.306368
              ],
              [
                106.151196,
                20.306431
              ],
              [
                106.151169,
                20.306469
              ],
              [
                106.151157,
                20.306486
              ],
              [
                106.151126,
                20.306529
              ],
              [
                106.151098,
                20.306567
              ],
              [
                106.151029,
                20.306655
              ],
              [
                106.150978,
                20.306721
              ],
              [
                106.150915,
                20.306831
              ],
              [
                106.150888,
                20.306881
              ],
              [
                106.150838,
                20.306977
              ],
              [
                106.150821,
                20.307009
              ],
              [
                106.150773,
                20.307099
              ],
              [
                106.150672,
                20.307304
              ],
              [
                106.150591,
                20.307442
              ],
              [
                106.150536,
                20.307521
              ],
              [
                106.150519,
                20.307547
              ],
              [
                106.150471,
                20.307627
              ],
              [
                106.150137,
                20.307364
              ],
              [
                106.149264,
                20.307681
              ],
              [
                106.149381,
                20.30775
              ],
              [
                106.149811,
                20.307961
              ],
              [
                106.150144,
                20.308095
              ],
              [
                106.150043,
                20.308264
              ],
              [
                106.149945,
                20.308407
              ],
              [
                106.149702,
                20.30871
              ],
              [
                106.149506,
                20.308936
              ],
              [
                106.148768,
                20.309766
              ],
              [
                106.14775,
                20.310907
              ],
              [
                106.147744,
                20.310912
              ],
              [
                106.147744,
                20.310913
              ],
              [
                106.148258,
                20.311506
              ],
              [
                106.150574,
                20.314494
              ],
              [
                106.150948,
                20.314924
              ],
              [
                106.152194,
                20.316357
              ],
              [
                106.155428,
                20.319105
              ],
              [
                106.156966,
                20.320411
              ],
              [
                106.157857,
                20.321168
              ],
              [
                106.158321,
                20.321615
              ],
              [
                106.159223,
                20.320749
              ],
              [
                106.159659,
                20.320329
              ],
              [
                106.159504,
                20.320159
              ],
              [
                106.159404,
                20.320015
              ],
              [
                106.159228,
                20.319702
              ],
              [
                106.159153,
                20.319627
              ],
              [
                106.159274,
                20.319549
              ],
              [
                106.15935,
                20.319449
              ],
              [
                106.159342,
                20.319157
              ],
              [
                106.159356,
                20.319053
              ],
              [
                106.159416,
                20.318964
              ],
              [
                106.159408,
                20.318847
              ],
              [
                106.159404,
                20.318773
              ],
              [
                106.160633,
                20.318729
              ],
              [
                106.162217,
                20.318636
              ],
              [
                106.163721,
                20.318518
              ],
              [
                106.164998,
                20.318424
              ],
              [
                106.167706,
                20.318266
              ],
              [
                106.167688,
                20.318186
              ],
              [
                106.167688,
                20.318185
              ],
              [
                106.167656,
                20.318046
              ],
              [
                106.167381,
                20.316811
              ],
              [
                106.16719,
                20.315896
              ],
              [
                106.168274,
                20.3158
              ],
              [
                106.168528,
                20.315341
              ],
              [
                106.168804,
                20.314837
              ],
              [
                106.168804,
                20.314837
              ]
            ]
          ]
        ]
      },
      "properties": {
        "code": "14014",
        "name": "Nam Đồng",
        "nameEn": "Nam Dong",
        "fullName": "Xã Nam Đồng",
        "fullNameEn": "Nam Dong Commune",
        "codeName": "nam_dong",
        "postalCode": "07528",
        "postalCodePrefix": "",
        "gisServerId": "diaphanhanhchinhcapxa_2025.788",
        "areaKm2": 23.42
      }
    }
  ]
}