{
  "type": "FeatureCollection",
  "bbox": [
    106.258081,
    20.162096,
    106.305201,
    20.245514
  ],
  "features": [
    {
      "type": "Feature",
      "id": "14215",
      "bbox": [
        106.258081,
        20.162096,
        106.305201,
        20.245514
      ],
      "geometry": {
        "type": "MultiPolygon",
        "coordinates": [
          [
            [
              [
                106.298141,
                20.244159
              ],
              [
                106.298334,
                20.244111
              ],
              [
                106.298528,
                20.244172
              ],
              [
                106.298934,
                20.244229
              ],
              [
                106.299098,
                20.244186
              ],
              [
                106.299355,
                20.244121
              ],
              [
                106.299396,
                20.244105
              ],
              [
                106.299435,
                20.244089
              ],
              [
                106.2997,
                20.243993
              ],
              [
                106.299866,
                20.243902
              ],
              [
                106.299942,
                20.243862
              ],
              [
                106.300015,
                20.243802
              ],
              [
                106.300043,
                20.243759
              ],
              [
                106.300105,
                20.243625
              ],
              [
                106.30014,
                20.243535
              ],
              [
                106.300193,
                20.243412
              ],
              [
                106.30024,
                20.243289
              ],
              [
                106.30024,
                20.243289
              ],
              [
                106.3003,
                20.243131
              ],
              [
                106.300355,
                20.242972
              ],
              [
                106.300599,
                20.242299
              ],
              [
                106.300756,
                20.242068
              ],
              [
                106.300857,
                20.241919
              ],
              [
                106.300952,
                20.241781
              ],
              [
                106.300956,
                20.241775
              ],
              [
                106.300942,
                20.241736
              ],
              [
                106.300812,
                20.241387
              ],
              [
                106.300669,
                20.241017
              ],
              [
                106.300517,
                20.240633
              ],
              [
                106.300376,
                20.240286
              ],
              [
                106.300279,
                20.240044
              ],
              [
                106.300194,
                20.239827
              ],
              [
                106.300069,
                20.239514
              ],
              [
                106.299912,
                20.239121
              ],
              [
                106.299751,
                20.238713
              ],
              [
                106.299566,
                20.23824
              ],
              [
                106.299355,
                20.237697
              ],
              [
                106.299165,
                20.237209
              ],
              [
                106.298979,
                20.23673
              ],
              [
                106.298776,
                20.236209
              ],
              [
                106.298603,
                20.23577
              ],
              [
                106.298464,
                20.235426
              ],
              [
                106.298451,
                20.235395
              ],
              [
                106.298333,
                20.235109
              ],
              [
                106.298251,
                20.234915
              ],
              [
                106.298205,
                20.234804
              ],
              [
                106.298088,
                20.234538
              ],
              [
                106.297986,
                20.23433
              ],
              [
                106.297889,
                20.234155
              ],
              [
                106.297791,
                20.233985
              ],
              [
                106.297781,
                20.233969
              ],
              [
                106.297907,
                20.233879
              ],
              [
                106.298142,
                20.233713
              ],
              [
                106.297434,
                20.231464
              ],
              [
                106.297546,
                20.231416
              ],
              [
                106.297735,
                20.231343
              ],
              [
                106.297805,
                20.231299
              ],
              [
                106.297951,
                20.231207
              ],
              [
                106.298159,
                20.231027
              ],
              [
                106.298366,
                20.230814
              ],
              [
                106.298508,
                20.230631
              ],
              [
                106.29857,
                20.230562
              ],
              [
                106.298691,
                20.23046
              ],
              [
                106.298925,
                20.230301
              ],
              [
                106.29922,
                20.230113
              ],
              [
                106.299539,
                20.22999
              ],
              [
                106.299749,
                20.2299
              ],
              [
                106.299831,
                20.229865
              ],
              [
                106.301213,
                20.229318
              ],
              [
                106.301504,
                20.229209
              ],
              [
                106.301541,
                20.229149
              ],
              [
                106.301588,
                20.229086
              ],
              [
                106.301831,
                20.228997
              ],
              [
                106.302747,
                20.228724
              ],
              [
                106.304152,
                20.22829
              ],
              [
                106.304328,
                20.228205
              ],
              [
                106.304382,
                20.228118
              ],
              [
                106.304396,
                20.227956
              ],
              [
                106.304097,
                20.225912
              ],
              [
                106.303946,
                20.224742
              ],
              [
                106.303908,
                20.224437
              ],
              [
                106.303869,
                20.224037
              ],
              [
                106.303904,
                20.223953
              ],
              [
                106.303916,
                20.223888
              ],
              [
                106.303931,
                20.223814
              ],
              [
                106.303931,
                20.223813
              ],
              [
                106.303929,
                20.223763
              ],
              [
                106.303914,
                20.223075
              ],
              [
                106.303888,
                20.22246
              ],
              [
                106.303854,
                20.221574
              ],
              [
                106.303791,
                20.220244
              ],
              [
                106.303738,
                20.219041
              ],
              [
                106.303724,
                20.218502
              ],
              [
                106.303717,
                20.218466
              ],
              [
                106.303879,
                20.218423
              ],
              [
                106.304022,
                20.218323
              ],
              [
                106.304056,
                20.218287
              ],
              [
                106.304099,
                20.218217
              ],
              [
                106.304166,
                20.218125
              ],
              [
                106.304207,
                20.218098
              ],
              [
                106.304543,
                20.218012
              ],
              [
                106.304868,
                20.217935
              ],
              [
                106.30503,
                20.217901
              ],
              [
                106.305072,
                20.217893
              ],
              [
                106.305133,
                20.217875
              ],
              [
                106.305201,
                20.217861
              ],
              [
                106.305197,
                20.217808
              ],
              [
                106.305135,
                20.217353
              ],
              [
                106.305038,
                20.216626
              ],
              [
                106.304968,
                20.215843
              ],
              [
                106.304974,
                20.215635
              ],
              [
                106.305096,
                20.215063
              ],
              [
                106.305143,
                20.214936
              ],
              [
                106.305076,
                20.214829
              ],
              [
                106.304974,
                20.214352
              ],
              [
                106.304631,
                20.212881
              ],
              [
                106.304437,
                20.211965
              ],
              [
                106.304244,
                20.211185
              ],
              [
                106.304121,
                20.210909
              ],
              [
                106.303809,
                20.21042
              ],
              [
                106.302887,
                20.209172
              ],
              [
                106.302361,
                20.208478
              ],
              [
                106.302258,
                20.208341
              ],
              [
                106.301904,
                20.207874
              ],
              [
                106.301875,
                20.207836
              ],
              [
                106.301744,
                20.207663
              ],
              [
                106.301011,
                20.20671
              ],
              [
                106.300719,
                20.20633
              ],
              [
                106.302424,
                20.2051
              ],
              [
                106.301876,
                20.204371
              ],
              [
                106.301748,
                20.20421
              ],
              [
                106.301537,
                20.203943
              ],
              [
                106.300949,
                20.203198
              ],
              [
                106.300247,
                20.202268
              ],
              [
                106.301834,
                20.200753
              ],
              [
                106.302769,
                20.199914
              ],
              [
                106.303573,
                20.19923
              ],
              [
                106.303459,
                20.199084
              ],
              [
                106.303097,
                20.198621
              ],
              [
                106.30295,
                20.198632
              ],
              [
                106.302841,
                20.198355
              ],
              [
                106.302723,
                20.198141
              ],
              [
                106.30236,
                20.197732
              ],
              [
                106.302315,
                20.197684
              ],
              [
                106.301808,
                20.197136
              ],
              [
                106.301806,
                20.197137
              ],
              [
                106.301388,
                20.197475
              ],
              [
                106.301116,
                20.197693
              ],
              [
                106.300538,
                20.198159
              ],
              [
                106.30051,
                20.198181
              ],
              [
                106.29966,
                20.198237
              ],
              [
                106.29945,
                20.197979
              ],
              [
                106.298463,
                20.198478
              ],
              [
                106.298458,
                20.198469
              ],
              [
                106.29842,
                20.198388
              ],
              [
                106.298071,
                20.197647
              ],
              [
                106.297713,
                20.196775
              ],
              [
                106.297631,
                20.196591
              ],
              [
                106.297477,
                20.196247
              ],
              [
                106.29709,
                20.195309
              ],
              [
                106.296738,
                20.194538
              ],
              [
                106.296205,
                20.193547
              ],
              [
                106.295204,
                20.191618
              ],
              [
                106.2945,
                20.190278
              ],
              [
                106.29367,
                20.188711
              ],
              [
                106.293002,
                20.187478
              ],
              [
                106.292684,
                20.186882
              ],
              [
                106.292397,
                20.186345
              ],
              [
                106.292321,
                20.186201
              ],
              [
                106.292032,
                20.185699
              ],
              [
                106.291674,
                20.185078
              ],
              [
                106.291268,
                20.185263
              ],
              [
                106.290619,
                20.185654
              ],
              [
                106.290051,
                20.185997
              ],
              [
                106.28975,
                20.186157
              ],
              [
                106.289677,
                20.18601
              ],
              [
                106.289536,
                20.185721
              ],
              [
                106.289401,
                20.185442
              ],
              [
                106.289272,
                20.185175
              ],
              [
                106.289139,
                20.1849
              ],
              [
                106.289001,
                20.184617
              ],
              [
                106.288891,
                20.18439
              ],
              [
                106.288823,
                20.184252
              ],
              [
                106.288779,
                20.184163
              ],
              [
                106.28874,
                20.184087
              ],
              [
                106.288702,
                20.184009
              ],
              [
                106.288655,
                20.183916
              ],
              [
                106.288565,
                20.183747
              ],
              [
                106.288392,
                20.183436
              ],
              [
                106.288158,
                20.183024
              ],
              [
                106.287913,
                20.182593
              ],
              [
                106.287675,
                20.182175
              ],
              [
                106.287492,
                20.181851
              ],
              [
                106.287471,
                20.181815
              ],
              [
                106.287313,
                20.181528
              ],
              [
                106.287191,
                20.181301
              ],
              [
                106.287088,
                20.181106
              ],
              [
                106.286999,
                20.180934
              ],
              [
                106.286928,
                20.180797
              ],
              [
                106.286861,
                20.180667
              ],
              [
                106.286794,
                20.180529
              ],
              [
                106.286786,
                20.180512
              ],
              [
                106.286745,
                20.180417
              ],
              [
                106.286712,
                20.18032
              ],
              [
                106.286683,
                20.180218
              ],
              [
                106.28668,
                20.180206
              ],
              [
                106.286658,
                20.180123
              ],
              [
                106.286646,
                20.180074
              ],
              [
                106.286634,
                20.180029
              ],
              [
                106.286611,
                20.179932
              ],
              [
                106.286593,
                20.17984
              ],
              [
                106.286573,
                20.179714
              ],
              [
                106.28657,
                20.179693
              ],
              [
                106.286534,
                20.179453
              ],
              [
                106.286495,
                20.179187
              ],
              [
                106.286452,
                20.178896
              ],
              [
                106.286392,
                20.178513
              ],
              [
                106.286368,
                20.178363
              ],
              [
                106.286311,
                20.178012
              ],
              [
                106.286216,
                20.177434
              ],
              [
                106.286118,
                20.176838
              ],
              [
                106.286017,
                20.176229
              ],
              [
                106.285922,
                20.175664
              ],
              [
                106.285914,
                20.175617
              ],
              [
                106.285903,
                20.175546
              ],
              [
                106.285846,
                20.175209
              ],
              [
                106.285838,
                20.175167
              ],
              [
                106.28576,
                20.174695
              ],
              [
                106.285691,
                20.174272
              ],
              [
                106.285626,
                20.173854
              ],
              [
                106.285541,
                20.173316
              ],
              [
                106.285441,
                20.172696
              ],
              [
                106.285366,
                20.17223
              ],
              [
                106.28531,
                20.17188
              ],
              [
                106.285234,
                20.171407
              ],
              [
                106.285131,
                20.170774
              ],
              [
                106.285025,
                20.170113
              ],
              [
                106.284902,
                20.169328
              ],
              [
                106.284762,
                20.168435
              ],
              [
                106.284641,
                20.167658
              ],
              [
                106.284538,
                20.167005
              ],
              [
                106.284438,
                20.166372
              ],
              [
                106.28436,
                20.165881
              ],
              [
                106.284299,
                20.165509
              ],
              [
                106.284298,
                20.165499
              ],
              [
                106.284228,
                20.165074
              ],
              [
                106.284196,
                20.164879
              ],
              [
                106.284176,
                20.164754
              ],
              [
                106.284141,
                20.164497
              ],
              [
                106.28387,
                20.162766
              ],
              [
                106.283839,
                20.162561
              ],
              [
                106.283769,
                20.162096
              ],
              [
                106.283749,
                20.162103
              ],
              [
                106.283597,
                20.162162
              ],
              [
                106.280627,
                20.16287
              ],
              [
                106.278172,
                20.163498
              ],
              [
                106.276783,
                20.163889
              ],
              [
                106.276126,
                20.164074
              ],
              [
                106.276059,
                20.164133
              ],
              [
                106.276054,
                20.164138
              ],
              [
                106.275975,
                20.164151
              ],
              [
                106.274962,
                20.164443
              ],
              [
                106.274013,
                20.164687
              ],
              [
                106.273164,
                20.164888
              ],
              [
                106.272216,
                20.16514
              ],
              [
                106.272148,
                20.165159
              ],
              [
                106.272119,
                20.165165
              ],
              [
                106.272114,
                20.165166
              ],
              [
                106.272028,
                20.165184
              ],
              [
                106.271973,
                20.165196
              ],
              [
                106.271795,
                20.165234
              ],
              [
                106.2717,
                20.165254
              ],
              [
                106.271536,
                20.165289
              ],
              [
                106.271533,
                20.16529
              ],
              [
                106.271442,
                20.16531
              ],
              [
                106.271339,
                20.165332
              ],
              [
                106.270891,
                20.165472
              ],
              [
                106.270487,
                20.165661
              ],
              [
                106.270275,
                20.165718
              ],
              [
                106.269805,
                20.165845
              ],
              [
                106.267907,
                20.166274
              ],
              [
                106.265754,
                20.166796
              ],
              [
                106.265572,
                20.166854
              ],
              [
                106.265518,
                20.166867
              ],
              [
                106.263306,
                20.167391
              ],
              [
                106.261275,
                20.167936
              ],
              [
                106.259696,
                20.168303
              ],
              [
                106.258081,
                20.168657
              ],
              [
                106.2582,
                20.169172
              ],
              [
                106.258432,
                20.170172
              ],
              [
                106.258497,
                20.170445
              ],
              [
                106.258964,
                20.172393
              ],
              [
                106.25929,
                20.173819
              ],
              [
                106.259516,
                20.174786
              ],
              [
                106.259701,
                20.175577
              ],
              [
                106.260036,
                20.177022
              ],
              [
                106.260186,
                20.17767
              ],
              [
                106.260357,
                20.178409
              ],
              [
                106.260865,
                20.180583
              ],
              [
                106.261035,
                20.181304
              ],
              [
                106.261183,
                20.181933
              ],
              [
                106.261509,
                20.183354
              ],
              [
                106.261742,
                20.184369
              ],
              [
                106.261842,
                20.184797
              ],
              [
                106.261876,
                20.184942
              ],
              [
                106.261895,
                20.185026
              ],
              [
                106.261904,
                20.185064
              ],
              [
                106.261926,
                20.185127
              ],
              [
                106.262177,
                20.186221
              ],
              [
                106.262226,
                20.186432
              ],
              [
                106.262487,
                20.187651
              ],
              [
                106.26255,
                20.187945
              ],
              [
                106.262905,
                20.189437
              ],
              [
                106.263273,
                20.19103
              ],
              [
                106.263382,
                20.191337
              ],
              [
                106.263689,
                20.192199
              ],
              [
                106.264254,
                20.19371
              ],
              [
                106.264546,
                20.194471
              ],
              [
                106.265092,
                20.195918
              ],
              [
                106.265182,
                20.196153
              ],
              [
                106.26565,
                20.197388
              ],
              [
                106.266127,
                20.198686
              ],
              [
                106.266159,
                20.198775
              ],
              [
                106.266255,
                20.199074
              ],
              [
                106.266716,
                20.200266
              ],
              [
                106.266921,
                20.200804
              ],
              [
                106.267148,
                20.201398
              ],
              [
                106.2675,
                20.202306
              ],
              [
                106.267679,
                20.202773
              ],
              [
                106.267777,
                20.203029
              ],
              [
                106.267738,
                20.203172
              ],
              [
                106.267867,
                20.203567
              ],
              [
                106.267999,
                20.204111
              ],
              [
                106.268158,
                20.204594
              ],
              [
                106.268227,
                20.204828
              ],
              [
                106.268249,
                20.20489
              ],
              [
                106.268529,
                20.205874
              ],
              [
                106.268749,
                20.20665
              ],
              [
                106.268881,
                20.207111
              ],
              [
                106.268945,
                20.207339
              ],
              [
                106.269038,
                20.20766
              ],
              [
                106.269144,
                20.20805
              ],
              [
                106.269204,
                20.208253
              ],
              [
                106.269293,
                20.208559
              ],
              [
                106.269393,
                20.208909
              ],
              [
                106.269476,
                20.209208
              ],
              [
                106.269476,
                20.20921
              ],
              [
                106.269535,
                20.20942
              ],
              [
                106.2696,
                20.209651
              ],
              [
                106.269655,
                20.209849
              ],
              [
                106.269717,
                20.210075
              ],
              [
                106.269782,
                20.210296
              ],
              [
                106.269846,
                20.210526
              ],
              [
                106.269896,
                20.210707
              ],
              [
                106.269955,
                20.210917
              ],
              [
                106.270028,
                20.211167
              ],
              [
                106.270101,
                20.21143
              ],
              [
                106.270167,
                20.211669
              ],
              [
                106.270221,
                20.211859
              ],
              [
                106.270276,
                20.212046
              ],
              [
                106.27033,
                20.212235
              ],
              [
                106.270382,
                20.212427
              ],
              [
                106.270433,
                20.212603
              ],
              [
                106.270508,
                20.212862
              ],
              [
                106.270623,
                20.21327
              ],
              [
                106.270675,
                20.213452
              ],
              [
                106.270706,
                20.21356
              ],
              [
                106.270723,
                20.213632
              ],
              [
                106.27073,
                20.213665
              ],
              [
                106.270814,
                20.213658
              ],
              [
                106.271321,
                20.213628
              ],
              [
                106.271888,
                20.213608
              ],
              [
                106.272154,
                20.213581
              ],
              [
                106.272682,
                20.213469
              ],
              [
                106.273932,
                20.213134
              ],
              [
                106.274569,
                20.212989
              ],
              [
                106.275051,
                20.212896
              ],
              [
                106.275336,
                20.212908
              ],
              [
                106.275724,
                20.21297
              ],
              [
                106.276036,
                20.213011
              ],
              [
                106.276203,
                20.212981
              ],
              [
                106.276392,
                20.212933
              ],
              [
                106.276532,
                20.212868
              ],
              [
                106.276683,
                20.212759
              ],
              [
                106.276784,
                20.2126
              ],
              [
                106.276821,
                20.212442
              ],
              [
                106.276788,
                20.21208
              ],
              [
                106.276736,
                20.211876
              ],
              [
                106.278062,
                20.211696
              ],
              [
                106.278076,
                20.211768
              ],
              [
                106.278275,
                20.212748
              ],
              [
                106.279077,
                20.215403
              ],
              [
                106.279161,
                20.21568
              ],
              [
                106.279746,
                20.215654
              ],
              [
                106.279816,
                20.215919
              ],
              [
                106.280075,
                20.216907
              ],
              [
                106.280161,
                20.217234
              ],
              [
                106.279874,
                20.21728
              ],
              [
                106.279957,
                20.217561
              ],
              [
                106.279916,
                20.217565
              ],
              [
                106.279927,
                20.217608
              ],
              [
                106.279749,
                20.21766
              ],
              [
                106.279697,
                20.217675
              ],
              [
                106.279769,
                20.217913
              ],
              [
                106.279958,
                20.21874
              ],
              [
                106.280063,
                20.219204
              ],
              [
                106.280232,
                20.219903
              ],
              [
                106.280116,
                20.219929
              ],
              [
                106.280013,
                20.219952
              ],
              [
                106.279924,
                20.219972
              ],
              [
                106.279923,
                20.219972
              ],
              [
                106.279925,
                20.21999
              ],
              [
                106.279935,
                20.220093
              ],
              [
                106.280048,
                20.220715
              ],
              [
                106.280363,
                20.221798
              ],
              [
                106.28053,
                20.221757
              ],
              [
                106.280698,
                20.222338
              ],
              [
                106.280677,
                20.222344
              ],
              [
                106.280554,
                20.222375
              ],
              [
                106.281032,
                20.224356
              ],
              [
                106.281006,
                20.22495
              ],
              [
                106.281003,
                20.225037
              ],
              [
                106.280984,
                20.22512
              ],
              [
                106.280941,
                20.225248
              ],
              [
                106.280753,
                20.225247
              ],
              [
                106.280536,
                20.225799
              ],
              [
                106.28067,
                20.225851
              ],
              [
                106.281083,
                20.22601
              ],
              [
                106.281075,
                20.226572
              ],
              [
                106.281685,
                20.226872
              ],
              [
                106.2817,
                20.227153
              ],
              [
                106.281427,
                20.227137
              ],
              [
                106.281482,
                20.227615
              ],
              [
                106.282128,
                20.227634
              ],
              [
                106.282266,
                20.22825
              ],
              [
                106.281979,
                20.228306
              ],
              [
                106.281962,
                20.228309
              ],
              [
                106.281695,
                20.228355
              ],
              [
                106.281448,
                20.228397
              ],
              [
                106.281241,
                20.22843
              ],
              [
                106.281081,
                20.228455
              ],
              [
                106.280953,
                20.228472
              ],
              [
                106.280891,
                20.22848
              ],
              [
                106.280838,
                20.228486
              ],
              [
                106.280724,
                20.228497
              ],
              [
                106.280609,
                20.228505
              ],
              [
                106.280608,
                20.228505
              ],
              [
                106.280491,
                20.22851
              ],
              [
                106.280371,
                20.228514
              ],
              [
                106.280249,
                20.228518
              ],
              [
                106.280135,
                20.228522
              ],
              [
                106.28003,
                20.228525
              ],
              [
                106.280013,
                20.228525
              ],
              [
                106.279921,
                20.228532
              ],
              [
                106.279855,
                20.228531
              ],
              [
                106.279751,
                20.22853
              ],
              [
                106.279537,
                20.229362
              ],
              [
                106.28051,
                20.229581
              ],
              [
                106.281349,
                20.229771
              ],
              [
                106.280438,
                20.232184
              ],
              [
                106.279139,
                20.235513
              ],
              [
                106.278886,
                20.235533
              ],
              [
                106.278896,
                20.23559
              ],
              [
                106.278854,
                20.235746
              ],
              [
                106.278815,
                20.235897
              ],
              [
                106.27878,
                20.236024
              ],
              [
                106.278598,
                20.236067
              ],
              [
                106.278384,
                20.236106
              ],
              [
                106.278035,
                20.236175
              ],
              [
                106.277874,
                20.23622
              ],
              [
                106.277742,
                20.236264
              ],
              [
                106.27751,
                20.236333
              ],
              [
                106.27731,
                20.236389
              ],
              [
                106.277127,
                20.236443
              ],
              [
                106.276939,
                20.236492
              ],
              [
                106.276729,
                20.236554
              ],
              [
                106.276557,
                20.236622
              ],
              [
                106.27636,
                20.236715
              ],
              [
                106.275995,
                20.236884
              ],
              [
                106.275856,
                20.236971
              ],
              [
                106.275846,
                20.237078
              ],
              [
                106.275843,
                20.237117
              ],
              [
                106.275849,
                20.237162
              ],
              [
                106.275865,
                20.237295
              ],
              [
                106.27591,
                20.23749
              ],
              [
                106.275928,
                20.237525
              ],
              [
                106.276061,
                20.237782
              ],
              [
                106.276155,
                20.237978
              ],
              [
                106.276172,
                20.238014
              ],
              [
                106.276326,
                20.237913
              ],
              [
                106.277716,
                20.237366
              ],
              [
                106.278028,
                20.23727
              ],
              [
                106.278817,
                20.237163
              ],
              [
                106.280298,
                20.237059
              ],
              [
                106.280959,
                20.237049
              ],
              [
                106.28124,
                20.237045
              ],
              [
                106.281871,
                20.237126
              ],
              [
                106.282434,
                20.237282
              ],
              [
                106.282658,
                20.237317
              ],
              [
                106.282667,
                20.237318
              ],
              [
                106.283093,
                20.237464
              ],
              [
                106.283732,
                20.237682
              ],
              [
                106.283857,
                20.237735
              ],
              [
                106.284017,
                20.237802
              ],
              [
                106.284467,
                20.238007
              ],
              [
                106.285118,
                20.238304
              ],
              [
                106.285273,
                20.238389
              ],
              [
                106.285919,
                20.238775
              ],
              [
                106.286905,
                20.239398
              ],
              [
                106.287623,
                20.239874
              ],
              [
                106.288212,
                20.24035
              ],
              [
                106.288334,
                20.240439
              ],
              [
                106.288957,
                20.240938
              ],
              [
                106.289951,
                20.241733
              ],
              [
                106.290604,
                20.242304
              ],
              [
                106.291496,
                20.243003
              ],
              [
                106.292541,
                20.243784
              ],
              [
                106.292617,
                20.24384
              ],
              [
                106.292815,
                20.243996
              ],
              [
                106.293074,
                20.244174
              ],
              [
                106.295023,
                20.245514
              ],
              [
                106.29553,
                20.245064
              ],
              [
                106.296053,
                20.244606
              ],
              [
                106.296526,
                20.244518
              ],
              [
                106.296575,
                20.244507
              ],
              [
                106.297231,
                20.244363
              ],
              [
                106.297764,
                20.244222
              ],
              [
                106.297983,
                20.244187
              ],
              [
                106.298141,
                20.244159
              ],
              [
                106.298141,
                20.244159
              ]
            ]
          ]
        ]
      },
      "properties": {
        "code": "14215",
        "name": "Hải Hậu",
        "nameEn": "Hai Hau",
        "fullName": "Xã Hải Hậu",
        "fullNameEn": "Hai Hau Commune",
        "codeName": "hai_hau",
        "postalCode": "07941",
        "postalCodePrefix": "",
        "gisServerId": "diaphanhanhchinhcapxa_2025.833",
        "areaKm2": 23.87
      }
    }
  ]
}