{
  "type": "FeatureCollection",
  "bbox": [
    105.800061,
    20.272583,
    105.848654,
    20.328186
  ],
  "features": [
    {
      "type": "Feature",
      "id": "14524",
      "bbox": [
        105.800061,
        20.272583,
        105.848654,
        20.328186
      ],
      "geometry": {
        "type": "MultiPolygon",
        "coordinates": [
          [
            [
              [
                105.83598,
                20.320364
              ],
              [
                105.836074,
                20.320103
              ],
              [
                105.836284,
                20.319552
              ],
              [
                105.836411,
                20.319255
              ],
              [
                105.836443,
                20.31919
              ],
              [
                105.836528,
                20.31906
              ],
              [
                105.836631,
                20.318882
              ],
              [
                105.836745,
                20.318716
              ],
              [
                105.83696,
                20.318502
              ],
              [
                105.83742,
                20.318115
              ],
              [
                105.83757,
                20.317972
              ],
              [
                105.837642,
                20.317895
              ],
              [
                105.837761,
                20.317752
              ],
              [
                105.837925,
                20.317594
              ],
              [
                105.838246,
                20.317316
              ],
              [
                105.838624,
                20.31702
              ],
              [
                105.839086,
                20.316709
              ],
              [
                105.839442,
                20.316392
              ],
              [
                105.839956,
                20.315791
              ],
              [
                105.84082,
                20.314813
              ],
              [
                105.841103,
                20.314502
              ],
              [
                105.842068,
                20.31349
              ],
              [
                105.84301,
                20.312491
              ],
              [
                105.843314,
                20.312176
              ],
              [
                105.84398,
                20.311501
              ],
              [
                105.844804,
                20.310694
              ],
              [
                105.845206,
                20.310329
              ],
              [
                105.845643,
                20.309952
              ],
              [
                105.845821,
                20.309793
              ],
              [
                105.845995,
                20.309629
              ],
              [
                105.846105,
                20.309517
              ],
              [
                105.846419,
                20.309192
              ],
              [
                105.846796,
                20.308768
              ],
              [
                105.846982,
                20.308546
              ],
              [
                105.847389,
                20.308086
              ],
              [
                105.847863,
                20.30759
              ],
              [
                105.847805,
                20.307108
              ],
              [
                105.847791,
                20.307016
              ],
              [
                105.847769,
                20.306877
              ],
              [
                105.847764,
                20.306813
              ],
              [
                105.847763,
                20.30671
              ],
              [
                105.847772,
                20.306456
              ],
              [
                105.847793,
                20.306179
              ],
              [
                105.847876,
                20.305621
              ],
              [
                105.847901,
                20.305378
              ],
              [
                105.847915,
                20.304915
              ],
              [
                105.847914,
                20.304651
              ],
              [
                105.847914,
                20.304449
              ],
              [
                105.847923,
                20.304261
              ],
              [
                105.847926,
                20.30407
              ],
              [
                105.847938,
                20.304038
              ],
              [
                105.847977,
                20.303993
              ],
              [
                105.848136,
                20.303869
              ],
              [
                105.848199,
                20.303811
              ],
              [
                105.848226,
                20.303776
              ],
              [
                105.848279,
                20.303688
              ],
              [
                105.848317,
                20.303637
              ],
              [
                105.848346,
                20.30358
              ],
              [
                105.848437,
                20.303532
              ],
              [
                105.8485,
                20.303488
              ],
              [
                105.848578,
                20.303415
              ],
              [
                105.848632,
                20.303339
              ],
              [
                105.848654,
                20.303281
              ],
              [
                105.848653,
                20.30324
              ],
              [
                105.848632,
                20.303199
              ],
              [
                105.848581,
                20.303138
              ],
              [
                105.848405,
                20.302975
              ],
              [
                105.848334,
                20.302909
              ],
              [
                105.848293,
                20.302858
              ],
              [
                105.848235,
                20.302747
              ],
              [
                105.848109,
                20.302505
              ],
              [
                105.848042,
                20.302392
              ],
              [
                105.847918,
                20.302235
              ],
              [
                105.847772,
                20.302134
              ],
              [
                105.847543,
                20.302051
              ],
              [
                105.8472,
                20.301933
              ],
              [
                105.846978,
                20.301785
              ],
              [
                105.846831,
                20.301606
              ],
              [
                105.846723,
                20.30144
              ],
              [
                105.846638,
                20.301016
              ],
              [
                105.846611,
                20.300508
              ],
              [
                105.846554,
                20.300186
              ],
              [
                105.8465,
                20.300042
              ],
              [
                105.846359,
                20.299782
              ],
              [
                105.846024,
                20.299327
              ],
              [
                105.845126,
                20.298212
              ],
              [
                105.843579,
                20.296754
              ],
              [
                105.843334,
                20.296605
              ],
              [
                105.841877,
                20.295772
              ],
              [
                105.841517,
                20.295558
              ],
              [
                105.841207,
                20.295366
              ],
              [
                105.840952,
                20.2952
              ],
              [
                105.840625,
                20.294925
              ],
              [
                105.840426,
                20.294711
              ],
              [
                105.840311,
                20.294511
              ],
              [
                105.840233,
                20.294152
              ],
              [
                105.840155,
                20.293902
              ],
              [
                105.839881,
                20.293481
              ],
              [
                105.839646,
                20.293107
              ],
              [
                105.83956,
                20.292977
              ],
              [
                105.839422,
                20.292782
              ],
              [
                105.839364,
                20.292707
              ],
              [
                105.839329,
                20.292672
              ],
              [
                105.838237,
                20.29153
              ],
              [
                105.83792,
                20.290967
              ],
              [
                105.837632,
                20.290175
              ],
              [
                105.837383,
                20.289124
              ],
              [
                105.837305,
                20.28827
              ],
              [
                105.837295,
                20.288096
              ],
              [
                105.837301,
                20.287821
              ],
              [
                105.837334,
                20.287261
              ],
              [
                105.837391,
                20.286694
              ],
              [
                105.837444,
                20.286411
              ],
              [
                105.837496,
                20.286213
              ],
              [
                105.837497,
                20.286209
              ],
              [
                105.837638,
                20.285615
              ],
              [
                105.837679,
                20.285415
              ],
              [
                105.837891,
                20.284917
              ],
              [
                105.83798,
                20.284747
              ],
              [
                105.838051,
                20.284599
              ],
              [
                105.83842,
                20.28377
              ],
              [
                105.838576,
                20.283406
              ],
              [
                105.838709,
                20.28307
              ],
              [
                105.838878,
                20.282574
              ],
              [
                105.839036,
                20.282064
              ],
              [
                105.839065,
                20.281921
              ],
              [
                105.839087,
                20.281753
              ],
              [
                105.839099,
                20.281604
              ],
              [
                105.839096,
                20.281505
              ],
              [
                105.839026,
                20.281239
              ],
              [
                105.838973,
                20.281002
              ],
              [
                105.838914,
                20.280847
              ],
              [
                105.838847,
                20.280536
              ],
              [
                105.838733,
                20.280165
              ],
              [
                105.838662,
                20.280002
              ],
              [
                105.838541,
                20.279738
              ],
              [
                105.838316,
                20.279246
              ],
              [
                105.838185,
                20.278927
              ],
              [
                105.83777,
                20.277995
              ],
              [
                105.837672,
                20.277764
              ],
              [
                105.837425,
                20.277228
              ],
              [
                105.837132,
                20.276399
              ],
              [
                105.837076,
                20.276239
              ],
              [
                105.836982,
                20.275999
              ],
              [
                105.836713,
                20.27552
              ],
              [
                105.836625,
                20.275401
              ],
              [
                105.836241,
                20.275014
              ],
              [
                105.836168,
                20.274948
              ],
              [
                105.835945,
                20.274747
              ],
              [
                105.835296,
                20.2742
              ],
              [
                105.835098,
                20.274039
              ],
              [
                105.834705,
                20.273719
              ],
              [
                105.834669,
                20.273701
              ],
              [
                105.834381,
                20.273558
              ],
              [
                105.833188,
                20.273131
              ],
              [
                105.832986,
                20.273058
              ],
              [
                105.832903,
                20.273033
              ],
              [
                105.832051,
                20.272773
              ],
              [
                105.831826,
                20.272705
              ],
              [
                105.831492,
                20.272631
              ],
              [
                105.831328,
                20.272618
              ],
              [
                105.830905,
                20.272583
              ],
              [
                105.830893,
                20.272584
              ],
              [
                105.830652,
                20.272608
              ],
              [
                105.830447,
                20.272657
              ],
              [
                105.830392,
                20.27267
              ],
              [
                105.830286,
                20.272696
              ],
              [
                105.829893,
                20.272791
              ],
              [
                105.829706,
                20.272868
              ],
              [
                105.829046,
                20.273141
              ],
              [
                105.827926,
                20.273738
              ],
              [
                105.825784,
                20.274879
              ],
              [
                105.825539,
                20.274991
              ],
              [
                105.824746,
                20.275222
              ],
              [
                105.823838,
                20.275366
              ],
              [
                105.822835,
                20.275389
              ],
              [
                105.822226,
                20.27532
              ],
              [
                105.821087,
                20.275006
              ],
              [
                105.820856,
                20.275217
              ],
              [
                105.820608,
                20.275443
              ],
              [
                105.820429,
                20.275596
              ],
              [
                105.820333,
                20.275654
              ],
              [
                105.820211,
                20.275736
              ],
              [
                105.820014,
                20.275896
              ],
              [
                105.819955,
                20.275948
              ],
              [
                105.819909,
                20.276
              ],
              [
                105.819873,
                20.276047
              ],
              [
                105.819767,
                20.27622
              ],
              [
                105.819743,
                20.276267
              ],
              [
                105.819709,
                20.276379
              ],
              [
                105.819696,
                20.276441
              ],
              [
                105.81969,
                20.276468
              ],
              [
                105.819678,
                20.276571
              ],
              [
                105.819641,
                20.276866
              ],
              [
                105.819594,
                20.277433
              ],
              [
                105.819519,
                20.278549
              ],
              [
                105.8195,
                20.278733
              ],
              [
                105.819473,
                20.278882
              ],
              [
                105.819448,
                20.278981
              ],
              [
                105.819417,
                20.279073
              ],
              [
                105.819333,
                20.279285
              ],
              [
                105.819232,
                20.279472
              ],
              [
                105.819117,
                20.279766
              ],
              [
                105.819065,
                20.279883
              ],
              [
                105.819035,
                20.279936
              ],
              [
                105.818999,
                20.280002
              ],
              [
                105.818922,
                20.280123
              ],
              [
                105.818763,
                20.280361
              ],
              [
                105.818701,
                20.280454
              ],
              [
                105.818535,
                20.280712
              ],
              [
                105.818477,
                20.280789
              ],
              [
                105.818418,
                20.280849
              ],
              [
                105.818269,
                20.280976
              ],
              [
                105.818138,
                20.28111
              ],
              [
                105.81779,
                20.281431
              ],
              [
                105.817619,
                20.281602
              ],
              [
                105.816311,
                20.28262
              ],
              [
                105.816235,
                20.28268
              ],
              [
                105.816162,
                20.282747
              ],
              [
                105.815938,
                20.28301
              ],
              [
                105.815744,
                20.283252
              ],
              [
                105.815659,
                20.28337
              ],
              [
                105.815496,
                20.283612
              ],
              [
                105.815439,
                20.283699
              ],
              [
                105.815395,
                20.283777
              ],
              [
                105.815342,
                20.283917
              ],
              [
                105.815312,
                20.284044
              ],
              [
                105.815282,
                20.284253
              ],
              [
                105.815278,
                20.284379
              ],
              [
                105.815289,
                20.284483
              ],
              [
                105.815309,
                20.284597
              ],
              [
                105.815444,
                20.285157
              ],
              [
                105.815512,
                20.285473
              ],
              [
                105.815558,
                20.285736
              ],
              [
                105.815574,
                20.285869
              ],
              [
                105.815589,
                20.286061
              ],
              [
                105.815583,
                20.286166
              ],
              [
                105.81557,
                20.286232
              ],
              [
                105.815552,
                20.286288
              ],
              [
                105.815499,
                20.286396
              ],
              [
                105.815456,
                20.286465
              ],
              [
                105.815372,
                20.286581
              ],
              [
                105.815254,
                20.286726
              ],
              [
                105.815164,
                20.286819
              ],
              [
                105.815098,
                20.286879
              ],
              [
                105.815026,
                20.286939
              ],
              [
                105.814954,
                20.28699
              ],
              [
                105.814939,
                20.287
              ],
              [
                105.814788,
                20.287092
              ],
              [
                105.814677,
                20.28715
              ],
              [
                105.814568,
                20.287201
              ],
              [
                105.814462,
                20.287243
              ],
              [
                105.814322,
                20.28729
              ],
              [
                105.814044,
                20.287373
              ],
              [
                105.813894,
                20.287405
              ],
              [
                105.813751,
                20.28743
              ],
              [
                105.813651,
                20.287441
              ],
              [
                105.813548,
                20.287445
              ],
              [
                105.813395,
                20.287432
              ],
              [
                105.813259,
                20.287411
              ],
              [
                105.812925,
                20.287335
              ],
              [
                105.812758,
                20.28731
              ],
              [
                105.812588,
                20.287305
              ],
              [
                105.812259,
                20.287323
              ],
              [
                105.812182,
                20.287316
              ],
              [
                105.812093,
                20.287282
              ],
              [
                105.811939,
                20.287207
              ],
              [
                105.810957,
                20.286674
              ],
              [
                105.810862,
                20.286639
              ],
              [
                105.810645,
                20.286852
              ],
              [
                105.810635,
                20.286862
              ],
              [
                105.810567,
                20.28693
              ],
              [
                105.809691,
                20.287544
              ],
              [
                105.809327,
                20.287812
              ],
              [
                105.808581,
                20.288381
              ],
              [
                105.808671,
                20.288473
              ],
              [
                105.808766,
                20.288571
              ],
              [
                105.809377,
                20.289216
              ],
              [
                105.809756,
                20.289619
              ],
              [
                105.810078,
                20.289968
              ],
              [
                105.810138,
                20.29003
              ],
              [
                105.810163,
                20.290057
              ],
              [
                105.81017,
                20.290077
              ],
              [
                105.810193,
                20.290112
              ],
              [
                105.810235,
                20.290163
              ],
              [
                105.810402,
                20.290325
              ],
              [
                105.810462,
                20.290394
              ],
              [
                105.810483,
                20.290432
              ],
              [
                105.810497,
                20.290471
              ],
              [
                105.810498,
                20.290477
              ],
              [
                105.810502,
                20.290529
              ],
              [
                105.810502,
                20.290532
              ],
              [
                105.810489,
                20.290615
              ],
              [
                105.810464,
                20.290693
              ],
              [
                105.810431,
                20.290768
              ],
              [
                105.810384,
                20.290841
              ],
              [
                105.810343,
                20.290888
              ],
              [
                105.81034,
                20.290891
              ],
              [
                105.810303,
                20.290925
              ],
              [
                105.810291,
                20.290936
              ],
              [
                105.810141,
                20.291037
              ],
              [
                105.8101,
                20.291069
              ],
              [
                105.810102,
                20.291082
              ],
              [
                105.81015,
                20.291397
              ],
              [
                105.810177,
                20.291581
              ],
              [
                105.810292,
                20.291855
              ],
              [
                105.810503,
                20.292124
              ],
              [
                105.8105,
                20.292136
              ],
              [
                105.810836,
                20.294112
              ],
              [
                105.810783,
                20.294168
              ],
              [
                105.810609,
                20.294204
              ],
              [
                105.810039,
                20.294382
              ],
              [
                105.810042,
                20.295111
              ],
              [
                105.810008,
                20.29581
              ],
              [
                105.809989,
                20.296069
              ],
              [
                105.809982,
                20.296091
              ],
              [
                105.809779,
                20.296677
              ],
              [
                105.809675,
                20.297215
              ],
              [
                105.809661,
                20.297285
              ],
              [
                105.809611,
                20.297523
              ],
              [
                105.809552,
                20.297619
              ],
              [
                105.809508,
                20.297653
              ],
              [
                105.809482,
                20.297673
              ],
              [
                105.809166,
                20.297782
              ],
              [
                105.808853,
                20.297843
              ],
              [
                105.808479,
                20.297854
              ],
              [
                105.808042,
                20.297907
              ],
              [
                105.807739,
                20.297998
              ],
              [
                105.807454,
                20.298116
              ],
              [
                105.807328,
                20.298173
              ],
              [
                105.807135,
                20.298332
              ],
              [
                105.807007,
                20.298527
              ],
              [
                105.806763,
                20.298564
              ],
              [
                105.806583,
                20.298598
              ],
              [
                105.806424,
                20.298635
              ],
              [
                105.806301,
                20.298689
              ],
              [
                105.80614,
                20.298821
              ],
              [
                105.80592,
                20.299172
              ],
              [
                105.805713,
                20.299421
              ],
              [
                105.805525,
                20.299629
              ],
              [
                105.805895,
                20.300253
              ],
              [
                105.805936,
                20.300324
              ],
              [
                105.806094,
                20.300541
              ],
              [
                105.806534,
                20.301343
              ],
              [
                105.806859,
                20.302012
              ],
              [
                105.806894,
                20.302085
              ],
              [
                105.806935,
                20.302169
              ],
              [
                105.806635,
                20.302259
              ],
              [
                105.806135,
                20.302418
              ],
              [
                105.805901,
                20.302493
              ],
              [
                105.805592,
                20.302596
              ],
              [
                105.805503,
                20.30263
              ],
              [
                105.805463,
                20.302655
              ],
              [
                105.80546,
                20.302657
              ],
              [
                105.805424,
                20.302687
              ],
              [
                105.805398,
                20.302718
              ],
              [
                105.805382,
                20.30276
              ],
              [
                105.805365,
                20.302798
              ],
              [
                105.805338,
                20.302861
              ],
              [
                105.805236,
                20.303107
              ],
              [
                105.805175,
                20.303251
              ],
              [
                105.805098,
                20.30342
              ],
              [
                105.805098,
                20.30342
              ],
              [
                105.804864,
                20.303932
              ],
              [
                105.804829,
                20.304053
              ],
              [
                105.804827,
                20.304061
              ],
              [
                105.804798,
                20.304191
              ],
              [
                105.804787,
                20.304242
              ],
              [
                105.804751,
                20.304409
              ],
              [
                105.804731,
                20.304573
              ],
              [
                105.804728,
                20.304603
              ],
              [
                105.804708,
                20.304846
              ],
              [
                105.804597,
                20.306197
              ],
              [
                105.804572,
                20.306455
              ],
              [
                105.804531,
                20.306868
              ],
              [
                105.804453,
                20.307653
              ],
              [
                105.804445,
                20.307737
              ],
              [
                105.80442,
                20.307996
              ],
              [
                105.804219,
                20.307965
              ],
              [
                105.803665,
                20.307879
              ],
              [
                105.803532,
                20.307858
              ],
              [
                105.803372,
                20.307837
              ],
              [
                105.803372,
                20.307837
              ],
              [
                105.802979,
                20.307785
              ],
              [
                105.802841,
                20.307775
              ],
              [
                105.802776,
                20.307779
              ],
              [
                105.802744,
                20.307782
              ],
              [
                105.802721,
                20.307784
              ],
              [
                105.802711,
                20.307785
              ],
              [
                105.802706,
                20.307786
              ],
              [
                105.80267,
                20.307793
              ],
              [
                105.802606,
                20.307806
              ],
              [
                105.802493,
                20.307852
              ],
              [
                105.802476,
                20.307858
              ],
              [
                105.80221,
                20.307965
              ],
              [
                105.802047,
                20.30803
              ],
              [
                105.801984,
                20.308055
              ],
              [
                105.80197,
                20.308165
              ],
              [
                105.80196,
                20.308249
              ],
              [
                105.801951,
                20.308318
              ],
              [
                105.801922,
                20.308473
              ],
              [
                105.801919,
                20.308491
              ],
              [
                105.801902,
                20.308572
              ],
              [
                105.801838,
                20.308872
              ],
              [
                105.801838,
                20.308872
              ],
              [
                105.801838,
                20.308872
              ],
              [
                105.801807,
                20.309018
              ],
              [
                105.801737,
                20.30935
              ],
              [
                105.801618,
                20.309957
              ],
              [
                105.801504,
                20.310535
              ],
              [
                105.80136,
                20.311176
              ],
              [
                105.801292,
                20.311476
              ],
              [
                105.801256,
                20.31167
              ],
              [
                105.801175,
                20.312097
              ],
              [
                105.801037,
                20.312727
              ],
              [
                105.80097,
                20.313095
              ],
              [
                105.800912,
                20.313469
              ],
              [
                105.800833,
                20.31387
              ],
              [
                105.800733,
                20.314382
              ],
              [
                105.800555,
                20.315288
              ],
              [
                105.800391,
                20.316165
              ],
              [
                105.80036,
                20.316272
              ],
              [
                105.800327,
                20.316355
              ],
              [
                105.800251,
                20.316517
              ],
              [
                105.800195,
                20.316605
              ],
              [
                105.800124,
                20.316706
              ],
              [
                105.800073,
                20.316794
              ],
              [
                105.800063,
                20.31683
              ],
              [
                105.800061,
                20.316866
              ],
              [
                105.800066,
                20.316901
              ],
              [
                105.800082,
                20.316939
              ],
              [
                105.800106,
                20.316975
              ],
              [
                105.800165,
                20.317042
              ],
              [
                105.800217,
                20.317085
              ],
              [
                105.800273,
                20.317127
              ],
              [
                105.80029,
                20.317272
              ],
              [
                105.800298,
                20.317294
              ],
              [
                105.800407,
                20.317576
              ],
              [
                105.80057,
                20.31783
              ],
              [
                105.800572,
                20.317834
              ],
              [
                105.800827,
                20.317905
              ],
              [
                105.801432,
                20.318091
              ],
              [
                105.801792,
                20.318242
              ],
              [
                105.802098,
                20.318471
              ],
              [
                105.802408,
                20.318684
              ],
              [
                105.802826,
                20.318911
              ],
              [
                105.802872,
                20.318935
              ],
              [
                105.803559,
                20.319327
              ],
              [
                105.803753,
                20.319458
              ],
              [
                105.803896,
                20.319546
              ],
              [
                105.80452,
                20.319909
              ],
              [
                105.804983,
                20.320187
              ],
              [
                105.805377,
                20.320406
              ],
              [
                105.805927,
                20.320682
              ],
              [
                105.806092,
                20.320773
              ],
              [
                105.806266,
                20.320883
              ],
              [
                105.806462,
                20.321021
              ],
              [
                105.806733,
                20.321279
              ],
              [
                105.806787,
                20.321334
              ],
              [
                105.806866,
                20.321427
              ],
              [
                105.807055,
                20.32169
              ],
              [
                105.807139,
                20.32183
              ],
              [
                105.807177,
                20.321899
              ],
              [
                105.807271,
                20.322069
              ],
              [
                105.807329,
                20.322159
              ],
              [
                105.807429,
                20.322301
              ],
              [
                105.807468,
                20.322343
              ],
              [
                105.807485,
                20.322366
              ],
              [
                105.807507,
                20.322362
              ],
              [
                105.807891,
                20.32229
              ],
              [
                105.807897,
                20.322288
              ],
              [
                105.808134,
                20.322244
              ],
              [
                105.808417,
                20.32219
              ],
              [
                105.808603,
                20.322155
              ],
              [
                105.809387,
                20.321952
              ],
              [
                105.810428,
                20.321834
              ],
              [
                105.811107,
                20.321759
              ],
              [
                105.811507,
                20.32171
              ],
              [
                105.81171,
                20.321685
              ],
              [
                105.811714,
                20.321684
              ],
              [
                105.812011,
                20.321611
              ],
              [
                105.812284,
                20.321804
              ],
              [
                105.812604,
                20.322029
              ],
              [
                105.812747,
                20.322195
              ],
              [
                105.812809,
                20.322269
              ],
              [
                105.812901,
                20.322382
              ],
              [
                105.812932,
                20.322494
              ],
              [
                105.812931,
                20.322571
              ],
              [
                105.812915,
                20.322639
              ],
              [
                105.812818,
                20.322785
              ],
              [
                105.81272,
                20.32288
              ],
              [
                105.812685,
                20.322962
              ],
              [
                105.812666,
                20.323047
              ],
              [
                105.812659,
                20.323119
              ],
              [
                105.812646,
                20.323255
              ],
              [
                105.812658,
                20.323328
              ],
              [
                105.812669,
                20.323386
              ],
              [
                105.812706,
                20.323461
              ],
              [
                105.812754,
                20.323524
              ],
              [
                105.812903,
                20.323684
              ],
              [
                105.813069,
                20.323845
              ],
              [
                105.81314,
                20.323914
              ],
              [
                105.814267,
                20.324392
              ],
              [
                105.814364,
                20.324433
              ],
              [
                105.814662,
                20.324537
              ],
              [
                105.815048,
                20.32468
              ],
              [
                105.81505,
                20.32468
              ],
              [
                105.815353,
                20.324793
              ],
              [
                105.815409,
                20.324813
              ],
              [
                105.815511,
                20.324629
              ],
              [
                105.815708,
                20.324332
              ],
              [
                105.815782,
                20.32423
              ],
              [
                105.815846,
                20.324161
              ],
              [
                105.815951,
                20.324066
              ],
              [
                105.815992,
                20.324031
              ],
              [
                105.816104,
                20.323937
              ],
              [
                105.816329,
                20.32376
              ],
              [
                105.816442,
                20.323661
              ],
              [
                105.816696,
                20.323388
              ],
              [
                105.81697,
                20.323108
              ],
              [
                105.817077,
                20.322992
              ],
              [
                105.81717,
                20.322866
              ],
              [
                105.81733,
                20.322612
              ],
              [
                105.817429,
                20.322466
              ],
              [
                105.817605,
                20.322248
              ],
              [
                105.817917,
                20.321833
              ],
              [
                105.818209,
                20.321467
              ],
              [
                105.818226,
                20.321448
              ],
              [
                105.818367,
                20.321283
              ],
              [
                105.818422,
                20.321229
              ],
              [
                105.818503,
                20.321158
              ],
              [
                105.818787,
                20.320929
              ],
              [
                105.819446,
                20.320508
              ],
              [
                105.819973,
                20.320352
              ],
              [
                105.820317,
                20.320332
              ],
              [
                105.820743,
                20.320339
              ],
              [
                105.82121,
                20.320471
              ],
              [
                105.821799,
                20.32065
              ],
              [
                105.822328,
                20.320896
              ],
              [
                105.82256,
                20.321119
              ],
              [
                105.82268,
                20.321224
              ],
              [
                105.822801,
                20.321336
              ],
              [
                105.822936,
                20.321475
              ],
              [
                105.823056,
                20.32162
              ],
              [
                105.823577,
                20.322302
              ],
              [
                105.823597,
                20.322338
              ],
              [
                105.823611,
                20.322392
              ],
              [
                105.823627,
                20.32249
              ],
              [
                105.823658,
                20.322623
              ],
              [
                105.823726,
                20.322819
              ],
              [
                105.823748,
                20.322902
              ],
              [
                105.823854,
                20.323144
              ],
              [
                105.823926,
                20.32333
              ],
              [
                105.823989,
                20.323504
              ],
              [
                105.824038,
                20.323656
              ],
              [
                105.824229,
                20.324327
              ],
              [
                105.824322,
                20.324677
              ],
              [
                105.824381,
                20.324944
              ],
              [
                105.824415,
                20.325172
              ],
              [
                105.824449,
                20.325531
              ],
              [
                105.82448,
                20.326041
              ],
              [
                105.824491,
                20.326126
              ],
              [
                105.824508,
                20.326206
              ],
              [
                105.824539,
                20.326287
              ],
              [
                105.824579,
                20.326366
              ],
              [
                105.824658,
                20.326498
              ],
              [
                105.824742,
                20.326615
              ],
              [
                105.824842,
                20.326732
              ],
              [
                105.824938,
                20.326825
              ],
              [
                105.825057,
                20.326919
              ],
              [
                105.825132,
                20.326967
              ],
              [
                105.825189,
                20.327003
              ],
              [
                105.825319,
                20.327071
              ],
              [
                105.825725,
                20.32724
              ],
              [
                105.82663,
                20.327646
              ],
              [
                105.827025,
                20.327812
              ],
              [
                105.827146,
                20.327848
              ],
              [
                105.82724,
                20.327877
              ],
              [
                105.828053,
                20.32813
              ],
              [
                105.828292,
                20.328177
              ],
              [
                105.828449,
                20.328186
              ],
              [
                105.828585,
                20.328152
              ],
              [
                105.82867,
                20.328099
              ],
              [
                105.828944,
                20.32793
              ],
              [
                105.829058,
                20.32785
              ],
              [
                105.829733,
                20.327321
              ],
              [
                105.829844,
                20.327235
              ],
              [
                105.830671,
                20.326564
              ],
              [
                105.831222,
                20.326094
              ],
              [
                105.831907,
                20.325568
              ],
              [
                105.832015,
                20.325475
              ],
              [
                105.832428,
                20.325138
              ],
              [
                105.833003,
                20.324618
              ],
              [
                105.833213,
                20.324434
              ],
              [
                105.833272,
                20.324387
              ],
              [
                105.833513,
                20.324214
              ],
              [
                105.833776,
                20.324047
              ],
              [
                105.834312,
                20.323744
              ],
              [
                105.834979,
                20.323374
              ],
              [
                105.835244,
                20.323212
              ],
              [
                105.835313,
                20.323157
              ],
              [
                105.835356,
                20.323114
              ],
              [
                105.835415,
                20.323047
              ],
              [
                105.835437,
                20.323012
              ],
              [
                105.835485,
                20.322904
              ],
              [
                105.83549,
                20.322887
              ],
              [
                105.835516,
                20.322794
              ],
              [
                105.835565,
                20.322501
              ],
              [
                105.835589,
                20.322414
              ],
              [
                105.835601,
                20.322343
              ],
              [
                105.83564,
                20.321989
              ],
              [
                105.835707,
                20.321533
              ],
              [
                105.835795,
                20.321145
              ],
              [
                105.835881,
                20.320732
              ],
              [
                105.83598,
                20.320364
              ],
              [
                105.83598,
                20.320364
              ]
            ]
          ]
        ]
      },
      "properties": {
        "code": "14524",
        "name": "Gia Phong",
        "nameEn": "Gia Phong",
        "fullName": "Xã Gia Phong",
        "fullNameEn": "Gia Phong Commune",
        "codeName": "gia_phong",
        "postalCode": "08325",
        "postalCodePrefix": "",
        "gisServerId": "diaphanhanhchinhcapxa_2025.748",
        "areaKm2": 18.53
      }
    }
  ]
}