{
  "type": "FeatureCollection",
  "bbox": [
    106.119842,
    20.124069,
    106.168397,
    20.222056
  ],
  "features": [
    {
      "type": "Feature",
      "id": "14608",
      "bbox": [
        106.119842,
        20.124069,
        106.168397,
        20.222056
      ],
      "geometry": {
        "type": "MultiPolygon",
        "coordinates": [
          [
            [
              [
                106.159154,
                20.200107
              ],
              [
                106.159914,
                20.197766
              ],
              [
                106.160701,
                20.194701
              ],
              [
                106.161338,
                20.191756
              ],
              [
                106.161874,
                20.188956
              ],
              [
                106.162422,
                20.185838
              ],
              [
                106.162432,
                20.185675
              ],
              [
                106.162626,
                20.182354
              ],
              [
                106.162663,
                20.177233
              ],
              [
                106.162903,
                20.166752
              ],
              [
                106.163084,
                20.162902
              ],
              [
                106.163088,
                20.162815
              ],
              [
                106.163301,
                20.160878
              ],
              [
                106.1641,
                20.1559
              ],
              [
                106.164883,
                20.152285
              ],
              [
                106.166029,
                20.147446
              ],
              [
                106.166685,
                20.144677
              ],
              [
                106.166833,
                20.144181
              ],
              [
                106.167173,
                20.142989
              ],
              [
                106.167756,
                20.140421
              ],
              [
                106.167999,
                20.139045
              ],
              [
                106.168213,
                20.137131
              ],
              [
                106.168333,
                20.135506
              ],
              [
                106.168397,
                20.134643
              ],
              [
                106.168249,
                20.132264
              ],
              [
                106.168051,
                20.130713
              ],
              [
                106.167907,
                20.130009
              ],
              [
                106.167419,
                20.128775
              ],
              [
                106.166118,
                20.127052
              ],
              [
                106.165612,
                20.12649
              ],
              [
                106.164767,
                20.125551
              ],
              [
                106.164247,
                20.125104
              ],
              [
                106.16369,
                20.124595
              ],
              [
                106.163113,
                20.124069
              ],
              [
                106.162554,
                20.12433
              ],
              [
                106.162155,
                20.124587
              ],
              [
                106.162008,
                20.124828
              ],
              [
                106.161935,
                20.124943
              ],
              [
                106.161493,
                20.125674
              ],
              [
                106.161267,
                20.125962
              ],
              [
                106.160968,
                20.126263
              ],
              [
                106.160555,
                20.126732
              ],
              [
                106.160511,
                20.126782
              ],
              [
                106.160386,
                20.126984
              ],
              [
                106.160332,
                20.127108
              ],
              [
                106.160322,
                20.127199
              ],
              [
                106.160369,
                20.127366
              ],
              [
                106.16038,
                20.127462
              ],
              [
                106.16037,
                20.127558
              ],
              [
                106.158157,
                20.130833
              ],
              [
                106.155442,
                20.134786
              ],
              [
                106.153479,
                20.137595
              ],
              [
                106.150884,
                20.141394
              ],
              [
                106.148269,
                20.145164
              ],
              [
                106.146005,
                20.148473
              ],
              [
                106.1435,
                20.152162
              ],
              [
                106.141075,
                20.155676
              ],
              [
                106.14071,
                20.156205
              ],
              [
                106.140656,
                20.156284
              ],
              [
                106.140516,
                20.156488
              ],
              [
                106.139332,
                20.158218
              ],
              [
                106.13825,
                20.159798
              ],
              [
                106.13591,
                20.163179
              ],
              [
                106.134936,
                20.164594
              ],
              [
                106.133911,
                20.166084
              ],
              [
                106.133886,
                20.166123
              ],
              [
                106.132171,
                20.168519
              ],
              [
                106.131831,
                20.169028
              ],
              [
                106.131645,
                20.169307
              ],
              [
                106.12999,
                20.172224
              ],
              [
                106.129819,
                20.172537
              ],
              [
                106.129816,
                20.172541
              ],
              [
                106.128411,
                20.175098
              ],
              [
                106.127559,
                20.176657
              ],
              [
                106.127402,
                20.176945
              ],
              [
                106.126865,
                20.177866
              ],
              [
                106.126688,
                20.178189
              ],
              [
                106.125457,
                20.180295
              ],
              [
                106.125129,
                20.180825
              ],
              [
                106.124813,
                20.181395
              ],
              [
                106.124524,
                20.182031
              ],
              [
                106.124242,
                20.18263
              ],
              [
                106.123774,
                20.183595
              ],
              [
                106.123443,
                20.184283
              ],
              [
                106.1233,
                20.184546
              ],
              [
                106.123078,
                20.185071
              ],
              [
                106.122778,
                20.185689
              ],
              [
                106.122554,
                20.186114
              ],
              [
                106.122431,
                20.186432
              ],
              [
                106.122281,
                20.186761
              ],
              [
                106.121942,
                20.187365
              ],
              [
                106.121456,
                20.188198
              ],
              [
                106.121031,
                20.188934
              ],
              [
                106.120301,
                20.190074
              ],
              [
                106.119842,
                20.190786
              ],
              [
                106.119955,
                20.190872
              ],
              [
                106.120753,
                20.191511
              ],
              [
                106.120885,
                20.191625
              ],
              [
                106.121195,
                20.191892
              ],
              [
                106.121509,
                20.192163
              ],
              [
                106.121599,
                20.192241
              ],
              [
                106.122465,
                20.192987
              ],
              [
                106.122982,
                20.193432
              ],
              [
                106.123102,
                20.193535
              ],
              [
                106.123984,
                20.194296
              ],
              [
                106.124412,
                20.194665
              ],
              [
                106.124532,
                20.194767
              ],
              [
                106.125213,
                20.195347
              ],
              [
                106.125598,
                20.195072
              ],
              [
                106.126865,
                20.194286
              ],
              [
                106.127005,
                20.194197
              ],
              [
                106.128272,
                20.193396
              ],
              [
                106.128331,
                20.193359
              ],
              [
                106.129095,
                20.192897
              ],
              [
                106.129279,
                20.19277
              ],
              [
                106.129514,
                20.193076
              ],
              [
                106.129874,
                20.193506
              ],
              [
                106.130138,
                20.193826
              ],
              [
                106.130143,
                20.193832
              ],
              [
                106.130286,
                20.194008
              ],
              [
                106.130424,
                20.194178
              ],
              [
                106.130691,
                20.194502
              ],
              [
                106.130958,
                20.194815
              ],
              [
                106.131318,
                20.195276
              ],
              [
                106.131567,
                20.195561
              ],
              [
                106.131727,
                20.19576
              ],
              [
                106.131729,
                20.195762
              ],
              [
                106.131763,
                20.195806
              ],
              [
                106.131866,
                20.195937
              ],
              [
                106.132089,
                20.196211
              ],
              [
                106.132335,
                20.196499
              ],
              [
                106.132521,
                20.196728
              ],
              [
                106.132574,
                20.196787
              ],
              [
                106.132802,
                20.197059
              ],
              [
                106.133001,
                20.1973
              ],
              [
                106.133116,
                20.197439
              ],
              [
                106.133236,
                20.197596
              ],
              [
                106.133162,
                20.197621
              ],
              [
                106.133112,
                20.19764
              ],
              [
                106.133066,
                20.197658
              ],
              [
                106.133041,
                20.197668
              ],
              [
                106.132826,
                20.197739
              ],
              [
                106.132563,
                20.197829
              ],
              [
                106.132327,
                20.197915
              ],
              [
                106.13249,
                20.19815
              ],
              [
                106.132511,
                20.198138
              ],
              [
                106.132632,
                20.198282
              ],
              [
                106.132602,
                20.198312
              ],
              [
                106.132629,
                20.198351
              ],
              [
                106.132949,
                20.198729
              ],
              [
                106.133018,
                20.198908
              ],
              [
                106.133048,
                20.198955
              ],
              [
                106.133082,
                20.198995
              ],
              [
                106.133342,
                20.199297
              ],
              [
                106.133465,
                20.19944
              ],
              [
                106.133585,
                20.199579
              ],
              [
                106.133611,
                20.199562
              ],
              [
                106.133793,
                20.199438
              ],
              [
                106.133804,
                20.19943
              ],
              [
                106.13381,
                20.199426
              ],
              [
                106.133859,
                20.199492
              ],
              [
                106.134081,
                20.199792
              ],
              [
                106.134081,
                20.199792
              ],
              [
                106.134513,
                20.199512
              ],
              [
                106.134712,
                20.199384
              ],
              [
                106.134842,
                20.199543
              ],
              [
                106.135,
                20.199742
              ],
              [
                106.135056,
                20.199811
              ],
              [
                106.135249,
                20.200042
              ],
              [
                106.135434,
                20.200278
              ],
              [
                106.135596,
                20.200486
              ],
              [
                106.135744,
                20.20067
              ],
              [
                106.135912,
                20.20088
              ],
              [
                106.136064,
                20.201075
              ],
              [
                106.13612,
                20.201146
              ],
              [
                106.136273,
                20.201331
              ],
              [
                106.136612,
                20.201754
              ],
              [
                106.136702,
                20.201868
              ],
              [
                106.136764,
                20.201946
              ],
              [
                106.136821,
                20.202021
              ],
              [
                106.136953,
                20.202188
              ],
              [
                106.137074,
                20.202339
              ],
              [
                106.137179,
                20.20246
              ],
              [
                106.137302,
                20.202622
              ],
              [
                106.137406,
                20.202758
              ],
              [
                106.137545,
                20.202924
              ],
              [
                106.137706,
                20.203113
              ],
              [
                106.13785,
                20.203283
              ],
              [
                106.137956,
                20.203415
              ],
              [
                106.137982,
                20.203451
              ],
              [
                106.138053,
                20.203548
              ],
              [
                106.13822,
                20.20375
              ],
              [
                106.138337,
                20.203903
              ],
              [
                106.138458,
                20.204046
              ],
              [
                106.138575,
                20.204189
              ],
              [
                106.138703,
                20.204354
              ],
              [
                106.138705,
                20.204358
              ],
              [
                106.138807,
                20.204486
              ],
              [
                106.138927,
                20.204616
              ],
              [
                106.138997,
                20.204711
              ],
              [
                106.139137,
                20.20488
              ],
              [
                106.139238,
                20.205006
              ],
              [
                106.139319,
                20.205102
              ],
              [
                106.139378,
                20.205178
              ],
              [
                106.139439,
                20.205263
              ],
              [
                106.139464,
                20.205307
              ],
              [
                106.139466,
                20.205311
              ],
              [
                106.139482,
                20.205346
              ],
              [
                106.139513,
                20.20541
              ],
              [
                106.139526,
                20.205449
              ],
              [
                106.139763,
                20.206156
              ],
              [
                106.140148,
                20.206966
              ],
              [
                106.141292,
                20.208831
              ],
              [
                106.141318,
                20.208874
              ],
              [
                106.141327,
                20.208889
              ],
              [
                106.142351,
                20.210578
              ],
              [
                106.142673,
                20.211109
              ],
              [
                106.143003,
                20.211627
              ],
              [
                106.143954,
                20.213121
              ],
              [
                106.144944,
                20.214385
              ],
              [
                106.145123,
                20.214613
              ],
              [
                106.146497,
                20.216379
              ],
              [
                106.147657,
                20.217944
              ],
              [
                106.148339,
                20.218865
              ],
              [
                106.149579,
                20.220524
              ],
              [
                106.149791,
                20.220815
              ],
              [
                106.150003,
                20.221105
              ],
              [
                106.150564,
                20.221875
              ],
              [
                106.150631,
                20.221953
              ],
              [
                106.150648,
                20.221973
              ],
              [
                106.150657,
                20.221983
              ],
              [
                106.150705,
                20.22204
              ],
              [
                106.150707,
                20.222042
              ],
              [
                106.150719,
                20.222056
              ],
              [
                106.150907,
                20.221985
              ],
              [
                106.150913,
                20.221982
              ],
              [
                106.151908,
                20.221644
              ],
              [
                106.151923,
                20.221639
              ],
              [
                106.152968,
                20.221284
              ],
              [
                106.153063,
                20.221253
              ],
              [
                106.153104,
                20.219058
              ],
              [
                106.153093,
                20.217605
              ],
              [
                106.153248,
                20.216609
              ],
              [
                106.153461,
                20.215346
              ],
              [
                106.154214,
                20.212969
              ],
              [
                106.156755,
                20.206055
              ],
              [
                106.157879,
                20.203443
              ],
              [
                106.157884,
                20.203431
              ],
              [
                106.158417,
                20.202195
              ],
              [
                106.159154,
                20.200107
              ],
              [
                106.159154,
                20.200107
              ]
            ]
          ]
        ]
      },
      "properties": {
        "code": "14608",
        "name": "Khánh Trung",
        "nameEn": "Khanh Trung",
        "fullName": "Xã Khánh Trung",
        "fullNameEn": "Khanh Trung Commune",
        "codeName": "khanh_trung",
        "postalCode": "08818",
        "postalCodePrefix": "",
        "gisServerId": "diaphanhanhchinhcapxa_2025.762",
        "areaKm2": 26.42
      }
    }
  ]
}