{
  "type": "FeatureCollection",
  "bbox": [
    105.966989,
    20.130868,
    106.043088,
    20.195586
  ],
  "features": [
    {
      "type": "Feature",
      "id": "14701",
      "bbox": [
        105.966989,
        20.130868,
        106.043088,
        20.195586
      ],
      "geometry": {
        "type": "MultiPolygon",
        "coordinates": [
          [
            [
              [
                106.042349,
                20.173011
              ],
              [
                106.042278,
                20.172954
              ],
              [
                106.041984,
                20.173004
              ],
              [
                106.041351,
                20.172964
              ],
              [
                106.040697,
                20.172877
              ],
              [
                106.04018,
                20.17276
              ],
              [
                106.039417,
                20.172559
              ],
              [
                106.038549,
                20.172354
              ],
              [
                106.038169,
                20.172254
              ],
              [
                106.03683,
                20.171784
              ],
              [
                106.034888,
                20.17107
              ],
              [
                106.033706,
                20.170638
              ],
              [
                106.033525,
                20.170621
              ],
              [
                106.033337,
                20.170639
              ],
              [
                106.032895,
                20.170477
              ],
              [
                106.032454,
                20.170314
              ],
              [
                106.032256,
                20.170243
              ],
              [
                106.031881,
                20.170106
              ],
              [
                106.031508,
                20.169971
              ],
              [
                106.031308,
                20.169898
              ],
              [
                106.030996,
                20.169786
              ],
              [
                106.030734,
                20.169692
              ],
              [
                106.030431,
                20.169584
              ],
              [
                106.030021,
                20.169437
              ],
              [
                106.02905,
                20.16909
              ],
              [
                106.027582,
                20.168562
              ],
              [
                106.026401,
                20.168137
              ],
              [
                106.025122,
                20.167714
              ],
              [
                106.023474,
                20.167129
              ],
              [
                106.023384,
                20.167099
              ],
              [
                106.023391,
                20.167059
              ],
              [
                106.023402,
                20.166995
              ],
              [
                106.023667,
                20.165466
              ],
              [
                106.023723,
                20.165143
              ],
              [
                106.023741,
                20.165049
              ],
              [
                106.023783,
                20.164815
              ],
              [
                106.023866,
                20.16436
              ],
              [
                106.024062,
                20.163283
              ],
              [
                106.024158,
                20.16275
              ],
              [
                106.02456,
                20.160673
              ],
              [
                106.025103,
                20.160636
              ],
              [
                106.02556,
                20.160605
              ],
              [
                106.025569,
                20.160156
              ],
              [
                106.025571,
                20.160078
              ],
              [
                106.025573,
                20.16
              ],
              [
                106.0256,
                20.159603
              ],
              [
                106.025603,
                20.159553
              ],
              [
                106.025609,
                20.1595
              ],
              [
                106.025225,
                20.159508
              ],
              [
                106.025202,
                20.159566
              ],
              [
                106.024923,
                20.159568
              ],
              [
                106.024779,
                20.159569
              ],
              [
                106.024781,
                20.159268
              ],
              [
                106.024667,
                20.15927
              ],
              [
                106.024685,
                20.158904
              ],
              [
                106.02468,
                20.158606
              ],
              [
                106.024623,
                20.157388
              ],
              [
                106.024592,
                20.157345
              ],
              [
                106.02472,
                20.155383
              ],
              [
                106.024779,
                20.154482
              ],
              [
                106.024766,
                20.154299
              ],
              [
                106.024783,
                20.154041
              ],
              [
                106.024808,
                20.153672
              ],
              [
                106.024703,
                20.152963
              ],
              [
                106.024684,
                20.15284
              ],
              [
                106.024718,
                20.152761
              ],
              [
                106.024757,
                20.152683
              ],
              [
                106.024784,
                20.152642
              ],
              [
                106.024791,
                20.152629
              ],
              [
                106.024815,
                20.152585
              ],
              [
                106.02419,
                20.15224
              ],
              [
                106.02422,
                20.152143
              ],
              [
                106.024263,
                20.152005
              ],
              [
                106.024305,
                20.1518
              ],
              [
                106.024365,
                20.15141
              ],
              [
                106.024514,
                20.150571
              ],
              [
                106.024541,
                20.150419
              ],
              [
                106.024628,
                20.149917
              ],
              [
                106.024688,
                20.149782
              ],
              [
                106.024677,
                20.149653
              ],
              [
                106.024327,
                20.148737
              ],
              [
                106.023751,
                20.147326
              ],
              [
                106.023684,
                20.147159
              ],
              [
                106.023665,
                20.1471
              ],
              [
                106.023664,
                20.147095
              ],
              [
                106.02355,
                20.146821
              ],
              [
                106.023447,
                20.146576
              ],
              [
                106.023296,
                20.146207
              ],
              [
                106.023132,
                20.145806
              ],
              [
                106.022947,
                20.145376
              ],
              [
                106.022931,
                20.145339
              ],
              [
                106.022925,
                20.14532
              ],
              [
                106.02291,
                20.145274
              ],
              [
                106.022569,
                20.144442
              ],
              [
                106.022459,
                20.144178
              ],
              [
                106.022448,
                20.144151
              ],
              [
                106.022267,
                20.14371
              ],
              [
                106.021836,
                20.142709
              ],
              [
                106.022255,
                20.142363
              ],
              [
                106.022427,
                20.142159
              ],
              [
                106.022545,
                20.141952
              ],
              [
                106.022717,
                20.141658
              ],
              [
                106.022819,
                20.141319
              ],
              [
                106.022811,
                20.141065
              ],
              [
                106.022733,
                20.140893
              ],
              [
                106.022609,
                20.140744
              ],
              [
                106.022369,
                20.140565
              ],
              [
                106.022003,
                20.140291
              ],
              [
                106.021834,
                20.140095
              ],
              [
                106.021649,
                20.139622
              ],
              [
                106.021478,
                20.138918
              ],
              [
                106.021474,
                20.138904
              ],
              [
                106.021303,
                20.138581
              ],
              [
                106.021463,
                20.138327
              ],
              [
                106.021596,
                20.138101
              ],
              [
                106.021757,
                20.137679
              ],
              [
                106.021944,
                20.137091
              ],
              [
                106.022107,
                20.136484
              ],
              [
                106.022124,
                20.136396
              ],
              [
                106.02214,
                20.136308
              ],
              [
                106.022164,
                20.136255
              ],
              [
                106.022091,
                20.136223
              ],
              [
                106.022045,
                20.136207
              ],
              [
                106.022034,
                20.136203
              ],
              [
                106.021962,
                20.13617
              ],
              [
                106.021823,
                20.136072
              ],
              [
                106.021755,
                20.136007
              ],
              [
                106.021707,
                20.13592
              ],
              [
                106.021697,
                20.135873
              ],
              [
                106.021688,
                20.135832
              ],
              [
                106.021682,
                20.135764
              ],
              [
                106.021686,
                20.13575
              ],
              [
                106.021806,
                20.135348
              ],
              [
                106.021866,
                20.135166
              ],
              [
                106.021892,
                20.135087
              ],
              [
                106.021965,
                20.134902
              ],
              [
                106.022011,
                20.134739
              ],
              [
                106.022048,
                20.134531
              ],
              [
                106.02211,
                20.134282
              ],
              [
                106.022193,
                20.133979
              ],
              [
                106.02223,
                20.133725
              ],
              [
                106.022253,
                20.133576
              ],
              [
                106.022189,
                20.133507
              ],
              [
                106.022127,
                20.133441
              ],
              [
                106.021964,
                20.133276
              ],
              [
                106.021887,
                20.133238
              ],
              [
                106.021715,
                20.133152
              ],
              [
                106.020534,
                20.132643
              ],
              [
                106.020237,
                20.132524
              ],
              [
                106.019337,
                20.132164
              ],
              [
                106.019273,
                20.132152
              ],
              [
                106.019027,
                20.132107
              ],
              [
                106.017945,
                20.132047
              ],
              [
                106.01745,
                20.13202
              ],
              [
                106.016175,
                20.131941
              ],
              [
                106.015822,
                20.131928
              ],
              [
                106.015722,
                20.131925
              ],
              [
                106.015645,
                20.131922
              ],
              [
                106.014716,
                20.131891
              ],
              [
                106.013652,
                20.131844
              ],
              [
                106.012911,
                20.131806
              ],
              [
                106.01241,
                20.131823
              ],
              [
                106.011791,
                20.131869
              ],
              [
                106.011246,
                20.131898
              ],
              [
                106.01083,
                20.131924
              ],
              [
                106.01064,
                20.131941
              ],
              [
                106.01052,
                20.131918
              ],
              [
                106.010479,
                20.13191
              ],
              [
                106.008801,
                20.131434
              ],
              [
                106.0087,
                20.131406
              ],
              [
                106.007044,
                20.130939
              ],
              [
                106.006954,
                20.130926
              ],
              [
                106.006708,
                20.130888
              ],
              [
                106.006279,
                20.130868
              ],
              [
                106.005745,
                20.130878
              ],
              [
                106.004975,
                20.130896
              ],
              [
                106.004466,
                20.13098
              ],
              [
                106.004254,
                20.13102
              ],
              [
                106.004199,
                20.131031
              ],
              [
                106.004064,
                20.131057
              ],
              [
                106.003669,
                20.131193
              ],
              [
                106.003029,
                20.131469
              ],
              [
                106.002698,
                20.131612
              ],
              [
                106.002264,
                20.131826
              ],
              [
                106.001864,
                20.132074
              ],
              [
                106.001851,
                20.132082
              ],
              [
                106.001692,
                20.132177
              ],
              [
                106.001656,
                20.132199
              ],
              [
                106.001432,
                20.132347
              ],
              [
                106.001339,
                20.132385
              ],
              [
                106.001332,
                20.132386
              ],
              [
                106.001308,
                20.132386
              ],
              [
                106.001272,
                20.132378
              ],
              [
                106.001202,
                20.132359
              ],
              [
                106.001134,
                20.132327
              ],
              [
                106.001079,
                20.132295
              ],
              [
                106.001003,
                20.132249
              ],
              [
                106.000914,
                20.132195
              ],
              [
                106.000849,
                20.13214
              ],
              [
                106.000821,
                20.1321
              ],
              [
                106.000799,
                20.132051
              ],
              [
                106.000755,
                20.132052
              ],
              [
                106.000597,
                20.132055
              ],
              [
                106.000601,
                20.132095
              ],
              [
                106.000615,
                20.132605
              ],
              [
                106.000586,
                20.132885
              ],
              [
                106.000514,
                20.133149
              ],
              [
                106.000199,
                20.133687
              ],
              [
                105.999914,
                20.134183
              ],
              [
                105.999755,
                20.134363
              ],
              [
                105.99964,
                20.134464
              ],
              [
                105.99937,
                20.134739
              ],
              [
                105.999167,
                20.134923
              ],
              [
                105.999043,
                20.135034
              ],
              [
                105.998786,
                20.135288
              ],
              [
                105.998267,
                20.135871
              ],
              [
                105.997848,
                20.136242
              ],
              [
                105.997123,
                20.136653
              ],
              [
                105.996101,
                20.13723
              ],
              [
                105.995803,
                20.137424
              ],
              [
                105.994211,
                20.138462
              ],
              [
                105.994097,
                20.13854
              ],
              [
                105.993886,
                20.138796
              ],
              [
                105.993698,
                20.139147
              ],
              [
                105.993217,
                20.140215
              ],
              [
                105.99277,
                20.141313
              ],
              [
                105.992236,
                20.142486
              ],
              [
                105.992022,
                20.143229
              ],
              [
                105.992007,
                20.143332
              ],
              [
                105.991999,
                20.143432
              ],
              [
                105.991992,
                20.143499
              ],
              [
                105.991852,
                20.143493
              ],
              [
                105.991779,
                20.143493
              ],
              [
                105.991721,
                20.143494
              ],
              [
                105.991692,
                20.143494
              ],
              [
                105.989421,
                20.143467
              ],
              [
                105.989028,
                20.143462
              ],
              [
                105.987744,
                20.143446
              ],
              [
                105.987097,
                20.143441
              ],
              [
                105.986924,
                20.14344
              ],
              [
                105.985794,
                20.143431
              ],
              [
                105.983814,
                20.143396
              ],
              [
                105.982857,
                20.143364
              ],
              [
                105.982168,
                20.143359
              ],
              [
                105.982101,
                20.143359
              ],
              [
                105.981987,
                20.143353
              ],
              [
                105.981459,
                20.143329
              ],
              [
                105.981333,
                20.143325
              ],
              [
                105.981029,
                20.143317
              ],
              [
                105.980675,
                20.143298
              ],
              [
                105.980473,
                20.143296
              ],
              [
                105.98031,
                20.143297
              ],
              [
                105.980046,
                20.14328
              ],
              [
                105.979944,
                20.143274
              ],
              [
                105.979189,
                20.143205
              ],
              [
                105.978912,
                20.14318
              ],
              [
                105.977718,
                20.143047
              ],
              [
                105.977308,
                20.143021
              ],
              [
                105.97728,
                20.14302
              ],
              [
                105.976064,
                20.143182
              ],
              [
                105.97415,
                20.143439
              ],
              [
                105.973956,
                20.143468
              ],
              [
                105.973693,
                20.14351
              ],
              [
                105.973262,
                20.143578
              ],
              [
                105.972765,
                20.143661
              ],
              [
                105.972335,
                20.143732
              ],
              [
                105.972072,
                20.143774
              ],
              [
                105.971378,
                20.143874
              ],
              [
                105.971052,
                20.143932
              ],
              [
                105.970698,
                20.143998
              ],
              [
                105.970615,
                20.144013
              ],
              [
                105.969573,
                20.144176
              ],
              [
                105.968317,
                20.14438
              ],
              [
                105.968256,
                20.144384
              ],
              [
                105.968255,
                20.144394
              ],
              [
                105.968163,
                20.145303
              ],
              [
                105.968128,
                20.14563
              ],
              [
                105.967967,
                20.14716
              ],
              [
                105.96769,
                20.148459
              ],
              [
                105.967629,
                20.148934
              ],
              [
                105.967493,
                20.150033
              ],
              [
                105.967352,
                20.150936
              ],
              [
                105.967188,
                20.152461
              ],
              [
                105.967002,
                20.154063
              ],
              [
                105.966991,
                20.154143
              ],
              [
                105.966989,
                20.154157
              ],
              [
                105.967022,
                20.154192
              ],
              [
                105.967079,
                20.154255
              ],
              [
                105.967106,
                20.154283
              ],
              [
                105.967462,
                20.154669
              ],
              [
                105.967482,
                20.154691
              ],
              [
                105.967767,
                20.154999
              ],
              [
                105.968324,
                20.155603
              ],
              [
                105.968802,
                20.15612
              ],
              [
                105.968802,
                20.15612
              ],
              [
                105.969192,
                20.156547
              ],
              [
                105.969281,
                20.15664
              ],
              [
                105.96929,
                20.15665
              ],
              [
                105.969537,
                20.156917
              ],
              [
                105.969592,
                20.156874
              ],
              [
                105.96961,
                20.15686
              ],
              [
                105.969663,
                20.156819
              ],
              [
                105.96972,
                20.156775
              ],
              [
                105.969786,
                20.156724
              ],
              [
                105.969863,
                20.156666
              ],
              [
                105.969953,
                20.1566
              ],
              [
                105.970053,
                20.156529
              ],
              [
                105.970158,
                20.156457
              ],
              [
                105.970268,
                20.156387
              ],
              [
                105.970384,
                20.156321
              ],
              [
                105.970505,
                20.156258
              ],
              [
                105.970631,
                20.156198
              ],
              [
                105.970761,
                20.156136
              ],
              [
                105.970892,
                20.156075
              ],
              [
                105.971018,
                20.156015
              ],
              [
                105.971136,
                20.15596
              ],
              [
                105.971208,
                20.155928
              ],
              [
                105.971239,
                20.155914
              ],
              [
                105.971322,
                20.155883
              ],
              [
                105.971386,
                20.155863
              ],
              [
                105.971421,
                20.155855
              ],
              [
                105.971451,
                20.155845
              ],
              [
                105.971716,
                20.155808
              ],
              [
                105.972548,
                20.15579
              ],
              [
                105.97335,
                20.15584
              ],
              [
                105.97393,
                20.155934
              ],
              [
                105.974315,
                20.156021
              ],
              [
                105.974783,
                20.156208
              ],
              [
                105.975358,
                20.156458
              ],
              [
                105.975655,
                20.156618
              ],
              [
                105.975921,
                20.156805
              ],
              [
                105.976128,
                20.156971
              ],
              [
                105.976303,
                20.157207
              ],
              [
                105.976634,
                20.157733
              ],
              [
                105.976803,
                20.157916
              ],
              [
                105.977014,
                20.15816
              ],
              [
                105.977351,
                20.15844
              ],
              [
                105.977743,
                20.158755
              ],
              [
                105.978013,
                20.15903
              ],
              [
                105.978156,
                20.159249
              ],
              [
                105.978284,
                20.159484
              ],
              [
                105.978434,
                20.159969
              ],
              [
                105.978583,
                20.160426
              ],
              [
                105.978745,
                20.160786
              ],
              [
                105.979003,
                20.16133
              ],
              [
                105.979153,
                20.161528
              ],
              [
                105.979198,
                20.161705
              ],
              [
                105.979238,
                20.162121
              ],
              [
                105.979237,
                20.162336
              ],
              [
                105.979136,
                20.162636
              ],
              [
                105.979024,
                20.162959
              ],
              [
                105.978976,
                20.163087
              ],
              [
                105.978874,
                20.163165
              ],
              [
                105.978503,
                20.163284
              ],
              [
                105.978011,
                20.163448
              ],
              [
                105.97786,
                20.163536
              ],
              [
                105.977414,
                20.163964
              ],
              [
                105.977133,
                20.164211
              ],
              [
                105.976862,
                20.164459
              ],
              [
                105.97681,
                20.164528
              ],
              [
                105.976702,
                20.16467
              ],
              [
                105.976675,
                20.16472
              ],
              [
                105.976966,
                20.164992
              ],
              [
                105.977126,
                20.165268
              ],
              [
                105.977278,
                20.165729
              ],
              [
                105.978386,
                20.168012
              ],
              [
                105.978952,
                20.168843
              ],
              [
                105.979508,
                20.169545
              ],
              [
                105.980016,
                20.169902
              ],
              [
                105.980426,
                20.170083
              ],
              [
                105.980807,
                20.17014
              ],
              [
                105.981657,
                20.170179
              ],
              [
                105.981677,
                20.170175
              ],
              [
                105.982215,
                20.170074
              ],
              [
                105.982615,
                20.170023
              ],
              [
                105.982982,
                20.170025
              ],
              [
                105.983317,
                20.170123
              ],
              [
                105.984933,
                20.170687
              ],
              [
                105.986085,
                20.170996
              ],
              [
                105.987101,
                20.171221
              ],
              [
                105.987313,
                20.171217
              ],
              [
                105.987452,
                20.171205
              ],
              [
                105.987651,
                20.171144
              ],
              [
                105.987821,
                20.171091
              ],
              [
                105.98805,
                20.17104
              ],
              [
                105.988427,
                20.170903
              ],
              [
                105.988591,
                20.170815
              ],
              [
                105.988731,
                20.170712
              ],
              [
                105.988849,
                20.17067
              ],
              [
                105.988921,
                20.17066
              ],
              [
                105.989021,
                20.170657
              ],
              [
                105.989181,
                20.1707
              ],
              [
                105.989392,
                20.170854
              ],
              [
                105.989756,
                20.171155
              ],
              [
                105.990055,
                20.171342
              ],
              [
                105.990331,
                20.171484
              ],
              [
                105.990393,
                20.171554
              ],
              [
                105.990496,
                20.171985
              ],
              [
                105.99067,
                20.173118
              ],
              [
                105.99078,
                20.173944
              ],
              [
                105.990843,
                20.174372
              ],
              [
                105.990815,
                20.174554
              ],
              [
                105.990803,
                20.174716
              ],
              [
                105.990848,
                20.174974
              ],
              [
                105.991005,
                20.175446
              ],
              [
                105.991128,
                20.175969
              ],
              [
                105.991119,
                20.176925
              ],
              [
                105.991095,
                20.177727
              ],
              [
                105.991144,
                20.177913
              ],
              [
                105.99145,
                20.178265
              ],
              [
                105.992193,
                20.178809
              ],
              [
                105.992873,
                20.179274
              ],
              [
                105.993347,
                20.179691
              ],
              [
                105.994672,
                20.1811
              ],
              [
                105.995556,
                20.181822
              ],
              [
                105.997005,
                20.182787
              ],
              [
                105.997719,
                20.183306
              ],
              [
                105.998119,
                20.183584
              ],
              [
                105.998516,
                20.183861
              ],
              [
                105.999286,
                20.184409
              ],
              [
                105.999695,
                20.184693
              ],
              [
                106.000089,
                20.184987
              ],
              [
                106.000333,
                20.185164
              ],
              [
                106.0008,
                20.185529
              ],
              [
                106.001203,
                20.185834
              ],
              [
                106.001587,
                20.186094
              ],
              [
                106.001865,
                20.186289
              ],
              [
                106.001865,
                20.186289
              ],
              [
                106.002166,
                20.186494
              ],
              [
                106.002697,
                20.186884
              ],
              [
                106.004219,
                20.187833
              ],
              [
                106.004768,
                20.188195
              ],
              [
                106.005423,
                20.188536
              ],
              [
                106.006025,
                20.188826
              ],
              [
                106.006507,
                20.188977
              ],
              [
                106.007088,
                20.189269
              ],
              [
                106.007417,
                20.189512
              ],
              [
                106.00776,
                20.189735
              ],
              [
                106.007989,
                20.189919
              ],
              [
                106.00817,
                20.190124
              ],
              [
                106.008387,
                20.190301
              ],
              [
                106.008821,
                20.190681
              ],
              [
                106.008885,
                20.190875
              ],
              [
                106.008887,
                20.19112
              ],
              [
                106.008816,
                20.19142
              ],
              [
                106.008659,
                20.191794
              ],
              [
                106.008436,
                20.192265
              ],
              [
                106.008187,
                20.192729
              ],
              [
                106.008095,
                20.192931
              ],
              [
                106.007957,
                20.193233
              ],
              [
                106.008785,
                20.193467
              ],
              [
                106.00943,
                20.193751
              ],
              [
                106.010434,
                20.19406
              ],
              [
                106.012474,
                20.194704
              ],
              [
                106.013423,
                20.195004
              ],
              [
                106.014306,
                20.195248
              ],
              [
                106.015108,
                20.195434
              ],
              [
                106.015797,
                20.195536
              ],
              [
                106.016476,
                20.19557
              ],
              [
                106.017258,
                20.195586
              ],
              [
                106.017812,
                20.195557
              ],
              [
                106.019307,
                20.19551
              ],
              [
                106.020608,
                20.195493
              ],
              [
                106.021317,
                20.195422
              ],
              [
                106.022156,
                20.195303
              ],
              [
                106.022259,
                20.195278
              ],
              [
                106.022672,
                20.195156
              ],
              [
                106.022975,
                20.195001
              ],
              [
                106.023293,
                20.194799
              ],
              [
                106.023564,
                20.19451
              ],
              [
                106.023855,
                20.194074
              ],
              [
                106.024231,
                20.193493
              ],
              [
                106.024687,
                20.192802
              ],
              [
                106.024964,
                20.192456
              ],
              [
                106.025446,
                20.191908
              ],
              [
                106.026286,
                20.190952
              ],
              [
                106.027045,
                20.190144
              ],
              [
                106.027618,
                20.189442
              ],
              [
                106.02843,
                20.188557
              ],
              [
                106.028508,
                20.188471
              ],
              [
                106.029152,
                20.18787
              ],
              [
                106.029641,
                20.18748
              ],
              [
                106.030054,
                20.187095
              ],
              [
                106.03034,
                20.186768
              ],
              [
                106.030364,
                20.186732
              ],
              [
                106.030711,
                20.186216
              ],
              [
                106.030882,
                20.185947
              ],
              [
                106.031057,
                20.185597
              ],
              [
                106.031085,
                20.185262
              ],
              [
                106.031069,
                20.184421
              ],
              [
                106.030906,
                20.183402
              ],
              [
                106.030903,
                20.18337
              ],
              [
                106.030764,
                20.181951
              ],
              [
                106.030619,
                20.180661
              ],
              [
                106.030522,
                20.179734
              ],
              [
                106.030451,
                20.179065
              ],
              [
                106.030475,
                20.178816
              ],
              [
                106.030595,
                20.178533
              ],
              [
                106.030749,
                20.178354
              ],
              [
                106.030922,
                20.17824
              ],
              [
                106.031301,
                20.178075
              ],
              [
                106.031908,
                20.177947
              ],
              [
                106.032762,
                20.17776
              ],
              [
                106.033522,
                20.177513
              ],
              [
                106.034884,
                20.177016
              ],
              [
                106.035268,
                20.176885
              ],
              [
                106.036854,
                20.17634
              ],
              [
                106.037789,
                20.17601
              ],
              [
                106.038855,
                20.175654
              ],
              [
                106.039663,
                20.175377
              ],
              [
                106.04037,
                20.175159
              ],
              [
                106.040654,
                20.175073
              ],
              [
                106.041133,
                20.174946
              ],
              [
                106.041625,
                20.174796
              ],
              [
                106.041997,
                20.174677
              ],
              [
                106.042246,
                20.17461
              ],
              [
                106.042318,
                20.174594
              ],
              [
                106.042339,
                20.174589
              ],
              [
                106.043088,
                20.174393
              ],
              [
                106.042769,
                20.173707
              ],
              [
                106.042693,
                20.173582
              ],
              [
                106.042349,
                20.173011
              ],
              [
                106.042349,
                20.173011
              ]
            ]
          ]
        ]
      },
      "properties": {
        "code": "14701",
        "name": "Yên Mô",
        "nameEn": "Yen Mo",
        "fullName": "Xã Yên Mô",
        "fullNameEn": "Yen Mo Commune",
        "codeName": "yen_mo",
        "postalCode": "08623",
        "postalCodePrefix": "",
        "gisServerId": "diaphanhanhchinhcapxa_2025.775",
        "areaKm2": 28.6
      }
    }
  ]
}