{
  "type": "FeatureCollection",
  "bbox": [
    106.417675,
    17.703802,
    106.489586,
    17.777598
  ],
  "features": [
    {
      "type": "Feature",
      "id": "19066",
      "bbox": [
        106.417675,
        17.703802,
        106.489586,
        17.777598
      ],
      "geometry": {
        "type": "MultiPolygon",
        "coordinates": [
          [
            [
              [
                106.417675,
                17.742156
              ],
              [
                106.4176762,
                17.7421562
              ],
              [
                106.417675,
                17.742155
              ],
              [
                106.417675,
                17.742156
              ]
            ]
          ],
          [
            [
              [
                106.417679,
                17.742159
              ],
              [
                106.419026,
                17.743323
              ],
              [
                106.420091,
                17.74414
              ],
              [
                106.421302,
                17.744831
              ],
              [
                106.422399,
                17.74492
              ],
              [
                106.422703,
                17.744943
              ],
              [
                106.423047,
                17.744945
              ],
              [
                106.424087,
                17.744952
              ],
              [
                106.424244,
                17.74499
              ],
              [
                106.424299,
                17.74507
              ],
              [
                106.424315,
                17.745652
              ],
              [
                106.424311,
                17.745693
              ],
              [
                106.424304,
                17.74575
              ],
              [
                106.424275,
                17.745871
              ],
              [
                106.423902,
                17.74653
              ],
              [
                106.423867,
                17.746709
              ],
              [
                106.423772,
                17.747849
              ],
              [
                106.423784,
                17.748067
              ],
              [
                106.423803,
                17.748391
              ],
              [
                106.423945,
                17.748854
              ],
              [
                106.424037,
                17.749006
              ],
              [
                106.424447,
                17.749677
              ],
              [
                106.424875,
                17.750264
              ],
              [
                106.425045,
                17.750458
              ],
              [
                106.425381,
                17.751023
              ],
              [
                106.425539,
                17.751253
              ],
              [
                106.425724,
                17.751433
              ],
              [
                106.425891,
                17.751527
              ],
              [
                106.426256,
                17.751607
              ],
              [
                106.426686,
                17.75158
              ],
              [
                106.427223,
                17.751458
              ],
              [
                106.427365,
                17.751425
              ],
              [
                106.427861,
                17.751278
              ],
              [
                106.428242,
                17.751192
              ],
              [
                106.428336,
                17.751278
              ],
              [
                106.42838,
                17.751381
              ],
              [
                106.428418,
                17.751529
              ],
              [
                106.428485,
                17.751627
              ],
              [
                106.428989,
                17.752852
              ],
              [
                106.429714,
                17.753021
              ],
              [
                106.430318,
                17.753016
              ],
              [
                106.431044,
                17.752722
              ],
              [
                106.432063,
                17.752309
              ],
              [
                106.432488,
                17.752711
              ],
              [
                106.432981,
                17.753922
              ],
              [
                106.432743,
                17.754329
              ],
              [
                106.430952,
                17.754212
              ],
              [
                106.430893,
                17.754607
              ],
              [
                106.43074,
                17.755214
              ],
              [
                106.430588,
                17.755768
              ],
              [
                106.43051,
                17.756385
              ],
              [
                106.430428,
                17.756814
              ],
              [
                106.430319,
                17.757733
              ],
              [
                106.430268,
                17.75797
              ],
              [
                106.430101,
                17.758595
              ],
              [
                106.430016,
                17.759127
              ],
              [
                106.43007,
                17.759392
              ],
              [
                106.430149,
                17.759864
              ],
              [
                106.430238,
                17.760056
              ],
              [
                106.430326,
                17.760109
              ],
              [
                106.43047,
                17.760132
              ],
              [
                106.431958,
                17.75987
              ],
              [
                106.43288,
                17.759719
              ],
              [
                106.433695,
                17.759598
              ],
              [
                106.434156,
                17.759499
              ],
              [
                106.434361,
                17.759396
              ],
              [
                106.434895,
                17.759064
              ],
              [
                106.434995,
                17.759051
              ],
              [
                106.435126,
                17.759068
              ],
              [
                106.43527,
                17.759127
              ],
              [
                106.435998,
                17.759719
              ],
              [
                106.436465,
                17.760391
              ],
              [
                106.436691,
                17.760533
              ],
              [
                106.437129,
                17.760751
              ],
              [
                106.437968,
                17.761146
              ],
              [
                106.43901,
                17.761684
              ],
              [
                106.43916,
                17.761778
              ],
              [
                106.439291,
                17.76194
              ],
              [
                106.439404,
                17.762283
              ],
              [
                106.439598,
                17.762827
              ],
              [
                106.439921,
                17.763332
              ],
              [
                106.440335,
                17.763883
              ],
              [
                106.440619,
                17.764417
              ],
              [
                106.440731,
                17.764722
              ],
              [
                106.440753,
                17.764923
              ],
              [
                106.440734,
                17.765105
              ],
              [
                106.440435,
                17.766436
              ],
              [
                106.440273,
                17.767025
              ],
              [
                106.440195,
                17.767521
              ],
              [
                106.439995,
                17.768879
              ],
              [
                106.440105,
                17.768906
              ],
              [
                106.440474,
                17.768996
              ],
              [
                106.440433,
                17.76961
              ],
              [
                106.441321,
                17.769959
              ],
              [
                106.441927,
                17.770198
              ],
              [
                106.442759,
                17.770418
              ],
              [
                106.44501,
                17.771012
              ],
              [
                106.445075,
                17.77159
              ],
              [
                106.445266,
                17.772055
              ],
              [
                106.457369,
                17.777411
              ],
              [
                106.457318,
                17.777598
              ],
              [
                106.45822,
                17.774642
              ],
              [
                106.458264,
                17.774654
              ],
              [
                106.458312,
                17.774507
              ],
              [
                106.458584,
                17.773859
              ],
              [
                106.458715,
                17.773478
              ],
              [
                106.458847,
                17.773155
              ],
              [
                106.45895,
                17.772838
              ],
              [
                106.459081,
                17.7724
              ],
              [
                106.459248,
                17.77181
              ],
              [
                106.459512,
                17.771098
              ],
              [
                106.459689,
                17.770753
              ],
              [
                106.459849,
                17.770213
              ],
              [
                106.460003,
                17.76976
              ],
              [
                106.460383,
                17.768696
              ],
              [
                106.460812,
                17.76754
              ],
              [
                106.461371,
                17.765968
              ],
              [
                106.461826,
                17.764798
              ],
              [
                106.462142,
                17.764006
              ],
              [
                106.462524,
                17.763085
              ],
              [
                106.462869,
                17.762244
              ],
              [
                106.463418,
                17.760769
              ],
              [
                106.463711,
                17.759992
              ],
              [
                106.46399,
                17.759302
              ],
              [
                106.464408,
                17.75823
              ],
              [
                106.464856,
                17.757122
              ],
              [
                106.46573,
                17.755078
              ],
              [
                106.46606,
                17.754294
              ],
              [
                106.466569,
                17.753092
              ],
              [
                106.466846,
                17.752437
              ],
              [
                106.467537,
                17.750897
              ],
              [
                106.468052,
                17.749746
              ],
              [
                106.468396,
                17.749004
              ],
              [
                106.468397,
                17.749002
              ],
              [
                106.468586,
                17.748584
              ],
              [
                106.468667,
                17.748364
              ],
              [
                106.468791,
                17.748124
              ],
              [
                106.468964,
                17.747796
              ],
              [
                106.469153,
                17.747385
              ],
              [
                106.469275,
                17.747148
              ],
              [
                106.469317,
                17.74704
              ],
              [
                106.469346,
                17.746965
              ],
              [
                106.469887,
                17.745905
              ],
              [
                106.470073,
                17.74554
              ],
              [
                106.470873,
                17.743774
              ],
              [
                106.47158,
                17.742382
              ],
              [
                106.47175,
                17.741879
              ],
              [
                106.471959,
                17.741543
              ],
              [
                106.472232,
                17.741266
              ],
              [
                106.472329,
                17.741002
              ],
              [
                106.472632,
                17.740308
              ],
              [
                106.472702,
                17.740159
              ],
              [
                106.472824,
                17.739872
              ],
              [
                106.472912,
                17.739728
              ],
              [
                106.473148,
                17.739461
              ],
              [
                106.473226,
                17.739336
              ],
              [
                106.473274,
                17.739097
              ],
              [
                106.473391,
                17.738771
              ],
              [
                106.473686,
                17.738137
              ],
              [
                106.473942,
                17.73781
              ],
              [
                106.474179,
                17.737512
              ],
              [
                106.474257,
                17.737186
              ],
              [
                106.474344,
                17.736898
              ],
              [
                106.474373,
                17.736839
              ],
              [
                106.474472,
                17.736639
              ],
              [
                106.4746,
                17.736495
              ],
              [
                106.474893,
                17.736341
              ],
              [
                106.474979,
                17.736162
              ],
              [
                106.475004,
                17.735832
              ],
              [
                106.475101,
                17.735516
              ],
              [
                106.475259,
                17.735285
              ],
              [
                106.475477,
                17.735073
              ],
              [
                106.475644,
                17.734813
              ],
              [
                106.47579,
                17.734296
              ],
              [
                106.47585,
                17.734127
              ],
              [
                106.476075,
                17.733729
              ],
              [
                106.476233,
                17.733537
              ],
              [
                106.476372,
                17.73345
              ],
              [
                106.476441,
                17.733335
              ],
              [
                106.476508,
                17.733057
              ],
              [
                106.476556,
                17.73288
              ],
              [
                106.476653,
                17.732511
              ],
              [
                106.476712,
                17.732405
              ],
              [
                106.476882,
                17.732337
              ],
              [
                106.476991,
                17.732269
              ],
              [
                106.477079,
                17.732106
              ],
              [
                106.477157,
                17.731837
              ],
              [
                106.477334,
                17.731492
              ],
              [
                106.477454,
                17.731317
              ],
              [
                106.477876,
                17.730732
              ],
              [
                106.478103,
                17.730405
              ],
              [
                106.478161,
                17.730175
              ],
              [
                106.478268,
                17.729821
              ],
              [
                106.478427,
                17.729612
              ],
              [
                106.478635,
                17.729431
              ],
              [
                106.478758,
                17.729347
              ],
              [
                106.478922,
                17.729242
              ],
              [
                106.478991,
                17.729107
              ],
              [
                106.479029,
                17.728878
              ],
              [
                106.479116,
                17.728628
              ],
              [
                106.479254,
                17.728407
              ],
              [
                106.479359,
                17.728234
              ],
              [
                106.479834,
                17.727294
              ],
              [
                106.479933,
                17.727207
              ],
              [
                106.480072,
                17.727129
              ],
              [
                106.480191,
                17.727033
              ],
              [
                106.480309,
                17.726793
              ],
              [
                106.480386,
                17.726496
              ],
              [
                106.480662,
                17.726015
              ],
              [
                106.481667,
                17.724678
              ],
              [
                106.482053,
                17.724044
              ],
              [
                106.482308,
                17.723545
              ],
              [
                106.482623,
                17.723045
              ],
              [
                106.482981,
                17.722632
              ],
              [
                106.483271,
                17.722242
              ],
              [
                106.483408,
                17.721935
              ],
              [
                106.483561,
                17.721478
              ],
              [
                106.483627,
                17.721385
              ],
              [
                106.484067,
                17.720763
              ],
              [
                106.484492,
                17.720186
              ],
              [
                106.48494,
                17.719535
              ],
              [
                106.485073,
                17.71934
              ],
              [
                106.485761,
                17.718202
              ],
              [
                106.486105,
                17.717587
              ],
              [
                106.486453,
                17.717039
              ],
              [
                106.486866,
                17.716276
              ],
              [
                106.487048,
                17.715815
              ],
              [
                106.487252,
                17.715516
              ],
              [
                106.487526,
                17.714939
              ],
              [
                106.48785,
                17.714131
              ],
              [
                106.488006,
                17.71361
              ],
              [
                106.488261,
                17.712473
              ],
              [
                106.488426,
                17.711869
              ],
              [
                106.488671,
                17.711408
              ],
              [
                106.488749,
                17.71112
              ],
              [
                106.488952,
                17.710118
              ],
              [
                106.489111,
                17.709615
              ],
              [
                106.489181,
                17.709322
              ],
              [
                106.48921,
                17.709059
              ],
              [
                106.489393,
                17.708345
              ],
              [
                106.489568,
                17.707765
              ],
              [
                106.489586,
                17.707469
              ],
              [
                106.489549,
                17.706718
              ],
              [
                106.489448,
                17.705882
              ],
              [
                106.489391,
                17.70563
              ],
              [
                106.48927,
                17.705444
              ],
              [
                106.489047,
                17.705111
              ],
              [
                106.488984,
                17.705023
              ],
              [
                106.488854,
                17.704917
              ],
              [
                106.488788,
                17.704899
              ],
              [
                106.489194,
                17.704235
              ],
              [
                106.488569,
                17.704057
              ],
              [
                106.487806,
                17.703945
              ],
              [
                106.486831,
                17.703802
              ],
              [
                106.484577,
                17.703915
              ],
              [
                106.483961,
                17.704001
              ],
              [
                106.480941,
                17.70442
              ],
              [
                106.47893,
                17.704818
              ],
              [
                106.478737,
                17.704856
              ],
              [
                106.477423,
                17.705115
              ],
              [
                106.475898,
                17.705497
              ],
              [
                106.475894,
                17.705498
              ],
              [
                106.474517,
                17.705848
              ],
              [
                106.46867,
                17.707124
              ],
              [
                106.46017,
                17.708978
              ],
              [
                106.454555,
                17.709941
              ],
              [
                106.453102,
                17.710186
              ],
              [
                106.452904,
                17.71022
              ],
              [
                106.452064,
                17.710362
              ],
              [
                106.451919,
                17.710386
              ],
              [
                106.450394,
                17.710644
              ],
              [
                106.449612,
                17.710777
              ],
              [
                106.449611,
                17.710777
              ],
              [
                106.448613,
                17.710993
              ],
              [
                106.446948,
                17.711419
              ],
              [
                106.442362,
                17.712837
              ],
              [
                106.440472,
                17.713526
              ],
              [
                106.439509,
                17.713987
              ],
              [
                106.43931,
                17.714102
              ],
              [
                106.438554,
                17.714712
              ],
              [
                106.436035,
                17.71698
              ],
              [
                106.435503,
                17.717366
              ],
              [
                106.435418,
                17.718025
              ],
              [
                106.43535,
                17.718494
              ],
              [
                106.434205,
                17.728067
              ],
              [
                106.433821,
                17.729958
              ],
              [
                106.433358,
                17.732031
              ],
              [
                106.433188,
                17.732296
              ],
              [
                106.432845,
                17.732739
              ],
              [
                106.426925,
                17.737072
              ],
              [
                106.426885,
                17.737098
              ],
              [
                106.423726,
                17.739447
              ],
              [
                106.421984,
                17.740263
              ],
              [
                106.419363,
                17.74143
              ],
              [
                106.419136,
                17.741527
              ],
              [
                106.418141,
                17.741955
              ],
              [
                106.417681,
                17.742157
              ],
              [
                106.4176762,
                17.7421562
              ],
              [
                106.417679,
                17.742159
              ]
            ]
          ]
        ]
      },
      "properties": {
        "code": "19066",
        "name": "Bắc Gianh",
        "nameEn": "Bac Gianh",
        "fullName": "Phường Bắc Gianh",
        "fullNameEn": "Bac Gianh Ward",
        "codeName": "bac_gianh",
        "postalCode": "47322",
        "postalCodePrefix": "",
        "gisServerId": "diaphanhanhchinhcapxa_2025.617",
        "areaKm2": 31.14
      }
    }
  ]
}