{
  "type": "FeatureCollection",
  "bbox": [
    106.64271,
    17.291135,
    106.796826,
    17.415958
  ],
  "features": [
    {
      "type": "Feature",
      "id": "19225",
      "bbox": [
        106.64271,
        17.291135,
        106.796826,
        17.415958
      ],
      "geometry": {
        "type": "MultiPolygon",
        "coordinates": [
          [
            [
              [
                106.685279,
                17.374003
              ],
              [
                106.695556,
                17.377961
              ],
              [
                106.697758,
                17.379464
              ],
              [
                106.687089,
                17.391008
              ],
              [
                106.684792,
                17.393493
              ],
              [
                106.684986,
                17.396608
              ],
              [
                106.686089,
                17.399946
              ],
              [
                106.685918,
                17.400091
              ],
              [
                106.685747,
                17.400237
              ],
              [
                106.677366,
                17.41124
              ],
              [
                106.677851,
                17.411333
              ],
              [
                106.678453,
                17.411451
              ],
              [
                106.678917,
                17.411545
              ],
              [
                106.679709,
                17.411546
              ],
              [
                106.679997,
                17.411545
              ],
              [
                106.680218,
                17.411536
              ],
              [
                106.680306,
                17.411526
              ],
              [
                106.680371,
                17.411523
              ],
              [
                106.681036,
                17.411524
              ],
              [
                106.68108,
                17.411542
              ],
              [
                106.682123,
                17.411545
              ],
              [
                106.682353,
                17.411528
              ],
              [
                106.682487,
                17.411569
              ],
              [
                106.68264,
                17.411636
              ],
              [
                106.683141,
                17.41192
              ],
              [
                106.683466,
                17.412081
              ],
              [
                106.683932,
                17.412313
              ],
              [
                106.684019,
                17.412358
              ],
              [
                106.684143,
                17.412446
              ],
              [
                106.684157,
                17.412462
              ],
              [
                106.684163,
                17.412474
              ],
              [
                106.684239,
                17.412634
              ],
              [
                106.684342,
                17.412991
              ],
              [
                106.684359,
                17.413221
              ],
              [
                106.684419,
                17.413765
              ],
              [
                106.684391,
                17.414014
              ],
              [
                106.684306,
                17.414197
              ],
              [
                106.684281,
                17.414251
              ],
              [
                106.68427,
                17.414394
              ],
              [
                106.684302,
                17.414501
              ],
              [
                106.684377,
                17.414531
              ],
              [
                106.684377,
                17.414531
              ],
              [
                106.684579,
                17.414662
              ],
              [
                106.684814,
                17.414815
              ],
              [
                106.684843,
                17.414839
              ],
              [
                106.68487,
                17.414856
              ],
              [
                106.684889,
                17.414872
              ],
              [
                106.684891,
                17.414874
              ],
              [
                106.684921,
                17.414905
              ],
              [
                106.684949,
                17.414937
              ],
              [
                106.684959,
                17.414949
              ],
              [
                106.684975,
                17.414968
              ],
              [
                106.685009,
                17.415005
              ],
              [
                106.685036,
                17.415031
              ],
              [
                106.685063,
                17.415053
              ],
              [
                106.685096,
                17.41508
              ],
              [
                106.685131,
                17.415096
              ],
              [
                106.685193,
                17.415108
              ],
              [
                106.685229,
                17.415113
              ],
              [
                106.685266,
                17.415116
              ],
              [
                106.685273,
                17.415117
              ],
              [
                106.685311,
                17.415122
              ],
              [
                106.685377,
                17.415155
              ],
              [
                106.6857,
                17.415352
              ],
              [
                106.686023,
                17.415549
              ],
              [
                106.686256,
                17.415669
              ],
              [
                106.686811,
                17.415958
              ],
              [
                106.687292,
                17.415361
              ],
              [
                106.687661,
                17.414913
              ],
              [
                106.687726,
                17.414894
              ],
              [
                106.687786,
                17.414936
              ],
              [
                106.687767,
                17.415061
              ],
              [
                106.687699,
                17.415224
              ],
              [
                106.6877,
                17.415339
              ],
              [
                106.687745,
                17.415372
              ],
              [
                106.687844,
                17.415337
              ],
              [
                106.687923,
                17.41526
              ],
              [
                106.688017,
                17.415126
              ],
              [
                106.688055,
                17.415001
              ],
              [
                106.688059,
                17.414867
              ],
              [
                106.688078,
                17.414738
              ],
              [
                106.688171,
                17.414608
              ],
              [
                106.688403,
                17.414295
              ],
              [
                106.688694,
                17.414015
              ],
              [
                106.688857,
                17.413875
              ],
              [
                106.688956,
                17.413784
              ],
              [
                106.689024,
                17.413673
              ],
              [
                106.689289,
                17.41325
              ],
              [
                106.689762,
                17.412658
              ],
              [
                106.690536,
                17.4118
              ],
              [
                106.690896,
                17.41141
              ],
              [
                106.691198,
                17.411144
              ],
              [
                106.691326,
                17.411038
              ],
              [
                106.691455,
                17.411018
              ],
              [
                106.691575,
                17.411007
              ],
              [
                106.691634,
                17.410954
              ],
              [
                106.69186,
                17.410617
              ],
              [
                106.691968,
                17.410468
              ],
              [
                106.692063,
                17.410424
              ],
              [
                106.692157,
                17.41039
              ],
              [
                106.692241,
                17.410303
              ],
              [
                106.692348,
                17.410102
              ],
              [
                106.692485,
                17.409837
              ],
              [
                106.692748,
                17.409596
              ],
              [
                106.692994,
                17.409326
              ],
              [
                106.693107,
                17.409239
              ],
              [
                106.693247,
                17.409209
              ],
              [
                106.693356,
                17.409151
              ],
              [
                106.693424,
                17.409041
              ],
              [
                106.693581,
                17.408705
              ],
              [
                106.693899,
                17.408317
              ],
              [
                106.69408,
                17.408143
              ],
              [
                106.694478,
                17.407793
              ],
              [
                106.694784,
                17.407413
              ],
              [
                106.69509,
                17.407015
              ],
              [
                106.695188,
                17.406888
              ],
              [
                106.695479,
                17.406608
              ],
              [
                106.695801,
                17.406457
              ],
              [
                106.69594,
                17.406365
              ],
              [
                106.696722,
                17.405413
              ],
              [
                106.696916,
                17.405203
              ],
              [
                106.697108,
                17.40506
              ],
              [
                106.697306,
                17.404972
              ],
              [
                106.697391,
                17.404909
              ],
              [
                106.697489,
                17.404793
              ],
              [
                106.697852,
                17.404197
              ],
              [
                106.698044,
                17.403981
              ],
              [
                106.698483,
                17.403523
              ],
              [
                106.698833,
                17.403109
              ],
              [
                106.699237,
                17.402651
              ],
              [
                106.699785,
                17.402068
              ],
              [
                106.700017,
                17.401884
              ],
              [
                106.700141,
                17.401811
              ],
              [
                106.700221,
                17.40183
              ],
              [
                106.700321,
                17.401848
              ],
              [
                106.700455,
                17.401789
              ],
              [
                106.700519,
                17.401717
              ],
              [
                106.700602,
                17.401563
              ],
              [
                106.700754,
                17.401266
              ],
              [
                106.701305,
                17.40063
              ],
              [
                106.702168,
                17.399637
              ],
              [
                106.702789,
                17.398991
              ],
              [
                106.702972,
                17.398832
              ],
              [
                106.70318,
                17.398706
              ],
              [
                106.703351,
                17.398506
              ],
              [
                106.70376,
                17.39802
              ],
              [
                106.703787,
                17.397988
              ],
              [
                106.70408,
                17.397685
              ],
              [
                106.704176,
                17.397625
              ],
              [
                106.704254,
                17.397621
              ],
              [
                106.704335,
                17.397656
              ],
              [
                106.70441,
                17.397646
              ],
              [
                106.704484,
                17.397595
              ],
              [
                106.704855,
                17.397024
              ],
              [
                106.704976,
                17.396975
              ],
              [
                106.705107,
                17.396944
              ],
              [
                106.705162,
                17.396887
              ],
              [
                106.705324,
                17.396584
              ],
              [
                106.705479,
                17.396339
              ],
              [
                106.705658,
                17.396194
              ],
              [
                106.705831,
                17.396055
              ],
              [
                106.705905,
                17.396001
              ],
              [
                106.70598,
                17.395946
              ],
              [
                106.706103,
                17.395796
              ],
              [
                106.706456,
                17.395272
              ],
              [
                106.706705,
                17.394954
              ],
              [
                106.706988,
                17.394611
              ],
              [
                106.707223,
                17.3944
              ],
              [
                106.707513,
                17.39411
              ],
              [
                106.707674,
                17.394025
              ],
              [
                106.707766,
                17.393959
              ],
              [
                106.707896,
                17.393778
              ],
              [
                106.708043,
                17.393586
              ],
              [
                106.708296,
                17.393345
              ],
              [
                106.708611,
                17.393103
              ],
              [
                106.708791,
                17.393042
              ],
              [
                106.708959,
                17.39301
              ],
              [
                106.709039,
                17.392914
              ],
              [
                106.70952,
                17.392384
              ],
              [
                106.709908,
                17.391944
              ],
              [
                106.710234,
                17.391487
              ],
              [
                106.710504,
                17.39109
              ],
              [
                106.710689,
                17.390897
              ],
              [
                106.71093,
                17.390686
              ],
              [
                106.711219,
                17.390331
              ],
              [
                106.71133,
                17.390235
              ],
              [
                106.71146,
                17.390204
              ],
              [
                106.711534,
                17.390137
              ],
              [
                106.711713,
                17.389944
              ],
              [
                106.71233,
                17.389294
              ],
              [
                106.712996,
                17.388672
              ],
              [
                106.713163,
                17.388569
              ],
              [
                106.713306,
                17.388502
              ],
              [
                106.713405,
                17.388483
              ],
              [
                106.713504,
                17.388429
              ],
              [
                106.713584,
                17.388327
              ],
              [
                106.713627,
                17.388245
              ],
              [
                106.71367,
                17.388164
              ],
              [
                106.71383,
                17.387996
              ],
              [
                106.714367,
                17.387513
              ],
              [
                106.714712,
                17.387133
              ],
              [
                106.715295,
                17.386355
              ],
              [
                106.715647,
                17.385894
              ],
              [
                106.71598,
                17.385545
              ],
              [
                106.716129,
                17.385513
              ],
              [
                106.71621,
                17.385531
              ],
              [
                106.716279,
                17.38559
              ],
              [
                106.716323,
                17.385601
              ],
              [
                106.716397,
                17.385577
              ],
              [
                106.716465,
                17.385457
              ],
              [
                106.716519,
                17.385241
              ],
              [
                106.716863,
                17.384796
              ],
              [
                106.717362,
                17.384218
              ],
              [
                106.717535,
                17.384139
              ],
              [
                106.717697,
                17.384137
              ],
              [
                106.717784,
                17.384136
              ],
              [
                106.717871,
                17.384094
              ],
              [
                106.71797,
                17.383985
              ],
              [
                106.718117,
                17.383739
              ],
              [
                106.718363,
                17.38342
              ],
              [
                106.71888,
                17.382871
              ],
              [
                106.719032,
                17.382738
              ],
              [
                106.719551,
                17.382142
              ],
              [
                106.719788,
                17.381925
              ],
              [
                106.719947,
                17.381842
              ],
              [
                106.719992,
                17.381861
              ],
              [
                106.719997,
                17.381932
              ],
              [
                106.719953,
                17.382038
              ],
              [
                106.71989,
                17.382172
              ],
              [
                106.719901,
                17.382263
              ],
              [
                106.719941,
                17.382291
              ],
              [
                106.72002,
                17.382272
              ],
              [
                106.720075,
                17.382219
              ],
              [
                106.720148,
                17.382094
              ],
              [
                106.720255,
                17.381796
              ],
              [
                106.720377,
                17.381542
              ],
              [
                106.720776,
                17.381084
              ],
              [
                106.720984,
                17.380924
              ],
              [
                106.721217,
                17.380808
              ],
              [
                106.721424,
                17.380624
              ],
              [
                106.721513,
                17.380514
              ],
              [
                106.721911,
                17.380022
              ],
              [
                106.722231,
                17.379608
              ],
              [
                106.722655,
                17.379084
              ],
              [
                106.723082,
                17.378439
              ],
              [
                106.723185,
                17.378343
              ],
              [
                106.723305,
                17.378318
              ],
              [
                106.72336,
                17.378355
              ],
              [
                106.72339,
                17.378417
              ],
              [
                106.723406,
                17.378494
              ],
              [
                106.723446,
                17.37856
              ],
              [
                106.723491,
                17.378579
              ],
              [
                106.723556,
                17.378564
              ],
              [
                106.723585,
                17.378502
              ],
              [
                106.723614,
                17.378368
              ],
              [
                106.723642,
                17.378143
              ],
              [
                106.723794,
                17.377869
              ],
              [
                106.724045,
                17.377604
              ],
              [
                106.724553,
                17.37722
              ],
              [
                106.724886,
                17.377003
              ],
              [
                106.725212,
                17.376752
              ],
              [
                106.725344,
                17.376643
              ],
              [
                106.72584,
                17.37623
              ],
              [
                106.726002,
                17.376033
              ],
              [
                106.726159,
                17.375754
              ],
              [
                106.726587,
                17.375167
              ],
              [
                106.726946,
                17.374777
              ],
              [
                106.727401,
                17.374357
              ],
              [
                106.727839,
                17.374023
              ],
              [
                106.727865,
                17.373999
              ],
              [
                106.72818,
                17.373692
              ],
              [
                106.728916,
                17.372977
              ],
              [
                106.729538,
                17.372384
              ],
              [
                106.73004,
                17.371777
              ],
              [
                106.730868,
                17.370909
              ],
              [
                106.731293,
                17.370576
              ],
              [
                106.731675,
                17.370276
              ],
              [
                106.732143,
                17.369908
              ],
              [
                106.733329,
                17.368894
              ],
              [
                106.733795,
                17.368472
              ],
              [
                106.733868,
                17.368405
              ],
              [
                106.733936,
                17.368343
              ],
              [
                106.734223,
                17.367937
              ],
              [
                106.734223,
                17.367937
              ],
              [
                106.734364,
                17.367737
              ],
              [
                106.734388,
                17.367713
              ],
              [
                106.734985,
                17.367101
              ],
              [
                106.735081,
                17.366993
              ],
              [
                106.735384,
                17.366656
              ],
              [
                106.735828,
                17.366161
              ],
              [
                106.736266,
                17.365712
              ],
              [
                106.736875,
                17.365089
              ],
              [
                106.737117,
                17.364841
              ],
              [
                106.737285,
                17.364669
              ],
              [
                106.737396,
                17.364555
              ],
              [
                106.739381,
                17.362802
              ],
              [
                106.740537,
                17.361774
              ],
              [
                106.741381,
                17.361006
              ],
              [
                106.741634,
                17.360762
              ],
              [
                106.742358,
                17.360065
              ],
              [
                106.742382,
                17.360034
              ],
              [
                106.742992,
                17.359256
              ],
              [
                106.743137,
                17.359132
              ],
              [
                106.743496,
                17.358822
              ],
              [
                106.743588,
                17.358754
              ],
              [
                106.743971,
                17.358473
              ],
              [
                106.744325,
                17.358025
              ],
              [
                106.744692,
                17.35774
              ],
              [
                106.744789,
                17.357664
              ],
              [
                106.744947,
                17.357541
              ],
              [
                106.744977,
                17.357518
              ],
              [
                106.745229,
                17.357229
              ],
              [
                106.745687,
                17.356708
              ],
              [
                106.746162,
                17.356417
              ],
              [
                106.746519,
                17.356213
              ],
              [
                106.746844,
                17.355909
              ],
              [
                106.747391,
                17.355259
              ],
              [
                106.748353,
                17.354332
              ],
              [
                106.748588,
                17.354105
              ],
              [
                106.748894,
                17.353808
              ],
              [
                106.749282,
                17.353432
              ],
              [
                106.749764,
                17.352965
              ],
              [
                106.749871,
                17.352862
              ],
              [
                106.749922,
                17.352813
              ],
              [
                106.750753,
                17.352246
              ],
              [
                106.751226,
                17.351783
              ],
              [
                106.751834,
                17.351104
              ],
              [
                106.751847,
                17.351089
              ],
              [
                106.752765,
                17.35022
              ],
              [
                106.753505,
                17.349511
              ],
              [
                106.753727,
                17.349315
              ],
              [
                106.754335,
                17.348778
              ],
              [
                106.75472,
                17.348438
              ],
              [
                106.755446,
                17.347858
              ],
              [
                106.756111,
                17.347078
              ],
              [
                106.756792,
                17.346513
              ],
              [
                106.757756,
                17.345715
              ],
              [
                106.758145,
                17.345282
              ],
              [
                106.758355,
                17.345048
              ],
              [
                106.758938,
                17.344399
              ],
              [
                106.759308,
                17.344081
              ],
              [
                106.759388,
                17.344012
              ],
              [
                106.759427,
                17.343979
              ],
              [
                106.759444,
                17.34397
              ],
              [
                106.759693,
                17.343843
              ],
              [
                106.759769,
                17.343804
              ],
              [
                106.760065,
                17.343514
              ],
              [
                106.760401,
                17.343228
              ],
              [
                106.760642,
                17.343022
              ],
              [
                106.761015,
                17.342821
              ],
              [
                106.761103,
                17.342774
              ],
              [
                106.761474,
                17.342498
              ],
              [
                106.762021,
                17.342045
              ],
              [
                106.762052,
                17.34202
              ],
              [
                106.762223,
                17.341843
              ],
              [
                106.762521,
                17.341538
              ],
              [
                106.762643,
                17.341412
              ],
              [
                106.763,
                17.341222
              ],
              [
                106.763245,
                17.340874
              ],
              [
                106.763324,
                17.34076
              ],
              [
                106.763928,
                17.33988
              ],
              [
                106.764729,
                17.339242
              ],
              [
                106.765991,
                17.338456
              ],
              [
                106.766704,
                17.338048
              ],
              [
                106.767047,
                17.337703
              ],
              [
                106.767221,
                17.337527
              ],
              [
                106.767797,
                17.336776
              ],
              [
                106.76836,
                17.336298
              ],
              [
                106.768413,
                17.336256
              ],
              [
                106.768615,
                17.336096
              ],
              [
                106.768982,
                17.335805
              ],
              [
                106.769184,
                17.335463
              ],
              [
                106.769305,
                17.335257
              ],
              [
                106.769442,
                17.335142
              ],
              [
                106.769637,
                17.33498
              ],
              [
                106.77048,
                17.334275
              ],
              [
                106.77052,
                17.334242
              ],
              [
                106.770755,
                17.334028
              ],
              [
                106.770832,
                17.333957
              ],
              [
                106.771646,
                17.333214
              ],
              [
                106.772205,
                17.332825
              ],
              [
                106.77261,
                17.332545
              ],
              [
                106.772794,
                17.332491
              ],
              [
                106.773012,
                17.332427
              ],
              [
                106.773249,
                17.332195
              ],
              [
                106.773497,
                17.331921
              ],
              [
                106.774047,
                17.331313
              ],
              [
                106.774514,
                17.330773
              ],
              [
                106.774982,
                17.330231
              ],
              [
                106.775022,
                17.330186
              ],
              [
                106.775266,
                17.330018
              ],
              [
                106.775277,
                17.33001
              ],
              [
                106.775867,
                17.329604
              ],
              [
                106.776026,
                17.329534
              ],
              [
                106.776423,
                17.329358
              ],
              [
                106.776491,
                17.329327
              ],
              [
                106.776626,
                17.329268
              ],
              [
                106.776877,
                17.328993
              ],
              [
                106.777454,
                17.328486
              ],
              [
                106.778165,
                17.327805
              ],
              [
                106.778774,
                17.327031
              ],
              [
                106.778858,
                17.326924
              ],
              [
                106.779173,
                17.326693
              ],
              [
                106.779199,
                17.326674
              ],
              [
                106.779748,
                17.326271
              ],
              [
                106.780367,
                17.325742
              ],
              [
                106.780918,
                17.325271
              ],
              [
                106.781746,
                17.324446
              ],
              [
                106.782084,
                17.324214
              ],
              [
                106.78234,
                17.324039
              ],
              [
                106.782675,
                17.32382
              ],
              [
                106.782755,
                17.323768
              ],
              [
                106.783008,
                17.323602
              ],
              [
                106.783148,
                17.323515
              ],
              [
                106.783498,
                17.323297
              ],
              [
                106.783897,
                17.322877
              ],
              [
                106.783944,
                17.322822
              ],
              [
                106.784605,
                17.322062
              ],
              [
                106.78465,
                17.32201
              ],
              [
                106.785403,
                17.321308
              ],
              [
                106.785582,
                17.321141
              ],
              [
                106.785996,
                17.320951
              ],
              [
                106.786029,
                17.320936
              ],
              [
                106.786385,
                17.320704
              ],
              [
                106.786419,
                17.320677
              ],
              [
                106.787007,
                17.320225
              ],
              [
                106.787648,
                17.319611
              ],
              [
                106.787673,
                17.319588
              ],
              [
                106.787937,
                17.319421
              ],
              [
                106.788133,
                17.319297
              ],
              [
                106.788464,
                17.318906
              ],
              [
                106.788561,
                17.318791
              ],
              [
                106.789059,
                17.318391
              ],
              [
                106.789302,
                17.318196
              ],
              [
                106.789462,
                17.318082
              ],
              [
                106.789477,
                17.318071
              ],
              [
                106.789912,
                17.317759
              ],
              [
                106.790074,
                17.317644
              ],
              [
                106.791243,
                17.316796
              ],
              [
                106.791275,
                17.316773
              ],
              [
                106.792064,
                17.316
              ],
              [
                106.792429,
                17.315643
              ],
              [
                106.79243,
                17.315643
              ],
              [
                106.79282,
                17.315404
              ],
              [
                106.793379,
                17.315061
              ],
              [
                106.793794,
                17.314758
              ],
              [
                106.794016,
                17.314596
              ],
              [
                106.795601,
                17.313066
              ],
              [
                106.796103,
                17.312461
              ],
              [
                106.796826,
                17.311931
              ],
              [
                106.796389,
                17.311477
              ],
              [
                106.795866,
                17.310935
              ],
              [
                106.795854,
                17.310922
              ],
              [
                106.795793,
                17.310859
              ],
              [
                106.795707,
                17.31074
              ],
              [
                106.795374,
                17.310275
              ],
              [
                106.79504,
                17.30981
              ],
              [
                106.794853,
                17.309549
              ],
              [
                106.794732,
                17.309381
              ],
              [
                106.794201,
                17.308641
              ],
              [
                106.793804,
                17.308087
              ],
              [
                106.793186,
                17.307227
              ],
              [
                106.793186,
                17.307226
              ],
              [
                106.793085,
                17.307085
              ],
              [
                106.793082,
                17.307081
              ],
              [
                106.792382,
                17.3061
              ],
              [
                106.792024,
                17.305599
              ],
              [
                106.791844,
                17.30542
              ],
              [
                106.791702,
                17.305273
              ],
              [
                106.791542,
                17.30511
              ],
              [
                106.791335,
                17.30485
              ],
              [
                106.791305,
                17.304811
              ],
              [
                106.791133,
                17.304585
              ],
              [
                106.790962,
                17.304331
              ],
              [
                106.790807,
                17.304071
              ],
              [
                106.790572,
                17.30361
              ],
              [
                106.788439,
                17.298832
              ],
              [
                106.787731,
                17.297247
              ],
              [
                106.787607,
                17.296968
              ],
              [
                106.7873,
                17.296281
              ],
              [
                106.786724,
                17.294991
              ],
              [
                106.786511,
                17.294515
              ],
              [
                106.786009,
                17.293391
              ],
              [
                106.785892,
                17.293128
              ],
              [
                106.785308,
                17.291819
              ],
              [
                106.785373,
                17.291135
              ],
              [
                106.785105,
                17.291224
              ],
              [
                106.785096,
                17.291227
              ],
              [
                106.784395,
                17.291387
              ],
              [
                106.78418,
                17.29146
              ],
              [
                106.783821,
                17.291631
              ],
              [
                106.779736,
                17.294276
              ],
              [
                106.779063,
                17.294735
              ],
              [
                106.778517,
                17.295107
              ],
              [
                106.778329,
                17.29516
              ],
              [
                106.77641,
                17.295726
              ],
              [
                106.776149,
                17.29593
              ],
              [
                106.775789,
                17.296409
              ],
              [
                106.775736,
                17.296485
              ],
              [
                106.775559,
                17.296598
              ],
              [
                106.775302,
                17.296677
              ],
              [
                106.774774,
                17.29682
              ],
              [
                106.773751,
                17.297199
              ],
              [
                106.773275,
                17.297448
              ],
              [
                106.77246,
                17.298234
              ],
              [
                106.772139,
                17.298495
              ],
              [
                106.771835,
                17.299037
              ],
              [
                106.771692,
                17.299414
              ],
              [
                106.771579,
                17.299893
              ],
              [
                106.771483,
                17.300026
              ],
              [
                106.771405,
                17.300111
              ],
              [
                106.771329,
                17.300327
              ],
              [
                106.771185,
                17.300526
              ],
              [
                106.770964,
                17.300903
              ],
              [
                106.770942,
                17.300958
              ],
              [
                106.770706,
                17.301569
              ],
              [
                106.770597,
                17.30173
              ],
              [
                106.770021,
                17.30217
              ],
              [
                106.768363,
                17.303359
              ],
              [
                106.767826,
                17.303914
              ],
              [
                106.767604,
                17.304142
              ],
              [
                106.767384,
                17.304567
              ],
              [
                106.767247,
                17.305531
              ],
              [
                106.767189,
                17.305666
              ],
              [
                106.767148,
                17.305749
              ],
              [
                106.767094,
                17.305832
              ],
              [
                106.767034,
                17.305902
              ],
              [
                106.767001,
                17.30594
              ],
              [
                106.766787,
                17.306116
              ],
              [
                106.766564,
                17.306298
              ],
              [
                106.766276,
                17.306531
              ],
              [
                106.765474,
                17.307142
              ],
              [
                106.765159,
                17.307381
              ],
              [
                106.764991,
                17.307516
              ],
              [
                106.764475,
                17.30793
              ],
              [
                106.763163,
                17.308983
              ],
              [
                106.763036,
                17.309712
              ],
              [
                106.762774,
                17.310335
              ],
              [
                106.762179,
                17.311026
              ],
              [
                106.761164,
                17.311697
              ],
              [
                106.760336,
                17.311881
              ],
              [
                106.760026,
                17.312008
              ],
              [
                106.759272,
                17.312464
              ],
              [
                106.758453,
                17.31305
              ],
              [
                106.757503,
                17.313544
              ],
              [
                106.756494,
                17.313978
              ],
              [
                106.755777,
                17.314524
              ],
              [
                106.755463,
                17.314763
              ],
              [
                106.755907,
                17.319145
              ],
              [
                106.735123,
                17.333509
              ],
              [
                106.726698,
                17.319308
              ],
              [
                106.726631,
                17.319212
              ],
              [
                106.726306,
                17.318751
              ],
              [
                106.726031,
                17.318598
              ],
              [
                106.725694,
                17.318529
              ],
              [
                106.725455,
                17.318554
              ],
              [
                106.725321,
                17.318569
              ],
              [
                106.725,
                17.318585
              ],
              [
                106.724892,
                17.31859
              ],
              [
                106.724701,
                17.318592
              ],
              [
                106.724687,
                17.318592
              ],
              [
                106.724674,
                17.318589
              ],
              [
                106.724559,
                17.318563
              ],
              [
                106.724478,
                17.318301
              ],
              [
                106.72441,
                17.317722
              ],
              [
                106.724358,
                17.317477
              ],
              [
                106.724312,
                17.31729
              ],
              [
                106.724308,
                17.317065
              ],
              [
                106.724322,
                17.316888
              ],
              [
                106.724336,
                17.316773
              ],
              [
                106.7243,
                17.316683
              ],
              [
                106.724113,
                17.316412
              ],
              [
                106.723926,
                17.316084
              ],
              [
                106.723569,
                17.31568
              ],
              [
                106.722934,
                17.314994
              ],
              [
                106.723651,
                17.314539
              ],
              [
                106.723456,
                17.314444
              ],
              [
                106.723353,
                17.314284
              ],
              [
                106.72331,
                17.314217
              ],
              [
                106.723079,
                17.313856
              ],
              [
                106.72288,
                17.313546
              ],
              [
                106.722205,
                17.312667
              ],
              [
                106.721887,
                17.31222
              ],
              [
                106.7217,
                17.311925
              ],
              [
                106.721392,
                17.311512
              ],
              [
                106.72092,
                17.311069
              ],
              [
                106.720748,
                17.310907
              ],
              [
                106.720703,
                17.310865
              ],
              [
                106.72039,
                17.310567
              ],
              [
                106.719783,
                17.310013
              ],
              [
                106.720623,
                17.308513
              ],
              [
                106.721205,
                17.307526
              ],
              [
                106.721796,
                17.306596
              ],
              [
                106.721933,
                17.306317
              ],
              [
                106.721752,
                17.306147
              ],
              [
                106.721471,
                17.305901
              ],
              [
                106.721228,
                17.305728
              ],
              [
                106.721116,
                17.305705
              ],
              [
                106.721113,
                17.305705
              ],
              [
                106.720842,
                17.305749
              ],
              [
                106.7206,
                17.305787
              ],
              [
                106.720407,
                17.305812
              ],
              [
                106.720264,
                17.305808
              ],
              [
                106.719977,
                17.305721
              ],
              [
                106.719733,
                17.305573
              ],
              [
                106.719506,
                17.3053
              ],
              [
                106.719083,
                17.304545
              ],
              [
                106.718835,
                17.304039
              ],
              [
                106.718802,
                17.303836
              ],
              [
                106.718813,
                17.303645
              ],
              [
                106.718861,
                17.303435
              ],
              [
                106.718871,
                17.303323
              ],
              [
                106.718882,
                17.30321
              ],
              [
                106.718813,
                17.302993
              ],
              [
                106.718598,
                17.30266
              ],
              [
                106.718221,
                17.302233
              ],
              [
                106.717981,
                17.301877
              ],
              [
                106.71794,
                17.301736
              ],
              [
                106.714328,
                17.29509
              ],
              [
                106.707735,
                17.299542
              ],
              [
                106.701017,
                17.301872
              ],
              [
                106.699526,
                17.302166
              ],
              [
                106.698942,
                17.30229
              ],
              [
                106.69857,
                17.302419
              ],
              [
                106.697777,
                17.302707
              ],
              [
                106.696927,
                17.303007
              ],
              [
                106.696105,
                17.303309
              ],
              [
                106.695927,
                17.303385
              ],
              [
                106.696139,
                17.304064
              ],
              [
                106.696366,
                17.305157
              ],
              [
                106.696535,
                17.306226
              ],
              [
                106.696622,
                17.306991
              ],
              [
                106.697219,
                17.307029
              ],
              [
                106.69738,
                17.307137
              ],
              [
                106.697665,
                17.307809
              ],
              [
                106.697797,
                17.308176
              ],
              [
                106.697954,
                17.308376
              ],
              [
                106.698195,
                17.308617
              ],
              [
                106.698236,
                17.30877
              ],
              [
                106.698242,
                17.308937
              ],
              [
                106.698026,
                17.309207
              ],
              [
                106.697775,
                17.309515
              ],
              [
                106.697588,
                17.30977
              ],
              [
                106.696923,
                17.310574
              ],
              [
                106.696801,
                17.310786
              ],
              [
                106.696699,
                17.311117
              ],
              [
                106.696622,
                17.311873
              ],
              [
                106.69667,
                17.312434
              ],
              [
                106.695894,
                17.312352
              ],
              [
                106.695546,
                17.31242
              ],
              [
                106.694962,
                17.312497
              ],
              [
                106.693986,
                17.312613
              ],
              [
                106.692643,
                17.312762
              ],
              [
                106.690905,
                17.313165
              ],
              [
                106.689228,
                17.313538
              ],
              [
                106.688066,
                17.313715
              ],
              [
                106.686724,
                17.313911
              ],
              [
                106.685083,
                17.31411
              ],
              [
                106.684263,
                17.314231
              ],
              [
                106.683708,
                17.314384
              ],
              [
                106.683671,
                17.315994
              ],
              [
                106.68365,
                17.316401
              ],
              [
                106.68344,
                17.31657
              ],
              [
                106.683391,
                17.316696
              ],
              [
                106.683405,
                17.316881
              ],
              [
                106.683589,
                17.317196
              ],
              [
                106.683597,
                17.317411
              ],
              [
                106.683451,
                17.317777
              ],
              [
                106.683185,
                17.317989
              ],
              [
                106.682956,
                17.318146
              ],
              [
                106.682865,
                17.318344
              ],
              [
                106.682849,
                17.318619
              ],
              [
                106.682946,
                17.319102
              ],
              [
                106.683199,
                17.320146
              ],
              [
                106.683451,
                17.321221
              ],
              [
                106.683513,
                17.32149
              ],
              [
                106.682545,
                17.32187
              ],
              [
                106.681628,
                17.321811
              ],
              [
                106.681466,
                17.322965
              ],
              [
                106.679757,
                17.323048
              ],
              [
                106.678719,
                17.323086
              ],
              [
                106.67851,
                17.323102
              ],
              [
                106.678202,
                17.323172
              ],
              [
                106.678028,
                17.323255
              ],
              [
                106.677356,
                17.323671
              ],
              [
                106.676296,
                17.323688
              ],
              [
                106.676496,
                17.323087
              ],
              [
                106.674346,
                17.3231
              ],
              [
                106.673302,
                17.323089
              ],
              [
                106.671143,
                17.323035
              ],
              [
                106.670486,
                17.323021
              ],
              [
                106.670511,
                17.323995
              ],
              [
                106.670328,
                17.32401
              ],
              [
                106.669964,
                17.323987
              ],
              [
                106.669955,
                17.324164
              ],
              [
                106.668882,
                17.324076
              ],
              [
                106.668847,
                17.324777
              ],
              [
                106.668419,
                17.324782
              ],
              [
                106.668406,
                17.324931
              ],
              [
                106.667454,
                17.3247
              ],
              [
                106.665986,
                17.324275
              ],
              [
                106.665768,
                17.32484
              ],
              [
                106.666628,
                17.325259
              ],
              [
                106.667597,
                17.325736
              ],
              [
                106.667171,
                17.327389
              ],
              [
                106.667184,
                17.327405
              ],
              [
                106.667508,
                17.327815
              ],
              [
                106.667822,
                17.328214
              ],
              [
                106.667549,
                17.329208
              ],
              [
                106.667309,
                17.33019
              ],
              [
                106.667098,
                17.330999
              ],
              [
                106.666749,
                17.332239
              ],
              [
                106.666712,
                17.332371
              ],
              [
                106.666579,
                17.332868
              ],
              [
                106.66654,
                17.333013
              ],
              [
                106.666309,
                17.333877
              ],
              [
                106.666286,
                17.333962
              ],
              [
                106.666125,
                17.334431
              ],
              [
                106.666102,
                17.334499
              ],
              [
                106.665907,
                17.334955
              ],
              [
                106.66573,
                17.335243
              ],
              [
                106.665597,
                17.335374
              ],
              [
                106.665384,
                17.335538
              ],
              [
                106.665187,
                17.335674
              ],
              [
                106.664715,
                17.33584
              ],
              [
                106.663394,
                17.336238
              ],
              [
                106.662754,
                17.336444
              ],
              [
                106.661708,
                17.336965
              ],
              [
                106.661233,
                17.337222
              ],
              [
                106.660624,
                17.337766
              ],
              [
                106.660539,
                17.337961
              ],
              [
                106.660551,
                17.337985
              ],
              [
                106.660305,
                17.338086
              ],
              [
                106.660193,
                17.338123
              ],
              [
                106.659984,
                17.338181
              ],
              [
                106.659983,
                17.338183
              ],
              [
                106.659979,
                17.338341
              ],
              [
                106.659951,
                17.338612
              ],
              [
                106.659949,
                17.338626
              ],
              [
                106.659926,
                17.338863
              ],
              [
                106.659894,
                17.339206
              ],
              [
                106.659822,
                17.339593
              ],
              [
                106.65978,
                17.339842
              ],
              [
                106.659737,
                17.340089
              ],
              [
                106.659709,
                17.34023
              ],
              [
                106.659714,
                17.34027
              ],
              [
                106.659715,
                17.340273
              ],
              [
                106.660004,
                17.340522
              ],
              [
                106.660261,
                17.340734
              ],
              [
                106.660581,
                17.34099
              ],
              [
                106.660648,
                17.341043
              ],
              [
                106.660912,
                17.341253
              ],
              [
                106.661168,
                17.341469
              ],
              [
                106.66121,
                17.341504
              ],
              [
                106.661232,
                17.341527
              ],
              [
                106.660791,
                17.342509
              ],
              [
                106.660744,
                17.342614
              ],
              [
                106.660393,
                17.343413
              ],
              [
                106.660344,
                17.343523
              ],
              [
                106.660024,
                17.344272
              ],
              [
                106.659776,
                17.344836
              ],
              [
                106.659501,
                17.345469
              ],
              [
                106.659491,
                17.345468
              ],
              [
                106.659198,
                17.345989
              ],
              [
                106.658959,
                17.346413
              ],
              [
                106.658497,
                17.34737
              ],
              [
                106.657523,
                17.347025
              ],
              [
                106.656732,
                17.346741
              ],
              [
                106.655926,
                17.34643
              ],
              [
                106.655181,
                17.346142
              ],
              [
                106.654118,
                17.345813
              ],
              [
                106.65314,
                17.345653
              ],
              [
                106.651863,
                17.345517
              ],
              [
                106.649563,
                17.345775
              ],
              [
                106.645142,
                17.346995
              ],
              [
                106.64271,
                17.348044
              ],
              [
                106.643042,
                17.348634
              ],
              [
                106.643068,
                17.348681
              ],
              [
                106.643133,
                17.348796
              ],
              [
                106.643488,
                17.349456
              ],
              [
                106.643657,
                17.349816
              ],
              [
                106.643802,
                17.350124
              ],
              [
                106.643932,
                17.350381
              ],
              [
                106.643984,
                17.350483
              ],
              [
                106.644115,
                17.350742
              ],
              [
                106.644173,
                17.350761
              ],
              [
                106.644379,
                17.350828
              ],
              [
                106.644516,
                17.35087
              ],
              [
                106.644602,
                17.350925
              ],
              [
                106.644605,
                17.350963
              ],
              [
                106.644613,
                17.351035
              ],
              [
                106.644605,
                17.351255
              ],
              [
                106.644603,
                17.351271
              ],
              [
                106.644588,
                17.35146
              ],
              [
                106.644325,
                17.352679
              ],
              [
                106.644166,
                17.35323
              ],
              [
                106.643993,
                17.354199
              ],
              [
                106.643984,
                17.354297
              ],
              [
                106.643994,
                17.35433
              ],
              [
                106.64401,
                17.354343
              ],
              [
                106.644009,
                17.354349
              ],
              [
                106.64402,
                17.354351
              ],
              [
                106.64406,
                17.354357
              ],
              [
                106.644818,
                17.354485
              ],
              [
                106.64587,
                17.354669
              ],
              [
                106.64596,
                17.354681
              ],
              [
                106.647117,
                17.354838
              ],
              [
                106.648391,
                17.355051
              ],
              [
                106.648407,
                17.354972
              ],
              [
                106.648437,
                17.354976
              ],
              [
                106.648464,
                17.354934
              ],
              [
                106.648467,
                17.354962
              ],
              [
                106.648493,
                17.354977
              ],
              [
                106.649618,
                17.355114
              ],
              [
                106.649613,
                17.355131
              ],
              [
                106.649589,
                17.355276
              ],
              [
                106.649448,
                17.355825
              ],
              [
                106.649218,
                17.356973
              ],
              [
                106.648966,
                17.358335
              ],
              [
                106.648908,
                17.35854
              ],
              [
                106.648902,
                17.358567
              ],
              [
                106.6489,
                17.358575
              ],
              [
                106.64858,
                17.360516
              ],
              [
                106.64783,
                17.360409
              ],
              [
                106.647778,
                17.360402
              ],
              [
                106.647537,
                17.361955
              ],
              [
                106.64707,
                17.365421
              ],
              [
                106.646891,
                17.366501
              ],
              [
                106.646961,
                17.366526
              ],
              [
                106.651011,
                17.368196
              ],
              [
                106.652517,
                17.368837
              ],
              [
                106.652158,
                17.369701
              ],
              [
                106.65255,
                17.369845
              ],
              [
                106.6535,
                17.3702
              ],
              [
                106.65348,
                17.370376
              ],
              [
                106.655144,
                17.370919
              ],
              [
                106.654953,
                17.371551
              ],
              [
                106.654989,
                17.371559
              ],
              [
                106.657368,
                17.372496
              ],
              [
                106.65748,
                17.372239
              ],
              [
                106.658755,
                17.372876
              ],
              [
                106.658391,
                17.373283
              ],
              [
                106.657858,
                17.373852
              ],
              [
                106.658045,
                17.373993
              ],
              [
                106.658054,
                17.374
              ],
              [
                106.65814,
                17.374065
              ],
              [
                106.658411,
                17.37428
              ],
              [
                106.658662,
                17.374533
              ],
              [
                106.658779,
                17.374651
              ],
              [
                106.659267,
                17.37441
              ],
              [
                106.659579,
                17.374216
              ],
              [
                106.659721,
                17.374001
              ],
              [
                106.659725,
                17.373993
              ],
              [
                106.659809,
                17.373935
              ],
              [
                106.660156,
                17.373726
              ],
              [
                106.660397,
                17.373558
              ],
              [
                106.660939,
                17.373993
              ],
              [
                106.660949,
                17.374001
              ],
              [
                106.661033,
                17.374069
              ],
              [
                106.661731,
                17.37464
              ],
              [
                106.662434,
                17.375204
              ],
              [
                106.66287,
                17.375472
              ],
              [
                106.663899,
                17.376438
              ],
              [
                106.664009,
                17.376532
              ],
              [
                106.664624,
                17.376073
              ],
              [
                106.66502,
                17.375759
              ],
              [
                106.665199,
                17.375579
              ],
              [
                106.665302,
                17.375327
              ],
              [
                106.666069,
                17.374001
              ],
              [
                106.666074,
                17.373993
              ],
              [
                106.666344,
                17.373531
              ],
              [
                106.666679,
                17.373036
              ],
              [
                106.666591,
                17.37297
              ],
              [
                106.666442,
                17.372876
              ],
              [
                106.666474,
                17.372604
              ],
              [
                106.666538,
                17.372439
              ],
              [
                106.666625,
                17.372195
              ],
              [
                106.666787,
                17.371881
              ],
              [
                106.666956,
                17.371578
              ],
              [
                106.66718,
                17.371187
              ],
              [
                106.667301,
                17.371225
              ],
              [
                106.667399,
                17.371195
              ],
              [
                106.667484,
                17.371174
              ],
              [
                106.667516,
                17.371167
              ],
              [
                106.667571,
                17.371188
              ],
              [
                106.667678,
                17.370863
              ],
              [
                106.668253,
                17.369976
              ],
              [
                106.66862,
                17.369262
              ],
              [
                106.6689,
                17.368889
              ],
              [
                106.668928,
                17.368851
              ],
              [
                106.668967,
                17.3688
              ],
              [
                106.669519,
                17.368424
              ],
              [
                106.669606,
                17.368356
              ],
              [
                106.669838,
                17.368206
              ],
              [
                106.669929,
                17.368132
              ],
              [
                106.670013,
                17.368044
              ],
              [
                106.670125,
                17.367922
              ],
              [
                106.670233,
                17.367753
              ],
              [
                106.672101,
                17.368255
              ],
              [
                106.67312,
                17.36859
              ],
              [
                106.675283,
                17.369892
              ],
              [
                106.678703,
                17.37147
              ],
              [
                106.683942,
                17.373488
              ],
              [
                106.685249,
                17.373991
              ],
              [
                106.685279,
                17.374003
              ],
              [
                106.685279,
                17.374003
              ],
              [
                106.685279,
                17.374003
              ]
            ]
          ]
        ]
      },
      "properties": {
        "code": "19225",
        "name": "Ninh Châu",
        "nameEn": "Ninh Chau",
        "fullName": "Xã Ninh Châu",
        "fullNameEn": "Ninh Chau Commune",
        "codeName": "ninh_chau",
        "postalCode": "47722",
        "postalCodePrefix": "",
        "gisServerId": "diaphanhanhchinhcapxa_2025.629",
        "areaKm2": 86.03
      }
    }
  ]
}