{
  "type": "FeatureCollection",
  "bbox": [
    106.607565,
    17.237447,
    106.714328,
    17.351379
  ],
  "features": [
    {
      "type": "Feature",
      "id": "19237",
      "bbox": [
        106.607565,
        17.237447,
        106.714328,
        17.351379
      ],
      "geometry": {
        "type": "MultiPolygon",
        "coordinates": [
          [
            [
              [
                106.64271,
                17.348044
              ],
              [
                106.645142,
                17.346995
              ],
              [
                106.649563,
                17.345775
              ],
              [
                106.651863,
                17.345517
              ],
              [
                106.65314,
                17.345653
              ],
              [
                106.654118,
                17.345813
              ],
              [
                106.655181,
                17.346142
              ],
              [
                106.655926,
                17.34643
              ],
              [
                106.656732,
                17.346741
              ],
              [
                106.657523,
                17.347025
              ],
              [
                106.658497,
                17.34737
              ],
              [
                106.658959,
                17.346413
              ],
              [
                106.659198,
                17.345989
              ],
              [
                106.659491,
                17.345468
              ],
              [
                106.659501,
                17.345469
              ],
              [
                106.659776,
                17.344836
              ],
              [
                106.660024,
                17.344272
              ],
              [
                106.660344,
                17.343523
              ],
              [
                106.660393,
                17.343413
              ],
              [
                106.660744,
                17.342614
              ],
              [
                106.660791,
                17.342509
              ],
              [
                106.661232,
                17.341527
              ],
              [
                106.66121,
                17.341504
              ],
              [
                106.661168,
                17.341469
              ],
              [
                106.660912,
                17.341253
              ],
              [
                106.660648,
                17.341043
              ],
              [
                106.660581,
                17.34099
              ],
              [
                106.660261,
                17.340734
              ],
              [
                106.660004,
                17.340522
              ],
              [
                106.659715,
                17.340273
              ],
              [
                106.659714,
                17.34027
              ],
              [
                106.659709,
                17.34023
              ],
              [
                106.659737,
                17.340089
              ],
              [
                106.65978,
                17.339842
              ],
              [
                106.659822,
                17.339593
              ],
              [
                106.659894,
                17.339206
              ],
              [
                106.659926,
                17.338863
              ],
              [
                106.659949,
                17.338626
              ],
              [
                106.659951,
                17.338612
              ],
              [
                106.659979,
                17.338341
              ],
              [
                106.659983,
                17.338183
              ],
              [
                106.659984,
                17.338181
              ],
              [
                106.660193,
                17.338123
              ],
              [
                106.660305,
                17.338086
              ],
              [
                106.660551,
                17.337985
              ],
              [
                106.660539,
                17.337961
              ],
              [
                106.660624,
                17.337766
              ],
              [
                106.661233,
                17.337222
              ],
              [
                106.661708,
                17.336965
              ],
              [
                106.662754,
                17.336444
              ],
              [
                106.663394,
                17.336238
              ],
              [
                106.664715,
                17.33584
              ],
              [
                106.665187,
                17.335674
              ],
              [
                106.665384,
                17.335538
              ],
              [
                106.665597,
                17.335374
              ],
              [
                106.66573,
                17.335243
              ],
              [
                106.665907,
                17.334955
              ],
              [
                106.666102,
                17.334499
              ],
              [
                106.666125,
                17.334431
              ],
              [
                106.666286,
                17.333962
              ],
              [
                106.666309,
                17.333877
              ],
              [
                106.66654,
                17.333013
              ],
              [
                106.666579,
                17.332868
              ],
              [
                106.666712,
                17.332371
              ],
              [
                106.666749,
                17.332239
              ],
              [
                106.667098,
                17.330999
              ],
              [
                106.667309,
                17.33019
              ],
              [
                106.667549,
                17.329208
              ],
              [
                106.667822,
                17.328214
              ],
              [
                106.667508,
                17.327815
              ],
              [
                106.667184,
                17.327405
              ],
              [
                106.667171,
                17.327389
              ],
              [
                106.667597,
                17.325736
              ],
              [
                106.666628,
                17.325259
              ],
              [
                106.665768,
                17.32484
              ],
              [
                106.665986,
                17.324275
              ],
              [
                106.667454,
                17.3247
              ],
              [
                106.668406,
                17.324931
              ],
              [
                106.668419,
                17.324782
              ],
              [
                106.668847,
                17.324777
              ],
              [
                106.668882,
                17.324076
              ],
              [
                106.669955,
                17.324164
              ],
              [
                106.669964,
                17.323987
              ],
              [
                106.670328,
                17.32401
              ],
              [
                106.670511,
                17.323995
              ],
              [
                106.670486,
                17.323021
              ],
              [
                106.671143,
                17.323035
              ],
              [
                106.673302,
                17.323089
              ],
              [
                106.674346,
                17.3231
              ],
              [
                106.676496,
                17.323087
              ],
              [
                106.676296,
                17.323688
              ],
              [
                106.677356,
                17.323671
              ],
              [
                106.678028,
                17.323255
              ],
              [
                106.678202,
                17.323172
              ],
              [
                106.67851,
                17.323102
              ],
              [
                106.678719,
                17.323086
              ],
              [
                106.679757,
                17.323048
              ],
              [
                106.681466,
                17.322965
              ],
              [
                106.681628,
                17.321811
              ],
              [
                106.682545,
                17.32187
              ],
              [
                106.683513,
                17.32149
              ],
              [
                106.683451,
                17.321221
              ],
              [
                106.683199,
                17.320146
              ],
              [
                106.682946,
                17.319102
              ],
              [
                106.682849,
                17.318619
              ],
              [
                106.682865,
                17.318344
              ],
              [
                106.682956,
                17.318146
              ],
              [
                106.683185,
                17.317989
              ],
              [
                106.683451,
                17.317777
              ],
              [
                106.683597,
                17.317411
              ],
              [
                106.683589,
                17.317196
              ],
              [
                106.683405,
                17.316881
              ],
              [
                106.683391,
                17.316696
              ],
              [
                106.68344,
                17.31657
              ],
              [
                106.68365,
                17.316401
              ],
              [
                106.683671,
                17.315994
              ],
              [
                106.683708,
                17.314384
              ],
              [
                106.684263,
                17.314231
              ],
              [
                106.685083,
                17.31411
              ],
              [
                106.686724,
                17.313911
              ],
              [
                106.688066,
                17.313715
              ],
              [
                106.689228,
                17.313538
              ],
              [
                106.690905,
                17.313165
              ],
              [
                106.692643,
                17.312762
              ],
              [
                106.693986,
                17.312613
              ],
              [
                106.694962,
                17.312497
              ],
              [
                106.695546,
                17.31242
              ],
              [
                106.695894,
                17.312352
              ],
              [
                106.69667,
                17.312434
              ],
              [
                106.696622,
                17.311873
              ],
              [
                106.696699,
                17.311117
              ],
              [
                106.696801,
                17.310786
              ],
              [
                106.696923,
                17.310574
              ],
              [
                106.697588,
                17.30977
              ],
              [
                106.697775,
                17.309515
              ],
              [
                106.698026,
                17.309207
              ],
              [
                106.698242,
                17.308937
              ],
              [
                106.698236,
                17.30877
              ],
              [
                106.698195,
                17.308617
              ],
              [
                106.697954,
                17.308376
              ],
              [
                106.697797,
                17.308176
              ],
              [
                106.697665,
                17.307809
              ],
              [
                106.69738,
                17.307137
              ],
              [
                106.697219,
                17.307029
              ],
              [
                106.696622,
                17.306991
              ],
              [
                106.696535,
                17.306226
              ],
              [
                106.696366,
                17.305157
              ],
              [
                106.696139,
                17.304064
              ],
              [
                106.695927,
                17.303385
              ],
              [
                106.696105,
                17.303309
              ],
              [
                106.696927,
                17.303007
              ],
              [
                106.697777,
                17.302707
              ],
              [
                106.69857,
                17.302419
              ],
              [
                106.698942,
                17.30229
              ],
              [
                106.699526,
                17.302166
              ],
              [
                106.701017,
                17.301872
              ],
              [
                106.707735,
                17.299542
              ],
              [
                106.714328,
                17.29509
              ],
              [
                106.713627,
                17.287106
              ],
              [
                106.713527,
                17.286601
              ],
              [
                106.712362,
                17.280697
              ],
              [
                106.712186,
                17.280696
              ],
              [
                106.71202,
                17.280695
              ],
              [
                106.711074,
                17.280536
              ],
              [
                106.710092,
                17.280372
              ],
              [
                106.709544,
                17.280271
              ],
              [
                106.709541,
                17.280271
              ],
              [
                106.708483,
                17.280077
              ],
              [
                106.707008,
                17.27983
              ],
              [
                106.706333,
                17.279747
              ],
              [
                106.706125,
                17.279708
              ],
              [
                106.706023,
                17.279689
              ],
              [
                106.705368,
                17.280355
              ],
              [
                106.701914,
                17.279822
              ],
              [
                106.701732,
                17.279952
              ],
              [
                106.69848,
                17.277859
              ],
              [
                106.69844,
                17.277833
              ],
              [
                106.698443,
                17.277734
              ],
              [
                106.698426,
                17.277514
              ],
              [
                106.698425,
                17.277356
              ],
              [
                106.698443,
                17.277188
              ],
              [
                106.698501,
                17.277011
              ],
              [
                106.698604,
                17.276809
              ],
              [
                106.698685,
                17.276668
              ],
              [
                106.698755,
                17.276602
              ],
              [
                106.698369,
                17.27633
              ],
              [
                106.69813,
                17.276117
              ],
              [
                106.697842,
                17.275839
              ],
              [
                106.697478,
                17.275561
              ],
              [
                106.697102,
                17.275211
              ],
              [
                106.696537,
                17.27466
              ],
              [
                106.696191,
                17.274301
              ],
              [
                106.696083,
                17.27432
              ],
              [
                106.695759,
                17.274423
              ],
              [
                106.695488,
                17.274565
              ],
              [
                106.695109,
                17.274708
              ],
              [
                106.695004,
                17.274716
              ],
              [
                106.694952,
                17.274713
              ],
              [
                106.694881,
                17.274678
              ],
              [
                106.694787,
                17.274625
              ],
              [
                106.694686,
                17.274604
              ],
              [
                106.694524,
                17.274564
              ],
              [
                106.694514,
                17.27461
              ],
              [
                106.694453,
                17.274748
              ],
              [
                106.694324,
                17.274857
              ],
              [
                106.694032,
                17.274931
              ],
              [
                106.693865,
                17.274959
              ],
              [
                106.69359,
                17.274593
              ],
              [
                106.693486,
                17.274462
              ],
              [
                106.693381,
                17.274361
              ],
              [
                106.693225,
                17.274222
              ],
              [
                106.693127,
                17.274157
              ],
              [
                106.693023,
                17.274106
              ],
              [
                106.692903,
                17.274076
              ],
              [
                106.692896,
                17.274074
              ],
              [
                106.692903,
                17.273998
              ],
              [
                106.69287,
                17.273807
              ],
              [
                106.692743,
                17.273486
              ],
              [
                106.69271,
                17.273357
              ],
              [
                106.692567,
                17.272264
              ],
              [
                106.692167,
                17.270568
              ],
              [
                106.69115,
                17.268582
              ],
              [
                106.688701,
                17.26761
              ],
              [
                106.687877,
                17.267218
              ],
              [
                106.688174,
                17.266602
              ],
              [
                106.688333,
                17.266548
              ],
              [
                106.688333,
                17.266547
              ],
              [
                106.688278,
                17.266429
              ],
              [
                106.687517,
                17.265339
              ],
              [
                106.686198,
                17.265226
              ],
              [
                106.68329,
                17.265441
              ],
              [
                106.683231,
                17.265547
              ],
              [
                106.682185,
                17.264789
              ],
              [
                106.682179,
                17.264784
              ],
              [
                106.682225,
                17.264709
              ],
              [
                106.683167,
                17.263204
              ],
              [
                106.684312,
                17.26188
              ],
              [
                106.68494,
                17.261025
              ],
              [
                106.685113,
                17.26079
              ],
              [
                106.68482,
                17.260599
              ],
              [
                106.684099,
                17.260024
              ],
              [
                106.683629,
                17.259683
              ],
              [
                106.682847,
                17.259034
              ],
              [
                106.68217,
                17.258501
              ],
              [
                106.681603,
                17.258069
              ],
              [
                106.681343,
                17.257856
              ],
              [
                106.681091,
                17.257671
              ],
              [
                106.68094,
                17.257493
              ],
              [
                106.680782,
                17.257304
              ],
              [
                106.680479,
                17.256776
              ],
              [
                106.680115,
                17.25618
              ],
              [
                106.679736,
                17.255509
              ],
              [
                106.679079,
                17.254353
              ],
              [
                106.678784,
                17.253828
              ],
              [
                106.678397,
                17.253175
              ],
              [
                106.678169,
                17.252722
              ],
              [
                106.677915,
                17.252272
              ],
              [
                106.677535,
                17.251561
              ],
              [
                106.677452,
                17.251462
              ],
              [
                106.677023,
                17.250651
              ],
              [
                106.676077,
                17.249002
              ],
              [
                106.676071,
                17.248992
              ],
              [
                106.675408,
                17.247705
              ],
              [
                106.675188,
                17.247291
              ],
              [
                106.674814,
                17.245558
              ],
              [
                106.674309,
                17.243396
              ],
              [
                106.673893,
                17.241436
              ],
              [
                106.672788,
                17.241934
              ],
              [
                106.671995,
                17.2423
              ],
              [
                106.67155,
                17.24259
              ],
              [
                106.671315,
                17.242783
              ],
              [
                106.670424,
                17.243575
              ],
              [
                106.670309,
                17.243668
              ],
              [
                106.670288,
                17.243654
              ],
              [
                106.670002,
                17.242853
              ],
              [
                106.6697,
                17.242941
              ],
              [
                106.669557,
                17.242584
              ],
              [
                106.669115,
                17.242736
              ],
              [
                106.66906,
                17.24266
              ],
              [
                106.668658,
                17.242802
              ],
              [
                106.669085,
                17.243726
              ],
              [
                106.66901,
                17.243765
              ],
              [
                106.669071,
                17.243927
              ],
              [
                106.668441,
                17.244104
              ],
              [
                106.668386,
                17.244076
              ],
              [
                106.667404,
                17.244433
              ],
              [
                106.667379,
                17.244462
              ],
              [
                106.667572,
                17.2449
              ],
              [
                106.667597,
                17.244919
              ],
              [
                106.668012,
                17.244586
              ],
              [
                106.668057,
                17.244581
              ],
              [
                106.668491,
                17.245163
              ],
              [
                106.668557,
                17.245109
              ],
              [
                106.668856,
                17.245425
              ],
              [
                106.669013,
                17.245687
              ],
              [
                106.669398,
                17.246468
              ],
              [
                106.669465,
                17.246783
              ],
              [
                106.669479,
                17.247583
              ],
              [
                106.669275,
                17.247505
              ],
              [
                106.668746,
                17.247308
              ],
              [
                106.668232,
                17.247155
              ],
              [
                106.668028,
                17.248992
              ],
              [
                106.668027,
                17.249001
              ],
              [
                106.667809,
                17.250192
              ],
              [
                106.667703,
                17.250769
              ],
              [
                106.667549,
                17.250746
              ],
              [
                106.667231,
                17.252587
              ],
              [
                106.666849,
                17.252491
              ],
              [
                106.66593,
                17.252275
              ],
              [
                106.665509,
                17.252174
              ],
              [
                106.665338,
                17.252142
              ],
              [
                106.664543,
                17.251952
              ],
              [
                106.664094,
                17.25186
              ],
              [
                106.663864,
                17.251805
              ],
              [
                106.663633,
                17.25175
              ],
              [
                106.663374,
                17.25168
              ],
              [
                106.663098,
                17.251649
              ],
              [
                106.663007,
                17.251625
              ],
              [
                106.658849,
                17.250531
              ],
              [
                106.656529,
                17.248999
              ],
              [
                106.654828,
                17.247047
              ],
              [
                106.654716,
                17.246839
              ],
              [
                106.654613,
                17.246648
              ],
              [
                106.654306,
                17.246066
              ],
              [
                106.65423,
                17.2461
              ],
              [
                106.652737,
                17.246941
              ],
              [
                106.652411,
                17.246542
              ],
              [
                106.651424,
                17.245124
              ],
              [
                106.650442,
                17.243717
              ],
              [
                106.649486,
                17.242335
              ],
              [
                106.648659,
                17.241149
              ],
              [
                106.647689,
                17.239768
              ],
              [
                106.647003,
                17.238776
              ],
              [
                106.646611,
                17.238158
              ],
              [
                106.64619,
                17.237522
              ],
              [
                106.646131,
                17.237447
              ],
              [
                106.646022,
                17.237454
              ],
              [
                106.645808,
                17.237489
              ],
              [
                106.645554,
                17.23758
              ],
              [
                106.645195,
                17.237769
              ],
              [
                106.644998,
                17.237962
              ],
              [
                106.644938,
                17.238142
              ],
              [
                106.644942,
                17.238675
              ],
              [
                106.644921,
                17.238954
              ],
              [
                106.644878,
                17.23914
              ],
              [
                106.644804,
                17.239313
              ],
              [
                106.644307,
                17.240182
              ],
              [
                106.643996,
                17.240655
              ],
              [
                106.643813,
                17.240852
              ],
              [
                106.643656,
                17.240973
              ],
              [
                106.643292,
                17.241317
              ],
              [
                106.643053,
                17.241655
              ],
              [
                106.642805,
                17.241943
              ],
              [
                106.642658,
                17.242087
              ],
              [
                106.642425,
                17.242216
              ],
              [
                106.641974,
                17.242378
              ],
              [
                106.641509,
                17.242618
              ],
              [
                106.641153,
                17.242846
              ],
              [
                106.641043,
                17.242965
              ],
              [
                106.640836,
                17.243304
              ],
              [
                106.640603,
                17.243657
              ],
              [
                106.640364,
                17.243906
              ],
              [
                106.640035,
                17.244287
              ],
              [
                106.639605,
                17.244747
              ],
              [
                106.639182,
                17.245167
              ],
              [
                106.639016,
                17.245329
              ],
              [
                106.638873,
                17.245514
              ],
              [
                106.638712,
                17.245726
              ],
              [
                106.638475,
                17.245955
              ],
              [
                106.63836,
                17.246054
              ],
              [
                106.637929,
                17.246522
              ],
              [
                106.637678,
                17.246859
              ],
              [
                106.637427,
                17.247249
              ],
              [
                106.637124,
                17.247667
              ],
              [
                106.637063,
                17.247784
              ],
              [
                106.636944,
                17.24818
              ],
              [
                106.636848,
                17.248577
              ],
              [
                106.636833,
                17.24863
              ],
              [
                106.636796,
                17.24873
              ],
              [
                106.636651,
                17.248935
              ],
              [
                106.63662,
                17.248992
              ],
              [
                106.63662,
                17.248992
              ],
              [
                106.636619,
                17.248996
              ],
              [
                106.636507,
                17.249372
              ],
              [
                106.636472,
                17.249667
              ],
              [
                106.636414,
                17.249818
              ],
              [
                106.636258,
                17.249941
              ],
              [
                106.636163,
                17.250114
              ],
              [
                106.636128,
                17.250415
              ],
              [
                106.636161,
                17.250774
              ],
              [
                106.636406,
                17.251452
              ],
              [
                106.636612,
                17.252771
              ],
              [
                106.636493,
                17.252901
              ],
              [
                106.636374,
                17.252952
              ],
              [
                106.63668,
                17.253081
              ],
              [
                106.635537,
                17.257371
              ],
              [
                106.638835,
                17.2651
              ],
              [
                106.641059,
                17.265421
              ],
              [
                106.640865,
                17.265996
              ],
              [
                106.641002,
                17.266103
              ],
              [
                106.641115,
                17.266233
              ],
              [
                106.641044,
                17.266605
              ],
              [
                106.640553,
                17.267326
              ],
              [
                106.640521,
                17.267972
              ],
              [
                106.64064,
                17.268783
              ],
              [
                106.640842,
                17.269069
              ],
              [
                106.641084,
                17.269653
              ],
              [
                106.641288,
                17.270237
              ],
              [
                106.641415,
                17.270499
              ],
              [
                106.641392,
                17.27081
              ],
              [
                106.641283,
                17.271157
              ],
              [
                106.641225,
                17.271528
              ],
              [
                106.641327,
                17.271874
              ],
              [
                106.641453,
                17.272088
              ],
              [
                106.642081,
                17.272752
              ],
              [
                106.64257,
                17.273119
              ],
              [
                106.642842,
                17.273175
              ],
              [
                106.642794,
                17.273289
              ],
              [
                106.642603,
                17.273577
              ],
              [
                106.642509,
                17.273688
              ],
              [
                106.642098,
                17.27395
              ],
              [
                106.641664,
                17.274403
              ],
              [
                106.641646,
                17.274422
              ],
              [
                106.641639,
                17.274451
              ],
              [
                106.641548,
                17.274728
              ],
              [
                106.641441,
                17.274901
              ],
              [
                106.641252,
                17.275089
              ],
              [
                106.641127,
                17.275233
              ],
              [
                106.640964,
                17.275425
              ],
              [
                106.640842,
                17.275508
              ],
              [
                106.640711,
                17.275531
              ],
              [
                106.640551,
                17.275554
              ],
              [
                106.640454,
                17.27559
              ],
              [
                106.640362,
                17.275692
              ],
              [
                106.640181,
                17.275908
              ],
              [
                106.6399,
                17.27619
              ],
              [
                106.639674,
                17.276432
              ],
              [
                106.639626,
                17.276533
              ],
              [
                106.639628,
                17.27668
              ],
              [
                106.639626,
                17.276863
              ],
              [
                106.639611,
                17.276903
              ],
              [
                106.639466,
                17.27699
              ],
              [
                106.639296,
                17.277167
              ],
              [
                106.63913,
                17.277401
              ],
              [
                106.639039,
                17.277603
              ],
              [
                106.639018,
                17.277818
              ],
              [
                106.639038,
                17.27798
              ],
              [
                106.639017,
                17.278062
              ],
              [
                106.638961,
                17.278138
              ],
              [
                106.638869,
                17.278236
              ],
              [
                106.638636,
                17.278456
              ],
              [
                106.638499,
                17.278637
              ],
              [
                106.638459,
                17.278753
              ],
              [
                106.638383,
                17.278978
              ],
              [
                106.638277,
                17.279327
              ],
              [
                106.638271,
                17.279453
              ],
              [
                106.637951,
                17.279272
              ],
              [
                106.63767,
                17.279083
              ],
              [
                106.63746,
                17.27897
              ],
              [
                106.637142,
                17.278954
              ],
              [
                106.636883,
                17.278975
              ],
              [
                106.636764,
                17.279014
              ],
              [
                106.636607,
                17.279283
              ],
              [
                106.636569,
                17.279513
              ],
              [
                106.636541,
                17.279752
              ],
              [
                106.636426,
                17.280174
              ],
              [
                106.636348,
                17.280414
              ],
              [
                106.63635,
                17.280643
              ],
              [
                106.636463,
                17.280977
              ],
              [
                106.636414,
                17.28114
              ],
              [
                106.636267,
                17.281352
              ],
              [
                106.636238,
                17.281495
              ],
              [
                106.63632,
                17.281695
              ],
              [
                106.636662,
                17.282133
              ],
              [
                106.636736,
                17.282572
              ],
              [
                106.636819,
                17.282992
              ],
              [
                106.636814,
                17.283537
              ],
              [
                106.636777,
                17.283872
              ],
              [
                106.636638,
                17.283731
              ],
              [
                106.636488,
                17.283646
              ],
              [
                106.636368,
                17.283597
              ],
              [
                106.636234,
                17.283584
              ],
              [
                106.63604,
                17.283636
              ],
              [
                106.635862,
                17.283773
              ],
              [
                106.635722,
                17.283983
              ],
              [
                106.635657,
                17.284234
              ],
              [
                106.635584,
                17.28435
              ],
              [
                106.635376,
                17.284459
              ],
              [
                106.635212,
                17.28451
              ],
              [
                106.634869,
                17.284578
              ],
              [
                106.634564,
                17.284717
              ],
              [
                106.634319,
                17.284876
              ],
              [
                106.634141,
                17.285007
              ],
              [
                106.634055,
                17.285042
              ],
              [
                106.634057,
                17.285266
              ],
              [
                106.634138,
                17.285361
              ],
              [
                106.634277,
                17.285379
              ],
              [
                106.634452,
                17.28543
              ],
              [
                106.634522,
                17.285525
              ],
              [
                106.634514,
                17.285664
              ],
              [
                106.634475,
                17.285793
              ],
              [
                106.634416,
                17.285866
              ],
              [
                106.634392,
                17.285938
              ],
              [
                106.634378,
                17.286067
              ],
              [
                106.634306,
                17.286431
              ],
              [
                106.634267,
                17.286522
              ],
              [
                106.634109,
                17.286657
              ],
              [
                106.633748,
                17.286918
              ],
              [
                106.633659,
                17.286924
              ],
              [
                106.633544,
                17.286901
              ],
              [
                106.633419,
                17.286844
              ],
              [
                106.633241,
                17.286937
              ],
              [
                106.633103,
                17.28712
              ],
              [
                106.633045,
                17.287268
              ],
              [
                106.633081,
                17.287402
              ],
              [
                106.633128,
                17.287674
              ],
              [
                106.633134,
                17.287832
              ],
              [
                106.633052,
                17.288076
              ],
              [
                106.632964,
                17.28824
              ],
              [
                106.63292,
                17.288407
              ],
              [
                106.632813,
                17.288652
              ],
              [
                106.632719,
                17.288777
              ],
              [
                106.632567,
                17.288955
              ],
              [
                106.632543,
                17.289075
              ],
              [
                106.632559,
                17.289242
              ],
              [
                106.632591,
                17.289409
              ],
              [
                106.632582,
                17.28961
              ],
              [
                106.63252,
                17.289912
              ],
              [
                106.632359,
                17.290098
              ],
              [
                106.6322,
                17.290374
              ],
              [
                106.632101,
                17.290691
              ],
              [
                106.63201,
                17.291418
              ],
              [
                106.631986,
                17.292092
              ],
              [
                106.632024,
                17.293039
              ],
              [
                106.63197,
                17.293675
              ],
              [
                106.631975,
                17.293886
              ],
              [
                106.632064,
                17.294088
              ],
              [
                106.632077,
                17.294208
              ],
              [
                106.632085,
                17.294321
              ],
              [
                106.632024,
                17.294537
              ],
              [
                106.631963,
                17.294681
              ],
              [
                106.63199,
                17.294878
              ],
              [
                106.631972,
                17.295004
              ],
              [
                106.631899,
                17.2951
              ],
              [
                106.63175,
                17.295209
              ],
              [
                106.631584,
                17.295372
              ],
              [
                106.631498,
                17.295504
              ],
              [
                106.631431,
                17.295707
              ],
              [
                106.631426,
                17.295881
              ],
              [
                106.631188,
                17.296275
              ],
              [
                106.630991,
                17.296544
              ],
              [
                106.630747,
                17.297072
              ],
              [
                106.63007,
                17.298178
              ],
              [
                106.629412,
                17.299045
              ],
              [
                106.629123,
                17.299346
              ],
              [
                106.628732,
                17.299834
              ],
              [
                106.628761,
                17.300119
              ],
              [
                106.62879,
                17.300919
              ],
              [
                106.628906,
                17.301216
              ],
              [
                106.628889,
                17.301571
              ],
              [
                106.628822,
                17.301669
              ],
              [
                106.628728,
                17.301694
              ],
              [
                106.628514,
                17.3017
              ],
              [
                106.628345,
                17.30174
              ],
              [
                106.628221,
                17.301827
              ],
              [
                106.628069,
                17.302029
              ],
              [
                106.627951,
                17.302264
              ],
              [
                106.627804,
                17.302476
              ],
              [
                106.627683,
                17.302758
              ],
              [
                106.6276,
                17.303071
              ],
              [
                106.627559,
                17.303487
              ],
              [
                106.627547,
                17.303822
              ],
              [
                106.62757,
                17.304204
              ],
              [
                106.627568,
                17.304544
              ],
              [
                106.627551,
                17.304629
              ],
              [
                106.627525,
                17.304754
              ],
              [
                106.627363,
                17.305028
              ],
              [
                106.627266,
                17.305216
              ],
              [
                106.627233,
                17.305503
              ],
              [
                106.627292,
                17.305899
              ],
              [
                106.627295,
                17.306194
              ],
              [
                106.627116,
                17.306849
              ],
              [
                106.62695,
                17.307379
              ],
              [
                106.626834,
                17.308044
              ],
              [
                106.626832,
                17.30805
              ],
              [
                106.626832,
                17.308053
              ],
              [
                106.626832,
                17.308057
              ],
              [
                106.626775,
                17.309068
              ],
              [
                106.62675,
                17.309726
              ],
              [
                106.626716,
                17.310115
              ],
              [
                106.626454,
                17.310745
              ],
              [
                106.626209,
                17.311177
              ],
              [
                106.625717,
                17.311587
              ],
              [
                106.625655,
                17.311618
              ],
              [
                106.625085,
                17.311945
              ],
              [
                106.624157,
                17.312868
              ],
              [
                106.624469,
                17.313563
              ],
              [
                106.624608,
                17.314092
              ],
              [
                106.624613,
                17.31458
              ],
              [
                106.624498,
                17.31514
              ],
              [
                106.624235,
                17.315759
              ],
              [
                106.623143,
                17.317346
              ],
              [
                106.622645,
                17.318369
              ],
              [
                106.622234,
                17.319204
              ],
              [
                106.622105,
                17.319793
              ],
              [
                106.622026,
                17.320336
              ],
              [
                106.621743,
                17.320376
              ],
              [
                106.621216,
                17.320457
              ],
              [
                106.620918,
                17.32055
              ],
              [
                106.62075,
                17.320652
              ],
              [
                106.620478,
                17.320879
              ],
              [
                106.619811,
                17.321506
              ],
              [
                106.619278,
                17.322008
              ],
              [
                106.618972,
                17.322249
              ],
              [
                106.618824,
                17.322427
              ],
              [
                106.618642,
                17.322754
              ],
              [
                106.6185,
                17.322922
              ],
              [
                106.618376,
                17.323033
              ],
              [
                106.618202,
                17.323116
              ],
              [
                106.618025,
                17.32327
              ],
              [
                106.617907,
                17.323472
              ],
              [
                106.617709,
                17.324205
              ],
              [
                106.617651,
                17.324325
              ],
              [
                106.617547,
                17.324408
              ],
              [
                106.617159,
                17.32453
              ],
              [
                106.616961,
                17.324618
              ],
              [
                106.616689,
                17.32485
              ],
              [
                106.616397,
                17.325058
              ],
              [
                106.6162,
                17.325303
              ],
              [
                106.61592,
                17.325683
              ],
              [
                106.615768,
                17.325952
              ],
              [
                106.615592,
                17.326346
              ],
              [
                106.615206,
                17.327166
              ],
              [
                106.614858,
                17.327805
              ],
              [
                106.614592,
                17.328118
              ],
              [
                106.614479,
                17.328234
              ],
              [
                106.614316,
                17.32845
              ],
              [
                106.614105,
                17.328792
              ],
              [
                106.613799,
                17.329119
              ],
              [
                106.613464,
                17.329452
              ],
              [
                106.613097,
                17.329699
              ],
              [
                106.61281,
                17.329883
              ],
              [
                106.612677,
                17.329994
              ],
              [
                106.612603,
                17.330109
              ],
              [
                106.612501,
                17.330368
              ],
              [
                106.612433,
                17.330632
              ],
              [
                106.61234,
                17.330766
              ],
              [
                106.61214,
                17.331217
              ],
              [
                106.611826,
                17.331794
              ],
              [
                106.611627,
                17.332369
              ],
              [
                106.611491,
                17.332695
              ],
              [
                106.61129,
                17.333089
              ],
              [
                106.610857,
                17.333671
              ],
              [
                106.610464,
                17.334239
              ],
              [
                106.610252,
                17.334532
              ],
              [
                106.610144,
                17.334738
              ],
              [
                106.609945,
                17.335237
              ],
              [
                106.609818,
                17.33554
              ],
              [
                106.609794,
                17.335631
              ],
              [
                106.609815,
                17.335745
              ],
              [
                106.609916,
                17.335931
              ],
              [
                106.610067,
                17.336121
              ],
              [
                106.610318,
                17.336348
              ],
              [
                106.610363,
                17.336415
              ],
              [
                106.610347,
                17.336486
              ],
              [
                106.610345,
                17.336531
              ],
              [
                106.610293,
                17.336606
              ],
              [
                106.610219,
                17.336703
              ],
              [
                106.610188,
                17.336801
              ],
              [
                106.610202,
                17.336984
              ],
              [
                106.610201,
                17.337217
              ],
              [
                106.610144,
                17.337737
              ],
              [
                106.610019,
                17.338402
              ],
              [
                106.609959,
                17.338707
              ],
              [
                106.609955,
                17.338922
              ],
              [
                106.610012,
                17.339095
              ],
              [
                106.610445,
                17.339474
              ],
              [
                106.610577,
                17.339658
              ],
              [
                106.61061,
                17.339772
              ],
              [
                106.610636,
                17.339963
              ],
              [
                106.610631,
                17.340094
              ],
              [
                106.610582,
                17.340214
              ],
              [
                106.610385,
                17.340473
              ],
              [
                106.610102,
                17.34078
              ],
              [
                106.609817,
                17.340961
              ],
              [
                106.609544,
                17.341006
              ],
              [
                106.609015,
                17.340998
              ],
              [
                106.608828,
                17.341023
              ],
              [
                106.608512,
                17.341145
              ],
              [
                106.6084,
                17.341212
              ],
              [
                106.608364,
                17.34129
              ],
              [
                106.608365,
                17.341392
              ],
              [
                106.608403,
                17.341499
              ],
              [
                106.60851,
                17.341659
              ],
              [
                106.608698,
                17.341843
              ],
              [
                106.608843,
                17.341987
              ],
              [
                106.608964,
                17.342225
              ],
              [
                106.609005,
                17.342349
              ],
              [
                106.609006,
                17.342502
              ],
              [
                106.608948,
                17.342627
              ],
              [
                106.608374,
                17.3431
              ],
              [
                106.608088,
                17.343408
              ],
              [
                106.60804,
                17.343523
              ],
              [
                106.608041,
                17.343667
              ],
              [
                106.608064,
                17.344039
              ],
              [
                106.607979,
                17.344518
              ],
              [
                106.607565,
                17.345444
              ],
              [
                106.607848,
                17.345647
              ],
              [
                106.608135,
                17.345788
              ],
              [
                106.608397,
                17.345833
              ],
              [
                106.60854,
                17.345838
              ],
              [
                106.608409,
                17.347274
              ],
              [
                106.608875,
                17.347714
              ],
              [
                106.612333,
                17.34739
              ],
              [
                106.614645,
                17.347815
              ],
              [
                106.618499,
                17.348744
              ],
              [
                106.619576,
                17.348736
              ],
              [
                106.620728,
                17.348505
              ],
              [
                106.621957,
                17.348347
              ],
              [
                106.623884,
                17.348774
              ],
              [
                106.626133,
                17.348315
              ],
              [
                106.626217,
                17.348315
              ],
              [
                106.626188,
                17.348943
              ],
              [
                106.626142,
                17.350583
              ],
              [
                106.626352,
                17.35056
              ],
              [
                106.626595,
                17.350535
              ],
              [
                106.626833,
                17.35055
              ],
              [
                106.626834,
                17.35055
              ],
              [
                106.626953,
                17.350568
              ],
              [
                106.627177,
                17.350573
              ],
              [
                106.627496,
                17.350616
              ],
              [
                106.62765,
                17.35069
              ],
              [
                106.627694,
                17.350761
              ],
              [
                106.627753,
                17.350911
              ],
              [
                106.627787,
                17.35095
              ],
              [
                106.627926,
                17.351024
              ],
              [
                106.62797,
                17.351052
              ],
              [
                106.628039,
                17.351051
              ],
              [
                106.628086,
                17.351025
              ],
              [
                106.628184,
                17.350904
              ],
              [
                106.628294,
                17.350898
              ],
              [
                106.628419,
                17.350935
              ],
              [
                106.62848,
                17.351061
              ],
              [
                106.628535,
                17.351212
              ],
              [
                106.628562,
                17.351262
              ],
              [
                106.628631,
                17.351328
              ],
              [
                106.628726,
                17.351378
              ],
              [
                106.628816,
                17.351379
              ],
              [
                106.62891,
                17.351338
              ],
              [
                106.628996,
                17.351179
              ],
              [
                106.629035,
                17.351117
              ],
              [
                106.629112,
                17.351126
              ],
              [
                106.629135,
                17.351143
              ],
              [
                106.629157,
                17.351159
              ],
              [
                106.62922,
                17.351211
              ],
              [
                106.629335,
                17.351244
              ],
              [
                106.629629,
                17.351268
              ],
              [
                106.629666,
                17.351252
              ],
              [
                106.629723,
                17.35126
              ],
              [
                106.630125,
                17.351272
              ],
              [
                106.630218,
                17.351271
              ],
              [
                106.630379,
                17.35127
              ],
              [
                106.630473,
                17.351248
              ],
              [
                106.630536,
                17.351234
              ],
              [
                106.630646,
                17.351012
              ],
              [
                106.630661,
                17.350982
              ],
              [
                106.630709,
                17.350877
              ],
              [
                106.630895,
                17.35047
              ],
              [
                106.631006,
                17.349944
              ],
              [
                106.631039,
                17.349788
              ],
              [
                106.631028,
                17.349449
              ],
              [
                106.63099,
                17.348203
              ],
              [
                106.630991,
                17.348186
              ],
              [
                106.631018,
                17.347752
              ],
              [
                106.631025,
                17.347648
              ],
              [
                106.631064,
                17.347496
              ],
              [
                106.63518,
                17.347427
              ],
              [
                106.63428,
                17.35002
              ],
              [
                106.63413,
                17.350538
              ],
              [
                106.635207,
                17.350455
              ],
              [
                106.637118,
                17.34911
              ],
              [
                106.638575,
                17.348655
              ],
              [
                106.640752,
                17.34864
              ],
              [
                106.642402,
                17.348177
              ],
              [
                106.64271,
                17.348044
              ],
              [
                106.64271,
                17.348044
              ]
            ]
          ]
        ]
      },
      "properties": {
        "code": "19237",
        "name": "Trường Ninh",
        "nameEn": "Truong Ninh",
        "fullName": "Xã Trường Ninh",
        "fullNameEn": "Truong Ninh Commune",
        "codeName": "truong_ninh",
        "postalCode": "47723",
        "postalCodePrefix": "",
        "gisServerId": "diaphanhanhchinhcapxa_2025.630",
        "areaKm2": 71.92
      }
    }
  ]
}