{
  "type": "FeatureCollection",
  "bbox": [
    107.097425,
    16.857265,
    107.191938,
    16.956723
  ],
  "features": [
    {
      "type": "Feature",
      "id": "19496",
      "bbox": [
        107.097425,
        16.857265,
        107.191938,
        16.956723
      ],
      "geometry": {
        "type": "MultiPolygon",
        "coordinates": [
          [
            [
              [
                107.127697,
                16.857813
              ],
              [
                107.12762,
                16.857831
              ],
              [
                107.127552,
                16.857847
              ],
              [
                107.127039,
                16.858042
              ],
              [
                107.126828,
                16.858149
              ],
              [
                107.126826,
                16.858151
              ],
              [
                107.126713,
                16.858131
              ],
              [
                107.126645,
                16.858999
              ],
              [
                107.126624,
                16.859785
              ],
              [
                107.126578,
                16.860474
              ],
              [
                107.126517,
                16.860922
              ],
              [
                107.126501,
                16.861094
              ],
              [
                107.126515,
                16.861288
              ],
              [
                107.126511,
                16.861422
              ],
              [
                107.126467,
                16.861827
              ],
              [
                107.126415,
                16.862359
              ],
              [
                107.126366,
                16.862968
              ],
              [
                107.126311,
                16.863699
              ],
              [
                107.126256,
                16.864522
              ],
              [
                107.126211,
                16.865043
              ],
              [
                107.12616,
                16.865862
              ],
              [
                107.12612,
                16.866539
              ],
              [
                107.126064,
                16.86688
              ],
              [
                107.125947,
                16.867301
              ],
              [
                107.125859,
                16.868448
              ],
              [
                107.12579,
                16.868978
              ],
              [
                107.12562,
                16.869531
              ],
              [
                107.125403,
                16.870085
              ],
              [
                107.125092,
                16.87069
              ],
              [
                107.124273,
                16.87239
              ],
              [
                107.124107,
                16.872734
              ],
              [
                107.124043,
                16.872868
              ],
              [
                107.123977,
                16.873004
              ],
              [
                107.12391,
                16.873107
              ],
              [
                107.123377,
                16.873929
              ],
              [
                107.123363,
                16.87395
              ],
              [
                107.123343,
                16.873986
              ],
              [
                107.123343,
                16.873986
              ],
              [
                107.123343,
                16.873986
              ],
              [
                107.123343,
                16.873986
              ],
              [
                107.123341,
                16.873989
              ],
              [
                107.122712,
                16.875024
              ],
              [
                107.121971,
                16.876313
              ],
              [
                107.119861,
                16.879394
              ],
              [
                107.119053,
                16.880666
              ],
              [
                107.118439,
                16.88127
              ],
              [
                107.118318,
                16.881582
              ],
              [
                107.11801,
                16.881788
              ],
              [
                107.117764,
                16.882018
              ],
              [
                107.117525,
                16.88261
              ],
              [
                107.116923,
                16.883419
              ],
              [
                107.116825,
                16.883551
              ],
              [
                107.116694,
                16.883875
              ],
              [
                107.116587,
                16.884232
              ],
              [
                107.116485,
                16.884436
              ],
              [
                107.116153,
                16.884712
              ],
              [
                107.115844,
                16.885103
              ],
              [
                107.115808,
                16.885211
              ],
              [
                107.115615,
                16.886023
              ],
              [
                107.115568,
                16.886144
              ],
              [
                107.115065,
                16.886876
              ],
              [
                107.117433,
                16.887636
              ],
              [
                107.116267,
                16.888322
              ],
              [
                107.114998,
                16.889211
              ],
              [
                107.113619,
                16.889816
              ],
              [
                107.113257,
                16.889961
              ],
              [
                107.113195,
                16.889964
              ],
              [
                107.112699,
                16.890651
              ],
              [
                107.111865,
                16.89203
              ],
              [
                107.111535,
                16.892513
              ],
              [
                107.111269,
                16.892703
              ],
              [
                107.110812,
                16.893173
              ],
              [
                107.110607,
                16.893484
              ],
              [
                107.110322,
                16.894012
              ],
              [
                107.109176,
                16.895515
              ],
              [
                107.106568,
                16.8987
              ],
              [
                107.10404,
                16.901538
              ],
              [
                107.103274,
                16.902403
              ],
              [
                107.102115,
                16.903808
              ],
              [
                107.10028,
                16.906028
              ],
              [
                107.099781,
                16.906887
              ],
              [
                107.099352,
                16.907718
              ],
              [
                107.099143,
                16.908365
              ],
              [
                107.098797,
                16.909214
              ],
              [
                107.098705,
                16.909421
              ],
              [
                107.098584,
                16.909761
              ],
              [
                107.098068,
                16.912772
              ],
              [
                107.097864,
                16.913709
              ],
              [
                107.097727,
                16.914261
              ],
              [
                107.09747,
                16.915015
              ],
              [
                107.097425,
                16.915169
              ],
              [
                107.097494,
                16.915198
              ],
              [
                107.097668,
                16.91527
              ],
              [
                107.098413,
                16.915579
              ],
              [
                107.09869,
                16.915741
              ],
              [
                107.098773,
                16.915823
              ],
              [
                107.098864,
                16.915928
              ],
              [
                107.09897,
                16.916075
              ],
              [
                107.099105,
                16.916244
              ],
              [
                107.099161,
                16.916304
              ],
              [
                107.099188,
                16.916347
              ],
              [
                107.099204,
                16.916386
              ],
              [
                107.099219,
                16.916429
              ],
              [
                107.099223,
                16.916454
              ],
              [
                107.099228,
                16.916646
              ],
              [
                107.099238,
                16.916726
              ],
              [
                107.099371,
                16.916932
              ],
              [
                107.099559,
                16.917184
              ],
              [
                107.099619,
                16.917244
              ],
              [
                107.099681,
                16.917311
              ],
              [
                107.099729,
                16.917404
              ],
              [
                107.099762,
                16.91746
              ],
              [
                107.0998,
                16.917511
              ],
              [
                107.099832,
                16.917552
              ],
              [
                107.099903,
                16.917639
              ],
              [
                107.100035,
                16.917763
              ],
              [
                107.100115,
                16.917807
              ],
              [
                107.10019,
                16.917835
              ],
              [
                107.100258,
                16.91786
              ],
              [
                107.100353,
                16.917908
              ],
              [
                107.100373,
                16.917973
              ],
              [
                107.100638,
                16.917941
              ],
              [
                107.101033,
                16.917937
              ],
              [
                107.101397,
                16.917963
              ],
              [
                107.101805,
                16.918069
              ],
              [
                107.103059,
                16.918589
              ],
              [
                107.105323,
                16.919328
              ],
              [
                107.106325,
                16.9195
              ],
              [
                107.107354,
                16.919657
              ],
              [
                107.108084,
                16.919847
              ],
              [
                107.108373,
                16.919862
              ],
              [
                107.108815,
                16.919812
              ],
              [
                107.108828,
                16.919813
              ],
              [
                107.109057,
                16.919766
              ],
              [
                107.10922,
                16.919669
              ],
              [
                107.10927,
                16.919621
              ],
              [
                107.109289,
                16.919603
              ],
              [
                107.11033,
                16.920037
              ],
              [
                107.112493,
                16.920937
              ],
              [
                107.114303,
                16.921779
              ],
              [
                107.115634,
                16.922408
              ],
              [
                107.118511,
                16.923747
              ],
              [
                107.119948,
                16.924401
              ],
              [
                107.123241,
                16.925724
              ],
              [
                107.124638,
                16.926349
              ],
              [
                107.126826,
                16.927397
              ],
              [
                107.126829,
                16.927398
              ],
              [
                107.12895,
                16.928688
              ],
              [
                107.131522,
                16.928891
              ],
              [
                107.140714,
                16.929649
              ],
              [
                107.143516,
                16.929973
              ],
              [
                107.139802,
                16.945697
              ],
              [
                107.139798,
                16.945708
              ],
              [
                107.14117,
                16.947894
              ],
              [
                107.141922,
                16.948899
              ],
              [
                107.142093,
                16.949079
              ],
              [
                107.142114,
                16.949203
              ],
              [
                107.142086,
                16.949365
              ],
              [
                107.142078,
                16.949471
              ],
              [
                107.142109,
                16.949595
              ],
              [
                107.142249,
                16.949698
              ],
              [
                107.142266,
                16.949727
              ],
              [
                107.142381,
                16.949926
              ],
              [
                107.142502,
                16.950097
              ],
              [
                107.142672,
                16.950201
              ],
              [
                107.142851,
                16.950218
              ],
              [
                107.14302,
                16.950245
              ],
              [
                107.143091,
                16.95033
              ],
              [
                107.143152,
                16.950482
              ],
              [
                107.143391,
                16.950941
              ],
              [
                107.143502,
                16.950882
              ],
              [
                107.143613,
                16.950845
              ],
              [
                107.143688,
                16.950844
              ],
              [
                107.14377,
                16.950872
              ],
              [
                107.143897,
                16.950935
              ],
              [
                107.144056,
                16.951127
              ],
              [
                107.144168,
                16.951155
              ],
              [
                107.144443,
                16.951094
              ],
              [
                107.144629,
                16.951083
              ],
              [
                107.14486,
                16.951069
              ],
              [
                107.145032,
                16.951103
              ],
              [
                107.145174,
                16.95118
              ],
              [
                107.14519,
                16.951195
              ],
              [
                107.145265,
                16.951265
              ],
              [
                107.145461,
                16.95164
              ],
              [
                107.14552,
                16.951676
              ],
              [
                107.145587,
                16.951686
              ],
              [
                107.145669,
                16.951664
              ],
              [
                107.145806,
                16.951594
              ],
              [
                107.145873,
                16.951558
              ],
              [
                107.145976,
                16.95151
              ],
              [
                107.146073,
                16.951505
              ],
              [
                107.146161,
                16.951505
              ],
              [
                107.146189,
                16.951504
              ],
              [
                107.146285,
                16.951507
              ],
              [
                107.146375,
                16.951539
              ],
              [
                107.146385,
                16.951547
              ],
              [
                107.146446,
                16.951661
              ],
              [
                107.146529,
                16.951754
              ],
              [
                107.146693,
                16.951843
              ],
              [
                107.147034,
                16.952492
              ],
              [
                107.147148,
                16.95267
              ],
              [
                107.147157,
                16.952792
              ],
              [
                107.147121,
                16.952893
              ],
              [
                107.146944,
                16.95306
              ],
              [
                107.146904,
                16.953118
              ],
              [
                107.146797,
                16.953276
              ],
              [
                107.146688,
                16.953529
              ],
              [
                107.146654,
                16.953758
              ],
              [
                107.146686,
                16.95398
              ],
              [
                107.146708,
                16.954063
              ],
              [
                107.146748,
                16.954216
              ],
              [
                107.146963,
                16.954745
              ],
              [
                107.147125,
                16.955102
              ],
              [
                107.148244,
                16.956723
              ],
              [
                107.148436,
                16.956599
              ],
              [
                107.148577,
                16.956526
              ],
              [
                107.148672,
                16.956431
              ],
              [
                107.14879,
                16.956258
              ],
              [
                107.14908,
                16.955932
              ],
              [
                107.149295,
                16.955666
              ],
              [
                107.14954,
                16.955369
              ],
              [
                107.149786,
                16.955083
              ],
              [
                107.149927,
                16.954939
              ],
              [
                107.15012,
                16.954714
              ],
              [
                107.150263,
                16.954525
              ],
              [
                107.15045,
                16.954357
              ],
              [
                107.150592,
                16.954196
              ],
              [
                107.150792,
                16.95396
              ],
              [
                107.150847,
                16.95388
              ],
              [
                107.151144,
                16.953609
              ],
              [
                107.151431,
                16.953312
              ],
              [
                107.151739,
                16.952914
              ],
              [
                107.15215,
                16.952357
              ],
              [
                107.152972,
                16.951273
              ],
              [
                107.15323,
                16.951012
              ],
              [
                107.153437,
                16.950816
              ],
              [
                107.153628,
                16.950571
              ],
              [
                107.153943,
                16.950188
              ],
              [
                107.154306,
                16.949723
              ],
              [
                107.154644,
                16.949304
              ],
              [
                107.154775,
                16.949052
              ],
              [
                107.154925,
                16.948871
              ],
              [
                107.154944,
                16.948849
              ],
              [
                107.155158,
                16.948682
              ],
              [
                107.155418,
                16.948564
              ],
              [
                107.155432,
                16.948553
              ],
              [
                107.155617,
                16.948404
              ],
              [
                107.155838,
                16.948166
              ],
              [
                107.156058,
                16.947855
              ],
              [
                107.156337,
                16.947544
              ],
              [
                107.156757,
                16.946941
              ],
              [
                107.156894,
                16.94677
              ],
              [
                107.157038,
                16.946577
              ],
              [
                107.157071,
                16.946528
              ],
              [
                107.157189,
                16.946452
              ],
              [
                107.157307,
                16.946343
              ],
              [
                107.157491,
                16.946155
              ],
              [
                107.157646,
                16.946009
              ],
              [
                107.157808,
                16.945857
              ],
              [
                107.158021,
                16.945582
              ],
              [
                107.15846,
                16.944876
              ],
              [
                107.158492,
                16.944832
              ],
              [
                107.158568,
                16.944717
              ],
              [
                107.15857,
                16.944714
              ],
              [
                107.158636,
                16.944667
              ],
              [
                107.158806,
                16.944522
              ],
              [
                107.159085,
                16.944154
              ],
              [
                107.15921,
                16.943987
              ],
              [
                107.159451,
                16.943569
              ],
              [
                107.159767,
                16.9432
              ],
              [
                107.160067,
                16.942723
              ],
              [
                107.16028,
                16.942441
              ],
              [
                107.160597,
                16.942209
              ],
              [
                107.160855,
                16.941948
              ],
              [
                107.161215,
                16.941463
              ],
              [
                107.1615,
                16.941016
              ],
              [
                107.161839,
                16.940639
              ],
              [
                107.162231,
                16.940172
              ],
              [
                107.162258,
                16.94014
              ],
              [
                107.162465,
                16.939912
              ],
              [
                107.162824,
                16.939517
              ],
              [
                107.163323,
                16.938873
              ],
              [
                107.163397,
                16.938809
              ],
              [
                107.163891,
                16.938316
              ],
              [
                107.163987,
                16.938167
              ],
              [
                107.164125,
                16.937955
              ],
              [
                107.164447,
                16.937456
              ],
              [
                107.165185,
                16.936537
              ],
              [
                107.165228,
                16.936486
              ],
              [
                107.16543,
                16.936224
              ],
              [
                107.165563,
                16.936042
              ],
              [
                107.166114,
                16.935345
              ],
              [
                107.166415,
                16.934947
              ],
              [
                107.166821,
                16.934586
              ],
              [
                107.167025,
                16.934374
              ],
              [
                107.167174,
                16.934221
              ],
              [
                107.167322,
                16.93405
              ],
              [
                107.167542,
                16.933787
              ],
              [
                107.167677,
                16.93363
              ],
              [
                107.167836,
                16.93343
              ],
              [
                107.168225,
                16.932992
              ],
              [
                107.168238,
                16.932976
              ],
              [
                107.1686,
                16.932529
              ],
              [
                107.169034,
                16.932101
              ],
              [
                107.169513,
                16.931609
              ],
              [
                107.169985,
                16.931152
              ],
              [
                107.170324,
                16.930876
              ],
              [
                107.17061,
                16.930471
              ],
              [
                107.171007,
                16.930008
              ],
              [
                107.171509,
                16.929514
              ],
              [
                107.171515,
                16.929508
              ],
              [
                107.172038,
                16.928929
              ],
              [
                107.17225,
                16.928575
              ],
              [
                107.172447,
                16.928286
              ],
              [
                107.172911,
                16.927801
              ],
              [
                107.173095,
                16.927652
              ],
              [
                107.173236,
                16.927539
              ],
              [
                107.17342,
                16.927358
              ],
              [
                107.173589,
                16.927112
              ],
              [
                107.173772,
                16.926888
              ],
              [
                107.173994,
                16.926721
              ],
              [
                107.174246,
                16.92656
              ],
              [
                107.174397,
                16.926427
              ],
              [
                107.17468,
                16.926157
              ],
              [
                107.174842,
                16.926
              ],
              [
                107.175019,
                16.925804
              ],
              [
                107.175241,
                16.925554
              ],
              [
                107.175488,
                16.92517
              ],
              [
                107.175665,
                16.924939
              ],
              [
                107.175923,
                16.92475
              ],
              [
                107.176197,
                16.924625
              ],
              [
                107.176375,
                16.924487
              ],
              [
                107.176655,
                16.924247
              ],
              [
                107.17706,
                16.923855
              ],
              [
                107.177951,
                16.922942
              ],
              [
                107.178541,
                16.922391
              ],
              [
                107.178954,
                16.92205
              ],
              [
                107.179292,
                16.921702
              ],
              [
                107.179616,
                16.921311
              ],
              [
                107.179926,
                16.921053
              ],
              [
                107.180236,
                16.920796
              ],
              [
                107.180729,
                16.920331
              ],
              [
                107.181061,
                16.920027
              ],
              [
                107.181535,
                16.919468
              ],
              [
                107.181583,
                16.919411
              ],
              [
                107.182196,
                16.918916
              ],
              [
                107.182263,
                16.918861
              ],
              [
                107.18242,
                16.918748
              ],
              [
                107.182652,
                16.918489
              ],
              [
                107.182917,
                16.9182
              ],
              [
                107.183368,
                16.917844
              ],
              [
                107.18373,
                16.917617
              ],
              [
                107.18483,
                16.916738
              ],
              [
                107.185502,
                16.916229
              ],
              [
                107.186047,
                16.915728
              ],
              [
                107.186285,
                16.91553
              ],
              [
                107.186822,
                16.915082
              ],
              [
                107.187552,
                16.914428
              ],
              [
                107.1884,
                16.913681
              ],
              [
                107.188887,
                16.913296
              ],
              [
                107.189159,
                16.912977
              ],
              [
                107.189372,
                16.912761
              ],
              [
                107.189515,
                16.912679
              ],
              [
                107.189729,
                16.912518
              ],
              [
                107.18981,
                16.912444
              ],
              [
                107.190044,
                16.912172
              ],
              [
                107.190634,
                16.911706
              ],
              [
                107.191668,
                16.910935
              ],
              [
                107.191926,
                16.91071
              ],
              [
                107.191938,
                16.910623
              ],
              [
                107.190766,
                16.909955
              ],
              [
                107.190785,
                16.909944
              ],
              [
                107.190803,
                16.909933
              ],
              [
                107.190811,
                16.909742
              ],
              [
                107.190821,
                16.90951
              ],
              [
                107.190854,
                16.909362
              ],
              [
                107.190948,
                16.90895
              ],
              [
                107.191162,
                16.908336
              ],
              [
                107.191169,
                16.908313
              ],
              [
                107.191373,
                16.907726
              ],
              [
                107.191512,
                16.907423
              ],
              [
                107.191517,
                16.907287
              ],
              [
                107.191477,
                16.907194
              ],
              [
                107.191477,
                16.907193
              ],
              [
                107.191464,
                16.90716
              ],
              [
                107.191289,
                16.907015
              ],
              [
                107.191172,
                16.906957
              ],
              [
                107.19111,
                16.906958
              ],
              [
                107.191029,
                16.906958
              ],
              [
                107.190985,
                16.90696
              ],
              [
                107.190989,
                16.906721
              ],
              [
                107.191034,
                16.906527
              ],
              [
                107.191065,
                16.906395
              ],
              [
                107.19109,
                16.906315
              ],
              [
                107.191166,
                16.906069
              ],
              [
                107.191301,
                16.905747
              ],
              [
                107.191303,
                16.90573
              ],
              [
                107.191314,
                16.905603
              ],
              [
                107.191263,
                16.905513
              ],
              [
                107.191263,
                16.905513
              ],
              [
                107.191124,
                16.905462
              ],
              [
                107.190899,
                16.905383
              ],
              [
                107.190686,
                16.905352
              ],
              [
                107.190546,
                16.90531
              ],
              [
                107.190421,
                16.905221
              ],
              [
                107.190275,
                16.905125
              ],
              [
                107.190136,
                16.905033
              ],
              [
                107.190134,
                16.905032
              ],
              [
                107.190011,
                16.904967
              ],
              [
                107.189841,
                16.904924
              ],
              [
                107.19062,
                16.903991
              ],
              [
                107.189781,
                16.903556
              ],
              [
                107.18854,
                16.902913
              ],
              [
                107.187181,
                16.902209
              ],
              [
                107.186419,
                16.901814
              ],
              [
                107.186367,
                16.901787
              ],
              [
                107.186019,
                16.901607
              ],
              [
                107.183677,
                16.900742
              ],
              [
                107.183018,
                16.900395
              ],
              [
                107.182311,
                16.900023
              ],
              [
                107.178074,
                16.896978
              ],
              [
                107.177518,
                16.896576
              ],
              [
                107.174725,
                16.894559
              ],
              [
                107.171384,
                16.892147
              ],
              [
                107.171103,
                16.89198
              ],
              [
                107.171066,
                16.891958
              ],
              [
                107.170169,
                16.891425
              ],
              [
                107.170018,
                16.891335
              ],
              [
                107.169605,
                16.891089
              ],
              [
                107.169108,
                16.890794
              ],
              [
                107.168915,
                16.890679
              ],
              [
                107.168264,
                16.890292
              ],
              [
                107.167659,
                16.889932
              ],
              [
                107.165772,
                16.888638
              ],
              [
                107.165119,
                16.888191
              ],
              [
                107.163056,
                16.886327
              ],
              [
                107.161657,
                16.885064
              ],
              [
                107.161652,
                16.88506
              ],
              [
                107.161264,
                16.884709
              ],
              [
                107.160999,
                16.884469
              ],
              [
                107.160455,
                16.883978
              ],
              [
                107.156801,
                16.881112
              ],
              [
                107.156128,
                16.880598
              ],
              [
                107.155371,
                16.88002
              ],
              [
                107.153662,
                16.87819
              ],
              [
                107.153583,
                16.878105
              ],
              [
                107.153224,
                16.877527
              ],
              [
                107.153109,
                16.877342
              ],
              [
                107.152831,
                16.876432
              ],
              [
                107.152736,
                16.87614
              ],
              [
                107.152537,
                16.875524
              ],
              [
                107.152041,
                16.873992
              ],
              [
                107.152041,
                16.87399
              ],
              [
                107.150561,
                16.870009
              ],
              [
                107.150485,
                16.869871
              ],
              [
                107.150485,
                16.869871
              ],
              [
                107.150357,
                16.869682
              ],
              [
                107.149443,
                16.868219
              ],
              [
                107.148927,
                16.867553
              ],
              [
                107.148738,
                16.867309
              ],
              [
                107.148096,
                16.866907
              ],
              [
                107.147718,
                16.866669
              ],
              [
                107.146619,
                16.866088
              ],
              [
                107.145582,
                16.865736
              ],
              [
                107.144089,
                16.865445
              ],
              [
                107.142539,
                16.865366
              ],
              [
                107.141385,
                16.865187
              ],
              [
                107.136842,
                16.8638
              ],
              [
                107.129258,
                16.857286
              ],
              [
                107.129233,
                16.857265
              ],
              [
                107.127697,
                16.857813
              ],
              [
                107.127697,
                16.857813
              ]
            ]
          ]
        ]
      },
      "properties": {
        "code": "19496",
        "name": "Cửa Việt",
        "nameEn": "Cua Viet",
        "fullName": "Xã Cửa Việt",
        "fullNameEn": "Cua Viet Commune",
        "codeName": "cua_viet",
        "postalCode": "48319",
        "postalCodePrefix": "",
        "gisServerId": "diaphanhanhchinhcapxa_2025.567",
        "areaKm2": 50.83
      }
    }
  ]
}