{
  "type": "FeatureCollection",
  "bbox": [
    105.515393,
    10.186896,
    105.626676,
    10.306097
  ],
  "features": [
    {
      "type": "Feature",
      "id": "31213",
      "bbox": [
        105.515393,
        10.186896,
        105.626676,
        10.306097
      ],
      "geometry": {
        "type": "MultiPolygon",
        "coordinates": [
          [
            [
              [
                105.625205,
                10.18691
              ],
              [
                105.622984,
                10.186896
              ],
              [
                105.620508,
                10.187629
              ],
              [
                105.618951,
                10.188182
              ],
              [
                105.615525,
                10.190008
              ],
              [
                105.611615,
                10.193018
              ],
              [
                105.61133,
                10.193307
              ],
              [
                105.609868,
                10.19479
              ],
              [
                105.60608,
                10.198384
              ],
              [
                105.60445,
                10.200166
              ],
              [
                105.601419,
                10.203069
              ],
              [
                105.598769,
                10.205851
              ],
              [
                105.598686,
                10.205923
              ],
              [
                105.596443,
                10.207949
              ],
              [
                105.594418,
                10.209987
              ],
              [
                105.592259,
                10.211869
              ],
              [
                105.589907,
                10.214477
              ],
              [
                105.589427,
                10.215009
              ],
              [
                105.588277,
                10.216441
              ],
              [
                105.587373,
                10.217567
              ],
              [
                105.585318,
                10.22053
              ],
              [
                105.581105,
                10.226421
              ],
              [
                105.579347,
                10.229303
              ],
              [
                105.578803,
                10.230196
              ],
              [
                105.577789,
                10.231613
              ],
              [
                105.576861,
                10.23244
              ],
              [
                105.576715,
                10.232587
              ],
              [
                105.576234,
                10.233075
              ],
              [
                105.575033,
                10.234971
              ],
              [
                105.575026,
                10.234979
              ],
              [
                105.572466,
                10.238057
              ],
              [
                105.571118,
                10.239733
              ],
              [
                105.569248,
                10.24183
              ],
              [
                105.567591,
                10.243376
              ],
              [
                105.565907,
                10.24478
              ],
              [
                105.564621,
                10.246065
              ],
              [
                105.563409,
                10.247552
              ],
              [
                105.562955,
                10.248312
              ],
              [
                105.562422,
                10.24899
              ],
              [
                105.561536,
                10.250342
              ],
              [
                105.561206,
                10.250852
              ],
              [
                105.561084,
                10.251048
              ],
              [
                105.561014,
                10.251162
              ],
              [
                105.560943,
                10.251271
              ],
              [
                105.560871,
                10.251375
              ],
              [
                105.560804,
                10.251467
              ],
              [
                105.560753,
                10.251537
              ],
              [
                105.560717,
                10.251589
              ],
              [
                105.560682,
                10.251641
              ],
              [
                105.560643,
                10.251702
              ],
              [
                105.560603,
                10.251763
              ],
              [
                105.560574,
                10.251809
              ],
              [
                105.560554,
                10.251839
              ],
              [
                105.560539,
                10.251862
              ],
              [
                105.560523,
                10.251886
              ],
              [
                105.560502,
                10.251918
              ],
              [
                105.560469,
                10.251967
              ],
              [
                105.560422,
                10.252036
              ],
              [
                105.560365,
                10.252121
              ],
              [
                105.560305,
                10.252209
              ],
              [
                105.560254,
                10.252285
              ],
              [
                105.560217,
                10.252339
              ],
              [
                105.560191,
                10.252375
              ],
              [
                105.56017,
                10.252402
              ],
              [
                105.56015,
                10.252426
              ],
              [
                105.560129,
                10.252451
              ],
              [
                105.560104,
                10.252482
              ],
              [
                105.560065,
                10.25253
              ],
              [
                105.560001,
                10.252609
              ],
              [
                105.559905,
                10.252729
              ],
              [
                105.559784,
                10.252879
              ],
              [
                105.559652,
                10.253043
              ],
              [
                105.559521,
                10.253206
              ],
              [
                105.559394,
                10.253364
              ],
              [
                105.559266,
                10.253521
              ],
              [
                105.559123,
                10.253693
              ],
              [
                105.558965,
                10.253886
              ],
              [
                105.558801,
                10.254087
              ],
              [
                105.558643,
                10.254282
              ],
              [
                105.558507,
                10.254455
              ],
              [
                105.558416,
                10.254596
              ],
              [
                105.558368,
                10.254705
              ],
              [
                105.55833,
                10.25478
              ],
              [
                105.558278,
                10.254814
              ],
              [
                105.558221,
                10.254825
              ],
              [
                105.558163,
                10.254851
              ],
              [
                105.558077,
                10.25493
              ],
              [
                105.55794,
                10.255076
              ],
              [
                105.557776,
                10.255256
              ],
              [
                105.557637,
                10.255408
              ],
              [
                105.557541,
                10.255508
              ],
              [
                105.557456,
                10.25559
              ],
              [
                105.557339,
                10.255703
              ],
              [
                105.557179,
                10.255864
              ],
              [
                105.557003,
                10.256045
              ],
              [
                105.556854,
                10.256197
              ],
              [
                105.556749,
                10.256299
              ],
              [
                105.556672,
                10.256371
              ],
              [
                105.556601,
                10.256438
              ],
              [
                105.55652,
                10.256517
              ],
              [
                105.556434,
                10.256601
              ],
              [
                105.556359,
                10.256677
              ],
              [
                105.556295,
                10.25674
              ],
              [
                105.556225,
                10.256805
              ],
              [
                105.556133,
                10.256888
              ],
              [
                105.55601,
                10.257004
              ],
              [
                105.555854,
                10.257158
              ],
              [
                105.555689,
                10.257325
              ],
              [
                105.55556,
                10.257455
              ],
              [
                105.555477,
                10.257535
              ],
              [
                105.555403,
                10.257602
              ],
              [
                105.555279,
                10.257716
              ],
              [
                105.555077,
                10.257905
              ],
              [
                105.554834,
                10.258135
              ],
              [
                105.554625,
                10.25833
              ],
              [
                105.554484,
                10.25846
              ],
              [
                105.554377,
                10.258557
              ],
              [
                105.554256,
                10.258667
              ],
              [
                105.554114,
                10.258798
              ],
              [
                105.55397,
                10.258933
              ],
              [
                105.553827,
                10.259067
              ],
              [
                105.553671,
                10.259211
              ],
              [
                105.553506,
                10.259357
              ],
              [
                105.553371,
                10.259474
              ],
              [
                105.553289,
                10.259543
              ],
              [
                105.553254,
                10.259573
              ],
              [
                105.553242,
                10.259583
              ],
              [
                105.553237,
                10.259587
              ],
              [
                105.553234,
                10.25959
              ],
              [
                105.553231,
                10.259592
              ],
              [
                105.553229,
                10.259594
              ],
              [
                105.553227,
                10.259596
              ],
              [
                105.553226,
                10.259597
              ],
              [
                105.553226,
                10.259597
              ],
              [
                105.553226,
                10.259597
              ],
              [
                105.553225,
                10.259598
              ],
              [
                105.553222,
                10.2596
              ],
              [
                105.553215,
                10.259606
              ],
              [
                105.553199,
                10.259621
              ],
              [
                105.553165,
                10.25965
              ],
              [
                105.553107,
                10.2597
              ],
              [
                105.553026,
                10.259768
              ],
              [
                105.552936,
                10.259843
              ],
              [
                105.552847,
                10.259917
              ],
              [
                105.552748,
                10.259998
              ],
              [
                105.552622,
                10.260102
              ],
              [
                105.552473,
                10.260226
              ],
              [
                105.552324,
                10.260351
              ],
              [
                105.552201,
                10.260456
              ],
              [
                105.552107,
                10.260535
              ],
              [
                105.55202,
                10.260606
              ],
              [
                105.551908,
                10.260693
              ],
              [
                105.551778,
                10.260792
              ],
              [
                105.551668,
                10.260876
              ],
              [
                105.551599,
                10.260928
              ],
              [
                105.551563,
                10.260956
              ],
              [
                105.551542,
                10.260972
              ],
              [
                105.551516,
                10.260992
              ],
              [
                105.551468,
                10.261029
              ],
              [
                105.551373,
                10.261102
              ],
              [
                105.551215,
                10.261222
              ],
              [
                105.550994,
                10.261393
              ],
              [
                105.550713,
                10.261612
              ],
              [
                105.550377,
                10.261879
              ],
              [
                105.550012,
                10.262178
              ],
              [
                105.549962,
                10.26222
              ],
              [
                105.54905,
                10.263054
              ],
              [
                105.547605,
                10.264021
              ],
              [
                105.54622,
                10.265095
              ],
              [
                105.544754,
                10.26632
              ],
              [
                105.542934,
                10.267785
              ],
              [
                105.54253,
                10.268098
              ],
              [
                105.542122,
                10.268414
              ],
              [
                105.541732,
                10.268716
              ],
              [
                105.541377,
                10.268991
              ],
              [
                105.541066,
                10.269232
              ],
              [
                105.540804,
                10.269437
              ],
              [
                105.540604,
                10.269597
              ],
              [
                105.540455,
                10.269718
              ],
              [
                105.540318,
                10.269828
              ],
              [
                105.540167,
                10.269949
              ],
              [
                105.540001,
                10.270082
              ],
              [
                105.539834,
                10.270217
              ],
              [
                105.53968,
                10.27034
              ],
              [
                105.53956,
                10.270437
              ],
              [
                105.539475,
                10.270507
              ],
              [
                105.539404,
                10.270567
              ],
              [
                105.539314,
                10.270639
              ],
              [
                105.539191,
                10.270734
              ],
              [
                105.539046,
                10.270845
              ],
              [
                105.538892,
                10.270962
              ],
              [
                105.538744,
                10.271074
              ],
              [
                105.538618,
                10.27117
              ],
              [
                105.538515,
                10.271247
              ],
              [
                105.538414,
                10.271324
              ],
              [
                105.538288,
                10.271421
              ],
              [
                105.538121,
                10.27155
              ],
              [
                105.537922,
                10.271702
              ],
              [
                105.537719,
                10.271856
              ],
              [
                105.537539,
                10.271991
              ],
              [
                105.53739,
                10.272105
              ],
              [
                105.53733,
                10.272154
              ],
              [
                105.537262,
                10.272211
              ],
              [
                105.537144,
                10.272317
              ],
              [
                105.537044,
                10.272409
              ],
              [
                105.536978,
                10.272468
              ],
              [
                105.536944,
                10.272496
              ],
              [
                105.536929,
                10.272507
              ],
              [
                105.536916,
                10.272515
              ],
              [
                105.536896,
                10.272526
              ],
              [
                105.536863,
                10.272542
              ],
              [
                105.536822,
                10.272564
              ],
              [
                105.536776,
                10.272591
              ],
              [
                105.536726,
                10.272628
              ],
              [
                105.53666,
                10.272686
              ],
              [
                105.536569,
                10.272775
              ],
              [
                105.536451,
                10.272898
              ],
              [
                105.536316,
                10.27304
              ],
              [
                105.536186,
                10.273175
              ],
              [
                105.536079,
                10.273285
              ],
              [
                105.535987,
                10.27338
              ],
              [
                105.535882,
                10.273488
              ],
              [
                105.535765,
                10.273606
              ],
              [
                105.535665,
                10.273709
              ],
              [
                105.535597,
                10.273782
              ],
              [
                105.535551,
                10.273831
              ],
              [
                105.535518,
                10.273869
              ],
              [
                105.53549,
                10.2739
              ],
              [
                105.535458,
                10.273934
              ],
              [
                105.5354,
                10.273994
              ],
              [
                105.5353,
                10.274095
              ],
              [
                105.535173,
                10.274224
              ],
              [
                105.535054,
                10.274346
              ],
              [
                105.534964,
                10.274441
              ],
              [
                105.534892,
                10.274519
              ],
              [
                105.534812,
                10.274602
              ],
              [
                105.534697,
                10.274721
              ],
              [
                105.534542,
                10.274879
              ],
              [
                105.534383,
                10.275045
              ],
              [
                105.534254,
                10.275184
              ],
              [
                105.534155,
                10.275295
              ],
              [
                105.534056,
                10.275409
              ],
              [
                105.533948,
                10.275536
              ],
              [
                105.533837,
                10.275666
              ],
              [
                105.533715,
                10.27581
              ],
              [
                105.533552,
                10.275999
              ],
              [
                105.533348,
                10.276231
              ],
              [
                105.533121,
                10.276477
              ],
              [
                105.532887,
                10.276718
              ],
              [
                105.532665,
                10.276937
              ],
              [
                105.532491,
                10.277104
              ],
              [
                105.532382,
                10.277207
              ],
              [
                105.532316,
                10.277269
              ],
              [
                105.532247,
                10.277338
              ],
              [
                105.532137,
                10.27745
              ],
              [
                105.531987,
                10.277606
              ],
              [
                105.531831,
                10.277772
              ],
              [
                105.531689,
                10.277929
              ],
              [
                105.531536,
                10.278104
              ],
              [
                105.531321,
                10.278343
              ],
              [
                105.531014,
                10.27867
              ],
              [
                105.53064,
                10.279058
              ],
              [
                105.530256,
                10.27945
              ],
              [
                105.52992,
                10.279788
              ],
              [
                105.52985,
                10.279857
              ],
              [
                105.52856,
                10.281184
              ],
              [
                105.528287,
                10.281465
              ],
              [
                105.527566,
                10.282141
              ],
              [
                105.526666,
                10.283281
              ],
              [
                105.526063,
                10.284015
              ],
              [
                105.525472,
                10.284745
              ],
              [
                105.523909,
                10.286458
              ],
              [
                105.523822,
                10.286559
              ],
              [
                105.523721,
                10.286688
              ],
              [
                105.523615,
                10.28683
              ],
              [
                105.523525,
                10.286955
              ],
              [
                105.52346,
                10.287048
              ],
              [
                105.523411,
                10.287117
              ],
              [
                105.523371,
                10.287176
              ],
              [
                105.523332,
                10.287234
              ],
              [
                105.523291,
                10.287297
              ],
              [
                105.523243,
                10.287379
              ],
              [
                105.523172,
                10.287496
              ],
              [
                105.523065,
                10.28766
              ],
              [
                105.522932,
                10.28785
              ],
              [
                105.522807,
                10.288016
              ],
              [
                105.522712,
                10.288137
              ],
              [
                105.522647,
                10.288222
              ],
              [
                105.52259,
                10.288303
              ],
              [
                105.522518,
                10.28841
              ],
              [
                105.522416,
                10.288561
              ],
              [
                105.522297,
                10.288735
              ],
              [
                105.522189,
                10.288896
              ],
              [
                105.522092,
                10.289042
              ],
              [
                105.521988,
                10.289199
              ],
              [
                105.521865,
                10.289379
              ],
              [
                105.521727,
                10.289575
              ],
              [
                105.52158,
                10.28978
              ],
              [
                105.521435,
                10.289981
              ],
              [
                105.5213,
                10.290174
              ],
              [
                105.52117,
                10.290365
              ],
              [
                105.521039,
                10.290557
              ],
              [
                105.520913,
                10.290746
              ],
              [
                105.520803,
                10.290915
              ],
              [
                105.520718,
                10.291051
              ],
              [
                105.520653,
                10.291157
              ],
              [
                105.520586,
                10.291263
              ],
              [
                105.520508,
                10.29139
              ],
              [
                105.520425,
                10.291533
              ],
              [
                105.520337,
                10.291682
              ],
              [
                105.520227,
                10.291848
              ],
              [
                105.52009,
                10.292042
              ],
              [
                105.519933,
                10.292271
              ],
              [
                105.519755,
                10.292542
              ],
              [
                105.519569,
                10.292831
              ],
              [
                105.519407,
                10.29309
              ],
              [
                105.519285,
                10.293289
              ],
              [
                105.519193,
                10.29344
              ],
              [
                105.519114,
                10.293575
              ],
              [
                105.51903,
                10.293716
              ],
              [
                105.51893,
                10.293878
              ],
              [
                105.518808,
                10.294072
              ],
              [
                105.518664,
                10.294301
              ],
              [
                105.518511,
                10.294546
              ],
              [
                105.518367,
                10.294782
              ],
              [
                105.518244,
                10.294999
              ],
              [
                105.518138,
                10.295204
              ],
              [
                105.518044,
                10.295396
              ],
              [
                105.516973,
                10.297056
              ],
              [
                105.515951,
                10.299465
              ],
              [
                105.515393,
                10.300781
              ],
              [
                105.515397,
                10.303081
              ],
              [
                105.516225,
                10.306097
              ],
              [
                105.520936,
                10.303664
              ],
              [
                105.524654,
                10.301882
              ],
              [
                105.527055,
                10.300841
              ],
              [
                105.5307,
                10.299065
              ],
              [
                105.531995,
                10.298311
              ],
              [
                105.533666,
                10.297309
              ],
              [
                105.535129,
                10.296387
              ],
              [
                105.537528,
                10.294908
              ],
              [
                105.539029,
                10.293983
              ],
              [
                105.543005,
                10.291709
              ],
              [
                105.543673,
                10.291269
              ],
              [
                105.544914,
                10.290454
              ],
              [
                105.547112,
                10.288394
              ],
              [
                105.549951,
                10.285943
              ],
              [
                105.550962,
                10.285037
              ],
              [
                105.556552,
                10.280026
              ],
              [
                105.558531,
                10.278255
              ],
              [
                105.558979,
                10.277853
              ],
              [
                105.564457,
                10.273534
              ],
              [
                105.567226,
                10.271075
              ],
              [
                105.567407,
                10.270914
              ],
              [
                105.567408,
                10.270913
              ],
              [
                105.571122,
                10.267632
              ],
              [
                105.57384,
                10.26452
              ],
              [
                105.578471,
                10.259912
              ],
              [
                105.579159,
                10.259228
              ],
              [
                105.585409,
                10.253305
              ],
              [
                105.585661,
                10.253066
              ],
              [
                105.585991,
                10.252753
              ],
              [
                105.587219,
                10.251228
              ],
              [
                105.588818,
                10.249834
              ],
              [
                105.589809,
                10.249
              ],
              [
                105.589821,
                10.24899
              ],
              [
                105.592911,
                10.246513
              ],
              [
                105.599548,
                10.239385
              ],
              [
                105.599762,
                10.239156
              ],
              [
                105.599892,
                10.239004
              ],
              [
                105.601088,
                10.237613
              ],
              [
                105.603716,
                10.234083
              ],
              [
                105.606374,
                10.230513
              ],
              [
                105.608381,
                10.227718
              ],
              [
                105.611971,
                10.2222
              ],
              [
                105.612586,
                10.221254
              ],
              [
                105.614035,
                10.21859
              ],
              [
                105.615462,
                10.215966
              ],
              [
                105.615771,
                10.215309
              ],
              [
                105.616506,
                10.213598
              ],
              [
                105.616745,
                10.213039
              ],
              [
                105.616751,
                10.213024
              ],
              [
                105.618962,
                10.206935
              ],
              [
                105.620751,
                10.201678
              ],
              [
                105.621018,
                10.200894
              ],
              [
                105.621358,
                10.199797
              ],
              [
                105.621878,
                10.198527
              ],
              [
                105.624044,
                10.193183
              ],
              [
                105.624173,
                10.192863
              ],
              [
                105.626048,
                10.18821
              ],
              [
                105.626676,
                10.187089
              ],
              [
                105.625205,
                10.18691
              ],
              [
                105.625205,
                10.18691
              ]
            ]
          ]
        ]
      },
      "properties": {
        "code": "31213",
        "name": "Tân Lộc",
        "nameEn": "Tan Loc",
        "fullName": "Phường Tân Lộc",
        "fullNameEn": "Tan Loc Ward",
        "codeName": "tan_loc",
        "postalCode": "94412",
        "postalCodePrefix": "",
        "gisServerId": "diaphanhanhchinhcapxa_2025.215",
        "areaKm2": 33.4
      }
    }
  ]
}