{
  "type": "FeatureCollection",
  "bbox": [
    106.127307,
    9.401471,
    106.17498,
    9.534123
  ],
  "features": [
    {
      "type": "Feature",
      "id": "31679",
      "bbox": [
        106.127307,
        9.401471,
        106.17498,
        9.534123
      ],
      "geometry": {
        "type": "MultiPolygon",
        "coordinates": [
          [
            [
              [
                106.144852,
                9.53405
              ],
              [
                106.144848,
                9.532787
              ],
              [
                106.144729,
                9.53075
              ],
              [
                106.144642,
                9.52929
              ],
              [
                106.144618,
                9.528026
              ],
              [
                106.144619,
                9.527966
              ],
              [
                106.144784,
                9.527983
              ],
              [
                106.144868,
                9.527992
              ],
              [
                106.145346,
                9.528043
              ],
              [
                106.145578,
                9.528068
              ],
              [
                106.145587,
                9.52803
              ],
              [
                106.1456,
                9.527977
              ],
              [
                106.145622,
                9.527899
              ],
              [
                106.145631,
                9.527836
              ],
              [
                106.145621,
                9.527472
              ],
              [
                106.14562,
                9.527132
              ],
              [
                106.145605,
                9.526807
              ],
              [
                106.145603,
                9.526317
              ],
              [
                106.145623,
                9.525577
              ],
              [
                106.145623,
                9.525576
              ],
              [
                106.145775,
                9.525577
              ],
              [
                106.145906,
                9.525577
              ],
              [
                106.145919,
                9.525233
              ],
              [
                106.145919,
                9.52501
              ],
              [
                106.145916,
                9.524813
              ],
              [
                106.145911,
                9.524639
              ],
              [
                106.145889,
                9.523874
              ],
              [
                106.145893,
                9.52384
              ],
              [
                106.145909,
                9.523803
              ],
              [
                106.145924,
                9.523732
              ],
              [
                106.145958,
                9.523596
              ],
              [
                106.145978,
                9.523517
              ],
              [
                106.146104,
                9.522951
              ],
              [
                106.146141,
                9.522787
              ],
              [
                106.146242,
                9.522412
              ],
              [
                106.146292,
                9.522227
              ],
              [
                106.146308,
                9.522167
              ],
              [
                106.146383,
                9.52189
              ],
              [
                106.146383,
                9.521887
              ],
              [
                106.146519,
                9.521904
              ],
              [
                106.146666,
                9.52192
              ],
              [
                106.146685,
                9.521922
              ],
              [
                106.146837,
                9.521934
              ],
              [
                106.146964,
                9.521936
              ],
              [
                106.147075,
                9.521932
              ],
              [
                106.147087,
                9.521931
              ],
              [
                106.147088,
                9.521918
              ],
              [
                106.147096,
                9.52179
              ],
              [
                106.147122,
                9.521374
              ],
              [
                106.147157,
                9.520753
              ],
              [
                106.147199,
                9.519809
              ],
              [
                106.1472,
                9.519789
              ],
              [
                106.147246,
                9.519149
              ],
              [
                106.147253,
                9.519052
              ],
              [
                106.147299,
                9.518361
              ],
              [
                106.14731,
                9.518195
              ],
              [
                106.147252,
                9.51819
              ],
              [
                106.147273,
                9.517907
              ],
              [
                106.147323,
                9.517298
              ],
              [
                106.147365,
                9.516799
              ],
              [
                106.147375,
                9.516689
              ],
              [
                106.147416,
                9.515428
              ],
              [
                106.147432,
                9.515322
              ],
              [
                106.147442,
                9.515259
              ],
              [
                106.14745,
                9.515204
              ],
              [
                106.147465,
                9.515106
              ],
              [
                106.147467,
                9.515096
              ],
              [
                106.14762,
                9.514469
              ],
              [
                106.147692,
                9.51414
              ],
              [
                106.147865,
                9.51357
              ],
              [
                106.147921,
                9.513385
              ],
              [
                106.148087,
                9.512718
              ],
              [
                106.148238,
                9.511972
              ],
              [
                106.148236,
                9.511958
              ],
              [
                106.148234,
                9.511937
              ],
              [
                106.148209,
                9.511685
              ],
              [
                106.148153,
                9.511055
              ],
              [
                106.148106,
                9.510478
              ],
              [
                106.148106,
                9.510341
              ],
              [
                106.148106,
                9.509956
              ],
              [
                106.148103,
                9.50937
              ],
              [
                106.148132,
                9.508765
              ],
              [
                106.14814,
                9.508599
              ],
              [
                106.148142,
                9.50858
              ],
              [
                106.148424,
                9.508629
              ],
              [
                106.148424,
                9.508612
              ],
              [
                106.14844,
                9.508005
              ],
              [
                106.148465,
                9.507629
              ],
              [
                106.148489,
                9.50735
              ],
              [
                106.148539,
                9.506867
              ],
              [
                106.148553,
                9.506734
              ],
              [
                106.148588,
                9.506093
              ],
              [
                106.148626,
                9.505463
              ],
              [
                106.148642,
                9.505238
              ],
              [
                106.14867,
                9.504849
              ],
              [
                106.148705,
                9.504214
              ],
              [
                106.148752,
                9.503559
              ],
              [
                106.14879,
                9.502888
              ],
              [
                106.148798,
                9.502327
              ],
              [
                106.148798,
                9.502316
              ],
              [
                106.148802,
                9.502233
              ],
              [
                106.148804,
                9.502192
              ],
              [
                106.148805,
                9.502176
              ],
              [
                106.14881,
                9.502177
              ],
              [
                106.150839,
                9.502493
              ],
              [
                106.154641,
                9.503126
              ],
              [
                106.158113,
                9.503704
              ],
              [
                106.162189,
                9.504369
              ],
              [
                106.16372,
                9.504619
              ],
              [
                106.163797,
                9.504631
              ],
              [
                106.163812,
                9.504634
              ],
              [
                106.16382,
                9.504606
              ],
              [
                106.163843,
                9.50453
              ],
              [
                106.163872,
                9.504436
              ],
              [
                106.163902,
                9.504338
              ],
              [
                106.163928,
                9.504233
              ],
              [
                106.163947,
                9.504118
              ],
              [
                106.163962,
                9.504
              ],
              [
                106.163976,
                9.50388
              ],
              [
                106.163987,
                9.503756
              ],
              [
                106.163991,
                9.503615
              ],
              [
                106.163991,
                9.503452
              ],
              [
                106.163989,
                9.503282
              ],
              [
                106.163985,
                9.503091
              ],
              [
                106.163979,
                9.502891
              ],
              [
                106.163972,
                9.502699
              ],
              [
                106.163966,
                9.502513
              ],
              [
                106.163964,
                9.502346
              ],
              [
                106.163969,
                9.502192
              ],
              [
                106.16398,
                9.502034
              ],
              [
                106.163992,
                9.501876
              ],
              [
                106.164008,
                9.501723
              ],
              [
                106.164028,
                9.501584
              ],
              [
                106.16405,
                9.501456
              ],
              [
                106.164074,
                9.50133
              ],
              [
                106.164105,
                9.501199
              ],
              [
                106.164146,
                9.501057
              ],
              [
                106.1642,
                9.500899
              ],
              [
                106.164268,
                9.500725
              ],
              [
                106.164341,
                9.500548
              ],
              [
                106.164413,
                9.500376
              ],
              [
                106.164472,
                9.50023
              ],
              [
                106.164513,
                9.500114
              ],
              [
                106.164546,
                9.500007
              ],
              [
                106.164576,
                9.499905
              ],
              [
                106.164601,
                9.499819
              ],
              [
                106.164616,
                9.499765
              ],
              [
                106.164625,
                9.499735
              ],
              [
                106.164633,
                9.499713
              ],
              [
                106.164641,
                9.499687
              ],
              [
                106.164646,
                9.499652
              ],
              [
                106.16465,
                9.499612
              ],
              [
                106.164653,
                9.499576
              ],
              [
                106.164653,
                9.499548
              ],
              [
                106.164653,
                9.499523
              ],
              [
                106.164652,
                9.499501
              ],
              [
                106.164649,
                9.499483
              ],
              [
                106.164646,
                9.499469
              ],
              [
                106.164644,
                9.499455
              ],
              [
                106.164642,
                9.499441
              ],
              [
                106.16464,
                9.499423
              ],
              [
                106.164639,
                9.4994
              ],
              [
                106.164636,
                9.499371
              ],
              [
                106.164634,
                9.499332
              ],
              [
                106.164573,
                9.498987
              ],
              [
                106.164476,
                9.498412
              ],
              [
                106.164443,
                9.497874
              ],
              [
                106.164398,
                9.497299
              ],
              [
                106.164389,
                9.496754
              ],
              [
                106.164395,
                9.496373
              ],
              [
                106.164437,
                9.496072
              ],
              [
                106.164544,
                9.495691
              ],
              [
                106.164612,
                9.495427
              ],
              [
                106.164632,
                9.495343
              ],
              [
                106.164702,
                9.495046
              ],
              [
                106.16474,
                9.494765
              ],
              [
                106.164752,
                9.494358
              ],
              [
                106.164739,
                9.494201
              ],
              [
                106.164705,
                9.493797
              ],
              [
                106.164659,
                9.493135
              ],
              [
                106.164671,
                9.492403
              ],
              [
                106.164671,
                9.492342
              ],
              [
                106.16467,
                9.492317
              ],
              [
                106.164699,
                9.49226
              ],
              [
                106.164771,
                9.492259
              ],
              [
                106.164773,
                9.492259
              ],
              [
                106.164945,
                9.492273
              ],
              [
                106.164964,
                9.492276
              ],
              [
                106.165339,
                9.492344
              ],
              [
                106.165495,
                9.492372
              ],
              [
                106.166218,
                9.492549
              ],
              [
                106.167256,
                9.492762
              ],
              [
                106.168237,
                9.492959
              ],
              [
                106.169292,
                9.493156
              ],
              [
                106.169967,
                9.493257
              ],
              [
                106.170359,
                9.493328
              ],
              [
                106.170719,
                9.493395
              ],
              [
                106.171428,
                9.493543
              ],
              [
                106.172007,
                9.493693
              ],
              [
                106.172361,
                9.493784
              ],
              [
                106.172795,
                9.49384
              ],
              [
                106.173019,
                9.493868
              ],
              [
                106.173034,
                9.493726
              ],
              [
                106.173082,
                9.493265
              ],
              [
                106.173258,
                9.491671
              ],
              [
                106.173348,
                9.490666
              ],
              [
                106.173516,
                9.489086
              ],
              [
                106.173636,
                9.488045
              ],
              [
                106.173678,
                9.487492
              ],
              [
                106.173705,
                9.487133
              ],
              [
                106.173711,
                9.487062
              ],
              [
                106.173724,
                9.486893
              ],
              [
                106.173754,
                9.48653
              ],
              [
                106.173907,
                9.484771
              ],
              [
                106.174109,
                9.48266
              ],
              [
                106.174213,
                9.481396
              ],
              [
                106.17438,
                9.479393
              ],
              [
                106.174461,
                9.478635
              ],
              [
                106.174478,
                9.478474
              ],
              [
                106.174573,
                9.477341
              ],
              [
                106.174582,
                9.477225
              ],
              [
                106.174714,
                9.475667
              ],
              [
                106.174819,
                9.474661
              ],
              [
                106.174867,
                9.473915
              ],
              [
                106.17498,
                9.472932
              ],
              [
                106.17498,
                9.472931
              ],
              [
                106.17498,
                9.472929
              ],
              [
                106.174962,
                9.472751
              ],
              [
                106.174957,
                9.472701
              ],
              [
                106.174926,
                9.472574
              ],
              [
                106.174906,
                9.472493
              ],
              [
                106.174818,
                9.472269
              ],
              [
                106.174817,
                9.472268
              ],
              [
                106.174585,
                9.471676
              ],
              [
                106.174446,
                9.471296
              ],
              [
                106.174286,
                9.470799
              ],
              [
                106.174283,
                9.47079
              ],
              [
                106.174213,
                9.470572
              ],
              [
                106.173818,
                9.469432
              ],
              [
                106.173321,
                9.467869
              ],
              [
                106.172991,
                9.46685
              ],
              [
                106.172927,
                9.46665
              ],
              [
                106.172569,
                9.465582
              ],
              [
                106.172532,
                9.465477
              ],
              [
                106.172029,
                9.464062
              ],
              [
                106.171656,
                9.462972
              ],
              [
                106.171532,
                9.462569
              ],
              [
                106.171465,
                9.462351
              ],
              [
                106.171411,
                9.462176
              ],
              [
                106.171393,
                9.462119
              ],
              [
                106.171347,
                9.46198
              ],
              [
                106.17097,
                9.460864
              ],
              [
                106.170313,
                9.458942
              ],
              [
                106.169955,
                9.457845
              ],
              [
                106.169626,
                9.456978
              ],
              [
                106.169298,
                9.455988
              ],
              [
                106.169035,
                9.455293
              ],
              [
                106.168597,
                9.454089
              ],
              [
                106.168312,
                9.453164
              ],
              [
                106.168071,
                9.452368
              ],
              [
                106.167699,
                9.451342
              ],
              [
                106.16726,
                9.449958
              ],
              [
                106.166793,
                9.448596
              ],
              [
                106.166581,
                9.447915
              ],
              [
                106.166209,
                9.446861
              ],
              [
                106.165844,
                9.445757
              ],
              [
                106.165517,
                9.444728
              ],
              [
                106.165378,
                9.44433
              ],
              [
                106.165242,
                9.443928
              ],
              [
                106.1651,
                9.443528
              ],
              [
                106.164957,
                9.443119
              ],
              [
                106.164838,
                9.442703
              ],
              [
                106.164701,
                9.442295
              ],
              [
                106.164563,
                9.441886
              ],
              [
                106.164425,
                9.441478
              ],
              [
                106.164295,
                9.441068
              ],
              [
                106.164151,
                9.440664
              ],
              [
                106.164023,
                9.440257
              ],
              [
                106.16389,
                9.43985
              ],
              [
                106.163759,
                9.439441
              ],
              [
                106.163619,
                9.439039
              ],
              [
                106.163479,
                9.438625
              ],
              [
                106.163341,
                9.438218
              ],
              [
                106.163276,
                9.438019
              ],
              [
                106.163203,
                9.437815
              ],
              [
                106.163044,
                9.437409
              ],
              [
                106.16288,
                9.437017
              ],
              [
                106.16269,
                9.43659
              ],
              [
                106.1623,
                9.435604
              ],
              [
                106.161987,
                9.434834
              ],
              [
                106.161928,
                9.434697
              ],
              [
                106.161393,
                9.43354
              ],
              [
                106.160934,
                9.432487
              ],
              [
                106.16083,
                9.432245
              ],
              [
                106.160599,
                9.431705
              ],
              [
                106.1603,
                9.431046
              ],
              [
                106.160279,
                9.431009
              ],
              [
                106.160113,
                9.430719
              ],
              [
                106.160017,
                9.430552
              ],
              [
                106.15999,
                9.430495
              ],
              [
                106.159835,
                9.430172
              ],
              [
                106.159798,
                9.429949
              ],
              [
                106.159862,
                9.429806
              ],
              [
                106.159999,
                9.429647
              ],
              [
                106.160189,
                9.429518
              ],
              [
                106.160295,
                9.429445
              ],
              [
                106.160721,
                9.429164
              ],
              [
                106.161051,
                9.428988
              ],
              [
                106.161262,
                9.428875
              ],
              [
                106.161875,
                9.428529
              ],
              [
                106.162449,
                9.428205
              ],
              [
                106.162553,
                9.428146
              ],
              [
                106.162659,
                9.42808
              ],
              [
                106.164148,
                9.427157
              ],
              [
                106.165475,
                9.426378
              ],
              [
                106.166803,
                9.425605
              ],
              [
                106.168229,
                9.424825
              ],
              [
                106.168335,
                9.424767
              ],
              [
                106.168361,
                9.424753
              ],
              [
                106.168503,
                9.424667
              ],
              [
                106.168608,
                9.424603
              ],
              [
                106.168706,
                9.424544
              ],
              [
                106.1688,
                9.424417
              ],
              [
                106.168805,
                9.424403
              ],
              [
                106.16889,
                9.424165
              ],
              [
                106.168941,
                9.423968
              ],
              [
                106.166599,
                9.420756
              ],
              [
                106.165825,
                9.420349
              ],
              [
                106.165645,
                9.42023
              ],
              [
                106.164375,
                9.419394
              ],
              [
                106.163658,
                9.418914
              ],
              [
                106.162941,
                9.418437
              ],
              [
                106.162723,
                9.418292
              ],
              [
                106.162399,
                9.418061
              ],
              [
                106.162004,
                9.417779
              ],
              [
                106.161436,
                9.41737
              ],
              [
                106.161101,
                9.41713
              ],
              [
                106.16088,
                9.416911
              ],
              [
                106.160544,
                9.416568
              ],
              [
                106.160108,
                9.416124
              ],
              [
                106.158915,
                9.41486
              ],
              [
                106.158668,
                9.414598
              ],
              [
                106.158445,
                9.414362
              ],
              [
                106.157972,
                9.41386
              ],
              [
                106.157648,
                9.413498
              ],
              [
                106.157172,
                9.412966
              ],
              [
                106.156238,
                9.411923
              ],
              [
                106.156133,
                9.411806
              ],
              [
                106.156035,
                9.411697
              ],
              [
                106.15419,
                9.41003
              ],
              [
                106.153452,
                9.409363
              ],
              [
                106.152485,
                9.408489
              ],
              [
                106.15084,
                9.407044
              ],
              [
                106.150416,
                9.406672
              ],
              [
                106.148583,
                9.405107
              ],
              [
                106.147674,
                9.404364
              ],
              [
                106.147044,
                9.403849
              ],
              [
                106.146995,
                9.403812
              ],
              [
                106.146777,
                9.403646
              ],
              [
                106.146531,
                9.403459
              ],
              [
                106.145641,
                9.402756
              ],
              [
                106.144916,
                9.402329
              ],
              [
                106.144317,
                9.401976
              ],
              [
                106.143211,
                9.401528
              ],
              [
                106.141801,
                9.401471
              ],
              [
                106.140645,
                9.401632
              ],
              [
                106.14019,
                9.401788
              ],
              [
                106.139783,
                9.401928
              ],
              [
                106.139018,
                9.402393
              ],
              [
                106.138607,
                9.402698
              ],
              [
                106.138066,
                9.403239
              ],
              [
                106.137635,
                9.403758
              ],
              [
                106.136165,
                9.405816
              ],
              [
                106.136066,
                9.405954
              ],
              [
                106.135936,
                9.406147
              ],
              [
                106.135579,
                9.406675
              ],
              [
                106.135295,
                9.407095
              ],
              [
                106.135003,
                9.407528
              ],
              [
                106.134384,
                9.408442
              ],
              [
                106.133307,
                9.410036
              ],
              [
                106.133207,
                9.410184
              ],
              [
                106.132464,
                9.411188
              ],
              [
                106.130925,
                9.412499
              ],
              [
                106.13056,
                9.412811
              ],
              [
                106.130564,
                9.412816
              ],
              [
                106.131122,
                9.413497
              ],
              [
                106.131435,
                9.413938
              ],
              [
                106.131592,
                9.414177
              ],
              [
                106.131407,
                9.414369
              ],
              [
                106.131257,
                9.414525
              ],
              [
                106.130913,
                9.414875
              ],
              [
                106.130725,
                9.415033
              ],
              [
                106.130661,
                9.415227
              ],
              [
                106.130661,
                9.415246
              ],
              [
                106.130661,
                9.415349
              ],
              [
                106.130704,
                9.415462
              ],
              [
                106.130712,
                9.415485
              ],
              [
                106.130814,
                9.415643
              ],
              [
                106.130937,
                9.41575
              ],
              [
                106.131155,
                9.415857
              ],
              [
                106.131423,
                9.416014
              ],
              [
                106.131553,
                9.416115
              ],
              [
                106.131618,
                9.416164
              ],
              [
                106.131814,
                9.416379
              ],
              [
                106.131981,
                9.416738
              ],
              [
                106.132127,
                9.41701
              ],
              [
                106.132153,
                9.417054
              ],
              [
                106.132338,
                9.417368
              ],
              [
                106.132577,
                9.417654
              ],
              [
                106.132882,
                9.417905
              ],
              [
                106.133273,
                9.41827
              ],
              [
                106.133397,
                9.41842
              ],
              [
                106.133476,
                9.418534
              ],
              [
                106.133491,
                9.418692
              ],
              [
                106.133442,
                9.418994
              ],
              [
                106.133411,
                9.41906
              ],
              [
                106.133363,
                9.419161
              ],
              [
                106.133313,
                9.419267
              ],
              [
                106.133046,
                9.419541
              ],
              [
                106.132801,
                9.419735
              ],
              [
                106.132621,
                9.419894
              ],
              [
                106.132556,
                9.420066
              ],
              [
                106.132521,
                9.420267
              ],
              [
                106.132536,
                9.420389
              ],
              [
                106.13235,
                9.420462
              ],
              [
                106.13202,
                9.420592
              ],
              [
                106.131769,
                9.420714
              ],
              [
                106.131509,
                9.420814
              ],
              [
                106.13134,
                9.420908
              ],
              [
                106.131241,
                9.420975
              ],
              [
                106.131116,
                9.421077
              ],
              [
                106.131063,
                9.421133
              ],
              [
                106.130964,
                9.421244
              ],
              [
                106.130887,
                9.421371
              ],
              [
                106.130861,
                9.421405
              ],
              [
                106.130816,
                9.42144
              ],
              [
                106.130679,
                9.421497
              ],
              [
                106.130606,
                9.421517
              ],
              [
                106.13053,
                9.421524
              ],
              [
                106.130374,
                9.42151
              ],
              [
                106.130153,
                9.421476
              ],
              [
                106.130106,
                9.421469
              ],
              [
                106.130064,
                9.421476
              ],
              [
                106.130036,
                9.421498
              ],
              [
                106.130003,
                9.421551
              ],
              [
                106.129968,
                9.421663
              ],
              [
                106.129638,
                9.421721
              ],
              [
                106.128027,
                9.422003
              ],
              [
                106.127946,
                9.422017
              ],
              [
                106.128076,
                9.422851
              ],
              [
                106.128378,
                9.424595
              ],
              [
                106.128486,
                9.425083
              ],
              [
                106.128954,
                9.426751
              ],
              [
                106.13091,
                9.431276
              ],
              [
                106.130941,
                9.431339
              ],
              [
                106.131059,
                9.431345
              ],
              [
                106.132188,
                9.431427
              ],
              [
                106.132984,
                9.431496
              ],
              [
                106.133032,
                9.431514
              ],
              [
                106.133044,
                9.431609
              ],
              [
                106.133016,
                9.432196
              ],
              [
                106.132936,
                9.433416
              ],
              [
                106.132908,
                9.434134
              ],
              [
                106.132818,
                9.435712
              ],
              [
                106.132778,
                9.4364
              ],
              [
                106.132777,
                9.436474
              ],
              [
                106.132774,
                9.436876
              ],
              [
                106.132774,
                9.436884
              ],
              [
                106.132716,
                9.437699
              ],
              [
                106.132704,
                9.437866
              ],
              [
                106.132618,
                9.439128
              ],
              [
                106.132531,
                9.439972
              ],
              [
                106.132525,
                9.440037
              ],
              [
                106.132508,
                9.440552
              ],
              [
                106.132433,
                9.441384
              ],
              [
                106.132298,
                9.442592
              ],
              [
                106.132189,
                9.444166
              ],
              [
                106.132157,
                9.444711
              ],
              [
                106.132157,
                9.444712
              ],
              [
                106.132132,
                9.445153
              ],
              [
                106.132067,
                9.445674
              ],
              [
                106.131863,
                9.44784
              ],
              [
                106.13173,
                9.449366
              ],
              [
                106.131728,
                9.449463
              ],
              [
                106.131725,
                9.449619
              ],
              [
                106.131724,
                9.449645
              ],
              [
                106.131723,
                9.449698
              ],
              [
                106.13172,
                9.44988
              ],
              [
                106.131695,
                9.450137
              ],
              [
                106.131626,
                9.450855
              ],
              [
                106.131563,
                9.451831
              ],
              [
                106.131537,
                9.452369
              ],
              [
                106.131529,
                9.452519
              ],
              [
                106.131471,
                9.453248
              ],
              [
                106.13146,
                9.453352
              ],
              [
                106.131378,
                9.454086
              ],
              [
                106.131302,
                9.45496
              ],
              [
                106.131265,
                9.455388
              ],
              [
                106.131256,
                9.455482
              ],
              [
                106.131255,
                9.455498
              ],
              [
                106.131248,
                9.455577
              ],
              [
                106.131238,
                9.455684
              ],
              [
                106.131232,
                9.455801
              ],
              [
                106.131193,
                9.456515
              ],
              [
                106.131142,
                9.45758
              ],
              [
                106.131103,
                9.45875
              ],
              [
                106.131093,
                9.45907
              ],
              [
                106.131119,
                9.459812
              ],
              [
                106.131166,
                9.461181
              ],
              [
                106.131193,
                9.462102
              ],
              [
                106.131209,
                9.462205
              ],
              [
                106.13122,
                9.462272
              ],
              [
                106.131255,
                9.462491
              ],
              [
                106.13125,
                9.462874
              ],
              [
                106.13127,
                9.46349
              ],
              [
                106.131303,
                9.464375
              ],
              [
                106.131337,
                9.465691
              ],
              [
                106.131383,
                9.466702
              ],
              [
                106.131429,
                9.467802
              ],
              [
                106.131468,
                9.468909
              ],
              [
                106.131495,
                9.469553
              ],
              [
                106.131496,
                9.469575
              ],
              [
                106.131497,
                9.469607
              ],
              [
                106.131497,
                9.469607
              ],
              [
                106.1315,
                9.469678
              ],
              [
                106.131501,
                9.469701
              ],
              [
                106.131501,
                9.46971
              ],
              [
                106.131515,
                9.470236
              ],
              [
                106.131541,
                9.47096
              ],
              [
                106.131553,
                9.471392
              ],
              [
                106.131569,
                9.471977
              ],
              [
                106.131617,
                9.472977
              ],
              [
                106.131627,
                9.473197
              ],
              [
                106.131627,
                9.473199
              ],
              [
                106.13163,
                9.474016
              ],
              [
                106.131658,
                9.4745
              ],
              [
                106.131681,
                9.47489
              ],
              [
                106.131696,
                9.475966
              ],
              [
                106.131723,
                9.476582
              ],
              [
                106.131753,
                9.477174
              ],
              [
                106.131761,
                9.47733
              ],
              [
                106.131776,
                9.477574
              ],
              [
                106.131831,
                9.478484
              ],
              [
                106.131829,
                9.478577
              ],
              [
                106.131829,
                9.478581
              ],
              [
                106.131828,
                9.478615
              ],
              [
                106.131821,
                9.478951
              ],
              [
                106.131836,
                9.479613
              ],
              [
                106.131842,
                9.479884
              ],
              [
                106.13185,
                9.480637
              ],
              [
                106.131882,
                9.481124
              ],
              [
                106.131888,
                9.481224
              ],
              [
                106.131892,
                9.48134
              ],
              [
                106.131936,
                9.482767
              ],
              [
                106.13198,
                9.483658
              ],
              [
                106.13198,
                9.483664
              ],
              [
                106.131981,
                9.483679
              ],
              [
                106.131981,
                9.483682
              ],
              [
                106.131981,
                9.483683
              ],
              [
                106.131988,
                9.484047
              ],
              [
                106.132003,
                9.484896
              ],
              [
                106.132038,
                9.486337
              ],
              [
                106.132091,
                9.487904
              ],
              [
                106.132124,
                9.488867
              ],
              [
                106.132133,
                9.489189
              ],
              [
                106.132136,
                9.489313
              ],
              [
                106.130966,
                9.48934
              ],
              [
                106.130389,
                9.48935
              ],
              [
                106.129226,
                9.489384
              ],
              [
                106.129235,
                9.489541
              ],
              [
                106.129235,
                9.489543
              ],
              [
                106.129286,
                9.49004
              ],
              [
                106.129328,
                9.490463
              ],
              [
                106.129347,
                9.490642
              ],
              [
                106.128393,
                9.490838
              ],
              [
                106.128373,
                9.490842
              ],
              [
                106.128521,
                9.491695
              ],
              [
                106.12866,
                9.492619
              ],
              [
                106.127307,
                9.492693
              ],
              [
                106.127399,
                9.494144
              ],
              [
                106.127461,
                9.49514
              ],
              [
                106.127503,
                9.495836
              ],
              [
                106.127518,
                9.496211
              ],
              [
                106.12752,
                9.496279
              ],
              [
                106.127523,
                9.496342
              ],
              [
                106.127523,
                9.49635
              ],
              [
                106.127555,
                9.497181
              ],
              [
                106.127604,
                9.498386
              ],
              [
                106.127613,
                9.498982
              ],
              [
                106.127696,
                9.500809
              ],
              [
                106.127696,
                9.50081
              ],
              [
                106.127717,
                9.50081
              ],
              [
                106.127718,
                9.50081
              ],
              [
                106.127731,
                9.500811
              ],
              [
                106.128212,
                9.500834
              ],
              [
                106.128208,
                9.500932
              ],
              [
                106.128204,
                9.501051
              ],
              [
                106.128205,
                9.501709
              ],
              [
                106.128185,
                9.502533
              ],
              [
                106.128147,
                9.503332
              ],
              [
                106.128118,
                9.503957
              ],
              [
                106.128117,
                9.503976
              ],
              [
                106.128111,
                9.504095
              ],
              [
                106.12811,
                9.504291
              ],
              [
                106.128075,
                9.504837
              ],
              [
                106.12804,
                9.505657
              ],
              [
                106.127999,
                9.506709
              ],
              [
                106.127975,
                9.507318
              ],
              [
                106.128764,
                9.50734
              ],
              [
                106.129319,
                9.507348
              ],
              [
                106.129318,
                9.50736
              ],
              [
                106.129311,
                9.507424
              ],
              [
                106.129258,
                9.50792
              ],
              [
                106.129202,
                9.508409
              ],
              [
                106.129174,
                9.508658
              ],
              [
                106.129107,
                9.509435
              ],
              [
                106.129073,
                9.50989
              ],
              [
                106.129048,
                9.510089
              ],
              [
                106.128965,
                9.510766
              ],
              [
                106.128847,
                9.511804
              ],
              [
                106.128827,
                9.511993
              ],
              [
                106.12877,
                9.512523
              ],
              [
                106.128668,
                9.513496
              ],
              [
                106.128653,
                9.513619
              ],
              [
                106.128645,
                9.513682
              ],
              [
                106.128645,
                9.513683
              ],
              [
                106.130497,
                9.513761
              ],
              [
                106.130492,
                9.513823
              ],
              [
                106.130425,
                9.514788
              ],
              [
                106.130094,
                9.516735
              ],
              [
                106.12996,
                9.517845
              ],
              [
                106.129865,
                9.518002
              ],
              [
                106.12974,
                9.518369
              ],
              [
                106.129468,
                9.519406
              ],
              [
                106.129417,
                9.519772
              ],
              [
                106.129397,
                9.520138
              ],
              [
                106.12945,
                9.520358
              ],
              [
                106.129451,
                9.520536
              ],
              [
                106.129415,
                9.520704
              ],
              [
                106.129433,
                9.520747
              ],
              [
                106.129433,
                9.520777
              ],
              [
                106.129433,
                9.520779
              ],
              [
                106.129433,
                9.520781
              ],
              [
                106.129435,
                9.52085
              ],
              [
                106.129438,
                9.520986
              ],
              [
                106.12944,
                9.521051
              ],
              [
                106.129443,
                9.521188
              ],
              [
                106.129451,
                9.521526
              ],
              [
                106.129458,
                9.521793
              ],
              [
                106.129461,
                9.52191
              ],
              [
                106.129339,
                9.521899
              ],
              [
                106.129357,
                9.522522
              ],
              [
                106.129363,
                9.522723
              ],
              [
                106.129371,
                9.522984
              ],
              [
                106.129804,
                9.523013
              ],
              [
                106.129971,
                9.52302
              ],
              [
                106.130092,
                9.523131
              ],
              [
                106.131128,
                9.524866
              ],
              [
                106.131273,
                9.525052
              ],
              [
                106.131628,
                9.525748
              ],
              [
                106.131811,
                9.526077
              ],
              [
                106.132401,
                9.527133
              ],
              [
                106.132448,
                9.527198
              ],
              [
                106.132496,
                9.527262
              ],
              [
                106.132633,
                9.527449
              ],
              [
                106.133935,
                9.528898
              ],
              [
                106.134645,
                9.530041
              ],
              [
                106.134677,
                9.530092
              ],
              [
                106.135319,
                9.531048
              ],
              [
                106.135442,
                9.531474
              ],
              [
                106.135737,
                9.532039
              ],
              [
                106.13623,
                9.532864
              ],
              [
                106.136275,
                9.53294
              ],
              [
                106.13632,
                9.533015
              ],
              [
                106.136706,
                9.533803
              ],
              [
                106.137058,
                9.533821
              ],
              [
                106.137182,
                9.533817
              ],
              [
                106.137229,
                9.533816
              ],
              [
                106.137257,
                9.533815
              ],
              [
                106.137359,
                9.533813
              ],
              [
                106.137492,
                9.533836
              ],
              [
                106.137709,
                9.53386
              ],
              [
                106.137826,
                9.533868
              ],
              [
                106.137982,
                9.533877
              ],
              [
                106.138129,
                9.533887
              ],
              [
                106.138279,
                9.533896
              ],
              [
                106.138511,
                9.533908
              ],
              [
                106.139049,
                9.533929
              ],
              [
                106.140101,
                9.533965
              ],
              [
                106.141467,
                9.53401
              ],
              [
                106.142833,
                9.534054
              ],
              [
                106.143893,
                9.534089
              ],
              [
                106.144526,
                9.534111
              ],
              [
                106.144853,
                9.534123
              ],
              [
                106.144852,
                9.53405
              ],
              [
                106.144852,
                9.53405
              ]
            ]
          ]
        ]
      },
      "properties": {
        "code": "31679",
        "name": "Lịch Hội Thượng",
        "nameEn": "Lich Hoi Thuong",
        "fullName": "Xã Lịch Hội Thượng",
        "fullNameEn": "Lich Hoi Thuong Commune",
        "codeName": "lich_hoi_thuong",
        "postalCode": "96709",
        "postalCodePrefix": "",
        "gisServerId": "diaphanhanhchinhcapxa_2025.286",
        "areaKm2": 48.99
      }
    }
  ]
}