{
  "type": "FeatureCollection",
  "bbox": [
    106.04541,
    9.412811,
    106.137359,
    9.547519
  ],
  "features": [
    {
      "type": "Feature",
      "id": "31675",
      "bbox": [
        106.04541,
        9.412811,
        106.137359,
        9.547519
      ],
      "geometry": {
        "type": "MultiPolygon",
        "coordinates": [
          [
            [
              [
                106.1278,
                9.53874
              ],
              [
                106.127863,
                9.538727
              ],
              [
                106.127865,
                9.538733
              ],
              [
                106.127875,
                9.538764
              ],
              [
                106.127887,
                9.538799
              ],
              [
                106.127908,
                9.538845
              ],
              [
                106.127943,
                9.53891
              ],
              [
                106.127956,
                9.538934
              ],
              [
                106.127986,
                9.538988
              ],
              [
                106.128029,
                9.539067
              ],
              [
                106.128065,
                9.539135
              ],
              [
                106.128087,
                9.539188
              ],
              [
                106.128091,
                9.539198
              ],
              [
                106.128102,
                9.53923
              ],
              [
                106.128114,
                9.539269
              ],
              [
                106.128118,
                9.539282
              ],
              [
                106.128119,
                9.539282
              ],
              [
                106.128183,
                9.539277
              ],
              [
                106.128601,
                9.539243
              ],
              [
                106.130889,
                9.539296
              ],
              [
                106.134819,
                9.539585
              ],
              [
                106.136117,
                9.539651
              ],
              [
                106.136259,
                9.539658
              ],
              [
                106.136264,
                9.53963
              ],
              [
                106.136286,
                9.539525
              ],
              [
                106.136326,
                9.539325
              ],
              [
                106.136375,
                9.539076
              ],
              [
                106.136424,
                9.538826
              ],
              [
                106.136463,
                9.53862
              ],
              [
                106.136493,
                9.538468
              ],
              [
                106.136527,
                9.538293
              ],
              [
                106.136569,
                9.538073
              ],
              [
                106.1366,
                9.537904
              ],
              [
                106.136619,
                9.537803
              ],
              [
                106.136634,
                9.537725
              ],
              [
                106.136654,
                9.537616
              ],
              [
                106.13669,
                9.537419
              ],
              [
                106.136738,
                9.537165
              ],
              [
                106.136772,
                9.536979
              ],
              [
                106.13679,
                9.536886
              ],
              [
                106.13681,
                9.536776
              ],
              [
                106.136855,
                9.536537
              ],
              [
                106.136915,
                9.536214
              ],
              [
                106.13696,
                9.535971
              ],
              [
                106.136985,
                9.535836
              ],
              [
                106.137019,
                9.535655
              ],
              [
                106.137078,
                9.535329
              ],
              [
                106.137142,
                9.534978
              ],
              [
                106.137195,
                9.534684
              ],
              [
                106.137242,
                9.534419
              ],
              [
                106.137276,
                9.534229
              ],
              [
                106.137296,
                9.534118
              ],
              [
                106.137308,
                9.534051
              ],
              [
                106.137316,
                9.534009
              ],
              [
                106.137328,
                9.533953
              ],
              [
                106.137346,
                9.53387
              ],
              [
                106.137359,
                9.533813
              ],
              [
                106.137257,
                9.533815
              ],
              [
                106.137229,
                9.533816
              ],
              [
                106.137182,
                9.533817
              ],
              [
                106.137058,
                9.533821
              ],
              [
                106.136706,
                9.533803
              ],
              [
                106.13632,
                9.533015
              ],
              [
                106.136275,
                9.53294
              ],
              [
                106.13623,
                9.532864
              ],
              [
                106.135737,
                9.532039
              ],
              [
                106.135442,
                9.531474
              ],
              [
                106.135319,
                9.531048
              ],
              [
                106.134677,
                9.530092
              ],
              [
                106.134645,
                9.530041
              ],
              [
                106.133935,
                9.528898
              ],
              [
                106.132633,
                9.527449
              ],
              [
                106.132496,
                9.527262
              ],
              [
                106.132448,
                9.527198
              ],
              [
                106.132401,
                9.527133
              ],
              [
                106.131811,
                9.526077
              ],
              [
                106.131628,
                9.525748
              ],
              [
                106.131273,
                9.525052
              ],
              [
                106.131128,
                9.524866
              ],
              [
                106.130092,
                9.523131
              ],
              [
                106.129971,
                9.52302
              ],
              [
                106.129804,
                9.523013
              ],
              [
                106.129371,
                9.522984
              ],
              [
                106.129363,
                9.522723
              ],
              [
                106.129357,
                9.522522
              ],
              [
                106.129339,
                9.521899
              ],
              [
                106.129461,
                9.52191
              ],
              [
                106.129458,
                9.521793
              ],
              [
                106.129451,
                9.521526
              ],
              [
                106.129443,
                9.521188
              ],
              [
                106.12944,
                9.521051
              ],
              [
                106.129438,
                9.520986
              ],
              [
                106.129435,
                9.52085
              ],
              [
                106.129433,
                9.520781
              ],
              [
                106.129433,
                9.520779
              ],
              [
                106.129433,
                9.520777
              ],
              [
                106.129433,
                9.520747
              ],
              [
                106.129415,
                9.520704
              ],
              [
                106.129451,
                9.520536
              ],
              [
                106.12945,
                9.520358
              ],
              [
                106.129397,
                9.520138
              ],
              [
                106.129417,
                9.519772
              ],
              [
                106.129468,
                9.519406
              ],
              [
                106.12974,
                9.518369
              ],
              [
                106.129865,
                9.518002
              ],
              [
                106.12996,
                9.517845
              ],
              [
                106.130094,
                9.516735
              ],
              [
                106.130425,
                9.514788
              ],
              [
                106.130492,
                9.513823
              ],
              [
                106.130497,
                9.513761
              ],
              [
                106.128645,
                9.513683
              ],
              [
                106.128645,
                9.513682
              ],
              [
                106.128653,
                9.513619
              ],
              [
                106.128668,
                9.513496
              ],
              [
                106.12877,
                9.512523
              ],
              [
                106.128827,
                9.511993
              ],
              [
                106.128847,
                9.511804
              ],
              [
                106.128965,
                9.510766
              ],
              [
                106.129048,
                9.510089
              ],
              [
                106.129073,
                9.50989
              ],
              [
                106.129107,
                9.509435
              ],
              [
                106.129174,
                9.508658
              ],
              [
                106.129202,
                9.508409
              ],
              [
                106.129258,
                9.50792
              ],
              [
                106.129311,
                9.507424
              ],
              [
                106.129318,
                9.50736
              ],
              [
                106.129319,
                9.507348
              ],
              [
                106.128764,
                9.50734
              ],
              [
                106.127975,
                9.507318
              ],
              [
                106.127999,
                9.506709
              ],
              [
                106.12804,
                9.505657
              ],
              [
                106.128075,
                9.504837
              ],
              [
                106.12811,
                9.504291
              ],
              [
                106.128111,
                9.504095
              ],
              [
                106.128117,
                9.503976
              ],
              [
                106.128118,
                9.503957
              ],
              [
                106.128147,
                9.503332
              ],
              [
                106.128185,
                9.502533
              ],
              [
                106.128205,
                9.501709
              ],
              [
                106.128204,
                9.501051
              ],
              [
                106.128208,
                9.500932
              ],
              [
                106.128212,
                9.500834
              ],
              [
                106.127731,
                9.500811
              ],
              [
                106.127718,
                9.50081
              ],
              [
                106.127717,
                9.50081
              ],
              [
                106.127696,
                9.50081
              ],
              [
                106.127696,
                9.500809
              ],
              [
                106.127613,
                9.498982
              ],
              [
                106.127604,
                9.498386
              ],
              [
                106.127555,
                9.497181
              ],
              [
                106.127523,
                9.49635
              ],
              [
                106.127523,
                9.496342
              ],
              [
                106.12752,
                9.496279
              ],
              [
                106.127518,
                9.496211
              ],
              [
                106.127503,
                9.495836
              ],
              [
                106.127461,
                9.49514
              ],
              [
                106.127399,
                9.494144
              ],
              [
                106.127307,
                9.492693
              ],
              [
                106.12866,
                9.492619
              ],
              [
                106.128521,
                9.491695
              ],
              [
                106.128373,
                9.490842
              ],
              [
                106.128393,
                9.490838
              ],
              [
                106.129347,
                9.490642
              ],
              [
                106.129328,
                9.490463
              ],
              [
                106.129286,
                9.49004
              ],
              [
                106.129235,
                9.489543
              ],
              [
                106.129235,
                9.489541
              ],
              [
                106.129226,
                9.489384
              ],
              [
                106.130389,
                9.48935
              ],
              [
                106.130966,
                9.48934
              ],
              [
                106.132136,
                9.489313
              ],
              [
                106.132133,
                9.489189
              ],
              [
                106.132124,
                9.488867
              ],
              [
                106.132091,
                9.487904
              ],
              [
                106.132038,
                9.486337
              ],
              [
                106.132003,
                9.484896
              ],
              [
                106.131988,
                9.484047
              ],
              [
                106.131981,
                9.483683
              ],
              [
                106.131981,
                9.483682
              ],
              [
                106.131981,
                9.483679
              ],
              [
                106.13198,
                9.483664
              ],
              [
                106.13198,
                9.483658
              ],
              [
                106.131936,
                9.482767
              ],
              [
                106.131892,
                9.48134
              ],
              [
                106.131888,
                9.481224
              ],
              [
                106.131882,
                9.481124
              ],
              [
                106.13185,
                9.480637
              ],
              [
                106.131842,
                9.479884
              ],
              [
                106.131836,
                9.479613
              ],
              [
                106.131821,
                9.478951
              ],
              [
                106.131828,
                9.478615
              ],
              [
                106.131829,
                9.478581
              ],
              [
                106.131829,
                9.478577
              ],
              [
                106.131831,
                9.478484
              ],
              [
                106.131776,
                9.477574
              ],
              [
                106.131761,
                9.47733
              ],
              [
                106.131753,
                9.477174
              ],
              [
                106.131723,
                9.476582
              ],
              [
                106.131696,
                9.475966
              ],
              [
                106.131681,
                9.47489
              ],
              [
                106.131658,
                9.4745
              ],
              [
                106.13163,
                9.474016
              ],
              [
                106.131627,
                9.473199
              ],
              [
                106.131627,
                9.473197
              ],
              [
                106.131617,
                9.472977
              ],
              [
                106.131569,
                9.471977
              ],
              [
                106.131553,
                9.471392
              ],
              [
                106.131541,
                9.47096
              ],
              [
                106.131515,
                9.470236
              ],
              [
                106.131501,
                9.46971
              ],
              [
                106.131501,
                9.469701
              ],
              [
                106.1315,
                9.469678
              ],
              [
                106.131497,
                9.469607
              ],
              [
                106.131497,
                9.469607
              ],
              [
                106.131496,
                9.469575
              ],
              [
                106.131495,
                9.469553
              ],
              [
                106.131468,
                9.468909
              ],
              [
                106.131429,
                9.467802
              ],
              [
                106.131383,
                9.466702
              ],
              [
                106.131337,
                9.465691
              ],
              [
                106.131303,
                9.464375
              ],
              [
                106.13127,
                9.46349
              ],
              [
                106.13125,
                9.462874
              ],
              [
                106.131255,
                9.462491
              ],
              [
                106.13122,
                9.462272
              ],
              [
                106.131209,
                9.462205
              ],
              [
                106.131193,
                9.462102
              ],
              [
                106.131166,
                9.461181
              ],
              [
                106.131119,
                9.459812
              ],
              [
                106.131093,
                9.45907
              ],
              [
                106.131103,
                9.45875
              ],
              [
                106.131142,
                9.45758
              ],
              [
                106.131193,
                9.456515
              ],
              [
                106.131232,
                9.455801
              ],
              [
                106.131238,
                9.455684
              ],
              [
                106.131248,
                9.455577
              ],
              [
                106.131255,
                9.455498
              ],
              [
                106.131256,
                9.455482
              ],
              [
                106.131265,
                9.455388
              ],
              [
                106.131302,
                9.45496
              ],
              [
                106.131378,
                9.454086
              ],
              [
                106.13146,
                9.453352
              ],
              [
                106.131471,
                9.453248
              ],
              [
                106.131529,
                9.452519
              ],
              [
                106.131537,
                9.452369
              ],
              [
                106.131563,
                9.451831
              ],
              [
                106.131626,
                9.450855
              ],
              [
                106.131695,
                9.450137
              ],
              [
                106.13172,
                9.44988
              ],
              [
                106.131723,
                9.449698
              ],
              [
                106.131724,
                9.449645
              ],
              [
                106.131725,
                9.449619
              ],
              [
                106.131728,
                9.449463
              ],
              [
                106.13173,
                9.449366
              ],
              [
                106.131863,
                9.44784
              ],
              [
                106.132067,
                9.445674
              ],
              [
                106.132132,
                9.445153
              ],
              [
                106.132157,
                9.444712
              ],
              [
                106.132157,
                9.444711
              ],
              [
                106.132189,
                9.444166
              ],
              [
                106.132298,
                9.442592
              ],
              [
                106.132433,
                9.441384
              ],
              [
                106.132508,
                9.440552
              ],
              [
                106.132525,
                9.440037
              ],
              [
                106.132531,
                9.439972
              ],
              [
                106.132618,
                9.439128
              ],
              [
                106.132704,
                9.437866
              ],
              [
                106.132716,
                9.437699
              ],
              [
                106.132774,
                9.436884
              ],
              [
                106.132774,
                9.436876
              ],
              [
                106.132777,
                9.436474
              ],
              [
                106.132778,
                9.4364
              ],
              [
                106.132818,
                9.435712
              ],
              [
                106.132908,
                9.434134
              ],
              [
                106.132936,
                9.433416
              ],
              [
                106.133016,
                9.432196
              ],
              [
                106.133044,
                9.431609
              ],
              [
                106.133032,
                9.431514
              ],
              [
                106.132984,
                9.431496
              ],
              [
                106.132188,
                9.431427
              ],
              [
                106.131059,
                9.431345
              ],
              [
                106.130941,
                9.431339
              ],
              [
                106.13091,
                9.431276
              ],
              [
                106.128954,
                9.426751
              ],
              [
                106.128486,
                9.425083
              ],
              [
                106.128378,
                9.424595
              ],
              [
                106.128076,
                9.422851
              ],
              [
                106.127946,
                9.422017
              ],
              [
                106.128027,
                9.422003
              ],
              [
                106.129638,
                9.421721
              ],
              [
                106.129968,
                9.421663
              ],
              [
                106.130003,
                9.421551
              ],
              [
                106.130036,
                9.421498
              ],
              [
                106.130064,
                9.421476
              ],
              [
                106.130106,
                9.421469
              ],
              [
                106.130153,
                9.421476
              ],
              [
                106.130374,
                9.42151
              ],
              [
                106.13053,
                9.421524
              ],
              [
                106.130606,
                9.421517
              ],
              [
                106.130679,
                9.421497
              ],
              [
                106.130816,
                9.42144
              ],
              [
                106.130861,
                9.421405
              ],
              [
                106.130887,
                9.421371
              ],
              [
                106.130964,
                9.421244
              ],
              [
                106.131063,
                9.421133
              ],
              [
                106.131116,
                9.421077
              ],
              [
                106.131241,
                9.420975
              ],
              [
                106.13134,
                9.420908
              ],
              [
                106.131509,
                9.420814
              ],
              [
                106.131769,
                9.420714
              ],
              [
                106.13202,
                9.420592
              ],
              [
                106.13235,
                9.420462
              ],
              [
                106.132536,
                9.420389
              ],
              [
                106.132521,
                9.420267
              ],
              [
                106.132556,
                9.420066
              ],
              [
                106.132621,
                9.419894
              ],
              [
                106.132801,
                9.419735
              ],
              [
                106.133046,
                9.419541
              ],
              [
                106.133313,
                9.419267
              ],
              [
                106.133363,
                9.419161
              ],
              [
                106.133411,
                9.41906
              ],
              [
                106.133442,
                9.418994
              ],
              [
                106.133491,
                9.418692
              ],
              [
                106.133476,
                9.418534
              ],
              [
                106.133397,
                9.41842
              ],
              [
                106.133273,
                9.41827
              ],
              [
                106.132882,
                9.417905
              ],
              [
                106.132577,
                9.417654
              ],
              [
                106.132338,
                9.417368
              ],
              [
                106.132153,
                9.417054
              ],
              [
                106.132127,
                9.41701
              ],
              [
                106.131981,
                9.416738
              ],
              [
                106.131814,
                9.416379
              ],
              [
                106.131618,
                9.416164
              ],
              [
                106.131553,
                9.416115
              ],
              [
                106.131423,
                9.416014
              ],
              [
                106.131155,
                9.415857
              ],
              [
                106.130937,
                9.41575
              ],
              [
                106.130814,
                9.415643
              ],
              [
                106.130712,
                9.415485
              ],
              [
                106.130704,
                9.415462
              ],
              [
                106.130661,
                9.415349
              ],
              [
                106.130661,
                9.415246
              ],
              [
                106.130661,
                9.415227
              ],
              [
                106.130725,
                9.415033
              ],
              [
                106.130913,
                9.414875
              ],
              [
                106.131257,
                9.414525
              ],
              [
                106.131407,
                9.414369
              ],
              [
                106.131592,
                9.414177
              ],
              [
                106.131435,
                9.413938
              ],
              [
                106.131122,
                9.413497
              ],
              [
                106.130564,
                9.412816
              ],
              [
                106.13056,
                9.412811
              ],
              [
                106.129799,
                9.413295
              ],
              [
                106.12906,
                9.413758
              ],
              [
                106.128674,
                9.414001
              ],
              [
                106.126775,
                9.415428
              ],
              [
                106.126718,
                9.41546
              ],
              [
                106.126128,
                9.415787
              ],
              [
                106.125221,
                9.41629
              ],
              [
                106.124949,
                9.416444
              ],
              [
                106.124074,
                9.41709
              ],
              [
                106.123436,
                9.41756
              ],
              [
                106.122811,
                9.418021
              ],
              [
                106.121727,
                9.418701
              ],
              [
                106.120779,
                9.419294
              ],
              [
                106.120243,
                9.419631
              ],
              [
                106.119055,
                9.420375
              ],
              [
                106.11687,
                9.421479
              ],
              [
                106.115934,
                9.421952
              ],
              [
                106.113523,
                9.423626
              ],
              [
                106.112834,
                9.424274
              ],
              [
                106.112787,
                9.424319
              ],
              [
                106.112267,
                9.424895
              ],
              [
                106.111633,
                9.425745
              ],
              [
                106.111288,
                9.426292
              ],
              [
                106.111181,
                9.426472
              ],
              [
                106.110136,
                9.428236
              ],
              [
                106.109099,
                9.429777
              ],
              [
                106.108133,
                9.430901
              ],
              [
                106.107267,
                9.431594
              ],
              [
                106.106559,
                9.431998
              ],
              [
                106.105879,
                9.432245
              ],
              [
                106.104624,
                9.432442
              ],
              [
                106.104389,
                9.432479
              ],
              [
                106.102754,
                9.432686
              ],
              [
                106.101409,
                9.432834
              ],
              [
                106.100295,
                9.433096
              ],
              [
                106.098502,
                9.433806
              ],
              [
                106.096999,
                9.434515
              ],
              [
                106.096945,
                9.434543
              ],
              [
                106.096708,
                9.434668
              ],
              [
                106.095323,
                9.435396
              ],
              [
                106.091652,
                9.437104
              ],
              [
                106.090091,
                9.437842
              ],
              [
                106.088975,
                9.438481
              ],
              [
                106.088805,
                9.438579
              ],
              [
                106.088698,
                9.438654
              ],
              [
                106.087706,
                9.439345
              ],
              [
                106.087231,
                9.439676
              ],
              [
                106.086973,
                9.439877
              ],
              [
                106.086368,
                9.440351
              ],
              [
                106.085441,
                9.441075
              ],
              [
                106.08515,
                9.44135
              ],
              [
                106.083608,
                9.442806
              ],
              [
                106.083557,
                9.442841
              ],
              [
                106.082959,
                9.443258
              ],
              [
                106.082655,
                9.44347
              ],
              [
                106.08136,
                9.444189
              ],
              [
                106.080599,
                9.444612
              ],
              [
                106.080432,
                9.444704
              ],
              [
                106.080054,
                9.444915
              ],
              [
                106.079839,
                9.444999
              ],
              [
                106.078362,
                9.445581
              ],
              [
                106.077125,
                9.446016
              ],
              [
                106.076282,
                9.446312
              ],
              [
                106.076116,
                9.44637
              ],
              [
                106.075803,
                9.44648
              ],
              [
                106.073547,
                9.447033
              ],
              [
                106.07135,
                9.448003
              ],
              [
                106.069977,
                9.448869
              ],
              [
                106.067476,
                9.451008
              ],
              [
                106.066975,
                9.451436
              ],
              [
                106.0654,
                9.452605
              ],
              [
                106.064678,
                9.452952
              ],
              [
                106.063473,
                9.453327
              ],
              [
                106.063463,
                9.45333
              ],
              [
                106.062335,
                9.453549
              ],
              [
                106.061287,
                9.453588
              ],
              [
                106.060656,
                9.453611
              ],
              [
                106.059917,
                9.453527
              ],
              [
                106.058788,
                9.45333
              ],
              [
                106.058649,
                9.453281
              ],
              [
                106.058136,
                9.453102
              ],
              [
                106.057586,
                9.452852
              ],
              [
                106.057193,
                9.452673
              ],
              [
                106.056652,
                9.452377
              ],
              [
                106.055627,
                9.451816
              ],
              [
                106.053336,
                9.450299
              ],
              [
                106.051898,
                9.44955
              ],
              [
                106.051553,
                9.44937
              ],
              [
                106.049553,
                9.448701
              ],
              [
                106.049416,
                9.448671
              ],
              [
                106.048889,
                9.448558
              ],
              [
                106.048713,
                9.448521
              ],
              [
                106.048709,
                9.448542
              ],
              [
                106.048708,
                9.448549
              ],
              [
                106.048487,
                9.449624
              ],
              [
                106.048295,
                9.450261
              ],
              [
                106.04807,
                9.45101
              ],
              [
                106.047999,
                9.45125
              ],
              [
                106.04777,
                9.452012
              ],
              [
                106.047723,
                9.452168
              ],
              [
                106.047647,
                9.452324
              ],
              [
                106.047325,
                9.453366
              ],
              [
                106.046973,
                9.454602
              ],
              [
                106.046826,
                9.454983
              ],
              [
                106.046447,
                9.455972
              ],
              [
                106.046409,
                9.456107
              ],
              [
                106.046323,
                9.456412
              ],
              [
                106.046372,
                9.456929
              ],
              [
                106.046489,
                9.457178
              ],
              [
                106.046692,
                9.457435
              ],
              [
                106.04705,
                9.45798
              ],
              [
                106.047254,
                9.458324
              ],
              [
                106.047516,
                9.458878
              ],
              [
                106.047759,
                9.45949
              ],
              [
                106.047803,
                9.459643
              ],
              [
                106.047922,
                9.460054
              ],
              [
                106.047956,
                9.46017
              ],
              [
                106.048272,
                9.460382
              ],
              [
                106.048591,
                9.460912
              ],
              [
                106.049184,
                9.461652
              ],
              [
                106.049359,
                9.461868
              ],
              [
                106.049426,
                9.461951
              ],
              [
                106.049572,
                9.462321
              ],
              [
                106.049646,
                9.4628
              ],
              [
                106.049744,
                9.463326
              ],
              [
                106.04989,
                9.463923
              ],
              [
                106.049907,
                9.464063
              ],
              [
                106.049964,
                9.464521
              ],
              [
                106.050014,
                9.464964
              ],
              [
                106.050066,
                9.465092
              ],
              [
                106.050168,
                9.465159
              ],
              [
                106.050209,
                9.465175
              ],
              [
                106.050346,
                9.46523
              ],
              [
                106.050438,
                9.46523
              ],
              [
                106.050635,
                9.46521
              ],
              [
                106.050953,
                9.465114
              ],
              [
                106.051588,
                9.46492
              ],
              [
                106.051666,
                9.464896
              ],
              [
                106.051931,
                9.464843
              ],
              [
                106.052133,
                9.464828
              ],
              [
                106.052311,
                9.464827
              ],
              [
                106.052735,
                9.464935
              ],
              [
                106.052905,
                9.464979
              ],
              [
                106.053523,
                9.465259
              ],
              [
                106.054004,
                9.465478
              ],
              [
                106.054015,
                9.465483
              ],
              [
                106.054276,
                9.465592
              ],
              [
                106.054512,
                9.465716
              ],
              [
                106.054662,
                9.46583
              ],
              [
                106.054797,
                9.466007
              ],
              [
                106.054957,
                9.466284
              ],
              [
                106.055103,
                9.46668
              ],
              [
                106.055264,
                9.467187
              ],
              [
                106.055327,
                9.467512
              ],
              [
                106.055406,
                9.467976
              ],
              [
                106.055471,
                9.468646
              ],
              [
                106.055563,
                9.469075
              ],
              [
                106.0556,
                9.469246
              ],
              [
                106.055635,
                9.46943
              ],
              [
                106.055716,
                9.469864
              ],
              [
                106.055729,
                9.470055
              ],
              [
                106.055814,
                9.470426
              ],
              [
                106.055936,
                9.470868
              ],
              [
                106.05624,
                9.471705
              ],
              [
                106.056394,
                9.472243
              ],
              [
                106.056435,
                9.472386
              ],
              [
                106.056496,
                9.472876
              ],
              [
                106.056497,
                9.473078
              ],
              [
                106.056498,
                9.473235
              ],
              [
                106.056397,
                9.473638
              ],
              [
                106.056379,
                9.473714
              ],
              [
                106.056009,
                9.474876
              ],
              [
                106.055947,
                9.475036
              ],
              [
                106.055827,
                9.475345
              ],
              [
                106.055734,
                9.475585
              ],
              [
                106.055578,
                9.47599
              ],
              [
                106.055422,
                9.476193
              ],
              [
                106.055421,
                9.476198
              ],
              [
                106.055374,
                9.476337
              ],
              [
                106.055339,
                9.476469
              ],
              [
                106.055308,
                9.47669
              ],
              [
                106.055274,
                9.47693
              ],
              [
                106.055268,
                9.476932
              ],
              [
                106.055254,
                9.476936
              ],
              [
                106.055181,
                9.476961
              ],
              [
                106.055106,
                9.476986
              ],
              [
                106.055091,
                9.476991
              ],
              [
                106.05505,
                9.477005
              ],
              [
                106.05501,
                9.477019
              ],
              [
                106.054941,
                9.477045
              ],
              [
                106.05488,
                9.477069
              ],
              [
                106.054867,
                9.477074
              ],
              [
                106.054785,
                9.477109
              ],
              [
                106.054718,
                9.477139
              ],
              [
                106.054664,
                9.477163
              ],
              [
                106.054663,
                9.477163
              ],
              [
                106.054597,
                9.47719
              ],
              [
                106.05459,
                9.477193
              ],
              [
                106.054518,
                9.477219
              ],
              [
                106.054446,
                9.477241
              ],
              [
                106.054377,
                9.477255
              ],
              [
                106.054293,
                9.477272
              ],
              [
                106.054198,
                9.477295
              ],
              [
                106.054121,
                9.477308
              ],
              [
                106.054058,
                9.477315
              ],
              [
                106.05398,
                9.477329
              ],
              [
                106.053888,
                9.47735
              ],
              [
                106.053815,
                9.477366
              ],
              [
                106.053767,
                9.477375
              ],
              [
                106.053717,
                9.477388
              ],
              [
                106.053633,
                9.477411
              ],
              [
                106.05352,
                9.477443
              ],
              [
                106.053433,
                9.477469
              ],
              [
                106.053378,
                9.477488
              ],
              [
                106.053319,
                9.477508
              ],
              [
                106.053225,
                9.477536
              ],
              [
                106.053096,
                9.477572
              ],
              [
                106.053028,
                9.47759
              ],
              [
                106.053021,
                9.477592
              ],
              [
                106.05296,
                9.477609
              ],
              [
                106.052793,
                9.477651
              ],
              [
                106.05262,
                9.477694
              ],
              [
                106.052597,
                9.4777
              ],
              [
                106.052436,
                9.477741
              ],
              [
                106.052323,
                9.477772
              ],
              [
                106.052186,
                9.477809
              ],
              [
                106.051964,
                9.47787
              ],
              [
                106.051673,
                9.477957
              ],
              [
                106.051445,
                9.478029
              ],
              [
                106.051437,
                9.478032
              ],
              [
                106.051356,
                9.478057
              ],
              [
                106.05115,
                9.478123
              ],
              [
                106.051031,
                9.478161
              ],
              [
                106.050696,
                9.478266
              ],
              [
                106.050356,
                9.478369
              ],
              [
                106.050196,
                9.478416
              ],
              [
                106.050189,
                9.478418
              ],
              [
                106.050021,
                9.478467
              ],
              [
                106.049698,
                9.47856
              ],
              [
                106.049408,
                9.478642
              ],
              [
                106.049362,
                9.478654
              ],
              [
                106.049122,
                9.47872
              ],
              [
                106.048818,
                9.478803
              ],
              [
                106.048712,
                9.478832
              ],
              [
                106.048624,
                9.478856
              ],
              [
                106.048605,
                9.478861
              ],
              [
                106.048483,
                9.478895
              ],
              [
                106.048329,
                9.478939
              ],
              [
                106.048044,
                9.47902
              ],
              [
                106.047669,
                9.479127
              ],
              [
                106.047346,
                9.479217
              ],
              [
                106.0471,
                9.479286
              ],
              [
                106.046921,
                9.479338
              ],
              [
                106.046881,
                9.47935
              ],
              [
                106.046675,
                9.47941
              ],
              [
                106.046504,
                9.479464
              ],
              [
                106.046398,
                9.479499
              ],
              [
                106.046323,
                9.479521
              ],
              [
                106.046209,
                9.479551
              ],
              [
                106.046151,
                9.479568
              ],
              [
                106.046221,
                9.479771
              ],
              [
                106.046244,
                9.479835
              ],
              [
                106.046276,
                9.479903
              ],
              [
                106.046403,
                9.479982
              ],
              [
                106.050186,
                9.482581
              ],
              [
                106.051673,
                9.483656
              ],
              [
                106.051613,
                9.483788
              ],
              [
                106.051533,
                9.483846
              ],
              [
                106.051468,
                9.483875
              ],
              [
                106.051353,
                9.483875
              ],
              [
                106.051092,
                9.483861
              ],
              [
                106.050846,
                9.483855
              ],
              [
                106.050586,
                9.483856
              ],
              [
                106.050326,
                9.483878
              ],
              [
                106.049849,
                9.483966
              ],
              [
                106.049777,
                9.483982
              ],
              [
                106.049491,
                9.48405
              ],
              [
                106.049282,
                9.484079
              ],
              [
                106.049123,
                9.48413
              ],
              [
                106.048932,
                9.484227
              ],
              [
                106.048816,
                9.484335
              ],
              [
                106.048701,
                9.484537
              ],
              [
                106.04863,
                9.484738
              ],
              [
                106.048562,
                9.485022
              ],
              [
                106.04853,
                9.485312
              ],
              [
                106.048509,
                9.485528
              ],
              [
                106.04846,
                9.485765
              ],
              [
                106.048373,
                9.485957
              ],
              [
                106.048145,
                9.486275
              ],
              [
                106.048103,
                9.486311
              ],
              [
                106.048061,
                9.486359
              ],
              [
                106.048013,
                9.486419
              ],
              [
                106.047947,
                9.486527
              ],
              [
                106.047917,
                9.486694
              ],
              [
                106.047912,
                9.48682
              ],
              [
                106.047888,
                9.487012
              ],
              [
                106.047864,
                9.487149
              ],
              [
                106.047853,
                9.487185
              ],
              [
                106.047829,
                9.487263
              ],
              [
                106.047763,
                9.487347
              ],
              [
                106.04766,
                9.487401
              ],
              [
                106.047558,
                9.487443
              ],
              [
                106.047353,
                9.487498
              ],
              [
                106.047022,
                9.487559
              ],
              [
                106.046835,
                9.487589
              ],
              [
                106.046613,
                9.48759
              ],
              [
                106.04642,
                9.487554
              ],
              [
                106.046154,
                9.487477
              ],
              [
                106.04588,
                9.48736
              ],
              [
                106.045877,
                9.487359
              ],
              [
                106.045714,
                9.487287
              ],
              [
                106.045656,
                9.487523
              ],
              [
                106.045478,
                9.488142
              ],
              [
                106.045494,
                9.488712
              ],
              [
                106.04541,
                9.489595
              ],
              [
                106.045411,
                9.489828
              ],
              [
                106.045445,
                9.48991
              ],
              [
                106.045758,
                9.490322
              ],
              [
                106.045925,
                9.490616
              ],
              [
                106.046101,
                9.490983
              ],
              [
                106.046138,
                9.49106
              ],
              [
                106.046158,
                9.4911
              ],
              [
                106.046158,
                9.4911
              ],
              [
                106.046705,
                9.491176
              ],
              [
                106.046796,
                9.491189
              ],
              [
                106.047288,
                9.491258
              ],
              [
                106.04733,
                9.491264
              ],
              [
                106.047738,
                9.491321
              ],
              [
                106.047843,
                9.491335
              ],
              [
                106.048298,
                9.491399
              ],
              [
                106.048636,
                9.491446
              ],
              [
                106.04876,
                9.491464
              ],
              [
                106.048868,
                9.491479
              ],
              [
                106.048868,
                9.491478
              ],
              [
                106.04887,
                9.491479
              ],
              [
                106.048869,
                9.491362
              ],
              [
                106.048869,
                9.491094
              ],
              [
                106.048869,
                9.491086
              ],
              [
                106.048868,
                9.490957
              ],
              [
                106.048876,
                9.490957
              ],
              [
                106.049172,
                9.490971
              ],
              [
                106.049334,
                9.490979
              ],
              [
                106.049368,
                9.49098
              ],
              [
                106.049568,
                9.49099
              ],
              [
                106.049628,
                9.490993
              ],
              [
                106.049834,
                9.491002
              ],
              [
                106.049873,
                9.491004
              ],
              [
                106.050064,
                9.491013
              ],
              [
                106.050077,
                9.491014
              ],
              [
                106.050268,
                9.491022
              ],
              [
                106.050332,
                9.491025
              ],
              [
                106.050369,
                9.491027
              ],
              [
                106.050364,
                9.491169
              ],
              [
                106.050364,
                9.49118
              ],
              [
                106.050363,
                9.491216
              ],
              [
                106.05036,
                9.491311
              ],
              [
                106.050358,
                9.491398
              ],
              [
                106.050357,
                9.491404
              ],
              [
                106.050352,
                9.491573
              ],
              [
                106.05035,
                9.491634
              ],
              [
                106.050347,
                9.491745
              ],
              [
                106.050347,
                9.491763
              ],
              [
                106.05034,
                9.491965
              ],
              [
                106.050338,
                9.492057
              ],
              [
                106.050331,
                9.492276
              ],
              [
                106.05033,
                9.492302
              ],
              [
                106.050323,
                9.492557
              ],
              [
                106.050318,
                9.492722
              ],
              [
                106.050596,
                9.492757
              ],
              [
                106.05063,
                9.492762
              ],
              [
                106.050985,
                9.492806
              ],
              [
                106.051051,
                9.492814
              ],
              [
                106.051071,
                9.492817
              ],
              [
                106.051379,
                9.492855
              ],
              [
                106.051441,
                9.492863
              ],
              [
                106.051762,
                9.492903
              ],
              [
                106.051847,
                9.492914
              ],
              [
                106.052188,
                9.492956
              ],
              [
                106.052228,
                9.492961
              ],
              [
                106.052595,
                9.493007
              ],
              [
                106.052663,
                9.493016
              ],
              [
                106.053009,
                9.493059
              ],
              [
                106.053226,
                9.493086
              ],
              [
                106.053226,
                9.493114
              ],
              [
                106.053232,
                9.493383
              ],
              [
                106.053234,
                9.493489
              ],
              [
                106.053235,
                9.493524
              ],
              [
                106.053236,
                9.493592
              ],
              [
                106.053237,
                9.493608
              ],
              [
                106.053549,
                9.493648
              ],
              [
                106.053614,
                9.493656
              ],
              [
                106.053644,
                9.49366
              ],
              [
                106.053869,
                9.493688
              ],
              [
                106.05403,
                9.493709
              ],
              [
                106.054211,
                9.493732
              ],
              [
                106.054379,
                9.493753
              ],
              [
                106.054381,
                9.493753
              ],
              [
                106.054381,
                9.493706
              ],
              [
                106.05438,
                9.493452
              ],
              [
                106.05438,
                9.493442
              ],
              [
                106.05438,
                9.493344
              ],
              [
                106.054631,
                9.493363
              ],
              [
                106.054743,
                9.493371
              ],
              [
                106.054801,
                9.493376
              ],
              [
                106.055071,
                9.493396
              ],
              [
                106.055104,
                9.493398
              ],
              [
                106.055392,
                9.49342
              ],
              [
                106.055555,
                9.493433
              ],
              [
                106.055561,
                9.493433
              ],
              [
                106.055576,
                9.49354
              ],
              [
                106.055589,
                9.49363
              ],
              [
                106.055599,
                9.493708
              ],
              [
                106.0556,
                9.493712
              ],
              [
                106.055733,
                9.49371
              ],
              [
                106.055952,
                9.493706
              ],
              [
                106.056204,
                9.493702
              ],
              [
                106.056316,
                9.4937
              ],
              [
                106.056728,
                9.493693
              ],
              [
                106.057085,
                9.493687
              ],
              [
                106.057295,
                9.493683
              ],
              [
                106.05791,
                9.493673
              ],
              [
                106.057916,
                9.493673
              ],
              [
                106.057969,
                9.493672
              ],
              [
                106.058131,
                9.493689
              ],
              [
                106.05851,
                9.493727
              ],
              [
                106.058599,
                9.493737
              ],
              [
                106.058657,
                9.493742
              ],
              [
                106.058925,
                9.49377
              ],
              [
                106.05905,
                9.493783
              ],
              [
                106.059188,
                9.493797
              ],
              [
                106.059334,
                9.493812
              ],
              [
                106.059362,
                9.493815
              ],
              [
                106.05949,
                9.493829
              ],
              [
                106.059613,
                9.493843
              ],
              [
                106.059793,
                9.493864
              ],
              [
                106.059883,
                9.493874
              ],
              [
                106.060036,
                9.493891
              ],
              [
                106.061181,
                9.494022
              ],
              [
                106.061389,
                9.494045
              ],
              [
                106.062334,
                9.494153
              ],
              [
                106.062686,
                9.494193
              ],
              [
                106.063508,
                9.494286
              ],
              [
                106.063803,
                9.494328
              ],
              [
                106.063937,
                9.494346
              ],
              [
                106.064801,
                9.494467
              ],
              [
                106.06496,
                9.49449
              ],
              [
                106.065002,
                9.494495
              ],
              [
                106.065302,
                9.494537
              ],
              [
                106.065445,
                9.494557
              ],
              [
                106.065507,
                9.494568
              ],
              [
                106.065536,
                9.494409
              ],
              [
                106.065574,
                9.494211
              ],
              [
                106.065629,
                9.493936
              ],
              [
                106.065811,
                9.492959
              ],
              [
                106.067763,
                9.492943
              ],
              [
                106.067671,
                9.494413
              ],
              [
                106.071174,
                9.494416
              ],
              [
                106.071204,
                9.494416
              ],
              [
                106.076584,
                9.494486
              ],
              [
                106.077293,
                9.49425
              ],
              [
                106.077412,
                9.494211
              ],
              [
                106.077624,
                9.494787
              ],
              [
                106.077637,
                9.494823
              ],
              [
                106.077837,
                9.495354
              ],
              [
                106.078334,
                9.49668
              ],
              [
                106.078408,
                9.496876
              ],
              [
                106.078607,
                9.497406
              ],
              [
                106.078963,
                9.498355
              ],
              [
                106.079183,
                9.498925
              ],
              [
                106.079207,
                9.498988
              ],
              [
                106.079213,
                9.49901
              ],
              [
                106.079387,
                9.49974
              ],
              [
                106.079432,
                9.499858
              ],
              [
                106.079484,
                9.499997
              ],
              [
                106.079584,
                9.500271
              ],
              [
                106.07973,
                9.50067
              ],
              [
                106.079882,
                9.501081
              ],
              [
                106.080063,
                9.501564
              ],
              [
                106.080284,
                9.502148
              ],
              [
                106.080529,
                9.502796
              ],
              [
                106.080809,
                9.503544
              ],
              [
                106.081113,
                9.504365
              ],
              [
                106.081409,
                9.505165
              ],
              [
                106.081446,
                9.505265
              ],
              [
                106.081371,
                9.505309
              ],
              [
                106.08075,
                9.505674
              ],
              [
                106.080119,
                9.506045
              ],
              [
                106.080723,
                9.50714
              ],
              [
                106.080775,
                9.507235
              ],
              [
                106.080872,
                9.507168
              ],
              [
                106.081042,
                9.507054
              ],
              [
                106.081209,
                9.506942
              ],
              [
                106.081356,
                9.506845
              ],
              [
                106.081391,
                9.506822
              ],
              [
                106.081424,
                9.506938
              ],
              [
                106.081546,
                9.507374
              ],
              [
                106.08183,
                9.507226
              ],
              [
                106.081905,
                9.507187
              ],
              [
                106.081949,
                9.507342
              ],
              [
                106.08198,
                9.507454
              ],
              [
                106.082005,
                9.507545
              ],
              [
                106.08202,
                9.507603
              ],
              [
                106.082064,
                9.50777
              ],
              [
                106.082126,
                9.508002
              ],
              [
                106.082193,
                9.508247
              ],
              [
                106.082274,
                9.50853
              ],
              [
                106.082362,
                9.508832
              ],
              [
                106.082426,
                9.509051
              ],
              [
                106.082453,
                9.509145
              ],
              [
                106.082468,
                9.509196
              ],
              [
                106.082502,
                9.509316
              ],
              [
                106.082558,
                9.50951
              ],
              [
                106.082611,
                9.509701
              ],
              [
                106.082674,
                9.509919
              ],
              [
                106.082763,
                9.510227
              ],
              [
                106.082872,
                9.510597
              ],
              [
                106.082969,
                9.510933
              ],
              [
                106.083067,
                9.511269
              ],
              [
                106.08318,
                9.511647
              ],
              [
                106.083282,
                9.511987
              ],
              [
                106.083372,
                9.512282
              ],
              [
                106.083451,
                9.512542
              ],
              [
                106.083514,
                9.51274
              ],
              [
                106.083582,
                9.512956
              ],
              [
                106.083686,
                9.513303
              ],
              [
                106.083822,
                9.513768
              ],
              [
                106.083967,
                9.514268
              ],
              [
                106.084113,
                9.514776
              ],
              [
                106.084259,
                9.515291
              ],
              [
                106.084413,
                9.515849
              ],
              [
                106.084578,
                9.516452
              ],
              [
                106.084742,
                9.517051
              ],
              [
                106.084888,
                9.517593
              ],
              [
                106.085006,
                9.518041
              ],
              [
                106.085106,
                9.518428
              ],
              [
                106.085191,
                9.518756
              ],
              [
                106.085268,
                9.519054
              ],
              [
                106.085345,
                9.519348
              ],
              [
                106.0854,
                9.519551
              ],
              [
                106.085429,
                9.519638
              ],
              [
                106.085447,
                9.519679
              ],
              [
                106.085454,
                9.519695
              ],
              [
                106.085462,
                9.519715
              ],
              [
                106.085465,
                9.519723
              ],
              [
                106.085484,
                9.519784
              ],
              [
                106.085517,
                9.519912
              ],
              [
                106.085593,
                9.520181
              ],
              [
                106.085703,
                9.520562
              ],
              [
                106.085824,
                9.520972
              ],
              [
                106.085956,
                9.52142
              ],
              [
                106.086097,
                9.521898
              ],
              [
                106.086246,
                9.52241
              ],
              [
                106.086401,
                9.522957
              ],
              [
                106.086555,
                9.523505
              ],
              [
                106.086709,
                9.524057
              ],
              [
                106.086873,
                9.524641
              ],
              [
                106.087088,
                9.525392
              ],
              [
                106.087344,
                9.526281
              ],
              [
                106.087554,
                9.527009
              ],
              [
                106.087711,
                9.52755
              ],
              [
                106.087764,
                9.52773
              ],
              [
                106.087894,
                9.528179
              ],
              [
                106.088112,
                9.528933
              ],
              [
                106.088274,
                9.529498
              ],
              [
                106.088359,
                9.529796
              ],
              [
                106.088396,
                9.529926
              ],
              [
                106.08841,
                9.529976
              ],
              [
                106.088416,
                9.530003
              ],
              [
                106.088449,
                9.530134
              ],
              [
                106.088476,
                9.53024
              ],
              [
                106.088486,
                9.530277
              ],
              [
                106.088527,
                9.530395
              ],
              [
                106.088556,
                9.530489
              ],
              [
                106.088617,
                9.530704
              ],
              [
                106.088703,
                9.531002
              ],
              [
                106.088798,
                9.531331
              ],
              [
                106.088917,
                9.531737
              ],
              [
                106.089078,
                9.532282
              ],
              [
                106.089268,
                9.532919
              ],
              [
                106.089448,
                9.533531
              ],
              [
                106.089627,
                9.534141
              ],
              [
                106.089814,
                9.534779
              ],
              [
                106.089981,
                9.535359
              ],
              [
                106.090136,
                9.535905
              ],
              [
                106.090298,
                9.53648
              ],
              [
                106.090459,
                9.537052
              ],
              [
                106.090611,
                9.537587
              ],
              [
                106.090736,
                9.538018
              ],
              [
                106.090848,
                9.538406
              ],
              [
                106.090981,
                9.538878
              ],
              [
                106.091126,
                9.539403
              ],
              [
                106.091236,
                9.539796
              ],
              [
                106.091295,
                9.540008
              ],
              [
                106.091362,
                9.540253
              ],
              [
                106.091382,
                9.540325
              ],
              [
                106.091473,
                9.540656
              ],
              [
                106.091504,
                9.540768
              ],
              [
                106.091548,
                9.540924
              ],
              [
                106.091594,
                9.541091
              ],
              [
                106.091701,
                9.541465
              ],
              [
                106.091772,
                9.541487
              ],
              [
                106.095449,
                9.542635
              ],
              [
                106.101391,
                9.544798
              ],
              [
                106.103346,
                9.545282
              ],
              [
                106.103364,
                9.545388
              ],
              [
                106.103448,
                9.545418
              ],
              [
                106.104278,
                9.545711
              ],
              [
                106.105089,
                9.545997
              ],
              [
                106.105533,
                9.546153
              ],
              [
                106.107869,
                9.546911
              ],
              [
                106.108757,
                9.547191
              ],
              [
                106.1098,
                9.547519
              ],
              [
                106.109813,
                9.547409
              ],
              [
                106.109815,
                9.547388
              ],
              [
                106.109901,
                9.546443
              ],
              [
                106.110242,
                9.541792
              ],
              [
                106.111712,
                9.541599
              ],
              [
                106.113374,
                9.541382
              ],
              [
                106.114476,
                9.541238
              ],
              [
                106.118321,
                9.540729
              ],
              [
                106.118723,
                9.54067
              ],
              [
                106.119527,
                9.540552
              ],
              [
                106.119585,
                9.540541
              ],
              [
                106.119643,
                9.54053
              ],
              [
                106.120785,
                9.54036
              ],
              [
                106.122152,
                9.540157
              ],
              [
                106.12225,
                9.540141
              ],
              [
                106.122344,
                9.540126
              ],
              [
                106.12248,
                9.540104
              ],
              [
                106.122925,
                9.540033
              ],
              [
                106.123074,
                9.539991
              ],
              [
                106.123727,
                9.539807
              ],
              [
                106.124753,
                9.53956
              ],
              [
                106.125761,
                9.539353
              ],
              [
                106.125747,
                9.539264
              ],
              [
                106.125857,
                9.53923
              ],
              [
                106.126722,
                9.538965
              ],
              [
                106.126742,
                9.538959
              ],
              [
                106.126776,
                9.538949
              ],
              [
                106.127065,
                9.538867
              ],
              [
                106.127591,
                9.538773
              ],
              [
                106.1278,
                9.53874
              ],
              [
                106.1278,
                9.53874
              ]
            ]
          ]
        ]
      },
      "properties": {
        "code": "31675",
        "name": "Liêu Tú",
        "nameEn": "Lieu Tu",
        "fullName": "Xã Liêu Tú",
        "fullNameEn": "Lieu Tu Commune",
        "codeName": "lieu_tu",
        "postalCode": "96711",
        "postalCodePrefix": "",
        "gisServerId": "diaphanhanhchinhcapxa_2025.285",
        "areaKm2": 83.15
      }
    }
  ]
}