{
  "type": "FeatureCollection",
  "bbox": [
    106.64562,
    10.963582,
    106.70716,
    11.011645
  ],
  "features": [
    {
      "type": "Feature",
      "id": "25750",
      "bbox": [
        106.64562,
        10.963582,
        106.70716,
        11.011645
      ],
      "geometry": {
        "type": "MultiPolygon",
        "coordinates": [
          [
            [
              [
                106.666704,
                11.005716
              ],
              [
                106.666837,
                11.00558
              ],
              [
                106.666877,
                11.005635
              ],
              [
                106.667493,
                11.006481
              ],
              [
                106.667705,
                11.006778
              ],
              [
                106.667888,
                11.006642
              ],
              [
                106.668134,
                11.00646
              ],
              [
                106.668998,
                11.007487
              ],
              [
                106.669424,
                11.007091
              ],
              [
                106.669046,
                11.006553
              ],
              [
                106.669024,
                11.006507
              ],
              [
                106.669536,
                11.005954
              ],
              [
                106.669993,
                11.005788
              ],
              [
                106.670211,
                11.005715
              ],
              [
                106.6703,
                11.005652
              ],
              [
                106.670353,
                11.005564
              ],
              [
                106.670551,
                11.00518
              ],
              [
                106.670654,
                11.005043
              ],
              [
                106.670726,
                11.004996
              ],
              [
                106.670922,
                11.004902
              ],
              [
                106.671175,
                11.004843
              ],
              [
                106.671349,
                11.004792
              ],
              [
                106.671516,
                11.004691
              ],
              [
                106.671769,
                11.00446
              ],
              [
                106.672116,
                11.004214
              ],
              [
                106.672254,
                11.004134
              ],
              [
                106.672515,
                11.004039
              ],
              [
                106.673226,
                11.003841
              ],
              [
                106.673387,
                11.003815
              ],
              [
                106.673413,
                11.003865
              ],
              [
                106.673447,
                11.003954
              ],
              [
                106.673494,
                11.004075
              ],
              [
                106.675788,
                11.002509
              ],
              [
                106.678468,
                11.000741
              ],
              [
                106.678468,
                11.000741
              ],
              [
                106.678617,
                11.000643
              ],
              [
                106.678721,
                11.000574
              ],
              [
                106.678731,
                11.000567
              ],
              [
                106.678748,
                11.000556
              ],
              [
                106.679138,
                11.000286
              ],
              [
                106.679291,
                11.000181
              ],
              [
                106.679488,
                11.000044
              ],
              [
                106.679517,
                11.000025
              ],
              [
                106.679581,
                10.999981
              ],
              [
                106.679596,
                10.99997
              ],
              [
                106.679623,
                10.999952
              ],
              [
                106.679632,
                10.999946
              ],
              [
                106.679644,
                10.999937
              ],
              [
                106.679645,
                10.999936
              ],
              [
                106.679673,
                10.999917
              ],
              [
                106.679678,
                10.999913
              ],
              [
                106.679751,
                10.999863
              ],
              [
                106.679752,
                10.999862
              ],
              [
                106.680032,
                10.999669
              ],
              [
                106.680123,
                10.999606
              ],
              [
                106.680246,
                10.999522
              ],
              [
                106.680298,
                10.999485
              ],
              [
                106.680393,
                10.99942
              ],
              [
                106.680433,
                10.999392
              ],
              [
                106.680508,
                10.99934
              ],
              [
                106.680527,
                10.999327
              ],
              [
                106.680601,
                10.999276
              ],
              [
                106.680613,
                10.999268
              ],
              [
                106.68067,
                10.999229
              ],
              [
                106.680684,
                10.999219
              ],
              [
                106.680753,
                10.999171
              ],
              [
                106.680765,
                10.999163
              ],
              [
                106.680805,
                10.999136
              ],
              [
                106.68082,
                10.999125
              ],
              [
                106.680869,
                10.999091
              ],
              [
                106.680871,
                10.99909
              ],
              [
                106.680897,
                10.999072
              ],
              [
                106.680903,
                10.999068
              ],
              [
                106.680919,
                10.999057
              ],
              [
                106.680968,
                10.999023
              ],
              [
                106.680971,
                10.99902
              ],
              [
                106.680992,
                10.999006
              ],
              [
                106.681,
                10.999001
              ],
              [
                106.681014,
                10.998991
              ],
              [
                106.681016,
                10.99899
              ],
              [
                106.68103,
                10.99898
              ],
              [
                106.681847,
                10.998361
              ],
              [
                106.682584,
                10.997749
              ],
              [
                106.682701,
                10.997653
              ],
              [
                106.682759,
                10.997598
              ],
              [
                106.683002,
                10.997371
              ],
              [
                106.683017,
                10.997358
              ],
              [
                106.683101,
                10.99728
              ],
              [
                106.683533,
                10.996833
              ],
              [
                106.683764,
                10.99656
              ],
              [
                106.683954,
                10.996694
              ],
              [
                106.684129,
                10.996817
              ],
              [
                106.684369,
                10.996985
              ],
              [
                106.684371,
                10.997017
              ],
              [
                106.684372,
                10.997025
              ],
              [
                106.684384,
                10.997134
              ],
              [
                106.684407,
                10.997208
              ],
              [
                106.684429,
                10.997269
              ],
              [
                106.684477,
                10.997372
              ],
              [
                106.684571,
                10.997568
              ],
              [
                106.684669,
                10.997758
              ],
              [
                106.684684,
                10.997774
              ],
              [
                106.684755,
                10.997805
              ],
              [
                106.684776,
                10.997814
              ],
              [
                106.684862,
                10.997859
              ],
              [
                106.684878,
                10.997873
              ],
              [
                106.684925,
                10.997942
              ],
              [
                106.685026,
                10.998127
              ],
              [
                106.685217,
                10.998512
              ],
              [
                106.685224,
                10.998519
              ],
              [
                106.685233,
                10.998525
              ],
              [
                106.685257,
                10.998527
              ],
              [
                106.685297,
                10.998524
              ],
              [
                106.685319,
                10.998523
              ],
              [
                106.685348,
                10.998528
              ],
              [
                106.685379,
                10.998546
              ],
              [
                106.685398,
                10.998563
              ],
              [
                106.685435,
                10.998621
              ],
              [
                106.685463,
                10.998678
              ],
              [
                106.685606,
                10.99898
              ],
              [
                106.685606,
                10.99898
              ],
              [
                106.686119,
                11.000012
              ],
              [
                106.686285,
                11.000222
              ],
              [
                106.686271,
                11.001284
              ],
              [
                106.686331,
                11.001571
              ],
              [
                106.68685,
                11.002698
              ],
              [
                106.686954,
                11.003027
              ],
              [
                106.687612,
                11.003755
              ],
              [
                106.689043,
                11.005067
              ],
              [
                106.689968,
                11.004258
              ],
              [
                106.690655,
                11.004178
              ],
              [
                106.692477,
                11.00398
              ],
              [
                106.692448,
                11.004095
              ],
              [
                106.692829,
                11.004682
              ],
              [
                106.693513,
                11.005486
              ],
              [
                106.69389,
                11.005929
              ],
              [
                106.694399,
                11.006529
              ],
              [
                106.694499,
                11.006637
              ],
              [
                106.695339,
                11.007543
              ],
              [
                106.695635,
                11.007866
              ],
              [
                106.695703,
                11.007941
              ],
              [
                106.69572,
                11.007921
              ],
              [
                106.695762,
                11.007877
              ],
              [
                106.695809,
                11.007828
              ],
              [
                106.695879,
                11.007765
              ],
              [
                106.696001,
                11.007669
              ],
              [
                106.696216,
                11.007507
              ],
              [
                106.696525,
                11.007277
              ],
              [
                106.696846,
                11.007038
              ],
              [
                106.697173,
                11.006795
              ],
              [
                106.697518,
                11.006535
              ],
              [
                106.697832,
                11.006293
              ],
              [
                106.698145,
                11.006046
              ],
              [
                106.698477,
                11.005785
              ],
              [
                106.698764,
                11.00556
              ],
              [
                106.699044,
                11.005341
              ],
              [
                106.69969,
                11.004825
              ],
              [
                106.699792,
                11.004676
              ],
              [
                106.699799,
                11.004662
              ],
              [
                106.699809,
                11.004643
              ],
              [
                106.699818,
                11.004622
              ],
              [
                106.699837,
                11.004589
              ],
              [
                106.699866,
                11.004545
              ],
              [
                106.699887,
                11.004515
              ],
              [
                106.699901,
                11.004502
              ],
              [
                106.699999,
                11.004397
              ],
              [
                106.700161,
                11.004215
              ],
              [
                106.700347,
                11.00399
              ],
              [
                106.700435,
                11.003872
              ],
              [
                106.700479,
                11.003831
              ],
              [
                106.700529,
                11.003786
              ],
              [
                106.700555,
                11.003754
              ],
              [
                106.700605,
                11.003716
              ],
              [
                106.700615,
                11.003711
              ],
              [
                106.700682,
                11.003672
              ],
              [
                106.700739,
                11.003635
              ],
              [
                106.70078,
                11.003605
              ],
              [
                106.700852,
                11.003568
              ],
              [
                106.700955,
                11.003526
              ],
              [
                106.701011,
                11.003507
              ],
              [
                106.702643,
                11.002667
              ],
              [
                106.702717,
                11.002629
              ],
              [
                106.702635,
                11.002497
              ],
              [
                106.702554,
                11.00236
              ],
              [
                106.702472,
                11.00222
              ],
              [
                106.702508,
                11.002202
              ],
              [
                106.702705,
                11.002101
              ],
              [
                106.702937,
                11.001969
              ],
              [
                106.703466,
                11.001666
              ],
              [
                106.7039,
                11.001353
              ],
              [
                106.704188,
                11.001064
              ],
              [
                106.704404,
                11.000692
              ],
              [
                106.704704,
                11.000152
              ],
              [
                106.704992,
                10.999816
              ],
              [
                106.705185,
                10.999623
              ],
              [
                106.705236,
                10.999573
              ],
              [
                106.70574,
                10.99907
              ],
              [
                106.705825,
                10.998986
              ],
              [
                106.705829,
                10.998981
              ],
              [
                106.705915,
                10.998871
              ],
              [
                106.706043,
                10.998707
              ],
              [
                106.706083,
                10.998655
              ],
              [
                106.70625,
                10.998478
              ],
              [
                106.70642,
                10.998299
              ],
              [
                106.706697,
                10.997858
              ],
              [
                106.706818,
                10.997666
              ],
              [
                106.706901,
                10.997475
              ],
              [
                106.707017,
                10.997117
              ],
              [
                106.70714,
                10.996743
              ],
              [
                106.70716,
                10.996671
              ],
              [
                106.707094,
                10.99658
              ],
              [
                106.706631,
                10.996167
              ],
              [
                106.706354,
                10.995896
              ],
              [
                106.705999,
                10.995561
              ],
              [
                106.705564,
                10.995235
              ],
              [
                106.705553,
                10.995227
              ],
              [
                106.705186,
                10.994952
              ],
              [
                106.704947,
                10.994784
              ],
              [
                106.704673,
                10.994591
              ],
              [
                106.704641,
                10.994591
              ],
              [
                106.704522,
                10.994589
              ],
              [
                106.704413,
                10.994573
              ],
              [
                106.704412,
                10.994573
              ],
              [
                106.704406,
                10.994568
              ],
              [
                106.70431,
                10.9945
              ],
              [
                106.70408,
                10.994337
              ],
              [
                106.703415,
                10.993944
              ],
              [
                106.703266,
                10.993856
              ],
              [
                106.702479,
                10.993373
              ],
              [
                106.701285,
                10.992642
              ],
              [
                106.700851,
                10.992346
              ],
              [
                106.700822,
                10.992326
              ],
              [
                106.70042,
                10.992071
              ],
              [
                106.700304,
                10.991998
              ],
              [
                106.700063,
                10.991845
              ],
              [
                106.699472,
                10.991462
              ],
              [
                106.698712,
                10.990971
              ],
              [
                106.698584,
                10.990922
              ],
              [
                106.698565,
                10.99091
              ],
              [
                106.698014,
                10.990556
              ],
              [
                106.697764,
                10.990396
              ],
              [
                106.697495,
                10.990232
              ],
              [
                106.697237,
                10.990061
              ],
              [
                106.697155,
                10.989995
              ],
              [
                106.697123,
                10.989969
              ],
              [
                106.696974,
                10.989726
              ],
              [
                106.696797,
                10.989407
              ],
              [
                106.696794,
                10.989401
              ],
              [
                106.696792,
                10.989402
              ],
              [
                106.696787,
                10.989402
              ],
              [
                106.696679,
                10.989403
              ],
              [
                106.696654,
                10.989403
              ],
              [
                106.696615,
                10.989403
              ],
              [
                106.696615,
                10.989401
              ],
              [
                106.696612,
                10.989331
              ],
              [
                106.696611,
                10.989295
              ],
              [
                106.696611,
                10.989279
              ],
              [
                106.696555,
                10.989137
              ],
              [
                106.696523,
                10.989052
              ],
              [
                106.696522,
                10.989049
              ],
              [
                106.696498,
                10.98897
              ],
              [
                106.696484,
                10.988859
              ],
              [
                106.696473,
                10.988773
              ],
              [
                106.696468,
                10.988563
              ],
              [
                106.696467,
                10.988486
              ],
              [
                106.696476,
                10.988409
              ],
              [
                106.696476,
                10.988408
              ],
              [
                106.696477,
                10.988403
              ],
              [
                106.696494,
                10.988313
              ],
              [
                106.696508,
                10.988226
              ],
              [
                106.696529,
                10.988104
              ],
              [
                106.696528,
                10.988049
              ],
              [
                106.696515,
                10.988008
              ],
              [
                106.696498,
                10.987951
              ],
              [
                106.696435,
                10.987796
              ],
              [
                106.696377,
                10.987713
              ],
              [
                106.69632,
                10.987633
              ],
              [
                106.696243,
                10.987524
              ],
              [
                106.696217,
                10.98748
              ],
              [
                106.696213,
                10.987457
              ],
              [
                106.696315,
                10.987414
              ],
              [
                106.696597,
                10.987296
              ],
              [
                106.696773,
                10.987223
              ],
              [
                106.697027,
                10.987037
              ],
              [
                106.697118,
                10.986931
              ],
              [
                106.697287,
                10.986736
              ],
              [
                106.69732,
                10.986648
              ],
              [
                106.697418,
                10.986382
              ],
              [
                106.697479,
                10.986307
              ],
              [
                106.697551,
                10.986218
              ],
              [
                106.697626,
                10.986175
              ],
              [
                106.697896,
                10.986132
              ],
              [
                106.697948,
                10.986124
              ],
              [
                106.697971,
                10.986101
              ],
              [
                106.698161,
                10.985912
              ],
              [
                106.698281,
                10.985581
              ],
              [
                106.698312,
                10.985416
              ],
              [
                106.698311,
                10.9852
              ],
              [
                106.698413,
                10.984909
              ],
              [
                106.698431,
                10.984857
              ],
              [
                106.698431,
                10.984855
              ],
              [
                106.698454,
                10.984464
              ],
              [
                106.698554,
                10.984019
              ],
              [
                106.698628,
                10.983403
              ],
              [
                106.698688,
                10.983124
              ],
              [
                106.698718,
                10.982984
              ],
              [
                106.698848,
                10.982641
              ],
              [
                106.698963,
                10.982437
              ],
              [
                106.699116,
                10.982284
              ],
              [
                106.699259,
                10.982055
              ],
              [
                106.699277,
                10.981946
              ],
              [
                106.699334,
                10.981756
              ],
              [
                106.699502,
                10.981442
              ],
              [
                106.699509,
                10.981429
              ],
              [
                106.699552,
                10.98131
              ],
              [
                106.69955,
                10.981291
              ],
              [
                106.699541,
                10.981135
              ],
              [
                106.69955,
                10.981031
              ],
              [
                106.699759,
                10.980779
              ],
              [
                106.699873,
                10.980617
              ],
              [
                106.699902,
                10.980513
              ],
              [
                106.699907,
                10.980481
              ],
              [
                106.699929,
                10.980352
              ],
              [
                106.699991,
                10.980202
              ],
              [
                106.699995,
                10.980191
              ],
              [
                106.700001,
                10.980187
              ],
              [
                106.700055,
                10.980153
              ],
              [
                106.700193,
                10.980065
              ],
              [
                106.700272,
                10.980014
              ],
              [
                106.700342,
                10.979928
              ],
              [
                106.700458,
                10.979783
              ],
              [
                106.700624,
                10.979477
              ],
              [
                106.700745,
                10.979348
              ],
              [
                106.700824,
                10.979263
              ],
              [
                106.700847,
                10.979178
              ],
              [
                106.700841,
                10.979146
              ],
              [
                106.700832,
                10.979098
              ],
              [
                106.700812,
                10.978842
              ],
              [
                106.700835,
                10.978719
              ],
              [
                106.700954,
                10.978553
              ],
              [
                106.701163,
                10.978272
              ],
              [
                106.701202,
                10.978206
              ],
              [
                106.701281,
                10.978073
              ],
              [
                106.701294,
                10.978034
              ],
              [
                106.701296,
                10.978027
              ],
              [
                106.701305,
                10.977997
              ],
              [
                106.701251,
                10.977933
              ],
              [
                106.701194,
                10.977865
              ],
              [
                106.701117,
                10.977728
              ],
              [
                106.701087,
                10.977619
              ],
              [
                106.701101,
                10.977501
              ],
              [
                106.701182,
                10.977387
              ],
              [
                106.701219,
                10.977226
              ],
              [
                106.701175,
                10.976961
              ],
              [
                106.701106,
                10.976644
              ],
              [
                106.701065,
                10.976256
              ],
              [
                106.701029,
                10.976179
              ],
              [
                106.701004,
                10.976127
              ],
              [
                106.700983,
                10.976082
              ],
              [
                106.700891,
                10.975926
              ],
              [
                106.7009,
                10.975789
              ],
              [
                106.700932,
                10.975609
              ],
              [
                106.700916,
                10.975372
              ],
              [
                106.700916,
                10.975296
              ],
              [
                106.700915,
                10.975154
              ],
              [
                106.700915,
                10.975112
              ],
              [
                106.700933,
                10.97487
              ],
              [
                106.700965,
                10.974705
              ],
              [
                106.700973,
                10.974676
              ],
              [
                106.701017,
                10.97451
              ],
              [
                106.701049,
                10.974316
              ],
              [
                106.701057,
                10.974285
              ],
              [
                106.701082,
                10.974183
              ],
              [
                106.701187,
                10.974115
              ],
              [
                106.701244,
                10.974078
              ],
              [
                106.701478,
                10.973859
              ],
              [
                106.701554,
                10.973738
              ],
              [
                106.701606,
                10.973655
              ],
              [
                106.701939,
                10.973341
              ],
              [
                106.70212,
                10.973089
              ],
              [
                106.702219,
                10.972894
              ],
              [
                106.702248,
                10.972762
              ],
              [
                106.702261,
                10.9727
              ],
              [
                106.702208,
                10.972596
              ],
              [
                106.702102,
                10.97254
              ],
              [
                106.701927,
                10.972489
              ],
              [
                106.701911,
                10.972484
              ],
              [
                106.7018,
                10.972371
              ],
              [
                106.701728,
                10.972235
              ],
              [
                106.701654,
                10.972098
              ],
              [
                106.701524,
                10.971847
              ],
              [
                106.70135,
                10.971616
              ],
              [
                106.701246,
                10.971413
              ],
              [
                106.70116,
                10.971246
              ],
              [
                106.701137,
                10.971201
              ],
              [
                106.701101,
                10.971154
              ],
              [
                106.700895,
                10.970885
              ],
              [
                106.700714,
                10.970705
              ],
              [
                106.700597,
                10.970801
              ],
              [
                106.700446,
                10.970855
              ],
              [
                106.7004,
                10.970841
              ],
              [
                106.700288,
                10.970808
              ],
              [
                106.700118,
                10.970654
              ],
              [
                106.699835,
                10.970362
              ],
              [
                106.699567,
                10.970077
              ],
              [
                106.699268,
                10.969699
              ],
              [
                106.699146,
                10.969514
              ],
              [
                106.699091,
                10.969446
              ],
              [
                106.698976,
                10.969371
              ],
              [
                106.698888,
                10.969405
              ],
              [
                106.698768,
                10.969453
              ],
              [
                106.698674,
                10.969445
              ],
              [
                106.698601,
                10.969404
              ],
              [
                106.698507,
                10.969314
              ],
              [
                106.698412,
                10.969204
              ],
              [
                106.6983,
                10.969085
              ],
              [
                106.698073,
                10.968923
              ],
              [
                106.69804,
                10.968895
              ],
              [
                106.697836,
                10.968782
              ],
              [
                106.69756,
                10.968647
              ],
              [
                106.697555,
                10.968645
              ],
              [
                106.697551,
                10.968641
              ],
              [
                106.697422,
                10.968573
              ],
              [
                106.697377,
                10.96854
              ],
              [
                106.697319,
                10.968476
              ],
              [
                106.697221,
                10.968405
              ],
              [
                106.697064,
                10.968337
              ],
              [
                106.696962,
                10.968302
              ],
              [
                106.696927,
                10.968283
              ],
              [
                106.696846,
                10.968238
              ],
              [
                106.696531,
                10.967986
              ],
              [
                106.696521,
                10.967978
              ],
              [
                106.696353,
                10.967857
              ],
              [
                106.696328,
                10.967839
              ],
              [
                106.696277,
                10.967803
              ],
              [
                106.696248,
                10.967782
              ],
              [
                106.696235,
                10.967778
              ],
              [
                106.695921,
                10.967675
              ],
              [
                106.69546,
                10.967458
              ],
              [
                106.695106,
                10.967231
              ],
              [
                106.694994,
                10.967141
              ],
              [
                106.694913,
                10.967077
              ],
              [
                106.694807,
                10.966992
              ],
              [
                106.694574,
                10.966843
              ],
              [
                106.69443,
                10.966786
              ],
              [
                106.694377,
                10.966765
              ],
              [
                106.694206,
                10.966698
              ],
              [
                106.693984,
                10.966626
              ],
              [
                106.693868,
                10.966588
              ],
              [
                106.693648,
                10.966502
              ],
              [
                106.693151,
                10.966309
              ],
              [
                106.692663,
                10.966107
              ],
              [
                106.692325,
                10.965955
              ],
              [
                106.692023,
                10.965838
              ],
              [
                106.691782,
                10.965749
              ],
              [
                106.691641,
                10.965687
              ],
              [
                106.691615,
                10.965675
              ],
              [
                106.6916,
                10.965666
              ],
              [
                106.691247,
                10.965451
              ],
              [
                106.690934,
                10.965302
              ],
              [
                106.69065,
                10.965178
              ],
              [
                106.690367,
                10.96501
              ],
              [
                106.690362,
                10.965007
              ],
              [
                106.690092,
                10.964826
              ],
              [
                106.689816,
                10.964404
              ],
              [
                106.689731,
                10.964276
              ],
              [
                106.689714,
                10.96425
              ],
              [
                106.689527,
                10.96393
              ],
              [
                106.689425,
                10.963803
              ],
              [
                106.689343,
                10.963701
              ],
              [
                106.689317,
                10.96366
              ],
              [
                106.689268,
                10.963582
              ],
              [
                106.68926,
                10.963586
              ],
              [
                106.689255,
                10.963589
              ],
              [
                106.689178,
                10.963631
              ],
              [
                106.689004,
                10.963715
              ],
              [
                106.687088,
                10.964574
              ],
              [
                106.685553,
                10.965321
              ],
              [
                106.68534,
                10.965424
              ],
              [
                106.683936,
                10.966085
              ],
              [
                106.683236,
                10.966416
              ],
              [
                106.682856,
                10.966596
              ],
              [
                106.681785,
                10.967095
              ],
              [
                106.680644,
                10.967715
              ],
              [
                106.67935,
                10.968433
              ],
              [
                106.678219,
                10.969076
              ],
              [
                106.677883,
                10.969267
              ],
              [
                106.677341,
                10.969575
              ],
              [
                106.676464,
                10.970078
              ],
              [
                106.675304,
                10.970708
              ],
              [
                106.674508,
                10.97109
              ],
              [
                106.673213,
                10.971724
              ],
              [
                106.67239,
                10.972144
              ],
              [
                106.671824,
                10.972468
              ],
              [
                106.671588,
                10.972609
              ],
              [
                106.671518,
                10.972651
              ],
              [
                106.671506,
                10.972659
              ],
              [
                106.671395,
                10.972759
              ],
              [
                106.671174,
                10.972965
              ],
              [
                106.671119,
                10.973012
              ],
              [
                106.670987,
                10.973149
              ],
              [
                106.670752,
                10.973442
              ],
              [
                106.670626,
                10.973637
              ],
              [
                106.670505,
                10.973848
              ],
              [
                106.670265,
                10.97434
              ],
              [
                106.6699,
                10.975138
              ],
              [
                106.669766,
                10.975407
              ],
              [
                106.669711,
                10.97552
              ],
              [
                106.669304,
                10.976341
              ],
              [
                106.668433,
                10.978101
              ],
              [
                106.668145,
                10.978682
              ],
              [
                106.667954,
                10.979069
              ],
              [
                106.667607,
                10.979785
              ],
              [
                106.667085,
                10.980909
              ],
              [
                106.666836,
                10.981595
              ],
              [
                106.666574,
                10.982488
              ],
              [
                106.666524,
                10.982658
              ],
              [
                106.666522,
                10.982667
              ],
              [
                106.666474,
                10.982835
              ],
              [
                106.66638,
                10.983278
              ],
              [
                106.666259,
                10.983936
              ],
              [
                106.666227,
                10.984077
              ],
              [
                106.666213,
                10.984137
              ],
              [
                106.666169,
                10.984327
              ],
              [
                106.666146,
                10.984428
              ],
              [
                106.666142,
                10.984443
              ],
              [
                106.666014,
                10.984993
              ],
              [
                106.665925,
                10.98529
              ],
              [
                106.665737,
                10.985823
              ],
              [
                106.66558,
                10.986201
              ],
              [
                106.665486,
                10.986429
              ],
              [
                106.665468,
                10.98647
              ],
              [
                106.66517,
                10.987023
              ],
              [
                106.664986,
                10.987364
              ],
              [
                106.664834,
                10.987664
              ],
              [
                106.664534,
                10.988254
              ],
              [
                106.66399,
                10.989326
              ],
              [
                106.663927,
                10.989451
              ],
              [
                106.663643,
                10.990068
              ],
              [
                106.663442,
                10.990452
              ],
              [
                106.663193,
                10.990845
              ],
              [
                106.662959,
                10.991151
              ],
              [
                106.662709,
                10.991407
              ],
              [
                106.662672,
                10.991435
              ],
              [
                106.662528,
                10.991542
              ],
              [
                106.662215,
                10.991732
              ],
              [
                106.661886,
                10.991923
              ],
              [
                106.661321,
                10.992147
              ],
              [
                106.66094,
                10.992242
              ],
              [
                106.660181,
                10.992338
              ],
              [
                106.660019,
                10.99235
              ],
              [
                106.659563,
                10.992383
              ],
              [
                106.659507,
                10.992387
              ],
              [
                106.658705,
                10.99246
              ],
              [
                106.65814,
                10.992493
              ],
              [
                106.65768,
                10.992532
              ],
              [
                106.657302,
                10.992567
              ],
              [
                106.656999,
                10.992595
              ],
              [
                106.656564,
                10.992657
              ],
              [
                106.656165,
                10.99277
              ],
              [
                106.655944,
                10.992888
              ],
              [
                106.655893,
                10.992915
              ],
              [
                106.65548,
                10.993136
              ],
              [
                106.654693,
                10.993597
              ],
              [
                106.653067,
                10.994593
              ],
              [
                106.650889,
                10.995928
              ],
              [
                106.649918,
                10.996537
              ],
              [
                106.649743,
                10.996653
              ],
              [
                106.64915,
                10.997049
              ],
              [
                106.648772,
                10.997292
              ],
              [
                106.648348,
                10.997659
              ],
              [
                106.648259,
                10.997747
              ],
              [
                106.647804,
                10.998194
              ],
              [
                106.647744,
                10.998254
              ],
              [
                106.647726,
                10.998275
              ],
              [
                106.647705,
                10.998302
              ],
              [
                106.647563,
                10.99848
              ],
              [
                106.647453,
                10.998614
              ],
              [
                106.647397,
                10.998683
              ],
              [
                106.647216,
                10.998981
              ],
              [
                106.647215,
                10.998984
              ],
              [
                106.647112,
                10.999228
              ],
              [
                106.646982,
                10.999537
              ],
              [
                106.646881,
                10.999884
              ],
              [
                106.646774,
                11.000363
              ],
              [
                106.646704,
                11.000806
              ],
              [
                106.646638,
                11.001141
              ],
              [
                106.646581,
                11.001435
              ],
              [
                106.646469,
                11.001945
              ],
              [
                106.646445,
                11.002057
              ],
              [
                106.646279,
                11.002668
              ],
              [
                106.646152,
                11.00315
              ],
              [
                106.646151,
                11.003151
              ],
              [
                106.64615,
                11.003157
              ],
              [
                106.645728,
                11.004758
              ],
              [
                106.64562,
                11.005147
              ],
              [
                106.645675,
                11.005164
              ],
              [
                106.645835,
                11.005216
              ],
              [
                106.646286,
                11.005275
              ],
              [
                106.646554,
                11.005274
              ],
              [
                106.646765,
                11.005262
              ],
              [
                106.646932,
                11.005282
              ],
              [
                106.647023,
                11.005293
              ],
              [
                106.647325,
                11.005393
              ],
              [
                106.647511,
                11.005455
              ],
              [
                106.647675,
                11.005499
              ],
              [
                106.648343,
                11.005623
              ],
              [
                106.648408,
                11.005637
              ],
              [
                106.649275,
                11.005828
              ],
              [
                106.64948,
                11.005971
              ],
              [
                106.649711,
                11.00611
              ],
              [
                106.649732,
                11.006122
              ],
              [
                106.649994,
                11.006255
              ],
              [
                106.650519,
                11.006462
              ],
              [
                106.650766,
                11.006515
              ],
              [
                106.650948,
                11.006523
              ],
              [
                106.651065,
                11.006541
              ],
              [
                106.651188,
                11.006601
              ],
              [
                106.651232,
                11.006622
              ],
              [
                106.651582,
                11.006829
              ],
              [
                106.651739,
                11.006917
              ],
              [
                106.652062,
                11.007027
              ],
              [
                106.652857,
                11.007297
              ],
              [
                106.652903,
                11.007313
              ],
              [
                106.653154,
                11.007413
              ],
              [
                106.653977,
                11.007741
              ],
              [
                106.654643,
                11.007996
              ],
              [
                106.654901,
                11.008077
              ],
              [
                106.655181,
                11.008144
              ],
              [
                106.655672,
                11.008277
              ],
              [
                106.656091,
                11.008454
              ],
              [
                106.656535,
                11.008657
              ],
              [
                106.656682,
                11.008738
              ],
              [
                106.65683,
                11.00882
              ],
              [
                106.656895,
                11.008907
              ],
              [
                106.657042,
                11.009102
              ],
              [
                106.657617,
                11.00982
              ],
              [
                106.657697,
                11.009893
              ],
              [
                106.657768,
                11.009935
              ],
              [
                106.657782,
                11.009944
              ],
              [
                106.657928,
                11.009994
              ],
              [
                106.658037,
                11.010059
              ],
              [
                106.658116,
                11.010127
              ],
              [
                106.658223,
                11.010314
              ],
              [
                106.658602,
                11.010974
              ],
              [
                106.658837,
                11.011388
              ],
              [
                106.658923,
                11.011617
              ],
              [
                106.658923,
                11.011619
              ],
              [
                106.658924,
                11.01162
              ],
              [
                106.658924,
                11.011621
              ],
              [
                106.658924,
                11.011622
              ],
              [
                106.659056,
                11.011645
              ],
              [
                106.659183,
                11.011623
              ],
              [
                106.659295,
                11.011542
              ],
              [
                106.659448,
                11.011361
              ],
              [
                106.659504,
                11.011301
              ],
              [
                106.659807,
                11.011114
              ],
              [
                106.660102,
                11.010912
              ],
              [
                106.660434,
                11.010683
              ],
              [
                106.660562,
                11.010552
              ],
              [
                106.660781,
                11.010348
              ],
              [
                106.661131,
                11.010145
              ],
              [
                106.661348,
                11.010058
              ],
              [
                106.661723,
                11.01
              ],
              [
                106.662294,
                11.009794
              ],
              [
                106.662523,
                11.009659
              ],
              [
                106.662609,
                11.009601
              ],
              [
                106.663013,
                11.009328
              ],
              [
                106.663249,
                11.009131
              ],
              [
                106.663437,
                11.009003
              ],
              [
                106.663941,
                11.008706
              ],
              [
                106.664071,
                11.008605
              ],
              [
                106.664512,
                11.008191
              ],
              [
                106.664835,
                11.007881
              ],
              [
                106.665201,
                11.007531
              ],
              [
                106.665227,
                11.007506
              ],
              [
                106.665417,
                11.007323
              ],
              [
                106.66548,
                11.007224
              ],
              [
                106.665542,
                11.007126
              ],
              [
                106.665829,
                11.006811
              ],
              [
                106.665877,
                11.006745
              ],
              [
                106.666141,
                11.006385
              ],
              [
                106.666415,
                11.006012
              ],
              [
                106.666621,
                11.0058
              ],
              [
                106.666675,
                11.005745
              ],
              [
                106.666683,
                11.005737
              ],
              [
                106.666704,
                11.005716
              ],
              [
                106.666704,
                11.005716
              ]
            ]
          ]
        ]
      },
      "properties": {
        "code": "25750",
        "name": "Phú Lợi",
        "nameEn": "Phu Loi",
        "fullName": "Phường Phú Lợi",
        "fullNameEn": "Phu Loi Ward",
        "codeName": "phu_loi",
        "postalCode": "75110",
        "postalCodePrefix": "",
        "gisServerId": "diaphanhanhchinhcapxa_2025.1",
        "areaKm2": 17.96
      }
    }
  ]
}