{
  "type": "FeatureCollection",
  "bbox": [
    107.054852,
    10.320285,
    107.101337,
    10.387285
  ],
  "features": [
    {
      "type": "Feature",
      "id": "26506",
      "bbox": [
        107.054852,
        10.320285,
        107.101337,
        10.387285
      ],
      "geometry": {
        "type": "MultiPolygon",
        "coordinates": [
          [
            [
              [
                107.088947,
                10.323466
              ],
              [
                107.088913,
                10.323466
              ],
              [
                107.088884,
                10.32349
              ],
              [
                107.088884,
                10.323545
              ],
              [
                107.08889,
                10.323634
              ],
              [
                107.088868,
                10.323665
              ],
              [
                107.08882,
                10.323684
              ],
              [
                107.088782,
                10.323704
              ],
              [
                107.088758,
                10.323749
              ],
              [
                107.088785,
                10.323795
              ],
              [
                107.088819,
                10.32385
              ],
              [
                107.088841,
                10.323931
              ],
              [
                107.088863,
                10.323995
              ],
              [
                107.088914,
                10.324057
              ],
              [
                107.089007,
                10.324094
              ],
              [
                107.089079,
                10.324123
              ],
              [
                107.089231,
                10.324151
              ],
              [
                107.089343,
                10.324152
              ],
              [
                107.089453,
                10.324106
              ],
              [
                107.089569,
                10.324014
              ],
              [
                107.089576,
                10.323983
              ],
              [
                107.089573,
                10.323926
              ],
              [
                107.089531,
                10.323819
              ],
              [
                107.089507,
                10.323785
              ],
              [
                107.089477,
                10.323742
              ],
              [
                107.089431,
                10.323666
              ],
              [
                107.089363,
                10.323612
              ],
              [
                107.08931,
                10.323593
              ],
              [
                107.089257,
                10.323586
              ],
              [
                107.089179,
                10.323582
              ],
              [
                107.089126,
                10.323577
              ],
              [
                107.089075,
                10.323554
              ],
              [
                107.089034,
                10.32352
              ],
              [
                107.088966,
                10.323466
              ],
              [
                107.088947,
                10.323466
              ],
              [
                107.088947,
                10.323466
              ]
            ]
          ],
          [
            [
              [
                107.06299,
                10.386936
              ],
              [
                107.063431,
                10.386812
              ],
              [
                107.06346,
                10.386862
              ],
              [
                107.063821,
                10.386576
              ],
              [
                107.063886,
                10.386525
              ],
              [
                107.063702,
                10.3863
              ],
              [
                107.063849,
                10.386162
              ],
              [
                107.064007,
                10.386027
              ],
              [
                107.06413,
                10.385923
              ],
              [
                107.064205,
                10.385893
              ],
              [
                107.064285,
                10.385851
              ],
              [
                107.064364,
                10.38577
              ],
              [
                107.064411,
                10.385679
              ],
              [
                107.064492,
                10.385526
              ],
              [
                107.064538,
                10.385414
              ],
              [
                107.064614,
                10.385197
              ],
              [
                107.06461,
                10.385066
              ],
              [
                107.064619,
                10.384961
              ],
              [
                107.064644,
                10.3849
              ],
              [
                107.064731,
                10.384786
              ],
              [
                107.06474,
                10.384774
              ],
              [
                107.064866,
                10.384686
              ],
              [
                107.065064,
                10.384612
              ],
              [
                107.065098,
                10.384599
              ],
              [
                107.065331,
                10.384474
              ],
              [
                107.065607,
                10.384287
              ],
              [
                107.065609,
                10.384286
              ],
              [
                107.06561,
                10.384285
              ],
              [
                107.065768,
                10.384141
              ],
              [
                107.06584,
                10.38403
              ],
              [
                107.065888,
                10.38391
              ],
              [
                107.065961,
                10.383753
              ],
              [
                107.065968,
                10.383739
              ],
              [
                107.066123,
                10.383744
              ],
              [
                107.066292,
                10.383745
              ],
              [
                107.066617,
                10.383339
              ],
              [
                107.066898,
                10.382926
              ],
              [
                107.067083,
                10.382663
              ],
              [
                107.067093,
                10.382647
              ],
              [
                107.067235,
                10.382409
              ],
              [
                107.067257,
                10.382367
              ],
              [
                107.067302,
                10.38228
              ],
              [
                107.067331,
                10.382222
              ],
              [
                107.067384,
                10.382179
              ],
              [
                107.067427,
                10.382169
              ],
              [
                107.067518,
                10.382151
              ],
              [
                107.067658,
                10.381814
              ],
              [
                107.06769,
                10.381691
              ],
              [
                107.067723,
                10.381569
              ],
              [
                107.067784,
                10.381382
              ],
              [
                107.067837,
                10.381281
              ],
              [
                107.067913,
                10.381214
              ],
              [
                107.068024,
                10.381146
              ],
              [
                107.068096,
                10.381093
              ],
              [
                107.068123,
                10.381075
              ],
              [
                107.068222,
                10.381008
              ],
              [
                107.070733,
                10.382158
              ],
              [
                107.072039,
                10.382757
              ],
              [
                107.07248,
                10.383153
              ],
              [
                107.072553,
                10.383097
              ],
              [
                107.072553,
                10.383097
              ],
              [
                107.073042,
                10.382727
              ],
              [
                107.07353,
                10.382358
              ],
              [
                107.073743,
                10.382318
              ],
              [
                107.073895,
                10.38241
              ],
              [
                107.074042,
                10.382499
              ],
              [
                107.074105,
                10.382536
              ],
              [
                107.074175,
                10.382553
              ],
              [
                107.074266,
                10.382575
              ],
              [
                107.074377,
                10.382628
              ],
              [
                107.074469,
                10.382686
              ],
              [
                107.074632,
                10.382789
              ],
              [
                107.075087,
                10.383074
              ],
              [
                107.075268,
                10.383188
              ],
              [
                107.075274,
                10.383191
              ],
              [
                107.075836,
                10.383511
              ],
              [
                107.0761,
                10.383661
              ],
              [
                107.076448,
                10.383717
              ],
              [
                107.07664,
                10.383514
              ],
              [
                107.076702,
                10.383412
              ],
              [
                107.076926,
                10.383044
              ],
              [
                107.07705,
                10.383041
              ],
              [
                107.077797,
                10.383544
              ],
              [
                107.078026,
                10.383711
              ],
              [
                107.078068,
                10.383742
              ],
              [
                107.078098,
                10.383779
              ],
              [
                107.078097,
                10.383827
              ],
              [
                107.078097,
                10.383829
              ],
              [
                107.078074,
                10.383886
              ],
              [
                107.077972,
                10.383998
              ],
              [
                107.077941,
                10.384032
              ],
              [
                107.077826,
                10.384134
              ],
              [
                107.077706,
                10.384213
              ],
              [
                107.077661,
                10.384295
              ],
              [
                107.077656,
                10.384396
              ],
              [
                107.077683,
                10.384564
              ],
              [
                107.078572,
                10.384275
              ],
              [
                107.079214,
                10.384066
              ],
              [
                107.079301,
                10.383987
              ],
              [
                107.079606,
                10.383708
              ],
              [
                107.079906,
                10.383753
              ],
              [
                107.0802,
                10.3836
              ],
              [
                107.080356,
                10.383544
              ],
              [
                107.080686,
                10.383443
              ],
              [
                107.081042,
                10.3833
              ],
              [
                107.081144,
                10.383261
              ],
              [
                107.081531,
                10.383113
              ],
              [
                107.081591,
                10.383224
              ],
              [
                107.081889,
                10.383096
              ],
              [
                107.082016,
                10.383027
              ],
              [
                107.081782,
                10.382696
              ],
              [
                107.081748,
                10.382665
              ],
              [
                107.081736,
                10.382654
              ],
              [
                107.081624,
                10.382548
              ],
              [
                107.081587,
                10.38244
              ],
              [
                107.08152,
                10.382375
              ],
              [
                107.081332,
                10.382328
              ],
              [
                107.08115,
                10.382174
              ],
              [
                107.080767,
                10.381875
              ],
              [
                107.080513,
                10.381676
              ],
              [
                107.080209,
                10.381349
              ],
              [
                107.080453,
                10.381186
              ],
              [
                107.080554,
                10.381042
              ],
              [
                107.080691,
                10.380534
              ],
              [
                107.080704,
                10.380372
              ],
              [
                107.080689,
                10.380247
              ],
              [
                107.080552,
                10.380086
              ],
              [
                107.080583,
                10.38006
              ],
              [
                107.080567,
                10.380054
              ],
              [
                107.080683,
                10.379955
              ],
              [
                107.080862,
                10.379805
              ],
              [
                107.081044,
                10.379634
              ],
              [
                107.081162,
                10.379485
              ],
              [
                107.081263,
                10.379314
              ],
              [
                107.081314,
                10.37919
              ],
              [
                107.081383,
                10.37907
              ],
              [
                107.081501,
                10.378938
              ],
              [
                107.081575,
                10.378882
              ],
              [
                107.081585,
                10.378847
              ],
              [
                107.081581,
                10.378745
              ],
              [
                107.081575,
                10.378595
              ],
              [
                107.08157,
                10.378545
              ],
              [
                107.081566,
                10.3785
              ],
              [
                107.081464,
                10.378355
              ],
              [
                107.081442,
                10.378331
              ],
              [
                107.081334,
                10.37821
              ],
              [
                107.081291,
                10.378136
              ],
              [
                107.081209,
                10.378032
              ],
              [
                107.081028,
                10.377846
              ],
              [
                107.080572,
                10.377571
              ],
              [
                107.080423,
                10.37743
              ],
              [
                107.080271,
                10.377286
              ],
              [
                107.080241,
                10.377152
              ],
              [
                107.080259,
                10.376961
              ],
              [
                107.080276,
                10.376597
              ],
              [
                107.080217,
                10.376483
              ],
              [
                107.080042,
                10.37635
              ],
              [
                107.079942,
                10.376235
              ],
              [
                107.080178,
                10.376053
              ],
              [
                107.080534,
                10.375865
              ],
              [
                107.08067,
                10.375648
              ],
              [
                107.080725,
                10.375606
              ],
              [
                107.080818,
                10.375561
              ],
              [
                107.080955,
                10.375491
              ],
              [
                107.081332,
                10.375352
              ],
              [
                107.081394,
                10.375338
              ],
              [
                107.081393,
                10.37511
              ],
              [
                107.081392,
                10.374906
              ],
              [
                107.081523,
                10.374772
              ],
              [
                107.081758,
                10.374332
              ],
              [
                107.081806,
                10.374218
              ],
              [
                107.081886,
                10.374023
              ],
              [
                107.081893,
                10.374
              ],
              [
                107.0819,
                10.373978
              ],
              [
                107.082424,
                10.372939
              ],
              [
                107.082462,
                10.372864
              ],
              [
                107.082516,
                10.372755
              ],
              [
                107.082612,
                10.372566
              ],
              [
                107.082652,
                10.372486
              ],
              [
                107.082669,
                10.372452
              ],
              [
                107.08281,
                10.372172
              ],
              [
                107.082926,
                10.371942
              ],
              [
                107.083087,
                10.371623
              ],
              [
                107.083413,
                10.370977
              ],
              [
                107.083432,
                10.370939
              ],
              [
                107.083468,
                10.370867
              ],
              [
                107.083986,
                10.36984
              ],
              [
                107.084001,
                10.369811
              ],
              [
                107.084003,
                10.369806
              ],
              [
                107.084082,
                10.36965
              ],
              [
                107.084127,
                10.369561
              ],
              [
                107.084128,
                10.369559
              ],
              [
                107.084341,
                10.369136
              ],
              [
                107.084123,
                10.369027
              ],
              [
                107.083965,
                10.368947
              ],
              [
                107.083806,
                10.368867
              ],
              [
                107.083369,
                10.368647
              ],
              [
                107.082966,
                10.36884
              ],
              [
                107.081861,
                10.369421
              ],
              [
                107.08157,
                10.369551
              ],
              [
                107.080891,
                10.369851
              ],
              [
                107.080841,
                10.369873
              ],
              [
                107.080673,
                10.36994
              ],
              [
                107.080558,
                10.369972
              ],
              [
                107.080395,
                10.370002
              ],
              [
                107.080281,
                10.370015
              ],
              [
                107.080151,
                10.37002
              ],
              [
                107.077842,
                10.370109
              ],
              [
                107.076682,
                10.37022
              ],
              [
                107.076411,
                10.368417
              ],
              [
                107.076308,
                10.367729
              ],
              [
                107.076198,
                10.366994
              ],
              [
                107.076061,
                10.366082
              ],
              [
                107.07605,
                10.366001
              ],
              [
                107.07597,
                10.365395
              ],
              [
                107.075635,
                10.362878
              ],
              [
                107.075505,
                10.361894
              ],
              [
                107.075572,
                10.361844
              ],
              [
                107.075607,
                10.361817
              ],
              [
                107.07567,
                10.36177
              ],
              [
                107.075956,
                10.361556
              ],
              [
                107.076345,
                10.361264
              ],
              [
                107.076725,
                10.360979
              ],
              [
                107.076774,
                10.360943
              ],
              [
                107.077094,
                10.360702
              ],
              [
                107.077106,
                10.360694
              ],
              [
                107.077117,
                10.360685
              ],
              [
                107.077155,
                10.360657
              ],
              [
                107.07717,
                10.360645
              ],
              [
                107.077185,
                10.360634
              ],
              [
                107.078683,
                10.359511
              ],
              [
                107.078694,
                10.359503
              ],
              [
                107.078881,
                10.359363
              ],
              [
                107.078886,
                10.359359
              ],
              [
                107.07893,
                10.359326
              ],
              [
                107.079022,
                10.359257
              ],
              [
                107.079059,
                10.359229
              ],
              [
                107.079068,
                10.359222
              ],
              [
                107.079088,
                10.359208
              ],
              [
                107.079419,
                10.358961
              ],
              [
                107.079728,
                10.358732
              ],
              [
                107.080683,
                10.358021
              ],
              [
                107.081762,
                10.357219
              ],
              [
                107.082035,
                10.357015
              ],
              [
                107.084444,
                10.355214
              ],
              [
                107.084872,
                10.354895
              ],
              [
                107.084872,
                10.354894
              ],
              [
                107.085202,
                10.354644
              ],
              [
                107.087544,
                10.352867
              ],
              [
                107.08877,
                10.351936
              ],
              [
                107.091922,
                10.349628
              ],
              [
                107.09277,
                10.348959
              ],
              [
                107.093495,
                10.349389
              ],
              [
                107.094514,
                10.349853
              ],
              [
                107.095678,
                10.350153
              ],
              [
                107.097304,
                10.350527
              ],
              [
                107.098352,
                10.350767
              ],
              [
                107.098648,
                10.350779
              ],
              [
                107.098912,
                10.350733
              ],
              [
                107.09915,
                10.350637
              ],
              [
                107.099449,
                10.350464
              ],
              [
                107.099892,
                10.350208
              ],
              [
                107.100053,
                10.350115
              ],
              [
                107.100065,
                10.350109
              ],
              [
                107.100084,
                10.350131
              ],
              [
                107.100246,
                10.35004
              ],
              [
                107.100721,
                10.349799
              ],
              [
                107.100901,
                10.349704
              ],
              [
                107.101337,
                10.349537
              ],
              [
                107.101229,
                10.349393
              ],
              [
                107.101032,
                10.349287
              ],
              [
                107.100965,
                10.349275
              ],
              [
                107.100873,
                10.349259
              ],
              [
                107.100764,
                10.349217
              ],
              [
                107.100654,
                10.349081
              ],
              [
                107.100559,
                10.348924
              ],
              [
                107.100512,
                10.348857
              ],
              [
                107.100413,
                10.348717
              ],
              [
                107.100259,
                10.348517
              ],
              [
                107.10004,
                10.348303
              ],
              [
                107.099865,
                10.348125
              ],
              [
                107.099851,
                10.348116
              ],
              [
                107.099756,
                10.348061
              ],
              [
                107.099458,
                10.347954
              ],
              [
                107.099244,
                10.347693
              ],
              [
                107.098913,
                10.346896
              ],
              [
                107.09889,
                10.346842
              ],
              [
                107.098809,
                10.346563
              ],
              [
                107.098684,
                10.346348
              ],
              [
                107.098501,
                10.346098
              ],
              [
                107.098348,
                10.34592
              ],
              [
                107.098201,
                10.345691
              ],
              [
                107.098033,
                10.345384
              ],
              [
                107.097901,
                10.345141
              ],
              [
                107.097682,
                10.34492
              ],
              [
                107.097441,
                10.344728
              ],
              [
                107.097062,
                10.344294
              ],
              [
                107.097054,
                10.344286
              ],
              [
                107.097017,
                10.344224
              ],
              [
                107.096454,
                10.343292
              ],
              [
                107.096256,
                10.342906
              ],
              [
                107.0961,
                10.342376
              ],
              [
                107.095902,
                10.342047
              ],
              [
                107.095771,
                10.341898
              ],
              [
                107.09564,
                10.341863
              ],
              [
                107.095466,
                10.341842
              ],
              [
                107.0954,
                10.3418
              ],
              [
                107.095367,
                10.341775
              ],
              [
                107.095204,
                10.341657
              ],
              [
                107.094692,
                10.340907
              ],
              [
                107.094629,
                10.340828
              ],
              [
                107.09418,
                10.340265
              ],
              [
                107.094005,
                10.339994
              ],
              [
                107.093938,
                10.339793
              ],
              [
                107.093871,
                10.339585
              ],
              [
                107.093818,
                10.339351
              ],
              [
                107.093804,
                10.339292
              ],
              [
                107.093716,
                10.339113
              ],
              [
                107.093555,
                10.338927
              ],
              [
                107.093388,
                10.338792
              ],
              [
                107.093257,
                10.338664
              ],
              [
                107.093154,
                10.338528
              ],
              [
                107.092754,
                10.337793
              ],
              [
                107.092509,
                10.337342
              ],
              [
                107.092487,
                10.337297
              ],
              [
                107.092023,
                10.33637
              ],
              [
                107.091958,
                10.33624
              ],
              [
                107.091608,
                10.335465
              ],
              [
                107.091583,
                10.33541
              ],
              [
                107.091414,
                10.335089
              ],
              [
                107.091275,
                10.334853
              ],
              [
                107.091144,
                10.334717
              ],
              [
                107.091039,
                10.33462
              ],
              [
                107.090991,
                10.334575
              ],
              [
                107.090707,
                10.334332
              ],
              [
                107.090707,
                10.334314
              ],
              [
                107.090711,
                10.334197
              ],
              [
                107.090711,
                10.33419
              ],
              [
                107.0907,
                10.334155
              ],
              [
                107.09066,
                10.333938
              ],
              [
                107.090468,
                10.333344
              ],
              [
                107.09024,
                10.332858
              ],
              [
                107.090155,
                10.332748
              ],
              [
                107.090014,
                10.332565
              ],
              [
                107.089816,
                10.332265
              ],
              [
                107.089721,
                10.332108
              ],
              [
                107.089654,
                10.331929
              ],
              [
                107.089624,
                10.331671
              ],
              [
                107.089564,
                10.33132
              ],
              [
                107.089496,
                10.331062
              ],
              [
                107.089445,
                10.330868
              ],
              [
                107.08932,
                10.330625
              ],
              [
                107.089188,
                10.330468
              ],
              [
                107.08914,
                10.330421
              ],
              [
                107.089094,
                10.330376
              ],
              [
                107.088991,
                10.330226
              ],
              [
                107.088966,
                10.330171
              ],
              [
                107.088874,
                10.329968
              ],
              [
                107.088748,
                10.329625
              ],
              [
                107.088548,
                10.328916
              ],
              [
                107.088537,
                10.328887
              ],
              [
                107.088418,
                10.32858
              ],
              [
                107.088399,
                10.328487
              ],
              [
                107.088341,
                10.328422
              ],
              [
                107.088257,
                10.328371
              ],
              [
                107.088196,
                10.328324
              ],
              [
                107.088186,
                10.328313
              ],
              [
                107.088123,
                10.328247
              ],
              [
                107.08805,
                10.328142
              ],
              [
                107.088,
                10.327927
              ],
              [
                107.088001,
                10.327893
              ],
              [
                107.088007,
                10.327643
              ],
              [
                107.088049,
                10.327533
              ],
              [
                107.088057,
                10.327413
              ],
              [
                107.088035,
                10.32721
              ],
              [
                107.087968,
                10.327107
              ],
              [
                107.087901,
                10.327004
              ],
              [
                107.087493,
                10.326658
              ],
              [
                107.087221,
                10.326334
              ],
              [
                107.08718,
                10.326155
              ],
              [
                107.087151,
                10.326029
              ],
              [
                107.087178,
                10.325694
              ],
              [
                107.087177,
                10.325521
              ],
              [
                107.08706,
                10.325388
              ],
              [
                107.086922,
                10.324997
              ],
              [
                107.08686,
                10.324385
              ],
              [
                107.086693,
                10.323984
              ],
              [
                107.086488,
                10.32368
              ],
              [
                107.086139,
                10.323366
              ],
              [
                107.086062,
                10.323306
              ],
              [
                107.086047,
                10.323295
              ],
              [
                107.085764,
                10.323073
              ],
              [
                107.085744,
                10.323057
              ],
              [
                107.08554,
                10.322897
              ],
              [
                107.085519,
                10.322881
              ],
              [
                107.085389,
                10.322779
              ],
              [
                107.085314,
                10.322725
              ],
              [
                107.085309,
                10.322721
              ],
              [
                107.085229,
                10.322668
              ],
              [
                107.085163,
                10.322643
              ],
              [
                107.085066,
                10.322639
              ],
              [
                107.084969,
                10.32266
              ],
              [
                107.084819,
                10.322693
              ],
              [
                107.084699,
                10.32273
              ],
              [
                107.084614,
                10.322748
              ],
              [
                107.084586,
                10.32275
              ],
              [
                107.084451,
                10.322682
              ],
              [
                107.084269,
                10.322553
              ],
              [
                107.084123,
                10.322423
              ],
              [
                107.084074,
                10.322303
              ],
              [
                107.084055,
                10.322178
              ],
              [
                107.084066,
                10.322052
              ],
              [
                107.084047,
                10.321939
              ],
              [
                107.084028,
                10.321837
              ],
              [
                107.083991,
                10.321712
              ],
              [
                107.083949,
                10.32164
              ],
              [
                107.083882,
                10.321539
              ],
              [
                107.083863,
                10.321468
              ],
              [
                107.083862,
                10.321378
              ],
              [
                107.083898,
                10.321276
              ],
              [
                107.08394,
                10.321168
              ],
              [
                107.083969,
                10.32109
              ],
              [
                107.083969,
                10.320995
              ],
              [
                107.083932,
                10.320875
              ],
              [
                107.083816,
                10.320744
              ],
              [
                107.083713,
                10.32062
              ],
              [
                107.083712,
                10.320548
              ],
              [
                107.083724,
                10.320464
              ],
              [
                107.083747,
                10.320404
              ],
              [
                107.083759,
                10.32035
              ],
              [
                107.083731,
                10.320307
              ],
              [
                107.083729,
                10.320303
              ],
              [
                107.08368,
                10.320285
              ],
              [
                107.08362,
                10.320297
              ],
              [
                107.083566,
                10.320334
              ],
              [
                107.083319,
                10.320497
              ],
              [
                107.083265,
                10.320569
              ],
              [
                107.083206,
                10.320689
              ],
              [
                107.083194,
                10.32079
              ],
              [
                107.083207,
                10.320928
              ],
              [
                107.083214,
                10.321023
              ],
              [
                107.083245,
                10.321143
              ],
              [
                107.083264,
                10.321244
              ],
              [
                107.083277,
                10.321352
              ],
              [
                107.083248,
                10.321525
              ],
              [
                107.083164,
                10.321741
              ],
              [
                107.083111,
                10.321921
              ],
              [
                107.083088,
                10.322094
              ],
              [
                107.083102,
                10.32228
              ],
              [
                107.083121,
                10.322459
              ],
              [
                107.083176,
                10.322644
              ],
              [
                107.083366,
                10.322954
              ],
              [
                107.083402,
                10.323037
              ],
              [
                107.083421,
                10.323103
              ],
              [
                107.083421,
                10.323145
              ],
              [
                107.083404,
                10.323204
              ],
              [
                107.083254,
                10.323463
              ],
              [
                107.083251,
                10.323468
              ],
              [
                107.083159,
                10.323595
              ],
              [
                107.083129,
                10.323636
              ],
              [
                107.083042,
                10.323758
              ],
              [
                107.082925,
                10.323894
              ],
              [
                107.082797,
                10.324121
              ],
              [
                107.082785,
                10.324143
              ],
              [
                107.082705,
                10.324285
              ],
              [
                107.082606,
                10.324462
              ],
              [
                107.082537,
                10.324548
              ],
              [
                107.082345,
                10.324744
              ],
              [
                107.082278,
                10.324812
              ],
              [
                107.082152,
                10.32494
              ],
              [
                107.08189,
                10.325146
              ],
              [
                107.081829,
                10.325168
              ],
              [
                107.081794,
                10.325157
              ],
              [
                107.081772,
                10.325137
              ],
              [
                107.081749,
                10.32514
              ],
              [
                107.081745,
                10.325141
              ],
              [
                107.081718,
                10.325168
              ],
              [
                107.081606,
                10.325295
              ],
              [
                107.081532,
                10.325356
              ],
              [
                107.081431,
                10.32546
              ],
              [
                107.081387,
                10.325515
              ],
              [
                107.081351,
                10.32558
              ],
              [
                107.081289,
                10.325635
              ],
              [
                107.081242,
                10.325724
              ],
              [
                107.080943,
                10.326291
              ],
              [
                107.080807,
                10.326547
              ],
              [
                107.080734,
                10.326649
              ],
              [
                107.08066,
                10.326726
              ],
              [
                107.080589,
                10.326823
              ],
              [
                107.080581,
                10.326866
              ],
              [
                107.080592,
                10.326912
              ],
              [
                107.080671,
                10.327036
              ],
              [
                107.080771,
                10.327194
              ],
              [
                107.080782,
                10.327231
              ],
              [
                107.080793,
                10.327267
              ],
              [
                107.080795,
                10.327308
              ],
              [
                107.080782,
                10.327355
              ],
              [
                107.080726,
                10.327439
              ],
              [
                107.080616,
                10.327526
              ],
              [
                107.08056,
                10.32757
              ],
              [
                107.080506,
                10.327613
              ],
              [
                107.080355,
                10.327704
              ],
              [
                107.080331,
                10.327719
              ],
              [
                107.080119,
                10.32781
              ],
              [
                107.079498,
                10.328097
              ],
              [
                107.079495,
                10.328099
              ],
              [
                107.078874,
                10.32844
              ],
              [
                107.078839,
                10.328459
              ],
              [
                107.078727,
                10.328514
              ],
              [
                107.07841,
                10.328667
              ],
              [
                107.078222,
                10.328759
              ],
              [
                107.078118,
                10.328849
              ],
              [
                107.077939,
                10.329003
              ],
              [
                107.07788,
                10.329054
              ],
              [
                107.077732,
                10.329136
              ],
              [
                107.077573,
                10.329223
              ],
              [
                107.077484,
                10.329271
              ],
              [
                107.077333,
                10.32935
              ],
              [
                107.077127,
                10.329375
              ],
              [
                107.077091,
                10.329385
              ],
              [
                107.077085,
                10.329387
              ],
              [
                107.077045,
                10.329416
              ],
              [
                107.077012,
                10.329442
              ],
              [
                107.076918,
                10.329491
              ],
              [
                107.076905,
                10.329495
              ],
              [
                107.076849,
                10.329542
              ],
              [
                107.076798,
                10.329598
              ],
              [
                107.076783,
                10.329636
              ],
              [
                107.076713,
                10.329777
              ],
              [
                107.076592,
                10.329964
              ],
              [
                107.076507,
                10.330059
              ],
              [
                107.076437,
                10.330117
              ],
              [
                107.076382,
                10.330152
              ],
              [
                107.07628,
                10.330203
              ],
              [
                107.076151,
                10.330247
              ],
              [
                107.076019,
                10.33028
              ],
              [
                107.075939,
                10.330285
              ],
              [
                107.075865,
                10.330294
              ],
              [
                107.075558,
                10.330353
              ],
              [
                107.075455,
                10.330373
              ],
              [
                107.0754,
                10.330378
              ],
              [
                107.075136,
                10.330405
              ],
              [
                107.07489,
                10.330461
              ],
              [
                107.074741,
                10.330521
              ],
              [
                107.074655,
                10.330555
              ],
              [
                107.074637,
                10.330562
              ],
              [
                107.074334,
                10.330666
              ],
              [
                107.074033,
                10.33081
              ],
              [
                107.073899,
                10.330861
              ],
              [
                107.073756,
                10.33099
              ],
              [
                107.073631,
                10.331102
              ],
              [
                107.073391,
                10.331517
              ],
              [
                107.073371,
                10.331547
              ],
              [
                107.073298,
                10.331659
              ],
              [
                107.073169,
                10.331926
              ],
              [
                107.073136,
                10.332062
              ],
              [
                107.073054,
                10.332239
              ],
              [
                107.073025,
                10.332284
              ],
              [
                107.072975,
                10.332361
              ],
              [
                107.072841,
                10.332538
              ],
              [
                107.072745,
                10.332639
              ],
              [
                107.072721,
                10.332665
              ],
              [
                107.072633,
                10.332731
              ],
              [
                107.072546,
                10.332798
              ],
              [
                107.072434,
                10.33285
              ],
              [
                107.072403,
                10.332873
              ],
              [
                107.072352,
                10.332932
              ],
              [
                107.072284,
                10.333044
              ],
              [
                107.072261,
                10.333083
              ],
              [
                107.072178,
                10.333328
              ],
              [
                107.072106,
                10.333572
              ],
              [
                107.072006,
                10.333834
              ],
              [
                107.071988,
                10.333871
              ],
              [
                107.071898,
                10.334046
              ],
              [
                107.071801,
                10.334225
              ],
              [
                107.07164,
                10.334477
              ],
              [
                107.071612,
                10.334529
              ],
              [
                107.071586,
                10.334578
              ],
              [
                107.071532,
                10.334679
              ],
              [
                107.071516,
                10.334777
              ],
              [
                107.071496,
                10.334933
              ],
              [
                107.071364,
                10.335949
              ],
              [
                107.071324,
                10.336209
              ],
              [
                107.071308,
                10.336348
              ],
              [
                107.071309,
                10.336885
              ],
              [
                107.07131,
                10.337044
              ],
              [
                107.071308,
                10.337193
              ],
              [
                107.071294,
                10.337576
              ],
              [
                107.071339,
                10.33784
              ],
              [
                107.07139,
                10.338054
              ],
              [
                107.071444,
                10.338273
              ],
              [
                107.071476,
                10.338435
              ],
              [
                107.07149,
                10.338505
              ],
              [
                107.071491,
                10.338552
              ],
              [
                107.071448,
                10.338613
              ],
              [
                107.07133,
                10.338674
              ],
              [
                107.071328,
                10.338675
              ],
              [
                107.071198,
                10.33874
              ],
              [
                107.071126,
                10.338791
              ],
              [
                107.071083,
                10.338849
              ],
              [
                107.071015,
                10.338914
              ],
              [
                107.070943,
                10.338943
              ],
              [
                107.070776,
                10.338973
              ],
              [
                107.070762,
                10.338987
              ],
              [
                107.070793,
                10.339335
              ],
              [
                107.070818,
                10.33936
              ],
              [
                107.070858,
                10.339363
              ],
              [
                107.071181,
                10.339329
              ],
              [
                107.071217,
                10.339329
              ],
              [
                107.071264,
                10.339343
              ],
              [
                107.071279,
                10.339353
              ],
              [
                107.071334,
                10.339377
              ],
              [
                107.071345,
                10.339381
              ],
              [
                107.071377,
                10.339383
              ],
              [
                107.07142,
                10.339381
              ],
              [
                107.071429,
                10.339385
              ],
              [
                107.071467,
                10.339566
              ],
              [
                107.071494,
                10.339598
              ],
              [
                107.071526,
                10.339616
              ],
              [
                107.071549,
                10.33962
              ],
              [
                107.071575,
                10.339621
              ],
              [
                107.071619,
                10.339625
              ],
              [
                107.071648,
                10.339631
              ],
              [
                107.071655,
                10.339634
              ],
              [
                107.071674,
                10.339689
              ],
              [
                107.071679,
                10.339729
              ],
              [
                107.071685,
                10.339769
              ],
              [
                107.071695,
                10.33979
              ],
              [
                107.071709,
                10.3398
              ],
              [
                107.071757,
                10.339806
              ],
              [
                107.0718,
                10.339806
              ],
              [
                107.071828,
                10.339804
              ],
              [
                107.071867,
                10.339797
              ],
              [
                107.071882,
                10.33979
              ],
              [
                107.071915,
                10.339784
              ],
              [
                107.071931,
                10.339784
              ],
              [
                107.07196,
                10.339792
              ],
              [
                107.072019,
                10.339828
              ],
              [
                107.072099,
                10.339903
              ],
              [
                107.07211,
                10.339917
              ],
              [
                107.072255,
                10.340138
              ],
              [
                107.072356,
                10.340281
              ],
              [
                107.072504,
                10.340439
              ],
              [
                107.072661,
                10.340577
              ],
              [
                107.072775,
                10.340677
              ],
              [
                107.072779,
                10.340678
              ],
              [
                107.072995,
                10.340869
              ],
              [
                107.073072,
                10.340937
              ],
              [
                107.073505,
                10.34132
              ],
              [
                107.073721,
                10.341509
              ],
              [
                107.073772,
                10.34155
              ],
              [
                107.073897,
                10.34166
              ],
              [
                107.073926,
                10.341721
              ],
              [
                107.073931,
                10.34185
              ],
              [
                107.073942,
                10.341979
              ],
              [
                107.073953,
                10.342023
              ],
              [
                107.073957,
                10.342043
              ],
              [
                107.07399,
                10.342118
              ],
              [
                107.074047,
                10.342226
              ],
              [
                107.074104,
                10.342333
              ],
              [
                107.0742,
                10.342515
              ],
              [
                107.074222,
                10.342612
              ],
              [
                107.07423,
                10.34273
              ],
              [
                107.074218,
                10.343314
              ],
              [
                107.07415,
                10.343715
              ],
              [
                107.074075,
                10.344018
              ],
              [
                107.073996,
                10.344395
              ],
              [
                107.07393,
                10.344587
              ],
              [
                107.073856,
                10.344773
              ],
              [
                107.073749,
                10.345051
              ],
              [
                107.073722,
                10.34513
              ],
              [
                107.073659,
                10.345279
              ],
              [
                107.073583,
                10.345519
              ],
              [
                107.073522,
                10.345782
              ],
              [
                107.073477,
                10.3459
              ],
              [
                107.073214,
                10.346279
              ],
              [
                107.073139,
                10.346388
              ],
              [
                107.073046,
                10.346523
              ],
              [
                107.072899,
                10.346737
              ],
              [
                107.072883,
                10.346763
              ],
              [
                107.072862,
                10.346792
              ],
              [
                107.07281,
                10.34684
              ],
              [
                107.072729,
                10.346887
              ],
              [
                107.072692,
                10.346907
              ],
              [
                107.072632,
                10.346958
              ],
              [
                107.072607,
                10.346992
              ],
              [
                107.072571,
                10.347057
              ],
              [
                107.07256,
                10.347088
              ],
              [
                107.072548,
                10.34717
              ],
              [
                107.072547,
                10.347178
              ],
              [
                107.07254,
                10.347283
              ],
              [
                107.072529,
                10.347331
              ],
              [
                107.072509,
                10.347371
              ],
              [
                107.072415,
                10.347464
              ],
              [
                107.071563,
                10.348176
              ],
              [
                107.071497,
                10.348231
              ],
              [
                107.070401,
                10.349023
              ],
              [
                107.070195,
                10.349172
              ],
              [
                107.069842,
                10.349431
              ],
              [
                107.069478,
                10.349613
              ],
              [
                107.068783,
                10.349832
              ],
              [
                107.068644,
                10.349863
              ],
              [
                107.06817,
                10.35001
              ],
              [
                107.067995,
                10.350028
              ],
              [
                107.067952,
                10.350029
              ],
              [
                107.067918,
                10.350014
              ],
              [
                107.06786,
                10.349948
              ],
              [
                107.067821,
                10.349932
              ],
              [
                107.067707,
                10.34997
              ],
              [
                107.067632,
                10.349981
              ],
              [
                107.067567,
                10.349978
              ],
              [
                107.067507,
                10.349967
              ],
              [
                107.067486,
                10.349967
              ],
              [
                107.067461,
                10.34996
              ],
              [
                107.067449,
                10.349956
              ],
              [
                107.067415,
                10.349965
              ],
              [
                107.067382,
                10.349994
              ],
              [
                107.067371,
                10.350016
              ],
              [
                107.067358,
                10.350042
              ],
              [
                107.067358,
                10.350123
              ],
              [
                107.067359,
                10.350181
              ],
              [
                107.067344,
                10.350219
              ],
              [
                107.067282,
                10.350267
              ],
              [
                107.067176,
                10.350327
              ],
              [
                107.067111,
                10.350356
              ],
              [
                107.06708,
                10.350365
              ],
              [
                107.067068,
                10.350363
              ],
              [
                107.06706,
                10.350364
              ],
              [
                107.067046,
                10.350364
              ],
              [
                107.067017,
                10.35035
              ],
              [
                107.066973,
                10.350331
              ],
              [
                107.06695,
                10.35032
              ],
              [
                107.066944,
                10.350317
              ],
              [
                107.066906,
                10.350322
              ],
              [
                107.066877,
                10.350327
              ],
              [
                107.066848,
                10.350356
              ],
              [
                107.066833,
                10.35039
              ],
              [
                107.066834,
                10.350433
              ],
              [
                107.066844,
                10.350471
              ],
              [
                107.066844,
                10.3505
              ],
              [
                107.06683,
                10.350524
              ],
              [
                107.066733,
                10.350591
              ],
              [
                107.066685,
                10.350625
              ],
              [
                107.066627,
                10.350625
              ],
              [
                107.066365,
                10.35045
              ],
              [
                107.066234,
                10.350384
              ],
              [
                107.066186,
                10.350365
              ],
              [
                107.066073,
                10.350358
              ],
              [
                107.066026,
                10.350372
              ],
              [
                107.065976,
                10.350407
              ],
              [
                107.06594,
                10.350443
              ],
              [
                107.0659,
                10.350506
              ],
              [
                107.065867,
                10.350601
              ],
              [
                107.065866,
                10.35062
              ],
              [
                107.065849,
                10.350715
              ],
              [
                107.065835,
                10.350891
              ],
              [
                107.06584,
                10.351015
              ],
              [
                107.065867,
                10.35107
              ],
              [
                107.065873,
                10.351088
              ],
              [
                107.065875,
                10.351124
              ],
              [
                107.065871,
                10.351141
              ],
              [
                107.065856,
                10.351167
              ],
              [
                107.065809,
                10.351227
              ],
              [
                107.065763,
                10.351274
              ],
              [
                107.065749,
                10.351304
              ],
              [
                107.065739,
                10.351323
              ],
              [
                107.065709,
                10.351448
              ],
              [
                107.065688,
                10.351488
              ],
              [
                107.065663,
                10.351512
              ],
              [
                107.065605,
                10.351587
              ],
              [
                107.065504,
                10.351736
              ],
              [
                107.065489,
                10.351772
              ],
              [
                107.065452,
                10.351875
              ],
              [
                107.065422,
                10.351921
              ],
              [
                107.065375,
                10.35196
              ],
              [
                107.065311,
                10.351993
              ],
              [
                107.065284,
                10.352007
              ],
              [
                107.065109,
                10.352083
              ],
              [
                107.06484,
                10.352192
              ],
              [
                107.064719,
                10.352244
              ],
              [
                107.064396,
                10.352388
              ],
              [
                107.064296,
                10.352458
              ],
              [
                107.063781,
                10.352885
              ],
              [
                107.063552,
                10.353087
              ],
              [
                107.063251,
                10.353341
              ],
              [
                107.063081,
                10.353446
              ],
              [
                107.062997,
                10.353495
              ],
              [
                107.062626,
                10.353683
              ],
              [
                107.062263,
                10.353789
              ],
              [
                107.062183,
                10.353785
              ],
              [
                107.062165,
                10.353788
              ],
              [
                107.062148,
                10.353795
              ],
              [
                107.062132,
                10.353802
              ],
              [
                107.062081,
                10.353838
              ],
              [
                107.061969,
                10.35393
              ],
              [
                107.061856,
                10.354023
              ],
              [
                107.061831,
                10.354051
              ],
              [
                107.061714,
                10.354183
              ],
              [
                107.061615,
                10.35432
              ],
              [
                107.061615,
                10.35433
              ],
              [
                107.061624,
                10.354349
              ],
              [
                107.061635,
                10.354355
              ],
              [
                107.061687,
                10.354394
              ],
              [
                107.061692,
                10.354411
              ],
              [
                107.061693,
                10.354438
              ],
              [
                107.061682,
                10.354462
              ],
              [
                107.061638,
                10.354532
              ],
              [
                107.061569,
                10.354629
              ],
              [
                107.061407,
                10.354822
              ],
              [
                107.061188,
                10.355115
              ],
              [
                107.061039,
                10.355322
              ],
              [
                107.060908,
                10.355519
              ],
              [
                107.060866,
                10.355542
              ],
              [
                107.06084,
                10.355552
              ],
              [
                107.060821,
                10.355564
              ],
              [
                107.060799,
                10.355587
              ],
              [
                107.060777,
                10.355644
              ],
              [
                107.060741,
                10.355785
              ],
              [
                107.060742,
                10.355808
              ],
              [
                107.060742,
                10.355844
              ],
              [
                107.060733,
                10.355912
              ],
              [
                107.060724,
                10.355945
              ],
              [
                107.060723,
                10.355947
              ],
              [
                107.060717,
                10.355968
              ],
              [
                107.060713,
                10.355982
              ],
              [
                107.060703,
                10.356041
              ],
              [
                107.060693,
                10.356126
              ],
              [
                107.06068,
                10.356202
              ],
              [
                107.060665,
                10.356249
              ],
              [
                107.06064,
                10.356311
              ],
              [
                107.060582,
                10.356396
              ],
              [
                107.060513,
                10.356504
              ],
              [
                107.060432,
                10.356593
              ],
              [
                107.060272,
                10.356721
              ],
              [
                107.060202,
                10.356777
              ],
              [
                107.060185,
                10.356795
              ],
              [
                107.060173,
                10.356847
              ],
              [
                107.060172,
                10.356856
              ],
              [
                107.060157,
                10.356896
              ],
              [
                107.060119,
                10.35694
              ],
              [
                107.060081,
                10.356985
              ],
              [
                107.060012,
                10.35711
              ],
              [
                107.059934,
                10.357354
              ],
              [
                107.059934,
                10.357356
              ],
              [
                107.059913,
                10.357465
              ],
              [
                107.059891,
                10.357583
              ],
              [
                107.059903,
                10.357809
              ],
              [
                107.059931,
                10.357895
              ],
              [
                107.059934,
                10.358032
              ],
              [
                107.059926,
                10.358172
              ],
              [
                107.059937,
                10.358245
              ],
              [
                107.059933,
                10.358334
              ],
              [
                107.05994,
                10.358384
              ],
              [
                107.059969,
                10.358427
              ],
              [
                107.060003,
                10.358491
              ],
              [
                107.060019,
                10.358563
              ],
              [
                107.060012,
                10.358635
              ],
              [
                107.060018,
                10.358686
              ],
              [
                107.060028,
                10.358763
              ],
              [
                107.06004,
                10.358993
              ],
              [
                107.06004,
                10.359116
              ],
              [
                107.060039,
                10.359304
              ],
              [
                107.060039,
                10.359484
              ],
              [
                107.060039,
                10.359614
              ],
              [
                107.060053,
                10.359783
              ],
              [
                107.060032,
                10.359904
              ],
              [
                107.060026,
                10.359994
              ],
              [
                107.060039,
                10.360066
              ],
              [
                107.06007,
                10.360127
              ],
              [
                107.060097,
                10.360264
              ],
              [
                107.0601,
                10.36042
              ],
              [
                107.060099,
                10.360557
              ],
              [
                107.060124,
                10.360708
              ],
              [
                107.060131,
                10.360736
              ],
              [
                107.060134,
                10.360741
              ],
              [
                107.060171,
                10.360813
              ],
              [
                107.060181,
                10.360842
              ],
              [
                107.060182,
                10.360908
              ],
              [
                107.060195,
                10.360951
              ],
              [
                107.060234,
                10.361039
              ],
              [
                107.060244,
                10.361054
              ],
              [
                107.060264,
                10.361073
              ],
              [
                107.060288,
                10.36108
              ],
              [
                107.060325,
                10.361104
              ],
              [
                107.060387,
                10.361294
              ],
              [
                107.060411,
                10.361324
              ],
              [
                107.060426,
                10.361342
              ],
              [
                107.060438,
                10.36137
              ],
              [
                107.06044,
                10.361399
              ],
              [
                107.060422,
                10.361449
              ],
              [
                107.060419,
                10.361472
              ],
              [
                107.060427,
                10.361499
              ],
              [
                107.060461,
                10.361543
              ],
              [
                107.060486,
                10.361565
              ],
              [
                107.060503,
                10.361569
              ],
              [
                107.060531,
                10.361569
              ],
              [
                107.060547,
                10.361562
              ],
              [
                107.060616,
                10.361526
              ],
              [
                107.060624,
                10.361521
              ],
              [
                107.060636,
                10.361516
              ],
              [
                107.060655,
                10.361518
              ],
              [
                107.060661,
                10.361522
              ],
              [
                107.06067,
                10.361537
              ],
              [
                107.060716,
                10.361603
              ],
              [
                107.060792,
                10.361733
              ],
              [
                107.060866,
                10.361859
              ],
              [
                107.060945,
                10.361968
              ],
              [
                107.061049,
                10.362077
              ],
              [
                107.061071,
                10.362117
              ],
              [
                107.061093,
                10.362164
              ],
              [
                107.061093,
                10.362201
              ],
              [
                107.061133,
                10.362336
              ],
              [
                107.061143,
                10.36236
              ],
              [
                107.061307,
                10.362658
              ],
              [
                107.061341,
                10.362717
              ],
              [
                107.061367,
                10.362794
              ],
              [
                107.061381,
                10.362836
              ],
              [
                107.061411,
                10.363091
              ],
              [
                107.061417,
                10.363139
              ],
              [
                107.061473,
                10.363507
              ],
              [
                107.061476,
                10.363527
              ],
              [
                107.061478,
                10.363545
              ],
              [
                107.061496,
                10.36375
              ],
              [
                107.061515,
                10.363864
              ],
              [
                107.061581,
                10.363996
              ],
              [
                107.061898,
                10.364611
              ],
              [
                107.062044,
                10.364934
              ],
              [
                107.062274,
                10.36539
              ],
              [
                107.062435,
                10.365689
              ],
              [
                107.06246,
                10.365838
              ],
              [
                107.062461,
                10.365871
              ],
              [
                107.062457,
                10.36589
              ],
              [
                107.062423,
                10.366515
              ],
              [
                107.062434,
                10.366718
              ],
              [
                107.062427,
                10.36679
              ],
              [
                107.062426,
                10.36681
              ],
              [
                107.062429,
                10.366892
              ],
              [
                107.062463,
                10.366988
              ],
              [
                107.062502,
                10.367034
              ],
              [
                107.062542,
                10.367092
              ],
              [
                107.062554,
                10.367116
              ],
              [
                107.06257,
                10.36715
              ],
              [
                107.062573,
                10.367168
              ],
              [
                107.062584,
                10.367235
              ],
              [
                107.062573,
                10.367404
              ],
              [
                107.062504,
                10.367635
              ],
              [
                107.062494,
                10.367658
              ],
              [
                107.062479,
                10.367693
              ],
              [
                107.062419,
                10.367835
              ],
              [
                107.062326,
                10.368002
              ],
              [
                107.062134,
                10.368259
              ],
              [
                107.061849,
                10.368511
              ],
              [
                107.061775,
                10.368576
              ],
              [
                107.061741,
                10.368604
              ],
              [
                107.061205,
                10.369035
              ],
              [
                107.060944,
                10.369208
              ],
              [
                107.060794,
                10.369308
              ],
              [
                107.060672,
                10.369365
              ],
              [
                107.060636,
                10.369382
              ],
              [
                107.060409,
                10.369503
              ],
              [
                107.060309,
                10.369578
              ],
              [
                107.060209,
                10.369653
              ],
              [
                107.060033,
                10.369802
              ],
              [
                107.060008,
                10.369833
              ],
              [
                107.059794,
                10.370134
              ],
              [
                107.059649,
                10.37027
              ],
              [
                107.059506,
                10.370369
              ],
              [
                107.059386,
                10.37045
              ],
              [
                107.059312,
                10.370495
              ],
              [
                107.059244,
                10.370536
              ],
              [
                107.059137,
                10.370579
              ],
              [
                107.057862,
                10.371393
              ],
              [
                107.057677,
                10.37154
              ],
              [
                107.057525,
                10.371698
              ],
              [
                107.057421,
                10.371822
              ],
              [
                107.057311,
                10.371996
              ],
              [
                107.057179,
                10.372214
              ],
              [
                107.057139,
                10.372271
              ],
              [
                107.056995,
                10.372437
              ],
              [
                107.056924,
                10.372502
              ],
              [
                107.056759,
                10.372634
              ],
              [
                107.056642,
                10.372729
              ],
              [
                107.056313,
                10.373066
              ],
              [
                107.055984,
                10.373403
              ],
              [
                107.055889,
                10.373513
              ],
              [
                107.055566,
                10.3738
              ],
              [
                107.055519,
                10.373862
              ],
              [
                107.055484,
                10.373947
              ],
              [
                107.055478,
                10.373978
              ],
              [
                107.055478,
                10.373979
              ],
              [
                107.055476,
                10.373985
              ],
              [
                107.055474,
                10.373996
              ],
              [
                107.055457,
                10.374023
              ],
              [
                107.055431,
                10.374053
              ],
              [
                107.055426,
                10.374078
              ],
              [
                107.055428,
                10.3741
              ],
              [
                107.05544,
                10.374119
              ],
              [
                107.055455,
                10.374143
              ],
              [
                107.055466,
                10.374172
              ],
              [
                107.055469,
                10.374236
              ],
              [
                107.055475,
                10.374433
              ],
              [
                107.055488,
                10.374529
              ],
              [
                107.05552,
                10.374612
              ],
              [
                107.055547,
                10.374671
              ],
              [
                107.055552,
                10.37468
              ],
              [
                107.055565,
                10.374748
              ],
              [
                107.055542,
                10.374844
              ],
              [
                107.05547,
                10.374999
              ],
              [
                107.055467,
                10.375012
              ],
              [
                107.055486,
                10.375282
              ],
              [
                107.055531,
                10.37562
              ],
              [
                107.055582,
                10.375932
              ],
              [
                107.055609,
                10.376175
              ],
              [
                107.055593,
                10.376305
              ],
              [
                107.055548,
                10.376408
              ],
              [
                107.055482,
                10.376471
              ],
              [
                107.055451,
                10.376524
              ],
              [
                107.055443,
                10.376593
              ],
              [
                107.055437,
                10.377151
              ],
              [
                107.055435,
                10.377335
              ],
              [
                107.05542,
                10.377486
              ],
              [
                107.055383,
                10.377591
              ],
              [
                107.055317,
                10.37778
              ],
              [
                107.054852,
                10.377863
              ],
              [
                107.05542,
                10.381248
              ],
              [
                107.055878,
                10.381226
              ],
              [
                107.055975,
                10.381422
              ],
              [
                107.056092,
                10.381675
              ],
              [
                107.05614,
                10.381841
              ],
              [
                107.056225,
                10.382031
              ],
              [
                107.056293,
                10.382132
              ],
              [
                107.056362,
                10.382211
              ],
              [
                107.05642,
                10.382321
              ],
              [
                107.056437,
                10.382383
              ],
              [
                107.056432,
                10.382448
              ],
              [
                107.056428,
                10.382557
              ],
              [
                107.056427,
                10.38268
              ],
              [
                107.056452,
                10.38283
              ],
              [
                107.056484,
                10.382927
              ],
              [
                107.056539,
                10.383004
              ],
              [
                107.056613,
                10.383093
              ],
              [
                107.056682,
                10.383238
              ],
              [
                107.056722,
                10.383392
              ],
              [
                107.056762,
                10.383626
              ],
              [
                107.056832,
                10.383894
              ],
              [
                107.056835,
                10.383904
              ],
              [
                107.056914,
                10.384155
              ],
              [
                107.057041,
                10.384465
              ],
              [
                107.057141,
                10.38466
              ],
              [
                107.057323,
                10.38494
              ],
              [
                107.057489,
                10.385186
              ],
              [
                107.057702,
                10.385515
              ],
              [
                107.057917,
                10.385861
              ],
              [
                107.058044,
                10.386051
              ],
              [
                107.058203,
                10.386262
              ],
              [
                107.05829,
                10.386378
              ],
              [
                107.05833,
                10.386404
              ],
              [
                107.058419,
                10.386463
              ],
              [
                107.058495,
                10.386513
              ],
              [
                107.05861,
                10.386542
              ],
              [
                107.058707,
                10.386589
              ],
              [
                107.05873,
                10.386609
              ],
              [
                107.058853,
                10.386714
              ],
              [
                107.058972,
                10.386826
              ],
              [
                107.059084,
                10.386906
              ],
              [
                107.059213,
                10.386958
              ],
              [
                107.0593,
                10.38697
              ],
              [
                107.059579,
                10.386976
              ],
              [
                107.060107,
                10.386942
              ],
              [
                107.060267,
                10.386963
              ],
              [
                107.060493,
                10.387062
              ],
              [
                107.060524,
                10.387075
              ],
              [
                107.060518,
                10.387145
              ],
              [
                107.060514,
                10.387183
              ],
              [
                107.060583,
                10.387187
              ],
              [
                107.060853,
                10.387203
              ],
              [
                107.061218,
                10.387163
              ],
              [
                107.061232,
                10.386938
              ],
              [
                107.061509,
                10.386901
              ],
              [
                107.061537,
                10.38696
              ],
              [
                107.061908,
                10.386967
              ],
              [
                107.062027,
                10.386944
              ],
              [
                107.062182,
                10.386902
              ],
              [
                107.062231,
                10.387285
              ],
              [
                107.062673,
                10.387236
              ],
              [
                107.06267,
                10.386978
              ],
              [
                107.06297,
                10.386964
              ],
              [
                107.06299,
                10.386936
              ],
              [
                107.06299,
                10.386936
              ]
            ]
          ]
        ]
      },
      "properties": {
        "code": "26506",
        "name": "Vũng Tàu",
        "nameEn": "Vung Tau",
        "fullName": "Phường Vũng Tàu",
        "fullNameEn": "Vung Tau Ward",
        "codeName": "vung_tau",
        "postalCode": "78223",
        "postalCodePrefix": "",
        "gisServerId": "diaphanhanhchinhcapxa_2025.2198",
        "areaKm2": 16.86
      }
    }
  ]
}