{
  "type": "FeatureCollection",
  "bbox": [
    106.676598,
    10.820902,
    106.70107,
    10.85172
  ],
  "features": [
    {
      "type": "Feature",
      "id": "26876",
      "bbox": [
        106.676598,
        10.820902,
        106.70107,
        10.85172
      ],
      "geometry": {
        "type": "MultiPolygon",
        "coordinates": [
          [
            [
              [
                106.684399,
                10.850784
              ],
              [
                106.684396,
                10.850748
              ],
              [
                106.684391,
                10.850722
              ],
              [
                106.684386,
                10.850695
              ],
              [
                106.68438,
                10.850663
              ],
              [
                106.684377,
                10.850656
              ],
              [
                106.684372,
                10.850641
              ],
              [
                106.684362,
                10.850626
              ],
              [
                106.684352,
                10.850607
              ],
              [
                106.684342,
                10.850574
              ],
              [
                106.684331,
                10.850537
              ],
              [
                106.68432,
                10.850502
              ],
              [
                106.684312,
                10.850469
              ],
              [
                106.68431,
                10.850458
              ],
              [
                106.684304,
                10.850434
              ],
              [
                106.684296,
                10.850399
              ],
              [
                106.684287,
                10.850367
              ],
              [
                106.684274,
                10.850335
              ],
              [
                106.684258,
                10.850303
              ],
              [
                106.684243,
                10.850274
              ],
              [
                106.68423,
                10.850247
              ],
              [
                106.684216,
                10.850221
              ],
              [
                106.684201,
                10.850193
              ],
              [
                106.684182,
                10.850157
              ],
              [
                106.684159,
                10.85011
              ],
              [
                106.684134,
                10.850059
              ],
              [
                106.684108,
                10.850009
              ],
              [
                106.68408,
                10.84996
              ],
              [
                106.684067,
                10.849942
              ],
              [
                106.684048,
                10.849914
              ],
              [
                106.684015,
                10.849868
              ],
              [
                106.683981,
                10.849821
              ],
              [
                106.683961,
                10.849794
              ],
              [
                106.683898,
                10.849713
              ],
              [
                106.683858,
                10.849667
              ],
              [
                106.683813,
                10.849619
              ],
              [
                106.683771,
                10.849575
              ],
              [
                106.68373,
                10.849534
              ],
              [
                106.683695,
                10.849501
              ],
              [
                106.683666,
                10.849474
              ],
              [
                106.683635,
                10.849437
              ],
              [
                106.683599,
                10.849382
              ],
              [
                106.683567,
                10.849328
              ],
              [
                106.683548,
                10.84929
              ],
              [
                106.683531,
                10.84926
              ],
              [
                106.683514,
                10.849233
              ],
              [
                106.683499,
                10.849209
              ],
              [
                106.683484,
                10.849185
              ],
              [
                106.683466,
                10.84916
              ],
              [
                106.683442,
                10.849132
              ],
              [
                106.683415,
                10.849105
              ],
              [
                106.683392,
                10.849083
              ],
              [
                106.683364,
                10.849053
              ],
              [
                106.683317,
                10.848995
              ],
              [
                106.683264,
                10.848928
              ],
              [
                106.683189,
                10.848832
              ],
              [
                106.68318,
                10.848813
              ],
              [
                106.683172,
                10.848794
              ],
              [
                106.683169,
                10.848784
              ],
              [
                106.683166,
                10.848773
              ],
              [
                106.683037,
                10.848604
              ],
              [
                106.683033,
                10.848585
              ],
              [
                106.683032,
                10.848577
              ],
              [
                106.683031,
                10.848568
              ],
              [
                106.68303,
                10.848559
              ],
              [
                106.683027,
                10.84855
              ],
              [
                106.683024,
                10.848541
              ],
              [
                106.683019,
                10.848531
              ],
              [
                106.683011,
                10.848516
              ],
              [
                106.682997,
                10.848495
              ],
              [
                106.682983,
                10.848471
              ],
              [
                106.682972,
                10.848452
              ],
              [
                106.682964,
                10.84844
              ],
              [
                106.682956,
                10.848432
              ],
              [
                106.682947,
                10.848425
              ],
              [
                106.682937,
                10.848408
              ],
              [
                106.682925,
                10.848362
              ],
              [
                106.682908,
                10.848277
              ],
              [
                106.682893,
                10.848193
              ],
              [
                106.682885,
                10.84814
              ],
              [
                106.682886,
                10.848101
              ],
              [
                106.682895,
                10.848057
              ],
              [
                106.682906,
                10.848017
              ],
              [
                106.682914,
                10.847985
              ],
              [
                106.68292,
                10.847956
              ],
              [
                106.682924,
                10.847927
              ],
              [
                106.682928,
                10.847898
              ],
              [
                106.682935,
                10.847865
              ],
              [
                106.682945,
                10.847829
              ],
              [
                106.682945,
                10.847828
              ],
              [
                106.682958,
                10.847788
              ],
              [
                106.68297,
                10.847748
              ],
              [
                106.682984,
                10.847709
              ],
              [
                106.683,
                10.847668
              ],
              [
                106.683018,
                10.847628
              ],
              [
                106.683037,
                10.847592
              ],
              [
                106.683057,
                10.847561
              ],
              [
                106.683075,
                10.847533
              ],
              [
                106.683089,
                10.847512
              ],
              [
                106.683096,
                10.847501
              ],
              [
                106.683106,
                10.847488
              ],
              [
                106.683125,
                10.847464
              ],
              [
                106.683148,
                10.847434
              ],
              [
                106.683174,
                10.847403
              ],
              [
                106.683208,
                10.84737
              ],
              [
                106.683253,
                10.847333
              ],
              [
                106.683301,
                10.847295
              ],
              [
                106.683352,
                10.847256
              ],
              [
                106.683408,
                10.847215
              ],
              [
                106.683466,
                10.847176
              ],
              [
                106.683508,
                10.84715
              ],
              [
                106.683537,
                10.847137
              ],
              [
                106.683571,
                10.847123
              ],
              [
                106.683618,
                10.847098
              ],
              [
                106.683677,
                10.847065
              ],
              [
                106.683727,
                10.847039
              ],
              [
                106.68377,
                10.847021
              ],
              [
                106.68381,
                10.847008
              ],
              [
                106.683853,
                10.846996
              ],
              [
                106.683899,
                10.846986
              ],
              [
                106.683942,
                10.846981
              ],
              [
                106.68398,
                10.84698
              ],
              [
                106.684017,
                10.846981
              ],
              [
                106.684063,
                10.846979
              ],
              [
                106.684126,
                10.846973
              ],
              [
                106.684213,
                10.846971
              ],
              [
                106.684313,
                10.846971
              ],
              [
                106.684391,
                10.846965
              ],
              [
                106.68443,
                10.846957
              ],
              [
                106.684439,
                10.846955
              ],
              [
                106.684469,
                10.846952
              ],
              [
                106.684516,
                10.846955
              ],
              [
                106.684585,
                10.846965
              ],
              [
                106.684633,
                10.846974
              ],
              [
                106.684654,
                10.84698
              ],
              [
                106.684659,
                10.846981
              ],
              [
                106.684688,
                10.846988
              ],
              [
                106.684727,
                10.846995
              ],
              [
                106.684771,
                10.847004
              ],
              [
                106.684824,
                10.847014
              ],
              [
                106.684879,
                10.847023
              ],
              [
                106.684933,
                10.847032
              ],
              [
                106.68499,
                10.847043
              ],
              [
                106.685049,
                10.847056
              ],
              [
                106.685119,
                10.847075
              ],
              [
                106.685201,
                10.847098
              ],
              [
                106.685286,
                10.847123
              ],
              [
                106.685372,
                10.847149
              ],
              [
                106.685453,
                10.847174
              ],
              [
                106.685523,
                10.847196
              ],
              [
                106.685577,
                10.847212
              ],
              [
                106.685615,
                10.847221
              ],
              [
                106.685642,
                10.847224
              ],
              [
                106.685658,
                10.847226
              ],
              [
                106.685697,
                10.847228
              ],
              [
                106.685798,
                10.847265
              ],
              [
                106.685817,
                10.847272
              ],
              [
                106.685843,
                10.847281
              ],
              [
                106.68587,
                10.847291
              ],
              [
                106.685895,
                10.847299
              ],
              [
                106.68592,
                10.847306
              ],
              [
                106.685949,
                10.847311
              ],
              [
                106.685983,
                10.847315
              ],
              [
                106.686019,
                10.847318
              ],
              [
                106.686057,
                10.847322
              ],
              [
                106.686104,
                10.847326
              ],
              [
                106.686157,
                10.847329
              ],
              [
                106.68621,
                10.847332
              ],
              [
                106.686254,
                10.847333
              ],
              [
                106.686286,
                10.847332
              ],
              [
                106.686321,
                10.84733
              ],
              [
                106.686365,
                10.847327
              ],
              [
                106.686404,
                10.847324
              ],
              [
                106.686444,
                10.847321
              ],
              [
                106.686488,
                10.847317
              ],
              [
                106.686526,
                10.847313
              ],
              [
                106.686565,
                10.847306
              ],
              [
                106.68662,
                10.847295
              ],
              [
                106.686681,
                10.84728
              ],
              [
                106.686744,
                10.847265
              ],
              [
                106.686802,
                10.847249
              ],
              [
                106.686856,
                10.847232
              ],
              [
                106.68691,
                10.847214
              ],
              [
                106.686964,
                10.847195
              ],
              [
                106.687016,
                10.847175
              ],
              [
                106.687063,
                10.847156
              ],
              [
                106.68711,
                10.847135
              ],
              [
                106.687157,
                10.847111
              ],
              [
                106.687204,
                10.847084
              ],
              [
                106.687253,
                10.847055
              ],
              [
                106.687306,
                10.847022
              ],
              [
                106.687359,
                10.846986
              ],
              [
                106.687405,
                10.846954
              ],
              [
                106.68745,
                10.846922
              ],
              [
                106.687504,
                10.846883
              ],
              [
                106.687557,
                10.846839
              ],
              [
                106.687607,
                10.846795
              ],
              [
                106.687655,
                10.846752
              ],
              [
                106.687699,
                10.846711
              ],
              [
                106.687738,
                10.846672
              ],
              [
                106.687774,
                10.846635
              ],
              [
                106.687798,
                10.84661
              ],
              [
                106.68781,
                10.846598
              ],
              [
                106.687827,
                10.84658
              ],
              [
                106.687861,
                10.846543
              ],
              [
                106.687904,
                10.846493
              ],
              [
                106.687947,
                10.846438
              ],
              [
                106.687991,
                10.846379
              ],
              [
                106.68804,
                10.846306
              ],
              [
                106.688049,
                10.846292
              ],
              [
                106.688096,
                10.846214
              ],
              [
                106.688153,
                10.846119
              ],
              [
                106.688211,
                10.846022
              ],
              [
                106.688273,
                10.845915
              ],
              [
                106.688341,
                10.845794
              ],
              [
                106.688411,
                10.845664
              ],
              [
                106.688471,
                10.845553
              ],
              [
                106.688525,
                10.845452
              ],
              [
                106.688582,
                10.845342
              ],
              [
                106.688629,
                10.845251
              ],
              [
                106.688668,
                10.845176
              ],
              [
                106.688706,
                10.845103
              ],
              [
                106.688741,
                10.845033
              ],
              [
                106.688772,
                10.844967
              ],
              [
                106.688802,
                10.844902
              ],
              [
                106.688827,
                10.844839
              ],
              [
                106.68885,
                10.844778
              ],
              [
                106.688873,
                10.844717
              ],
              [
                106.688897,
                10.844652
              ],
              [
                106.688925,
                10.84457
              ],
              [
                106.68896,
                10.844463
              ],
              [
                106.688996,
                10.844341
              ],
              [
                106.689033,
                10.844219
              ],
              [
                106.689066,
                10.844111
              ],
              [
                106.689092,
                10.844024
              ],
              [
                106.689114,
                10.843948
              ],
              [
                106.689135,
                10.843875
              ],
              [
                106.689154,
                10.843806
              ],
              [
                106.68917,
                10.843743
              ],
              [
                106.689185,
                10.843684
              ],
              [
                106.689197,
                10.843632
              ],
              [
                106.689208,
                10.843587
              ],
              [
                106.689212,
                10.843564
              ],
              [
                106.689217,
                10.843544
              ],
              [
                106.689223,
                10.84351
              ],
              [
                106.689228,
                10.843484
              ],
              [
                106.689231,
                10.843461
              ],
              [
                106.689232,
                10.843433
              ],
              [
                106.689231,
                10.843389
              ],
              [
                106.689226,
                10.843326
              ],
              [
                106.689221,
                10.843256
              ],
              [
                106.689215,
                10.843183
              ],
              [
                106.689205,
                10.843104
              ],
              [
                106.689192,
                10.843027
              ],
              [
                106.68918,
                10.84296
              ],
              [
                106.689168,
                10.842893
              ],
              [
                106.689152,
                10.842817
              ],
              [
                106.689129,
                10.842728
              ],
              [
                106.689102,
                10.842631
              ],
              [
                106.689095,
                10.842603
              ],
              [
                106.689081,
                10.842541
              ],
              [
                106.689062,
                10.842451
              ],
              [
                106.689038,
                10.842353
              ],
              [
                106.689018,
                10.842268
              ],
              [
                106.689002,
                10.842199
              ],
              [
                106.688989,
                10.84214
              ],
              [
                106.688985,
                10.842089
              ],
              [
                106.688984,
                10.842066
              ],
              [
                106.688984,
                10.842046
              ],
              [
                106.688981,
                10.842002
              ],
              [
                106.688976,
                10.841954
              ],
              [
                106.688966,
                10.841901
              ],
              [
                106.688952,
                10.841835
              ],
              [
                106.688935,
                10.841758
              ],
              [
                106.688921,
                10.841683
              ],
              [
                106.68891,
                10.841617
              ],
              [
                106.688903,
                10.841555
              ],
              [
                106.68889,
                10.841482
              ],
              [
                106.688865,
                10.841368
              ],
              [
                106.688835,
                10.841199
              ],
              [
                106.68881,
                10.841007
              ],
              [
                106.688793,
                10.840867
              ],
              [
                106.688779,
                10.840778
              ],
              [
                106.688766,
                10.840695
              ],
              [
                106.688753,
                10.840566
              ],
              [
                106.688741,
                10.840389
              ],
              [
                106.688736,
                10.840239
              ],
              [
                106.688735,
                10.840126
              ],
              [
                106.688737,
                10.840015
              ],
              [
                106.68874,
                10.839903
              ],
              [
                106.688742,
                10.8398
              ],
              [
                106.688745,
                10.839739
              ],
              [
                106.688747,
                10.839709
              ],
              [
                106.688753,
                10.839624
              ],
              [
                106.68876,
                10.839555
              ],
              [
                106.688769,
                10.839507
              ],
              [
                106.688779,
                10.839469
              ],
              [
                106.688794,
                10.839434
              ],
              [
                106.688813,
                10.839401
              ],
              [
                106.688816,
                10.839396
              ],
              [
                106.688832,
                10.839368
              ],
              [
                106.688852,
                10.839334
              ],
              [
                106.688871,
                10.8393
              ],
              [
                106.688887,
                10.839269
              ],
              [
                106.688899,
                10.839246
              ],
              [
                106.688908,
                10.839225
              ],
              [
                106.688913,
                10.839206
              ],
              [
                106.688915,
                10.839181
              ],
              [
                106.688919,
                10.839131
              ],
              [
                106.688924,
                10.839048
              ],
              [
                106.688924,
                10.839047
              ],
              [
                106.688924,
                10.839045
              ],
              [
                106.688932,
                10.838963
              ],
              [
                106.688941,
                10.838896
              ],
              [
                106.688952,
                10.838844
              ],
              [
                106.688964,
                10.838798
              ],
              [
                106.688965,
                10.838796
              ],
              [
                106.688981,
                10.838753
              ],
              [
                106.689006,
                10.838703
              ],
              [
                106.689041,
                10.838644
              ],
              [
                106.689074,
                10.838596
              ],
              [
                106.689109,
                10.838545
              ],
              [
                106.68915,
                10.838475
              ],
              [
                106.689196,
                10.8384
              ],
              [
                106.689253,
                10.83831
              ],
              [
                106.689324,
                10.838198
              ],
              [
                106.689386,
                10.838104
              ],
              [
                106.689437,
                10.838029
              ],
              [
                106.689498,
                10.837939
              ],
              [
                106.689569,
                10.837831
              ],
              [
                106.689626,
                10.837746
              ],
              [
                106.689661,
                10.837692
              ],
              [
                106.689684,
                10.837657
              ],
              [
                106.689705,
                10.837625
              ],
              [
                106.689729,
                10.837588
              ],
              [
                106.689753,
                10.837553
              ],
              [
                106.689778,
                10.83752
              ],
              [
                106.689794,
                10.837499
              ],
              [
                106.690507,
                10.836454
              ],
              [
                106.690725,
                10.836016
              ],
              [
                106.690729,
                10.836009
              ],
              [
                106.690906,
                10.835434
              ],
              [
                106.690965,
                10.835242
              ],
              [
                106.691036,
                10.834885
              ],
              [
                106.6911,
                10.83456
              ],
              [
                106.691116,
                10.834353
              ],
              [
                106.691129,
                10.834185
              ],
              [
                106.691107,
                10.83397
              ],
              [
                106.691087,
                10.833772
              ],
              [
                106.691018,
                10.833579
              ],
              [
                106.690955,
                10.833378
              ],
              [
                106.6909,
                10.83312
              ],
              [
                106.6909,
                10.832986
              ],
              [
                106.690932,
                10.83278
              ],
              [
                106.690989,
                10.832598
              ],
              [
                106.691071,
                10.832487
              ],
              [
                106.691158,
                10.832405
              ],
              [
                106.691413,
                10.832227
              ],
              [
                106.691462,
                10.832145
              ],
              [
                106.691546,
                10.832008
              ],
              [
                106.691826,
                10.831433
              ],
              [
                106.692058,
                10.830956
              ],
              [
                106.692348,
                10.830555
              ],
              [
                106.692396,
                10.830487
              ],
              [
                106.692751,
                10.830202
              ],
              [
                106.692751,
                10.830202
              ],
              [
                106.692851,
                10.830159
              ],
              [
                106.693145,
                10.830032
              ],
              [
                106.693399,
                10.82999
              ],
              [
                106.693579,
                10.829995
              ],
              [
                106.693688,
                10.830016
              ],
              [
                106.693943,
                10.830066
              ],
              [
                106.694362,
                10.830232
              ],
              [
                106.694525,
                10.830344
              ],
              [
                106.694888,
                10.830593
              ],
              [
                106.694901,
                10.830605
              ],
              [
                106.694957,
                10.830654
              ],
              [
                106.695007,
                10.830704
              ],
              [
                106.695055,
                10.83075
              ],
              [
                106.695101,
                10.830796
              ],
              [
                106.695143,
                10.83084
              ],
              [
                106.695176,
                10.830878
              ],
              [
                106.695202,
                10.830912
              ],
              [
                106.695243,
                10.830904
              ],
              [
                106.695742,
                10.830803
              ],
              [
                106.695917,
                10.830778
              ],
              [
                106.695963,
                10.830771
              ],
              [
                106.696028,
                10.830762
              ],
              [
                106.696029,
                10.830762
              ],
              [
                106.696092,
                10.830753
              ],
              [
                106.696155,
                10.830744
              ],
              [
                106.696155,
                10.830744
              ],
              [
                106.696217,
                10.830734
              ],
              [
                106.69628,
                10.830722
              ],
              [
                106.69634,
                10.830713
              ],
              [
                106.696385,
                10.830715
              ],
              [
                106.696411,
                10.830722
              ],
              [
                106.696434,
                10.83073
              ],
              [
                106.696446,
                10.830733
              ],
              [
                106.696468,
                10.830739
              ],
              [
                106.696502,
                10.830745
              ],
              [
                106.696524,
                10.830746
              ],
              [
                106.696539,
                10.830745
              ],
              [
                106.696561,
                10.830742
              ],
              [
                106.69659,
                10.830738
              ],
              [
                106.696622,
                10.830734
              ],
              [
                106.696659,
                10.830727
              ],
              [
                106.696697,
                10.830716
              ],
              [
                106.69673,
                10.830705
              ],
              [
                106.696759,
                10.830698
              ],
              [
                106.69676,
                10.830698
              ],
              [
                106.696788,
                10.830695
              ],
              [
                106.696814,
                10.830692
              ],
              [
                106.696841,
                10.830688
              ],
              [
                106.696867,
                10.830688
              ],
              [
                106.696971,
                10.830678
              ],
              [
                106.696988,
                10.830674
              ],
              [
                106.697015,
                10.830664
              ],
              [
                106.697055,
                10.830648
              ],
              [
                106.697128,
                10.830627
              ],
              [
                106.697226,
                10.830604
              ],
              [
                106.697295,
                10.830585
              ],
              [
                106.697338,
                10.830568
              ],
              [
                106.69739,
                10.830553
              ],
              [
                106.697477,
                10.830534
              ],
              [
                106.697596,
                10.830513
              ],
              [
                106.697612,
                10.83051
              ],
              [
                106.697696,
                10.830494
              ],
              [
                106.697766,
                10.830481
              ],
              [
                106.697827,
                10.830469
              ],
              [
                106.697881,
                10.83046
              ],
              [
                106.697936,
                10.830453
              ],
              [
                106.697998,
                10.830445
              ],
              [
                106.698063,
                10.830438
              ],
              [
                106.698135,
                10.830429
              ],
              [
                106.698213,
                10.830421
              ],
              [
                106.698287,
                10.830414
              ],
              [
                106.698349,
                10.830408
              ],
              [
                106.698394,
                10.830403
              ],
              [
                106.698433,
                10.8304
              ],
              [
                106.698466,
                10.830397
              ],
              [
                106.698504,
                10.830393
              ],
              [
                106.698555,
                10.830392
              ],
              [
                106.698613,
                10.830392
              ],
              [
                106.698661,
                10.830394
              ],
              [
                106.698712,
                10.830396
              ],
              [
                106.698784,
                10.8304
              ],
              [
                106.698867,
                10.830406
              ],
              [
                106.698948,
                10.830414
              ],
              [
                106.699026,
                10.830421
              ],
              [
                106.699095,
                10.830427
              ],
              [
                106.699158,
                10.83043
              ],
              [
                106.699221,
                10.830431
              ],
              [
                106.699279,
                10.830431
              ],
              [
                106.699337,
                10.830431
              ],
              [
                106.699397,
                10.83043
              ],
              [
                106.699443,
                10.830428
              ],
              [
                106.699472,
                10.830426
              ],
              [
                106.699496,
                10.830421
              ],
              [
                106.69952,
                10.830414
              ],
              [
                106.699542,
                10.830408
              ],
              [
                106.699564,
                10.830401
              ],
              [
                106.699587,
                10.830393
              ],
              [
                106.699609,
                10.830384
              ],
              [
                106.699627,
                10.830375
              ],
              [
                106.699645,
                10.830367
              ],
              [
                106.699662,
                10.830359
              ],
              [
                106.699664,
                10.830358
              ],
              [
                106.699677,
                10.830351
              ],
              [
                106.699693,
                10.83034
              ],
              [
                106.699713,
                10.830325
              ],
              [
                106.699736,
                10.830308
              ],
              [
                106.69976,
                10.830288
              ],
              [
                106.699785,
                10.830265
              ],
              [
                106.699809,
                10.830239
              ],
              [
                106.69983,
                10.830213
              ],
              [
                106.699849,
                10.830187
              ],
              [
                106.699866,
                10.830161
              ],
              [
                106.69988,
                10.830134
              ],
              [
                106.699893,
                10.830105
              ],
              [
                106.699898,
                10.830092
              ],
              [
                106.699906,
                10.830074
              ],
              [
                106.699916,
                10.830044
              ],
              [
                106.699924,
                10.830015
              ],
              [
                106.699929,
                10.829989
              ],
              [
                106.699933,
                10.829964
              ],
              [
                106.699935,
                10.829941
              ],
              [
                106.699936,
                10.82992
              ],
              [
                106.699936,
                10.829901
              ],
              [
                106.699936,
                10.829883
              ],
              [
                106.699935,
                10.829862
              ],
              [
                106.699934,
                10.829841
              ],
              [
                106.699931,
                10.82982
              ],
              [
                106.699927,
                10.829799
              ],
              [
                106.699923,
                10.829776
              ],
              [
                106.699918,
                10.829751
              ],
              [
                106.69991,
                10.829716
              ],
              [
                106.699897,
                10.829665
              ],
              [
                106.699881,
                10.829605
              ],
              [
                106.699874,
                10.829577
              ],
              [
                106.699865,
                10.829544
              ],
              [
                106.699848,
                10.829483
              ],
              [
                106.699831,
                10.829429
              ],
              [
                106.699816,
                10.829387
              ],
              [
                106.6998,
                10.829345
              ],
              [
                106.699782,
                10.829296
              ],
              [
                106.699772,
                10.829271
              ],
              [
                106.699762,
                10.829245
              ],
              [
                106.699741,
                10.829194
              ],
              [
                106.699719,
                10.829145
              ],
              [
                106.699695,
                10.829094
              ],
              [
                106.69967,
                10.829042
              ],
              [
                106.69965,
                10.828999
              ],
              [
                106.699638,
                10.82897
              ],
              [
                106.69963,
                10.828949
              ],
              [
                106.699623,
                10.828932
              ],
              [
                106.699614,
                10.828915
              ],
              [
                106.699608,
                10.828895
              ],
              [
                106.699604,
                10.828871
              ],
              [
                106.6996,
                10.828844
              ],
              [
                106.699596,
                10.828816
              ],
              [
                106.699595,
                10.828787
              ],
              [
                106.699596,
                10.828758
              ],
              [
                106.699597,
                10.82875
              ],
              [
                106.699601,
                10.828726
              ],
              [
                106.699604,
                10.828711
              ],
              [
                106.699612,
                10.828687
              ],
              [
                106.699613,
                10.828686
              ],
              [
                106.699624,
                10.828657
              ],
              [
                106.699636,
                10.828631
              ],
              [
                106.69965,
                10.828604
              ],
              [
                106.699666,
                10.828582
              ],
              [
                106.699688,
                10.828566
              ],
              [
                106.699718,
                10.828558
              ],
              [
                106.699748,
                10.828551
              ],
              [
                106.699762,
                10.828545
              ],
              [
                106.69977,
                10.828541
              ],
              [
                106.699789,
                10.828532
              ],
              [
                106.699812,
                10.828528
              ],
              [
                106.699838,
                10.828524
              ],
              [
                106.699866,
                10.82852
              ],
              [
                106.699904,
                10.828512
              ],
              [
                106.699963,
                10.8285
              ],
              [
                106.700039,
                10.828485
              ],
              [
                106.700115,
                10.82847
              ],
              [
                106.700182,
                10.828455
              ],
              [
                106.70023,
                10.828442
              ],
              [
                106.700272,
                10.828429
              ],
              [
                106.700317,
                10.828415
              ],
              [
                106.700355,
                10.828401
              ],
              [
                106.700387,
                10.828389
              ],
              [
                106.700423,
                10.828378
              ],
              [
                106.700463,
                10.828368
              ],
              [
                106.700495,
                10.828359
              ],
              [
                106.700521,
                10.828351
              ],
              [
                106.700545,
                10.828343
              ],
              [
                106.700565,
                10.828337
              ],
              [
                106.700582,
                10.828331
              ],
              [
                106.700601,
                10.828323
              ],
              [
                106.700618,
                10.828315
              ],
              [
                106.700632,
                10.828308
              ],
              [
                106.700643,
                10.828302
              ],
              [
                106.700648,
                10.8283
              ],
              [
                106.700674,
                10.828284
              ],
              [
                106.700692,
                10.828264
              ],
              [
                106.700698,
                10.828259
              ],
              [
                106.700705,
                10.828254
              ],
              [
                106.700723,
                10.828233
              ],
              [
                106.700747,
                10.828178
              ],
              [
                106.700753,
                10.828169
              ],
              [
                106.700763,
                10.828148
              ],
              [
                106.700777,
                10.828115
              ],
              [
                106.700781,
                10.828103
              ],
              [
                106.700791,
                10.828075
              ],
              [
                106.700811,
                10.828009
              ],
              [
                106.700846,
                10.827893
              ],
              [
                106.700846,
                10.827892
              ],
              [
                106.700889,
                10.827744
              ],
              [
                106.700928,
                10.827617
              ],
              [
                106.700961,
                10.827524
              ],
              [
                106.700993,
                10.827429
              ],
              [
                106.701025,
                10.827329
              ],
              [
                106.701045,
                10.827268
              ],
              [
                106.701053,
                10.827247
              ],
              [
                106.701055,
                10.827244
              ],
              [
                106.70106,
                10.82723
              ],
              [
                106.701063,
                10.827215
              ],
              [
                106.701065,
                10.827196
              ],
              [
                106.701067,
                10.82718
              ],
              [
                106.701068,
                10.827163
              ],
              [
                106.70107,
                10.827146
              ],
              [
                106.70107,
                10.827133
              ],
              [
                106.701067,
                10.827116
              ],
              [
                106.701064,
                10.827098
              ],
              [
                106.701063,
                10.827091
              ],
              [
                106.701058,
                10.827071
              ],
              [
                106.701053,
                10.827059
              ],
              [
                106.701051,
                10.827053
              ],
              [
                106.701042,
                10.827008
              ],
              [
                106.701039,
                10.826999
              ],
              [
                106.701031,
                10.826987
              ],
              [
                106.701022,
                10.826975
              ],
              [
                106.701009,
                10.826959
              ],
              [
                106.700993,
                10.826943
              ],
              [
                106.700974,
                10.826927
              ],
              [
                106.700955,
                10.82691
              ],
              [
                106.700932,
                10.826892
              ],
              [
                106.700928,
                10.826889
              ],
              [
                106.700903,
                10.826872
              ],
              [
                106.700871,
                10.826852
              ],
              [
                106.700838,
                10.826833
              ],
              [
                106.700798,
                10.826813
              ],
              [
                106.700743,
                10.826789
              ],
              [
                106.700678,
                10.826762
              ],
              [
                106.700631,
                10.826744
              ],
              [
                106.700607,
                10.826737
              ],
              [
                106.700587,
                10.826732
              ],
              [
                106.700555,
                10.826724
              ],
              [
                106.700531,
                10.826716
              ],
              [
                106.700501,
                10.826706
              ],
              [
                106.700431,
                10.826679
              ],
              [
                106.700366,
                10.826655
              ],
              [
                106.700304,
                10.826631
              ],
              [
                106.700236,
                10.826599
              ],
              [
                106.700172,
                10.826568
              ],
              [
                106.700109,
                10.826537
              ],
              [
                106.700048,
                10.826505
              ],
              [
                106.700004,
                10.82648
              ],
              [
                106.699971,
                10.826461
              ],
              [
                106.699931,
                10.826435
              ],
              [
                106.699883,
                10.826402
              ],
              [
                106.699834,
                10.826365
              ],
              [
                106.69978,
                10.826322
              ],
              [
                106.69972,
                10.826274
              ],
              [
                106.699662,
                10.826226
              ],
              [
                106.699614,
                10.826184
              ],
              [
                106.699581,
                10.826154
              ],
              [
                106.699549,
                10.826124
              ],
              [
                106.699506,
                10.826085
              ],
              [
                106.69946,
                10.826043
              ],
              [
                106.699417,
                10.826002
              ],
              [
                106.699375,
                10.825963
              ],
              [
                106.699337,
                10.825927
              ],
              [
                106.699302,
                10.825894
              ],
              [
                106.699266,
                10.825859
              ],
              [
                106.699232,
                10.825821
              ],
              [
                106.699204,
                10.82579
              ],
              [
                106.699198,
                10.825783
              ],
              [
                106.699176,
                10.825759
              ],
              [
                106.699146,
                10.825721
              ],
              [
                106.699121,
                10.825685
              ],
              [
                106.699102,
                10.825653
              ],
              [
                106.699085,
                10.825619
              ],
              [
                106.699068,
                10.825585
              ],
              [
                106.699052,
                10.825551
              ],
              [
                106.699037,
                10.82552
              ],
              [
                106.699024,
                10.825489
              ],
              [
                106.699011,
                10.825454
              ],
              [
                106.698997,
                10.825411
              ],
              [
                106.698983,
                10.825364
              ],
              [
                106.698972,
                10.825329
              ],
              [
                106.698967,
                10.825311
              ],
              [
                106.698963,
                10.825296
              ],
              [
                106.698955,
                10.825267
              ],
              [
                106.698944,
                10.825227
              ],
              [
                106.698934,
                10.825193
              ],
              [
                106.698925,
                10.825169
              ],
              [
                106.698915,
                10.825142
              ],
              [
                106.698898,
                10.825095
              ],
              [
                106.698894,
                10.825084
              ],
              [
                106.698875,
                10.82503
              ],
              [
                106.698852,
                10.824977
              ],
              [
                106.698839,
                10.824955
              ],
              [
                106.698825,
                10.824933
              ],
              [
                106.698796,
                10.824875
              ],
              [
                106.698771,
                10.824808
              ],
              [
                106.698756,
                10.824761
              ],
              [
                106.698748,
                10.82473
              ],
              [
                106.698743,
                10.824697
              ],
              [
                106.698739,
                10.824669
              ],
              [
                106.698738,
                10.824664
              ],
              [
                106.698733,
                10.824631
              ],
              [
                106.698729,
                10.824607
              ],
              [
                106.698726,
                10.824593
              ],
              [
                106.698724,
                10.824583
              ],
              [
                106.698722,
                10.824573
              ],
              [
                106.698719,
                10.824559
              ],
              [
                106.698714,
                10.824536
              ],
              [
                106.698707,
                10.824502
              ],
              [
                106.698696,
                10.824461
              ],
              [
                106.698688,
                10.824425
              ],
              [
                106.698678,
                10.824388
              ],
              [
                106.698664,
                10.824336
              ],
              [
                106.698648,
                10.82428
              ],
              [
                106.698633,
                10.824229
              ],
              [
                106.698623,
                10.824193
              ],
              [
                106.698604,
                10.824132
              ],
              [
                106.698602,
                10.824125
              ],
              [
                106.698602,
                10.824108
              ],
              [
                106.698601,
                10.824079
              ],
              [
                106.698601,
                10.824068
              ],
              [
                106.698601,
                10.824042
              ],
              [
                106.698601,
                10.824001
              ],
              [
                106.698601,
                10.823957
              ],
              [
                106.6986,
                10.823923
              ],
              [
                106.6986,
                10.823896
              ],
              [
                106.6986,
                10.82387
              ],
              [
                106.6986,
                10.823843
              ],
              [
                106.698599,
                10.823821
              ],
              [
                106.698598,
                10.823804
              ],
              [
                106.698596,
                10.823786
              ],
              [
                106.698594,
                10.823768
              ],
              [
                106.698592,
                10.823751
              ],
              [
                106.69859,
                10.823733
              ],
              [
                106.698588,
                10.823717
              ],
              [
                106.69859,
                10.823703
              ],
              [
                106.698592,
                10.823695
              ],
              [
                106.698583,
                10.823649
              ],
              [
                106.698585,
                10.823572
              ],
              [
                106.698593,
                10.823522
              ],
              [
                106.698615,
                10.823456
              ],
              [
                106.698648,
                10.823367
              ],
              [
                106.698086,
                10.823237
              ],
              [
                106.697837,
                10.823175
              ],
              [
                106.697072,
                10.822987
              ],
              [
                106.696841,
                10.822927
              ],
              [
                106.695736,
                10.822678
              ],
              [
                106.694216,
                10.822336
              ],
              [
                106.694011,
                10.82229
              ],
              [
                106.69346,
                10.822166
              ],
              [
                106.693474,
                10.822111
              ],
              [
                106.693502,
                10.822004
              ],
              [
                106.692907,
                10.82186
              ],
              [
                106.691994,
                10.821633
              ],
              [
                106.691192,
                10.821445
              ],
              [
                106.690271,
                10.821222
              ],
              [
                106.689511,
                10.821043
              ],
              [
                106.689172,
                10.820953
              ],
              [
                106.689094,
                10.820924
              ],
              [
                106.689036,
                10.820902
              ],
              [
                106.688997,
                10.821006
              ],
              [
                106.688917,
                10.821183
              ],
              [
                106.688815,
                10.821409
              ],
              [
                106.688722,
                10.821582
              ],
              [
                106.688648,
                10.821719
              ],
              [
                106.688573,
                10.821857
              ],
              [
                106.688478,
                10.82203
              ],
              [
                106.688438,
                10.82213
              ],
              [
                106.688393,
                10.822245
              ],
              [
                106.688313,
                10.822428
              ],
              [
                106.688223,
                10.82266
              ],
              [
                106.688175,
                10.822762
              ],
              [
                106.688135,
                10.822846
              ],
              [
                106.688074,
                10.822944
              ],
              [
                106.688019,
                10.823006
              ],
              [
                106.687856,
                10.823162
              ],
              [
                106.687615,
                10.823392
              ],
              [
                106.687509,
                10.823466
              ],
              [
                106.6875,
                10.823472
              ],
              [
                106.6875,
                10.823472
              ],
              [
                106.686834,
                10.823934
              ],
              [
                106.686643,
                10.824071
              ],
              [
                106.686538,
                10.824146
              ],
              [
                106.686521,
                10.824159
              ],
              [
                106.686596,
                10.824259
              ],
              [
                106.686608,
                10.824273
              ],
              [
                106.6868,
                10.824483
              ],
              [
                106.686977,
                10.824624
              ],
              [
                106.687226,
                10.824767
              ],
              [
                106.687459,
                10.82491
              ],
              [
                106.6875,
                10.82493
              ],
              [
                106.6875,
                10.82493
              ],
              [
                106.688102,
                10.825296
              ],
              [
                106.688621,
                10.825627
              ],
              [
                106.688849,
                10.825806
              ],
              [
                106.689091,
                10.826043
              ],
              [
                106.689314,
                10.826267
              ],
              [
                106.689457,
                10.82641
              ],
              [
                106.689833,
                10.826801
              ],
              [
                106.690219,
                10.827199
              ],
              [
                106.690489,
                10.827476
              ],
              [
                106.69061,
                10.827556
              ],
              [
                106.690557,
                10.827597
              ],
              [
                106.690208,
                10.827867
              ],
              [
                106.690097,
                10.827968
              ],
              [
                106.689569,
                10.828537
              ],
              [
                106.689519,
                10.828591
              ],
              [
                106.68899,
                10.829217
              ],
              [
                106.688913,
                10.8293
              ],
              [
                106.688831,
                10.829385
              ],
              [
                106.688686,
                10.829537
              ],
              [
                106.688293,
                10.829987
              ],
              [
                106.688001,
                10.830328
              ],
              [
                106.6875,
                10.830914
              ],
              [
                106.6875,
                10.830914
              ],
              [
                106.687366,
                10.831054
              ],
              [
                106.687309,
                10.831111
              ],
              [
                106.687287,
                10.831132
              ],
              [
                106.687248,
                10.831174
              ],
              [
                106.6871,
                10.831322
              ],
              [
                106.686866,
                10.831562
              ],
              [
                106.686622,
                10.831808
              ],
              [
                106.686475,
                10.831941
              ],
              [
                106.686473,
                10.831943
              ],
              [
                106.686318,
                10.832095
              ],
              [
                106.686232,
                10.832171
              ],
              [
                106.686062,
                10.83233
              ],
              [
                106.68591,
                10.832468
              ],
              [
                106.685793,
                10.832584
              ],
              [
                106.685792,
                10.832585
              ],
              [
                106.685595,
                10.832773
              ],
              [
                106.685409,
                10.832951
              ],
              [
                106.685335,
                10.833016
              ],
              [
                106.685328,
                10.833023
              ],
              [
                106.685227,
                10.833122
              ],
              [
                106.685204,
                10.833148
              ],
              [
                106.685107,
                10.833256
              ],
              [
                106.684991,
                10.833391
              ],
              [
                106.68492,
                10.833487
              ],
              [
                106.684912,
                10.833498
              ],
              [
                106.684798,
                10.833721
              ],
              [
                106.684583,
                10.834116
              ],
              [
                106.684448,
                10.834371
              ],
              [
                106.684428,
                10.834407
              ],
              [
                106.684427,
                10.834409
              ],
              [
                106.684388,
                10.834489
              ],
              [
                106.682604,
                10.833704
              ],
              [
                106.682124,
                10.833514
              ],
              [
                106.682115,
                10.833536
              ],
              [
                106.682113,
                10.833539
              ],
              [
                106.682078,
                10.833612
              ],
              [
                106.68206,
                10.833648
              ],
              [
                106.681923,
                10.833934
              ],
              [
                106.681889,
                10.833995
              ],
              [
                106.681816,
                10.834127
              ],
              [
                106.681678,
                10.834396
              ],
              [
                106.681556,
                10.834656
              ],
              [
                106.681521,
                10.834749
              ],
              [
                106.681457,
                10.834926
              ],
              [
                106.68143,
                10.83501
              ],
              [
                106.681413,
                10.83507
              ],
              [
                106.681381,
                10.835188
              ],
              [
                106.68131,
                10.835446
              ],
              [
                106.681228,
                10.835685
              ],
              [
                106.681213,
                10.835729
              ],
              [
                106.681122,
                10.83599
              ],
              [
                106.681074,
                10.836139
              ],
              [
                106.680986,
                10.836406
              ],
              [
                106.680957,
                10.836512
              ],
              [
                106.680929,
                10.83661
              ],
              [
                106.680925,
                10.836626
              ],
              [
                106.680915,
                10.836661
              ],
              [
                106.680809,
                10.836968
              ],
              [
                106.680785,
                10.837035
              ],
              [
                106.680666,
                10.837392
              ],
              [
                106.680645,
                10.837445
              ],
              [
                106.68064,
                10.83746
              ],
              [
                106.680526,
                10.83776
              ],
              [
                106.680457,
                10.837924
              ],
              [
                106.680456,
                10.837924
              ],
              [
                106.680429,
                10.837989
              ],
              [
                106.680415,
                10.838013
              ],
              [
                106.680233,
                10.838333
              ],
              [
                106.680131,
                10.838493
              ],
              [
                106.68009,
                10.838558
              ],
              [
                106.680045,
                10.838623
              ],
              [
                106.679852,
                10.838905
              ],
              [
                106.679725,
                10.839066
              ],
              [
                106.679581,
                10.839241
              ],
              [
                106.679401,
                10.839464
              ],
              [
                106.679278,
                10.839627
              ],
              [
                106.679258,
                10.839656
              ],
              [
                106.679255,
                10.839659
              ],
              [
                106.679195,
                10.839746
              ],
              [
                106.679038,
                10.839974
              ],
              [
                106.678964,
                10.840097
              ],
              [
                106.678824,
                10.840288
              ],
              [
                106.678705,
                10.84044
              ],
              [
                106.678668,
                10.840481
              ],
              [
                106.678538,
                10.840648
              ],
              [
                106.678535,
                10.840651
              ],
              [
                106.678461,
                10.840735
              ],
              [
                106.678196,
                10.84099
              ],
              [
                106.678023,
                10.841113
              ],
              [
                106.677972,
                10.841149
              ],
              [
                106.677815,
                10.841251
              ],
              [
                106.67781,
                10.841253
              ],
              [
                106.677669,
                10.841311
              ],
              [
                106.677574,
                10.84135
              ],
              [
                106.677328,
                10.84147
              ],
              [
                106.677247,
                10.84152
              ],
              [
                106.677089,
                10.841618
              ],
              [
                106.676944,
                10.841724
              ],
              [
                106.676728,
                10.841881
              ],
              [
                106.676655,
                10.841924
              ],
              [
                106.676598,
                10.841956
              ],
              [
                106.676598,
                10.841957
              ],
              [
                106.676792,
                10.842458
              ],
              [
                106.676934,
                10.842859
              ],
              [
                106.677067,
                10.843226
              ],
              [
                106.677166,
                10.843477
              ],
              [
                106.677325,
                10.843896
              ],
              [
                106.677478,
                10.844331
              ],
              [
                106.677553,
                10.844542
              ],
              [
                106.677741,
                10.845107
              ],
              [
                106.677914,
                10.845608
              ],
              [
                106.677934,
                10.845668
              ],
              [
                106.67814,
                10.846237
              ],
              [
                106.678336,
                10.846791
              ],
              [
                106.678371,
                10.846878
              ],
              [
                106.678401,
                10.84697
              ],
              [
                106.678432,
                10.847072
              ],
              [
                106.678457,
                10.847174
              ],
              [
                106.678487,
                10.847317
              ],
              [
                106.678521,
                10.847506
              ],
              [
                106.678549,
                10.847783
              ],
              [
                106.678556,
                10.847866
              ],
              [
                106.678584,
                10.848189
              ],
              [
                106.678596,
                10.848325
              ],
              [
                106.678608,
                10.848452
              ],
              [
                106.678639,
                10.848793
              ],
              [
                106.678691,
                10.849356
              ],
              [
                106.678693,
                10.849398
              ],
              [
                106.678738,
                10.850266
              ],
              [
                106.678743,
                10.850347
              ],
              [
                106.67881,
                10.850915
              ],
              [
                106.678816,
                10.850967
              ],
              [
                106.678826,
                10.850964
              ],
              [
                106.678844,
                10.850958
              ],
              [
                106.67886,
                10.850954
              ],
              [
                106.678876,
                10.850951
              ],
              [
                106.678893,
                10.850947
              ],
              [
                106.678913,
                10.850943
              ],
              [
                106.678937,
                10.850939
              ],
              [
                106.678964,
                10.850932
              ],
              [
                106.678991,
                10.850924
              ],
              [
                106.67902,
                10.850917
              ],
              [
                106.679047,
                10.85091
              ],
              [
                106.67907,
                10.850903
              ],
              [
                106.679093,
                10.850892
              ],
              [
                106.679094,
                10.850891
              ],
              [
                106.679115,
                10.850881
              ],
              [
                106.679139,
                10.850876
              ],
              [
                106.67917,
                10.850874
              ],
              [
                106.679205,
                10.850868
              ],
              [
                106.679236,
                10.850857
              ],
              [
                106.679238,
                10.850856
              ],
              [
                106.679281,
                10.850845
              ],
              [
                106.679338,
                10.850838
              ],
              [
                106.679399,
                10.850827
              ],
              [
                106.67947,
                10.850813
              ],
              [
                106.679542,
                10.850805
              ],
              [
                106.679603,
                10.850809
              ],
              [
                106.679666,
                10.850821
              ],
              [
                106.679735,
                10.850837
              ],
              [
                106.6798,
                10.850857
              ],
              [
                106.679859,
                10.850884
              ],
              [
                106.679928,
                10.850911
              ],
              [
                106.680016,
                10.85094
              ],
              [
                106.680114,
                10.850972
              ],
              [
                106.680203,
                10.850998
              ],
              [
                106.680279,
                10.851023
              ],
              [
                106.680351,
                10.851054
              ],
              [
                106.680409,
                10.851079
              ],
              [
                106.680452,
                10.851097
              ],
              [
                106.680487,
                10.851115
              ],
              [
                106.680523,
                10.851136
              ],
              [
                106.680578,
                10.851162
              ],
              [
                106.680661,
                10.851194
              ],
              [
                106.68077,
                10.851229
              ],
              [
                106.680877,
                10.851259
              ],
              [
                106.68097,
                10.851277
              ],
              [
                106.681062,
                10.851292
              ],
              [
                106.681149,
                10.851309
              ],
              [
                106.681204,
                10.85132
              ],
              [
                106.681248,
                10.851328
              ],
              [
                106.68132,
                10.851342
              ],
              [
                106.681414,
                10.851362
              ],
              [
                106.681498,
                10.851377
              ],
              [
                106.681568,
                10.851386
              ],
              [
                106.681649,
                10.851401
              ],
              [
                106.681738,
                10.851422
              ],
              [
                106.681808,
                10.851439
              ],
              [
                106.681867,
                10.851454
              ],
              [
                106.681925,
                10.851474
              ],
              [
                106.681969,
                10.851491
              ],
              [
                106.681978,
                10.851495
              ],
              [
                106.682011,
                10.85151
              ],
              [
                106.682067,
                10.851537
              ],
              [
                106.682135,
                10.851575
              ],
              [
                106.682153,
                10.851583
              ],
              [
                106.682229,
                10.851614
              ],
              [
                106.682334,
                10.851634
              ],
              [
                106.682422,
                10.851645
              ],
              [
                106.682496,
                10.851658
              ],
              [
                106.682568,
                10.851671
              ],
              [
                106.682639,
                10.851681
              ],
              [
                106.68271,
                10.85169
              ],
              [
                106.682778,
                10.8517
              ],
              [
                106.682842,
                10.851707
              ],
              [
                106.682905,
                10.85171
              ],
              [
                106.682966,
                10.851711
              ],
              [
                106.683024,
                10.851713
              ],
              [
                106.683074,
                10.851714
              ],
              [
                106.683119,
                10.851717
              ],
              [
                106.683163,
                10.851719
              ],
              [
                106.683203,
                10.85172
              ],
              [
                106.683237,
                10.851718
              ],
              [
                106.683271,
                10.851715
              ],
              [
                106.683306,
                10.851711
              ],
              [
                106.683322,
                10.85171
              ],
              [
                106.683391,
                10.851704
              ],
              [
                106.683462,
                10.851698
              ],
              [
                106.683528,
                10.851692
              ],
              [
                106.683572,
                10.851687
              ],
              [
                106.683603,
                10.851683
              ],
              [
                106.683644,
                10.851678
              ],
              [
                106.683698,
                10.851671
              ],
              [
                106.683705,
                10.85167
              ],
              [
                106.683754,
                10.851663
              ],
              [
                106.68381,
                10.851654
              ],
              [
                106.683857,
                10.851643
              ],
              [
                106.683902,
                10.851629
              ],
              [
                106.683961,
                10.851596
              ],
              [
                106.684035,
                10.851537
              ],
              [
                106.684095,
                10.851482
              ],
              [
                106.684101,
                10.851476
              ],
              [
                106.68412,
                10.851456
              ],
              [
                106.684136,
                10.85144
              ],
              [
                106.68415,
                10.851421
              ],
              [
                106.684163,
                10.851403
              ],
              [
                106.684186,
                10.851367
              ],
              [
                106.684221,
                10.851306
              ],
              [
                106.68426,
                10.851234
              ],
              [
                106.684296,
                10.851164
              ],
              [
                106.684298,
                10.851161
              ],
              [
                106.684328,
                10.851097
              ],
              [
                106.684347,
                10.85105
              ],
              [
                106.684357,
                10.851019
              ],
              [
                106.684367,
                10.850989
              ],
              [
                106.68438,
                10.850946
              ],
              [
                106.684384,
                10.850926
              ],
              [
                106.68439,
                10.8509
              ],
              [
                106.684395,
                10.85086
              ],
              [
                106.684399,
                10.850822
              ],
              [
                106.684399,
                10.850784
              ],
              [
                106.684399,
                10.850784
              ]
            ]
          ]
        ]
      },
      "properties": {
        "code": "26876",
        "name": "An Nhơn",
        "nameEn": "An Nhon",
        "fullName": "Phường An Nhơn",
        "fullNameEn": "An Nhon Ward",
        "codeName": "an_nhon",
        "postalCode": "71424",
        "postalCodePrefix": "",
        "gisServerId": "diaphanhanhchinhcapxa_2025.56",
        "areaKm2": 3.23
      }
    }
  ]
}