{
  "type": "FeatureCollection",
  "bbox": [
    106.672768,
    10.809992,
    106.69435,
    10.834489
  ],
  "features": [
    {
      "type": "Feature",
      "id": "26890",
      "bbox": [
        106.672768,
        10.809992,
        106.69435,
        10.834489
      ],
      "geometry": {
        "type": "MultiPolygon",
        "coordinates": [
          [
            [
              [
                106.690423,
                10.815497
              ],
              [
                106.690064,
                10.815327
              ],
              [
                106.689635,
                10.815131
              ],
              [
                106.689276,
                10.815047
              ],
              [
                106.688984,
                10.815289
              ],
              [
                106.688793,
                10.815457
              ],
              [
                106.688674,
                10.815726
              ],
              [
                106.688589,
                10.816061
              ],
              [
                106.688594,
                10.816543
              ],
              [
                106.688411,
                10.816151
              ],
              [
                106.688283,
                10.815859
              ],
              [
                106.688144,
                10.815598
              ],
              [
                106.687943,
                10.815292
              ],
              [
                106.687821,
                10.815088
              ],
              [
                106.687759,
                10.815002
              ],
              [
                106.687662,
                10.814919
              ],
              [
                106.6875,
                10.8148
              ],
              [
                106.6875,
                10.8148
              ],
              [
                106.687369,
                10.814716
              ],
              [
                106.687109,
                10.814606
              ],
              [
                106.686956,
                10.814542
              ],
              [
                106.686856,
                10.814512
              ],
              [
                106.686772,
                10.814487
              ],
              [
                106.686286,
                10.814368
              ],
              [
                106.68627,
                10.814364
              ],
              [
                106.685997,
                10.814291
              ],
              [
                106.685914,
                10.814265
              ],
              [
                106.685777,
                10.814223
              ],
              [
                106.685694,
                10.814197
              ],
              [
                106.685597,
                10.814167
              ],
              [
                106.685401,
                10.814107
              ],
              [
                106.685192,
                10.814032
              ],
              [
                106.685187,
                10.814029
              ],
              [
                106.685012,
                10.81391
              ],
              [
                106.684852,
                10.813765
              ],
              [
                106.684827,
                10.813728
              ],
              [
                106.684766,
                10.813636
              ],
              [
                106.684742,
                10.813564
              ],
              [
                106.684741,
                10.813473
              ],
              [
                106.684747,
                10.813459
              ],
              [
                106.684755,
                10.813442
              ],
              [
                106.684928,
                10.813259
              ],
              [
                106.685085,
                10.813081
              ],
              [
                106.685128,
                10.813032
              ],
              [
                106.68525,
                10.812899
              ],
              [
                106.685258,
                10.812872
              ],
              [
                106.685275,
                10.81282
              ],
              [
                106.685263,
                10.812642
              ],
              [
                106.685255,
                10.8125
              ],
              [
                106.685255,
                10.8125
              ],
              [
                106.685255,
                10.8125
              ],
              [
                106.685262,
                10.812405
              ],
              [
                106.68526,
                10.812304
              ],
              [
                106.685251,
                10.811938
              ],
              [
                106.685232,
                10.81178
              ],
              [
                106.685213,
                10.811704
              ],
              [
                106.68519,
                10.811601
              ],
              [
                106.685157,
                10.811532
              ],
              [
                106.684929,
                10.811372
              ],
              [
                106.68455,
                10.811111
              ],
              [
                106.684167,
                10.8108
              ],
              [
                106.684105,
                10.810545
              ],
              [
                106.684003,
                10.810136
              ],
              [
                106.683977,
                10.809992
              ],
              [
                106.683974,
                10.809993
              ],
              [
                106.683695,
                10.810041
              ],
              [
                106.683494,
                10.810096
              ],
              [
                106.683278,
                10.810148
              ],
              [
                106.683198,
                10.810177
              ],
              [
                106.683115,
                10.810217
              ],
              [
                106.68292,
                10.810326
              ],
              [
                106.682753,
                10.810449
              ],
              [
                106.682149,
                10.810776
              ],
              [
                106.682102,
                10.810801
              ],
              [
                106.681965,
                10.810544
              ],
              [
                106.681963,
                10.810545
              ],
              [
                106.68176,
                10.810652
              ],
              [
                106.681646,
                10.81051
              ],
              [
                106.681121,
                10.810765
              ],
              [
                106.680733,
                10.811006
              ],
              [
                106.680969,
                10.811484
              ],
              [
                106.680972,
                10.811511
              ],
              [
                106.680942,
                10.811535
              ],
              [
                106.680833,
                10.811602
              ],
              [
                106.680509,
                10.811841
              ],
              [
                106.680437,
                10.81192
              ],
              [
                106.680387,
                10.811946
              ],
              [
                106.6786,
                10.812077
              ],
              [
                106.678584,
                10.81182
              ],
              [
                106.67858,
                10.811745
              ],
              [
                106.678562,
                10.81138
              ],
              [
                106.678553,
                10.811284
              ],
              [
                106.678304,
                10.811294
              ],
              [
                106.678303,
                10.811331
              ],
              [
                106.678179,
                10.811336
              ],
              [
                106.676875,
                10.81216
              ],
              [
                106.676853,
                10.812174
              ],
              [
                106.676676,
                10.811975
              ],
              [
                106.676398,
                10.811652
              ],
              [
                106.676173,
                10.8114
              ],
              [
                106.676003,
                10.811203
              ],
              [
                106.675925,
                10.811281
              ],
              [
                106.675744,
                10.811435
              ],
              [
                106.674903,
                10.81216
              ],
              [
                106.674675,
                10.812368
              ],
              [
                106.674565,
                10.812468
              ],
              [
                106.67453,
                10.8125
              ],
              [
                106.67453,
                10.8125
              ],
              [
                106.674529,
                10.8125
              ],
              [
                106.674529,
                10.812501
              ],
              [
                106.673637,
                10.813315
              ],
              [
                106.673552,
                10.81339
              ],
              [
                106.673479,
                10.813454
              ],
              [
                106.672768,
                10.814149
              ],
              [
                106.672806,
                10.814175
              ],
              [
                106.672914,
                10.81425
              ],
              [
                106.673297,
                10.814446
              ],
              [
                106.673511,
                10.814555
              ],
              [
                106.673556,
                10.814574
              ],
              [
                106.673669,
                10.814623
              ],
              [
                106.673823,
                10.814649
              ],
              [
                106.674058,
                10.814657
              ],
              [
                106.674365,
                10.814668
              ],
              [
                106.674577,
                10.814734
              ],
              [
                106.674911,
                10.814966
              ],
              [
                106.674938,
                10.81504
              ],
              [
                106.674972,
                10.815076
              ],
              [
                106.675016,
                10.815101
              ],
              [
                106.675023,
                10.815106
              ],
              [
                106.675072,
                10.815105
              ],
              [
                106.675969,
                10.814857
              ],
              [
                106.676076,
                10.815044
              ],
              [
                106.676121,
                10.815123
              ],
              [
                106.67572,
                10.815278
              ],
              [
                106.67572,
                10.815278
              ],
              [
                106.675721,
                10.815334
              ],
              [
                106.675722,
                10.815375
              ],
              [
                106.675726,
                10.815559
              ],
              [
                106.675742,
                10.815808
              ],
              [
                106.675722,
                10.816112
              ],
              [
                106.675715,
                10.816227
              ],
              [
                106.675692,
                10.816342
              ],
              [
                106.675597,
                10.816529
              ],
              [
                106.675561,
                10.81661
              ],
              [
                106.675443,
                10.816674
              ],
              [
                106.674696,
                10.817412
              ],
              [
                106.674671,
                10.81744
              ],
              [
                106.674393,
                10.817744
              ],
              [
                106.674188,
                10.817973
              ],
              [
                106.674781,
                10.818313
              ],
              [
                106.674841,
                10.818344
              ],
              [
                106.674657,
                10.818745
              ],
              [
                106.674215,
                10.819703
              ],
              [
                106.673535,
                10.821458
              ],
              [
                106.673535,
                10.821459
              ],
              [
                106.673223,
                10.822314
              ],
              [
                106.67334,
                10.822364
              ],
              [
                106.673417,
                10.822406
              ],
              [
                106.673492,
                10.822448
              ],
              [
                106.674097,
                10.822845
              ],
              [
                106.674735,
                10.823333
              ],
              [
                106.675284,
                10.82366
              ],
              [
                106.675295,
                10.823665
              ],
              [
                106.675358,
                10.823585
              ],
              [
                106.675806,
                10.823855
              ],
              [
                106.675895,
                10.823871
              ],
              [
                106.675903,
                10.823854
              ],
              [
                106.676167,
                10.823939
              ],
              [
                106.676652,
                10.824079
              ],
              [
                106.676938,
                10.824247
              ],
              [
                106.677229,
                10.82444
              ],
              [
                106.677402,
                10.824576
              ],
              [
                106.677506,
                10.824632
              ],
              [
                106.677772,
                10.824805
              ],
              [
                106.677922,
                10.824905
              ],
              [
                106.678064,
                10.825004
              ],
              [
                106.678113,
                10.825031
              ],
              [
                106.678258,
                10.825143
              ],
              [
                106.678435,
                10.82534
              ],
              [
                106.67863,
                10.825629
              ],
              [
                106.678624,
                10.82569
              ],
              [
                106.678582,
                10.826145
              ],
              [
                106.678539,
                10.826202
              ],
              [
                106.678073,
                10.826733
              ],
              [
                106.677836,
                10.826921
              ],
              [
                106.677898,
                10.827047
              ],
              [
                106.67792,
                10.827099
              ],
              [
                106.677945,
                10.827167
              ],
              [
                106.67795,
                10.827165
              ],
              [
                106.677958,
                10.827162
              ],
              [
                106.678235,
                10.827069
              ],
              [
                106.678675,
                10.82692
              ],
              [
                106.679404,
                10.826671
              ],
              [
                106.679609,
                10.8266
              ],
              [
                106.679613,
                10.826599
              ],
              [
                106.679972,
                10.826446
              ],
              [
                106.680021,
                10.826425
              ],
              [
                106.680186,
                10.826372
              ],
              [
                106.679993,
                10.826717
              ],
              [
                106.679887,
                10.826906
              ],
              [
                106.679867,
                10.826944
              ],
              [
                106.679719,
                10.827231
              ],
              [
                106.679646,
                10.827362
              ],
              [
                106.67947,
                10.827678
              ],
              [
                106.67923,
                10.828083
              ],
              [
                106.679203,
                10.828128
              ],
              [
                106.679092,
                10.828321
              ],
              [
                106.678938,
                10.828589
              ],
              [
                106.678678,
                10.829052
              ],
              [
                106.678605,
                10.829179
              ],
              [
                106.67856,
                10.829267
              ],
              [
                106.678529,
                10.829327
              ],
              [
                106.678203,
                10.829857
              ],
              [
                106.677985,
                10.830232
              ],
              [
                106.677984,
                10.830233
              ],
              [
                106.677908,
                10.830373
              ],
              [
                106.677747,
                10.830608
              ],
              [
                106.677651,
                10.830749
              ],
              [
                106.677572,
                10.830864
              ],
              [
                106.677723,
                10.830811
              ],
              [
                106.677927,
                10.830738
              ],
              [
                106.677992,
                10.830715
              ],
              [
                106.678137,
                10.830664
              ],
              [
                106.678184,
                10.830647
              ],
              [
                106.679133,
                10.831463
              ],
              [
                106.679496,
                10.831719
              ],
              [
                106.679527,
                10.831739
              ],
              [
                106.679531,
                10.831742
              ],
              [
                106.67955,
                10.831757
              ],
              [
                106.680029,
                10.832093
              ],
              [
                106.680411,
                10.832361
              ],
              [
                106.681679,
                10.833247
              ],
              [
                106.682113,
                10.83351
              ],
              [
                106.682124,
                10.833514
              ],
              [
                106.682604,
                10.833704
              ],
              [
                106.684388,
                10.834489
              ],
              [
                106.684427,
                10.834409
              ],
              [
                106.684428,
                10.834407
              ],
              [
                106.684448,
                10.834371
              ],
              [
                106.684583,
                10.834116
              ],
              [
                106.684798,
                10.833721
              ],
              [
                106.684912,
                10.833498
              ],
              [
                106.68492,
                10.833487
              ],
              [
                106.684991,
                10.833391
              ],
              [
                106.685107,
                10.833256
              ],
              [
                106.685204,
                10.833148
              ],
              [
                106.685227,
                10.833122
              ],
              [
                106.685328,
                10.833023
              ],
              [
                106.685335,
                10.833016
              ],
              [
                106.685409,
                10.832951
              ],
              [
                106.685595,
                10.832773
              ],
              [
                106.685792,
                10.832585
              ],
              [
                106.685793,
                10.832584
              ],
              [
                106.68591,
                10.832468
              ],
              [
                106.686062,
                10.83233
              ],
              [
                106.686232,
                10.832171
              ],
              [
                106.686318,
                10.832095
              ],
              [
                106.686473,
                10.831943
              ],
              [
                106.686475,
                10.831941
              ],
              [
                106.686622,
                10.831808
              ],
              [
                106.686866,
                10.831562
              ],
              [
                106.6871,
                10.831322
              ],
              [
                106.687248,
                10.831174
              ],
              [
                106.687287,
                10.831132
              ],
              [
                106.687309,
                10.831111
              ],
              [
                106.687366,
                10.831054
              ],
              [
                106.6875,
                10.830914
              ],
              [
                106.6875,
                10.830914
              ],
              [
                106.688001,
                10.830328
              ],
              [
                106.688293,
                10.829987
              ],
              [
                106.688686,
                10.829537
              ],
              [
                106.688831,
                10.829385
              ],
              [
                106.688913,
                10.8293
              ],
              [
                106.68899,
                10.829217
              ],
              [
                106.689519,
                10.828591
              ],
              [
                106.689569,
                10.828537
              ],
              [
                106.690097,
                10.827968
              ],
              [
                106.690208,
                10.827867
              ],
              [
                106.690557,
                10.827597
              ],
              [
                106.69061,
                10.827556
              ],
              [
                106.690489,
                10.827476
              ],
              [
                106.690219,
                10.827199
              ],
              [
                106.689833,
                10.826801
              ],
              [
                106.689457,
                10.82641
              ],
              [
                106.689314,
                10.826267
              ],
              [
                106.689091,
                10.826043
              ],
              [
                106.688849,
                10.825806
              ],
              [
                106.688621,
                10.825627
              ],
              [
                106.688102,
                10.825296
              ],
              [
                106.6875,
                10.82493
              ],
              [
                106.6875,
                10.82493
              ],
              [
                106.687459,
                10.82491
              ],
              [
                106.687226,
                10.824767
              ],
              [
                106.686977,
                10.824624
              ],
              [
                106.6868,
                10.824483
              ],
              [
                106.686608,
                10.824273
              ],
              [
                106.686596,
                10.824259
              ],
              [
                106.686521,
                10.824159
              ],
              [
                106.686538,
                10.824146
              ],
              [
                106.686643,
                10.824071
              ],
              [
                106.686834,
                10.823934
              ],
              [
                106.6875,
                10.823472
              ],
              [
                106.6875,
                10.823472
              ],
              [
                106.687509,
                10.823466
              ],
              [
                106.687615,
                10.823392
              ],
              [
                106.687856,
                10.823162
              ],
              [
                106.688019,
                10.823006
              ],
              [
                106.688074,
                10.822944
              ],
              [
                106.688135,
                10.822846
              ],
              [
                106.688175,
                10.822762
              ],
              [
                106.688223,
                10.82266
              ],
              [
                106.688313,
                10.822428
              ],
              [
                106.688393,
                10.822245
              ],
              [
                106.688438,
                10.82213
              ],
              [
                106.688478,
                10.82203
              ],
              [
                106.688573,
                10.821857
              ],
              [
                106.688648,
                10.821719
              ],
              [
                106.688722,
                10.821582
              ],
              [
                106.688815,
                10.821409
              ],
              [
                106.688917,
                10.821183
              ],
              [
                106.688997,
                10.821006
              ],
              [
                106.689036,
                10.820902
              ],
              [
                106.689094,
                10.820924
              ],
              [
                106.689172,
                10.820953
              ],
              [
                106.689511,
                10.821043
              ],
              [
                106.690271,
                10.821222
              ],
              [
                106.691192,
                10.821445
              ],
              [
                106.691994,
                10.821633
              ],
              [
                106.692907,
                10.82186
              ],
              [
                106.693502,
                10.822004
              ],
              [
                106.693525,
                10.821916
              ],
              [
                106.693575,
                10.821724
              ],
              [
                106.693648,
                10.821512
              ],
              [
                106.693648,
                10.821511
              ],
              [
                106.693782,
                10.821209
              ],
              [
                106.693878,
                10.821009
              ],
              [
                106.693981,
                10.820795
              ],
              [
                106.694,
                10.820755
              ],
              [
                106.694,
                10.820755
              ],
              [
                106.694093,
                10.820542
              ],
              [
                106.694116,
                10.820485
              ],
              [
                106.694135,
                10.820436
              ],
              [
                106.694253,
                10.820137
              ],
              [
                106.69435,
                10.819901
              ],
              [
                106.693753,
                10.819714
              ],
              [
                106.692863,
                10.819455
              ],
              [
                106.692582,
                10.819357
              ],
              [
                106.692705,
                10.818866
              ],
              [
                106.692692,
                10.818741
              ],
              [
                106.692681,
                10.818708
              ],
              [
                106.692688,
                10.818655
              ],
              [
                106.692721,
                10.81853
              ],
              [
                106.692762,
                10.818357
              ],
              [
                106.69282,
                10.818322
              ],
              [
                106.692909,
                10.818235
              ],
              [
                106.69346,
                10.817699
              ],
              [
                106.693495,
                10.817669
              ],
              [
                106.692157,
                10.817355
              ],
              [
                106.692113,
                10.81733
              ],
              [
                106.692104,
                10.817285
              ],
              [
                106.692166,
                10.817037
              ],
              [
                106.692176,
                10.817006
              ],
              [
                106.691766,
                10.816883
              ],
              [
                106.691492,
                10.816806
              ],
              [
                106.691476,
                10.816497
              ],
              [
                106.691205,
                10.816416
              ],
              [
                106.691122,
                10.816338
              ],
              [
                106.691075,
                10.816264
              ],
              [
                106.690991,
                10.816147
              ],
              [
                106.69085,
                10.816066
              ],
              [
                106.690662,
                10.81601
              ],
              [
                106.690576,
                10.815935
              ],
              [
                106.690639,
                10.815584
              ],
              [
                106.690423,
                10.815497
              ],
              [
                106.690423,
                10.815497
              ]
            ]
          ]
        ]
      },
      "properties": {
        "code": "26890",
        "name": "Hạnh Thông",
        "nameEn": "Hanh Thong",
        "fullName": "Phường Hạnh Thông",
        "fullNameEn": "Hanh Thong Ward",
        "codeName": "hanh_thong",
        "postalCode": "71423",
        "postalCodePrefix": "",
        "gisServerId": "diaphanhanhchinhcapxa_2025.58",
        "areaKm2": 3.37
      }
    }
  ]
}