{
  "type": "FeatureCollection",
  "bbox": [
    106.706348,
    10.785246,
    106.727461,
    10.814321
  ],
  "features": [
    {
      "type": "Feature",
      "id": "26956",
      "bbox": [
        106.706348,
        10.785246,
        106.727461,
        10.814321
      ],
      "geometry": {
        "type": "MultiPolygon",
        "coordinates": [
          [
            [
              [
                106.722166,
                10.80977
              ],
              [
                106.72218,
                10.809682
              ],
              [
                106.722238,
                10.809522
              ],
              [
                106.722262,
                10.809417
              ],
              [
                106.722266,
                10.809338
              ],
              [
                106.722271,
                10.809265
              ],
              [
                106.722289,
                10.809171
              ],
              [
                106.722299,
                10.809127
              ],
              [
                106.722318,
                10.80905
              ],
              [
                106.722347,
                10.808939
              ],
              [
                106.722379,
                10.808829
              ],
              [
                106.722409,
                10.808718
              ],
              [
                106.722431,
                10.808622
              ],
              [
                106.722447,
                10.808549
              ],
              [
                106.72246,
                10.8085
              ],
              [
                106.722468,
                10.808469
              ],
              [
                106.722472,
                10.808449
              ],
              [
                106.722475,
                10.808433
              ],
              [
                106.722482,
                10.808399
              ],
              [
                106.722499,
                10.808326
              ],
              [
                106.722523,
                10.808232
              ],
              [
                106.722543,
                10.80815
              ],
              [
                106.72256,
                10.808085
              ],
              [
                106.722578,
                10.808028
              ],
              [
                106.72259,
                10.807993
              ],
              [
                106.722593,
                10.807977
              ],
              [
                106.722601,
                10.807944
              ],
              [
                106.722625,
                10.807853
              ],
              [
                106.722663,
                10.807724
              ],
              [
                106.722689,
                10.807626
              ],
              [
                106.722703,
                10.807567
              ],
              [
                106.722738,
                10.807487
              ],
              [
                106.722819,
                10.807363
              ],
              [
                106.722888,
                10.807239
              ],
              [
                106.722884,
                10.807095
              ],
              [
                106.722883,
                10.80703
              ],
              [
                106.722879,
                10.806895
              ],
              [
                106.7229,
                10.806712
              ],
              [
                106.722917,
                10.806617
              ],
              [
                106.722933,
                10.806566
              ],
              [
                106.722959,
                10.806501
              ],
              [
                106.722993,
                10.806423
              ],
              [
                106.72303,
                10.806342
              ],
              [
                106.723067,
                10.806262
              ],
              [
                106.723107,
                10.806184
              ],
              [
                106.723157,
                10.806097
              ],
              [
                106.72321,
                10.806013
              ],
              [
                106.723245,
                10.805956
              ],
              [
                106.72327,
                10.805913
              ],
              [
                106.723302,
                10.805857
              ],
              [
                106.723348,
                10.805782
              ],
              [
                106.723398,
                10.805707
              ],
              [
                106.723427,
                10.805664
              ],
              [
                106.723438,
                10.805649
              ],
              [
                106.723447,
                10.805643
              ],
              [
                106.723458,
                10.805637
              ],
              [
                106.723474,
                10.805623
              ],
              [
                106.723506,
                10.805574
              ],
              [
                106.723568,
                10.805478
              ],
              [
                106.723645,
                10.805363
              ],
              [
                106.723715,
                10.805253
              ],
              [
                106.723778,
                10.805145
              ],
              [
                106.723831,
                10.805049
              ],
              [
                106.723863,
                10.804992
              ],
              [
                106.72388,
                10.804962
              ],
              [
                106.7239,
                10.804929
              ],
              [
                106.723928,
                10.804882
              ],
              [
                106.723963,
                10.804827
              ],
              [
                106.724021,
                10.804741
              ],
              [
                106.724119,
                10.804606
              ],
              [
                106.724246,
                10.804442
              ],
              [
                106.724357,
                10.804301
              ],
              [
                106.72442,
                10.80422
              ],
              [
                106.724455,
                10.804173
              ],
              [
                106.724488,
                10.804126
              ],
              [
                106.724525,
                10.804072
              ],
              [
                106.724567,
                10.804015
              ],
              [
                106.724612,
                10.803953
              ],
              [
                106.724663,
                10.80387
              ],
              [
                106.72471,
                10.803757
              ],
              [
                106.724751,
                10.803684
              ],
              [
                106.724795,
                10.80369
              ],
              [
                106.724814,
                10.803693
              ],
              [
                106.724872,
                10.803698
              ],
              [
                106.724913,
                10.803663
              ],
              [
                106.724952,
                10.803611
              ],
              [
                106.724997,
                10.80355
              ],
              [
                106.72505,
                10.803478
              ],
              [
                106.725107,
                10.803398
              ],
              [
                106.725164,
                10.803316
              ],
              [
                106.725213,
                10.803243
              ],
              [
                106.725243,
                10.803198
              ],
              [
                106.725297,
                10.803118
              ],
              [
                106.725313,
                10.803009
              ],
              [
                106.725317,
                10.80297
              ],
              [
                106.725321,
                10.802929
              ],
              [
                106.725322,
                10.802923
              ],
              [
                106.725326,
                10.802873
              ],
              [
                106.725334,
                10.802811
              ],
              [
                106.725348,
                10.802745
              ],
              [
                106.725365,
                10.802687
              ],
              [
                106.725384,
                10.802639
              ],
              [
                106.7254,
                10.802604
              ],
              [
                106.72541,
                10.802581
              ],
              [
                106.725417,
                10.802564
              ],
              [
                106.725423,
                10.802551
              ],
              [
                106.72543,
                10.802537
              ],
              [
                106.72544,
                10.802522
              ],
              [
                106.725451,
                10.802505
              ],
              [
                106.725462,
                10.802489
              ],
              [
                106.725474,
                10.802467
              ],
              [
                106.72549,
                10.80244
              ],
              [
                106.725509,
                10.802408
              ],
              [
                106.725532,
                10.80237
              ],
              [
                106.725561,
                10.802327
              ],
              [
                106.725591,
                10.802287
              ],
              [
                106.725618,
                10.802256
              ],
              [
                106.725643,
                10.802237
              ],
              [
                106.725669,
                10.802225
              ],
              [
                106.725697,
                10.802217
              ],
              [
                106.725722,
                10.802211
              ],
              [
                106.725737,
                10.802204
              ],
              [
                106.72575,
                10.802193
              ],
              [
                106.725785,
                10.802157
              ],
              [
                106.725857,
                10.802081
              ],
              [
                106.725944,
                10.801985
              ],
              [
                106.726019,
                10.801904
              ],
              [
                106.726079,
                10.801842
              ],
              [
                106.726134,
                10.801779
              ],
              [
                106.726177,
                10.801723
              ],
              [
                106.726208,
                10.801685
              ],
              [
                106.726227,
                10.801666
              ],
              [
                106.72624,
                10.801656
              ],
              [
                106.72625,
                10.801648
              ],
              [
                106.726258,
                10.801642
              ],
              [
                106.726271,
                10.801632
              ],
              [
                106.726304,
                10.801599
              ],
              [
                106.726311,
                10.801591
              ],
              [
                106.726365,
                10.801536
              ],
              [
                106.726426,
                10.80147
              ],
              [
                106.726462,
                10.801426
              ],
              [
                106.726483,
                10.801387
              ],
              [
                106.726507,
                10.801332
              ],
              [
                106.726508,
                10.80133
              ],
              [
                106.726532,
                10.801265
              ],
              [
                106.726554,
                10.801194
              ],
              [
                106.72658,
                10.801117
              ],
              [
                106.726615,
                10.801025
              ],
              [
                106.726652,
                10.800921
              ],
              [
                106.726692,
                10.800826
              ],
              [
                106.726738,
                10.800744
              ],
              [
                106.726784,
                10.800676
              ],
              [
                106.726824,
                10.800623
              ],
              [
                106.726863,
                10.800571
              ],
              [
                106.726906,
                10.80052
              ],
              [
                106.726933,
                10.80049
              ],
              [
                106.72699,
                10.800425
              ],
              [
                106.727045,
                10.80032
              ],
              [
                106.7271,
                10.800215
              ],
              [
                106.727145,
                10.79995
              ],
              [
                106.727136,
                10.799769
              ],
              [
                106.727123,
                10.79971
              ],
              [
                106.72711,
                10.799647
              ],
              [
                106.727086,
                10.799547
              ],
              [
                106.72708,
                10.799479
              ],
              [
                106.727084,
                10.799428
              ],
              [
                106.727088,
                10.79939
              ],
              [
                106.727091,
                10.799352
              ],
              [
                106.727095,
                10.799296
              ],
              [
                106.727096,
                10.799206
              ],
              [
                106.727095,
                10.799133
              ],
              [
                106.727094,
                10.79906
              ],
              [
                106.727092,
                10.798919
              ],
              [
                106.727092,
                10.79891
              ],
              [
                106.727091,
                10.798817
              ],
              [
                106.727091,
                10.798788
              ],
              [
                106.727091,
                10.798762
              ],
              [
                106.727093,
                10.798717
              ],
              [
                106.727093,
                10.798697
              ],
              [
                106.727094,
                10.798682
              ],
              [
                106.72709,
                10.798652
              ],
              [
                106.727076,
                10.798598
              ],
              [
                106.727091,
                10.798532
              ],
              [
                106.727167,
                10.798512
              ],
              [
                106.72724,
                10.79851
              ],
              [
                106.72732,
                10.798468
              ],
              [
                106.727323,
                10.798467
              ],
              [
                106.727421,
                10.798332
              ],
              [
                106.72746,
                10.798112
              ],
              [
                106.72746,
                10.79789
              ],
              [
                106.727461,
                10.79771
              ],
              [
                106.727458,
                10.79758
              ],
              [
                106.72745,
                10.797487
              ],
              [
                106.727443,
                10.797414
              ],
              [
                106.727436,
                10.797347
              ],
              [
                106.727429,
                10.797283
              ],
              [
                106.727422,
                10.797211
              ],
              [
                106.727414,
                10.797129
              ],
              [
                106.727405,
                10.797039
              ],
              [
                106.727396,
                10.796944
              ],
              [
                106.727387,
                10.796853
              ],
              [
                106.727376,
                10.796767
              ],
              [
                106.727363,
                10.796681
              ],
              [
                106.727348,
                10.796598
              ],
              [
                106.727332,
                10.796524
              ],
              [
                106.72732,
                10.796451
              ],
              [
                106.727308,
                10.796378
              ],
              [
                106.727295,
                10.796298
              ],
              [
                106.727277,
                10.796191
              ],
              [
                106.727257,
                10.796057
              ],
              [
                106.72724,
                10.795944
              ],
              [
                106.727223,
                10.795857
              ],
              [
                106.727203,
                10.795776
              ],
              [
                106.727178,
                10.795687
              ],
              [
                106.727148,
                10.795572
              ],
              [
                106.727119,
                10.79544
              ],
              [
                106.727093,
                10.795338
              ],
              [
                106.727065,
                10.795256
              ],
              [
                106.727032,
                10.795167
              ],
              [
                106.72699,
                10.795078
              ],
              [
                106.726948,
                10.79501
              ],
              [
                106.726942,
                10.794999
              ],
              [
                106.72692,
                10.794961
              ],
              [
                106.72689,
                10.794901
              ],
              [
                106.726815,
                10.794779
              ],
              [
                106.726718,
                10.794561
              ],
              [
                106.726686,
                10.794317
              ],
              [
                106.7267,
                10.794127
              ],
              [
                106.7267,
                10.794127
              ],
              [
                106.726723,
                10.793971
              ],
              [
                106.726738,
                10.793846
              ],
              [
                106.726735,
                10.793756
              ],
              [
                106.72672,
                10.793683
              ],
              [
                106.726702,
                10.793617
              ],
              [
                106.726685,
                10.793552
              ],
              [
                106.726676,
                10.793478
              ],
              [
                106.726675,
                10.7934
              ],
              [
                106.726672,
                10.79334
              ],
              [
                106.726666,
                10.793309
              ],
              [
                106.726661,
                10.793287
              ],
              [
                106.726652,
                10.793254
              ],
              [
                106.726629,
                10.793181
              ],
              [
                106.726582,
                10.793047
              ],
              [
                106.726517,
                10.792875
              ],
              [
                106.726452,
                10.79271
              ],
              [
                106.726395,
                10.79257
              ],
              [
                106.726341,
                10.792447
              ],
              [
                106.726302,
                10.792366
              ],
              [
                106.726279,
                10.79232
              ],
              [
                106.726265,
                10.792284
              ],
              [
                106.726251,
                10.792256
              ],
              [
                106.72623,
                10.792222
              ],
              [
                106.726196,
                10.792171
              ],
              [
                106.726155,
                10.79211
              ],
              [
                106.726116,
                10.792052
              ],
              [
                106.72608,
                10.791998
              ],
              [
                106.726053,
                10.791957
              ],
              [
                106.726028,
                10.791917
              ],
              [
                106.725995,
                10.791866
              ],
              [
                106.725967,
                10.79182
              ],
              [
                106.725939,
                10.791775
              ],
              [
                106.725908,
                10.791724
              ],
              [
                106.72589,
                10.791689
              ],
              [
                106.725885,
                10.791674
              ],
              [
                106.725883,
                10.791668
              ],
              [
                106.725882,
                10.791664
              ],
              [
                106.725878,
                10.791656
              ],
              [
                106.725869,
                10.791639
              ],
              [
                106.725855,
                10.791615
              ],
              [
                106.725836,
                10.791583
              ],
              [
                106.725811,
                10.79154
              ],
              [
                106.725779,
                10.791488
              ],
              [
                106.725749,
                10.791436
              ],
              [
                106.725716,
                10.791378
              ],
              [
                106.725674,
                10.791309
              ],
              [
                106.725624,
                10.791229
              ],
              [
                106.725546,
                10.791113
              ],
              [
                106.725444,
                10.790968
              ],
              [
                106.725358,
                10.790843
              ],
              [
                106.725287,
                10.790738
              ],
              [
                106.7252,
                10.790611
              ],
              [
                106.725093,
                10.790458
              ],
              [
                106.724996,
                10.790321
              ],
              [
                106.724913,
                10.790207
              ],
              [
                106.724831,
                10.790095
              ],
              [
                106.724735,
                10.789963
              ],
              [
                106.724614,
                10.789798
              ],
              [
                106.724476,
                10.78962
              ],
              [
                106.724354,
                10.789468
              ],
              [
                106.72427,
                10.789362
              ],
              [
                106.724204,
                10.789259
              ],
              [
                106.724149,
                10.789128
              ],
              [
                106.724103,
                10.789022
              ],
              [
                106.724026,
                10.78896
              ],
              [
                106.723939,
                10.788887
              ],
              [
                106.723883,
                10.788823
              ],
              [
                106.72383,
                10.788751
              ],
              [
                106.723763,
                10.788655
              ],
              [
                106.723714,
                10.78859
              ],
              [
                106.723687,
                10.788559
              ],
              [
                106.723662,
                10.788534
              ],
              [
                106.72363,
                10.788501
              ],
              [
                106.723579,
                10.78845
              ],
              [
                106.7235,
                10.788376
              ],
              [
                106.723415,
                10.788298
              ],
              [
                106.723347,
                10.788235
              ],
              [
                106.72329,
                10.788183
              ],
              [
                106.723239,
                10.788134
              ],
              [
                106.723198,
                10.788092
              ],
              [
                106.723169,
                10.788068
              ],
              [
                106.723124,
                10.788071
              ],
              [
                106.722995,
                10.788112
              ],
              [
                106.722771,
                10.788144
              ],
              [
                106.722555,
                10.788094
              ],
              [
                106.722396,
                10.787996
              ],
              [
                106.722264,
                10.787894
              ],
              [
                106.722157,
                10.787811
              ],
              [
                106.722084,
                10.787761
              ],
              [
                106.722012,
                10.787716
              ],
              [
                106.721921,
                10.787658
              ],
              [
                106.721838,
                10.787608
              ],
              [
                106.721832,
                10.787604
              ],
              [
                106.721761,
                10.787548
              ],
              [
                106.721758,
                10.787546
              ],
              [
                106.721595,
                10.787451
              ],
              [
                106.721566,
                10.787432
              ],
              [
                106.721517,
                10.787398
              ],
              [
                106.721455,
                10.787353
              ],
              [
                106.721408,
                10.78732
              ],
              [
                106.721374,
                10.787296
              ],
              [
                106.721325,
                10.78726
              ],
              [
                106.721253,
                10.787206
              ],
              [
                106.721183,
                10.787152
              ],
              [
                106.721117,
                10.787099
              ],
              [
                106.721042,
                10.787041
              ],
              [
                106.720962,
                10.786978
              ],
              [
                106.720884,
                10.786916
              ],
              [
                106.720822,
                10.786865
              ],
              [
                106.720776,
                10.786828
              ],
              [
                106.720733,
                10.786798
              ],
              [
                106.720688,
                10.786764
              ],
              [
                106.72063,
                10.786718
              ],
              [
                106.720563,
                10.786668
              ],
              [
                106.7205,
                10.786625
              ],
              [
                106.720441,
                10.786591
              ],
              [
                106.720382,
                10.786559
              ],
              [
                106.72029,
                10.786517
              ],
              [
                106.720152,
                10.786461
              ],
              [
                106.720028,
                10.786412
              ],
              [
                106.71994,
                10.786378
              ],
              [
                106.719872,
                10.786349
              ],
              [
                106.719776,
                10.786309
              ],
              [
                106.719637,
                10.786254
              ],
              [
                106.719503,
                10.786205
              ],
              [
                106.719386,
                10.786165
              ],
              [
                106.719276,
                10.78613
              ],
              [
                106.719161,
                10.786096
              ],
              [
                106.719044,
                10.786062
              ],
              [
                106.718952,
                10.786036
              ],
              [
                106.718896,
                10.786021
              ],
              [
                106.718845,
                10.786009
              ],
              [
                106.718779,
                10.785993
              ],
              [
                106.718727,
                10.78598
              ],
              [
                106.718696,
                10.785973
              ],
              [
                106.718674,
                10.785967
              ],
              [
                106.718645,
                10.78596
              ],
              [
                106.718587,
                10.785946
              ],
              [
                106.718509,
                10.785928
              ],
              [
                106.718443,
                10.785914
              ],
              [
                106.71839,
                10.785905
              ],
              [
                106.718388,
                10.785905
              ],
              [
                106.71834,
                10.785896
              ],
              [
                106.718294,
                10.785885
              ],
              [
                106.718249,
                10.785874
              ],
              [
                106.718209,
                10.785865
              ],
              [
                106.718181,
                10.785859
              ],
              [
                106.718162,
                10.785854
              ],
              [
                106.718144,
                10.785847
              ],
              [
                106.718127,
                10.785841
              ],
              [
                106.718111,
                10.785836
              ],
              [
                106.718095,
                10.78583
              ],
              [
                106.71808,
                10.785825
              ],
              [
                106.718064,
                10.785819
              ],
              [
                106.718049,
                10.785814
              ],
              [
                106.718037,
                10.78581
              ],
              [
                106.718028,
                10.785807
              ],
              [
                106.71801,
                10.785802
              ],
              [
                106.717973,
                10.785793
              ],
              [
                106.717937,
                10.785783
              ],
              [
                106.717919,
                10.785778
              ],
              [
                106.717914,
                10.785777
              ],
              [
                106.717911,
                10.785777
              ],
              [
                106.717902,
                10.785775
              ],
              [
                106.717813,
                10.785731
              ],
              [
                106.717724,
                10.785686
              ],
              [
                106.717705,
                10.785674
              ],
              [
                106.717685,
                10.785671
              ],
              [
                106.717612,
                10.785632
              ],
              [
                106.717538,
                10.785594
              ],
              [
                106.717466,
                10.785617
              ],
              [
                106.717437,
                10.785627
              ],
              [
                106.717402,
                10.785637
              ],
              [
                106.71737,
                10.78564
              ],
              [
                106.717322,
                10.785636
              ],
              [
                106.717256,
                10.785629
              ],
              [
                106.717205,
                10.785623
              ],
              [
                106.717153,
                10.785618
              ],
              [
                106.717084,
                10.785609
              ],
              [
                106.717028,
                10.785601
              ],
              [
                106.716987,
                10.785596
              ],
              [
                106.71695,
                10.785591
              ],
              [
                106.716909,
                10.785585
              ],
              [
                106.716855,
                10.785577
              ],
              [
                106.716785,
                10.785565
              ],
              [
                106.716719,
                10.785551
              ],
              [
                106.716661,
                10.785538
              ],
              [
                106.716594,
                10.785525
              ],
              [
                106.716517,
                10.785512
              ],
              [
                106.716456,
                10.785502
              ],
              [
                106.716413,
                10.785495
              ],
              [
                106.716375,
                10.785489
              ],
              [
                106.716338,
                10.785483
              ],
              [
                106.71631,
                10.785477
              ],
              [
                106.71627,
                10.785469
              ],
              [
                106.716181,
                10.785454
              ],
              [
                106.716062,
                10.785433
              ],
              [
                106.715984,
                10.785416
              ],
              [
                106.715925,
                10.785396
              ],
              [
                106.715922,
                10.785395
              ],
              [
                106.715818,
                10.785358
              ],
              [
                106.715685,
                10.785318
              ],
              [
                106.715572,
                10.785294
              ],
              [
                106.715505,
                10.785284
              ],
              [
                106.715458,
                10.785277
              ],
              [
                106.715374,
                10.785264
              ],
              [
                106.715264,
                10.785246
              ],
              [
                106.713983,
                10.786657
              ],
              [
                106.713841,
                10.786786
              ],
              [
                106.713516,
                10.787079
              ],
              [
                106.713443,
                10.78713
              ],
              [
                106.713386,
                10.78717
              ],
              [
                106.71335,
                10.787195
              ],
              [
                106.713323,
                10.787214
              ],
              [
                106.713296,
                10.787232
              ],
              [
                106.713266,
                10.787254
              ],
              [
                106.713263,
                10.787256
              ],
              [
                106.713227,
                10.787282
              ],
              [
                106.713183,
                10.787313
              ],
              [
                106.713139,
                10.787344
              ],
              [
                106.713101,
                10.78737
              ],
              [
                106.713072,
                10.787389
              ],
              [
                106.713047,
                10.787406
              ],
              [
                106.713035,
                10.787414
              ],
              [
                106.713026,
                10.787421
              ],
              [
                106.713002,
                10.787436
              ],
              [
                106.712977,
                10.787453
              ],
              [
                106.712956,
                10.787468
              ],
              [
                106.712951,
                10.787471
              ],
              [
                106.712936,
                10.787483
              ],
              [
                106.712914,
                10.7875
              ],
              [
                106.712889,
                10.787515
              ],
              [
                106.712874,
                10.787524
              ],
              [
                106.712687,
                10.787652
              ],
              [
                106.712392,
                10.787822
              ],
              [
                106.712333,
                10.787812
              ],
              [
                106.71194,
                10.787746
              ],
              [
                106.71192,
                10.787745
              ],
              [
                106.711894,
                10.78774
              ],
              [
                106.711838,
                10.787732
              ],
              [
                106.711762,
                10.787723
              ],
              [
                106.711705,
                10.787719
              ],
              [
                106.71166,
                10.787716
              ],
              [
                106.711593,
                10.787708
              ],
              [
                106.711494,
                10.787694
              ],
              [
                106.711358,
                10.787672
              ],
              [
                106.711183,
                10.787644
              ],
              [
                106.711122,
                10.787635
              ],
              [
                106.710972,
                10.787612
              ],
              [
                106.710746,
                10.787579
              ],
              [
                106.710523,
                10.787547
              ],
              [
                106.710335,
                10.787519
              ],
              [
                106.710198,
                10.787501
              ],
              [
                106.710093,
                10.787488
              ],
              [
                106.710026,
                10.78748
              ],
              [
                106.709875,
                10.78746
              ],
              [
                106.709844,
                10.787445
              ],
              [
                106.709827,
                10.787438
              ],
              [
                106.709798,
                10.787428
              ],
              [
                106.709774,
                10.787422
              ],
              [
                106.709589,
                10.787435
              ],
              [
                106.709585,
                10.787436
              ],
              [
                106.709567,
                10.78744
              ],
              [
                106.70955,
                10.787444
              ],
              [
                106.709534,
                10.787447
              ],
              [
                106.709516,
                10.787451
              ],
              [
                106.709495,
                10.787456
              ],
              [
                106.709472,
                10.787461
              ],
              [
                106.709443,
                10.787468
              ],
              [
                106.709408,
                10.787476
              ],
              [
                106.709372,
                10.787485
              ],
              [
                106.709336,
                10.787493
              ],
              [
                106.709301,
                10.787501
              ],
              [
                106.709272,
                10.787508
              ],
              [
                106.709249,
                10.787513
              ],
              [
                106.709221,
                10.78752
              ],
              [
                106.709188,
                10.787528
              ],
              [
                106.709166,
                10.787534
              ],
              [
                106.709154,
                10.787538
              ],
              [
                106.70913,
                10.787547
              ],
              [
                106.709081,
                10.787566
              ],
              [
                106.709018,
                10.78759
              ],
              [
                106.708961,
                10.787614
              ],
              [
                106.708954,
                10.787617
              ],
              [
                106.708954,
                10.787617
              ],
              [
                106.708954,
                10.787617
              ],
              [
                106.708914,
                10.787636
              ],
              [
                106.708893,
                10.787646
              ],
              [
                106.708875,
                10.787656
              ],
              [
                106.708837,
                10.787675
              ],
              [
                106.708794,
                10.7877
              ],
              [
                106.708743,
                10.787733
              ],
              [
                106.708687,
                10.787776
              ],
              [
                106.70863,
                10.787824
              ],
              [
                106.708578,
                10.787874
              ],
              [
                106.708526,
                10.787924
              ],
              [
                106.708468,
                10.787979
              ],
              [
                106.708408,
                10.788039
              ],
              [
                106.708349,
                10.7881
              ],
              [
                106.70829,
                10.788161
              ],
              [
                106.708235,
                10.788219
              ],
              [
                106.708182,
                10.788275
              ],
              [
                106.708151,
                10.78831
              ],
              [
                106.708131,
                10.788331
              ],
              [
                106.708078,
                10.788389
              ],
              [
                106.708019,
                10.788455
              ],
              [
                106.707964,
                10.788517
              ],
              [
                106.70793,
                10.788555
              ],
              [
                106.707909,
                10.788578
              ],
              [
                106.707884,
                10.788606
              ],
              [
                106.707844,
                10.788652
              ],
              [
                106.707793,
                10.788717
              ],
              [
                106.707749,
                10.788777
              ],
              [
                106.707716,
                10.788828
              ],
              [
                106.707685,
                10.788875
              ],
              [
                106.707656,
                10.78892
              ],
              [
                106.707631,
                10.788962
              ],
              [
                106.707618,
                10.788986
              ],
              [
                106.70761,
                10.789
              ],
              [
                106.707589,
                10.789039
              ],
              [
                106.707565,
                10.789089
              ],
              [
                106.707539,
                10.789151
              ],
              [
                106.707514,
                10.789221
              ],
              [
                106.707487,
                10.789295
              ],
              [
                106.707459,
                10.789384
              ],
              [
                106.707422,
                10.789502
              ],
              [
                106.70738,
                10.789642
              ],
              [
                106.707334,
                10.789791
              ],
              [
                106.707332,
                10.789799
              ],
              [
                106.707283,
                10.789955
              ],
              [
                106.707225,
                10.790134
              ],
              [
                106.707168,
                10.790308
              ],
              [
                106.707132,
                10.790416
              ],
              [
                106.707132,
                10.790416
              ],
              [
                106.707121,
                10.790451
              ],
              [
                106.707086,
                10.790557
              ],
              [
                106.707055,
                10.790647
              ],
              [
                106.707031,
                10.790714
              ],
              [
                106.70701,
                10.790772
              ],
              [
                106.706983,
                10.790837
              ],
              [
                106.706953,
                10.790903
              ],
              [
                106.706924,
                10.790962
              ],
              [
                106.706896,
                10.791019
              ],
              [
                106.706871,
                10.791068
              ],
              [
                106.706844,
                10.791115
              ],
              [
                106.706813,
                10.791166
              ],
              [
                106.706782,
                10.791215
              ],
              [
                106.70675,
                10.791264
              ],
              [
                106.706721,
                10.791306
              ],
              [
                106.706714,
                10.791317
              ],
              [
                106.70668,
                10.791363
              ],
              [
                106.706649,
                10.791401
              ],
              [
                106.706614,
                10.791436
              ],
              [
                106.706572,
                10.791474
              ],
              [
                106.706522,
                10.791512
              ],
              [
                106.706472,
                10.79155
              ],
              [
                106.70643,
                10.791581
              ],
              [
                106.706402,
                10.791602
              ],
              [
                106.706401,
                10.791603
              ],
              [
                106.706382,
                10.791618
              ],
              [
                106.706365,
                10.791632
              ],
              [
                106.706348,
                10.791645
              ],
              [
                106.706348,
                10.791645
              ],
              [
                106.706351,
                10.791649
              ],
              [
                106.706354,
                10.791652
              ],
              [
                106.706355,
                10.791653
              ],
              [
                106.70658,
                10.791893
              ],
              [
                106.706704,
                10.792021
              ],
              [
                106.707877,
                10.793262
              ],
              [
                106.708996,
                10.794444
              ],
              [
                106.709593,
                10.795075
              ],
              [
                106.709932,
                10.795443
              ],
              [
                106.71001,
                10.795553
              ],
              [
                106.710037,
                10.795595
              ],
              [
                106.710073,
                10.795682
              ],
              [
                106.710123,
                10.795813
              ],
              [
                106.710257,
                10.796168
              ],
              [
                106.710353,
                10.796409
              ],
              [
                106.710526,
                10.796849
              ],
              [
                106.710586,
                10.796999
              ],
              [
                106.710687,
                10.797249
              ],
              [
                106.710739,
                10.797409
              ],
              [
                106.710803,
                10.797606
              ],
              [
                106.710911,
                10.798016
              ],
              [
                106.710943,
                10.798138
              ],
              [
                106.710985,
                10.798328
              ],
              [
                106.711016,
                10.798466
              ],
              [
                106.711037,
                10.79861
              ],
              [
                106.711039,
                10.798621
              ],
              [
                106.71113,
                10.799491
              ],
              [
                106.711133,
                10.799528
              ],
              [
                106.711167,
                10.799884
              ],
              [
                106.711204,
                10.800284
              ],
              [
                106.711224,
                10.800482
              ],
              [
                106.711281,
                10.801035
              ],
              [
                106.711299,
                10.801206
              ],
              [
                106.71132,
                10.801441
              ],
              [
                106.711337,
                10.801626
              ],
              [
                106.711346,
                10.801852
              ],
              [
                106.71138,
                10.802691
              ],
              [
                106.711394,
                10.802825
              ],
              [
                106.711425,
                10.803125
              ],
              [
                106.711425,
                10.803127
              ],
              [
                106.711436,
                10.803298
              ],
              [
                106.711445,
                10.803499
              ],
              [
                106.711452,
                10.803777
              ],
              [
                106.711452,
                10.803806
              ],
              [
                106.711471,
                10.804256
              ],
              [
                106.711488,
                10.804558
              ],
              [
                106.711489,
                10.804577
              ],
              [
                106.711504,
                10.804949
              ],
              [
                106.711519,
                10.805389
              ],
              [
                106.711519,
                10.805389
              ],
              [
                106.711521,
                10.805561
              ],
              [
                106.711522,
                10.805614
              ],
              [
                106.711525,
                10.805673
              ],
              [
                106.711533,
                10.805831
              ],
              [
                106.711543,
                10.806235
              ],
              [
                106.711559,
                10.806522
              ],
              [
                106.711566,
                10.806695
              ],
              [
                106.711572,
                10.806815
              ],
              [
                106.711575,
                10.806883
              ],
              [
                106.711591,
                10.80726
              ],
              [
                106.711596,
                10.807475
              ],
              [
                106.711615,
                10.807695
              ],
              [
                106.711625,
                10.807837
              ],
              [
                106.711655,
                10.808025
              ],
              [
                106.711677,
                10.808133
              ],
              [
                106.711735,
                10.808333
              ],
              [
                106.711772,
                10.808446
              ],
              [
                106.71194,
                10.808894
              ],
              [
                106.712007,
                10.809079
              ],
              [
                106.712093,
                10.809316
              ],
              [
                106.712111,
                10.809368
              ],
              [
                106.712225,
                10.809508
              ],
              [
                106.712384,
                10.809702
              ],
              [
                106.712472,
                10.809801
              ],
              [
                106.712519,
                10.809853
              ],
              [
                106.71253,
                10.809864
              ],
              [
                106.712582,
                10.809919
              ],
              [
                106.712641,
                10.809979
              ],
              [
                106.713003,
                10.81033
              ],
              [
                106.713136,
                10.810446
              ],
              [
                106.714033,
                10.811181
              ],
              [
                106.714101,
                10.811236
              ],
              [
                106.714191,
                10.811311
              ],
              [
                106.714453,
                10.811529
              ],
              [
                106.714462,
                10.811537
              ],
              [
                106.71503,
                10.812069
              ],
              [
                106.71509,
                10.812123
              ],
              [
                106.715103,
                10.812136
              ],
              [
                106.715383,
                10.812407
              ],
              [
                106.715454,
                10.812478
              ],
              [
                106.715476,
                10.8125
              ],
              [
                106.715478,
                10.812501
              ],
              [
                106.715699,
                10.812719
              ],
              [
                106.715865,
                10.812882
              ],
              [
                106.715996,
                10.813014
              ],
              [
                106.716236,
                10.813255
              ],
              [
                106.716265,
                10.81328
              ],
              [
                106.716442,
                10.813434
              ],
              [
                106.716479,
                10.813466
              ],
              [
                106.71662,
                10.813588
              ],
              [
                106.716657,
                10.81362
              ],
              [
                106.716887,
                10.813818
              ],
              [
                106.716971,
                10.813886
              ],
              [
                106.717172,
                10.814046
              ],
              [
                106.71753,
                10.814321
              ],
              [
                106.717533,
                10.814316
              ],
              [
                106.717541,
                10.814307
              ],
              [
                106.717552,
                10.814292
              ],
              [
                106.717564,
                10.814275
              ],
              [
                106.717577,
                10.814255
              ],
              [
                106.717594,
                10.81423
              ],
              [
                106.717625,
                10.814187
              ],
              [
                106.717689,
                10.814103
              ],
              [
                106.717809,
                10.813951
              ],
              [
                106.717971,
                10.813753
              ],
              [
                106.718104,
                10.813601
              ],
              [
                106.718168,
                10.813533
              ],
              [
                106.71818,
                10.81352
              ],
              [
                106.718217,
                10.81348
              ],
              [
                106.71825,
                10.813439
              ],
              [
                106.718316,
                10.813354
              ],
              [
                106.718435,
                10.813202
              ],
              [
                106.71858,
                10.813018
              ],
              [
                106.718674,
                10.812898
              ],
              [
                106.718719,
                10.812841
              ],
              [
                106.718754,
                10.812795
              ],
              [
                106.718791,
                10.812747
              ],
              [
                106.718836,
                10.812689
              ],
              [
                106.718889,
                10.812618
              ],
              [
                106.718946,
                10.812545
              ],
              [
                106.719008,
                10.812464
              ],
              [
                106.719068,
                10.812385
              ],
              [
                106.719115,
                10.812324
              ],
              [
                106.719156,
                10.812271
              ],
              [
                106.719187,
                10.812231
              ],
              [
                106.719212,
                10.812198
              ],
              [
                106.719239,
                10.812163
              ],
              [
                106.719239,
                10.812162
              ],
              [
                106.719246,
                10.812154
              ],
              [
                106.719293,
                10.812091
              ],
              [
                106.71935,
                10.812017
              ],
              [
                106.719409,
                10.811939
              ],
              [
                106.719471,
                10.811859
              ],
              [
                106.719525,
                10.81179
              ],
              [
                106.719555,
                10.811751
              ],
              [
                106.71957,
                10.811732
              ],
              [
                106.719584,
                10.811715
              ],
              [
                106.719596,
                10.8117
              ],
              [
                106.719606,
                10.811686
              ],
              [
                106.719624,
                10.811663
              ],
              [
                106.719662,
                10.811612
              ],
              [
                106.719714,
                10.811544
              ],
              [
                106.719758,
                10.811486
              ],
              [
                106.71979,
                10.811443
              ],
              [
                106.719828,
                10.811391
              ],
              [
                106.719878,
                10.811323
              ],
              [
                106.719924,
                10.811259
              ],
              [
                106.719972,
                10.811194
              ],
              [
                106.72003,
                10.811113
              ],
              [
                106.720083,
                10.811039
              ],
              [
                106.720124,
                10.810981
              ],
              [
                106.720161,
                10.810929
              ],
              [
                106.720191,
                10.810885
              ],
              [
                106.720221,
                10.810843
              ],
              [
                106.720257,
                10.810795
              ],
              [
                106.720297,
                10.81074
              ],
              [
                106.720353,
                10.810669
              ],
              [
                106.72042,
                10.810592
              ],
              [
                106.720465,
                10.810535
              ],
              [
                106.720474,
                10.810499
              ],
              [
                106.720873,
                10.810117
              ],
              [
                106.721108,
                10.809997
              ],
              [
                106.721419,
                10.809898
              ],
              [
                106.721489,
                10.809875
              ],
              [
                106.72185,
                10.809812
              ],
              [
                106.722166,
                10.80977
              ],
              [
                106.722166,
                10.80977
              ]
            ]
          ]
        ]
      },
      "properties": {
        "code": "26956",
        "name": "Thạnh Mỹ Tây",
        "nameEn": "Thanh My Tay",
        "fullName": "Phường Thạnh Mỹ Tây",
        "fullNameEn": "Thanh My Tay Ward",
        "codeName": "thanh_my_tay",
        "postalCode": "72331",
        "postalCodePrefix": "",
        "gisServerId": "diaphanhanhchinhcapxa_2025.62",
        "areaKm2": 4.4
      }
    }
  ]
}