{
  "type": "FeatureCollection",
  "bbox": [
    106.664279,
    10.77784,
    106.684474,
    10.791371
  ],
  "features": [
    {
      "type": "Feature",
      "id": "27142",
      "bbox": [
        106.664279,
        10.77784,
        106.684474,
        10.791371
      ],
      "geometry": {
        "type": "MultiPolygon",
        "coordinates": [
          [
            [
              [
                106.681288,
                10.791256
              ],
              [
                106.681517,
                10.791171
              ],
              [
                106.681595,
                10.791135
              ],
              [
                106.68157,
                10.791094
              ],
              [
                106.681554,
                10.791061
              ],
              [
                106.681541,
                10.791031
              ],
              [
                106.681529,
                10.791001
              ],
              [
                106.681516,
                10.790962
              ],
              [
                106.681503,
                10.790916
              ],
              [
                106.68149,
                10.790872
              ],
              [
                106.681477,
                10.790828
              ],
              [
                106.681465,
                10.790782
              ],
              [
                106.681455,
                10.790741
              ],
              [
                106.681448,
                10.790697
              ],
              [
                106.681441,
                10.790643
              ],
              [
                106.681434,
                10.790591
              ],
              [
                106.681428,
                10.790535
              ],
              [
                106.68142,
                10.790458
              ],
              [
                106.681414,
                10.790361
              ],
              [
                106.681409,
                10.790256
              ],
              [
                106.681404,
                10.790152
              ],
              [
                106.681403,
                10.790053
              ],
              [
                106.681406,
                10.789956
              ],
              [
                106.681412,
                10.789858
              ],
              [
                106.681417,
                10.789774
              ],
              [
                106.681422,
                10.789697
              ],
              [
                106.681428,
                10.789615
              ],
              [
                106.681431,
                10.78955
              ],
              [
                106.681433,
                10.789507
              ],
              [
                106.681435,
                10.789471
              ],
              [
                106.681437,
                10.789434
              ],
              [
                106.68144,
                10.789387
              ],
              [
                106.681447,
                10.789319
              ],
              [
                106.681456,
                10.789239
              ],
              [
                106.681466,
                10.789158
              ],
              [
                106.681478,
                10.789088
              ],
              [
                106.681489,
                10.789051
              ],
              [
                106.681517,
                10.788986
              ],
              [
                106.68155,
                10.788925
              ],
              [
                106.681553,
                10.788919
              ],
              [
                106.68156,
                10.788909
              ],
              [
                106.681561,
                10.788906
              ],
              [
                106.681578,
                10.788881
              ],
              [
                106.681596,
                10.788856
              ],
              [
                106.681599,
                10.788853
              ],
              [
                106.681602,
                10.788849
              ],
              [
                106.68162,
                10.788825
              ],
              [
                106.681644,
                10.788798
              ],
              [
                106.681667,
                10.788776
              ],
              [
                106.681689,
                10.788757
              ],
              [
                106.681712,
                10.788738
              ],
              [
                106.681739,
                10.788719
              ],
              [
                106.681759,
                10.788706
              ],
              [
                106.68176,
                10.788706
              ],
              [
                106.68176,
                10.788706
              ],
              [
                106.681766,
                10.788702
              ],
              [
                106.681794,
                10.788685
              ],
              [
                106.681825,
                10.788669
              ],
              [
                106.681859,
                10.788655
              ],
              [
                106.681893,
                10.788643
              ],
              [
                106.681923,
                10.788635
              ],
              [
                106.681952,
                10.788628
              ],
              [
                106.681984,
                10.788621
              ],
              [
                106.682035,
                10.788616
              ],
              [
                106.682126,
                10.788614
              ],
              [
                106.682242,
                10.788613
              ],
              [
                106.682358,
                10.788613
              ],
              [
                106.682477,
                10.788614
              ],
              [
                106.6826,
                10.788615
              ],
              [
                106.682699,
                10.788617
              ],
              [
                106.682759,
                10.788618
              ],
              [
                106.682799,
                10.788617
              ],
              [
                106.682835,
                10.788612
              ],
              [
                106.682872,
                10.788605
              ],
              [
                106.682909,
                10.788595
              ],
              [
                106.682949,
                10.788583
              ],
              [
                106.682989,
                10.788571
              ],
              [
                106.683029,
                10.788557
              ],
              [
                106.683065,
                10.788544
              ],
              [
                106.683098,
                10.78853
              ],
              [
                106.683129,
                10.788516
              ],
              [
                106.683159,
                10.7885
              ],
              [
                106.683186,
                10.788481
              ],
              [
                106.683212,
                10.788462
              ],
              [
                106.683237,
                10.788443
              ],
              [
                106.683262,
                10.788422
              ],
              [
                106.683287,
                10.788398
              ],
              [
                106.683311,
                10.788374
              ],
              [
                106.683333,
                10.788349
              ],
              [
                106.683352,
                10.788327
              ],
              [
                106.683368,
                10.788306
              ],
              [
                106.683384,
                10.788283
              ],
              [
                106.683401,
                10.788255
              ],
              [
                106.683421,
                10.788221
              ],
              [
                106.683441,
                10.788186
              ],
              [
                106.68346,
                10.788151
              ],
              [
                106.683476,
                10.788116
              ],
              [
                106.68349,
                10.788081
              ],
              [
                106.683504,
                10.788045
              ],
              [
                106.683516,
                10.78801
              ],
              [
                106.683524,
                10.787978
              ],
              [
                106.68353,
                10.787951
              ],
              [
                106.683534,
                10.787922
              ],
              [
                106.683538,
                10.787884
              ],
              [
                106.683538,
                10.787828
              ],
              [
                106.683538,
                10.787761
              ],
              [
                106.683537,
                10.787692
              ],
              [
                106.683537,
                10.787627
              ],
              [
                106.683536,
                10.787571
              ],
              [
                106.683534,
                10.787519
              ],
              [
                106.683531,
                10.78746
              ],
              [
                106.683526,
                10.787394
              ],
              [
                106.683522,
                10.787339
              ],
              [
                106.683519,
                10.787295
              ],
              [
                106.683514,
                10.787248
              ],
              [
                106.683509,
                10.787196
              ],
              [
                106.683502,
                10.787158
              ],
              [
                106.683494,
                10.78713
              ],
              [
                106.683481,
                10.7871
              ],
              [
                106.683465,
                10.787067
              ],
              [
                106.683448,
                10.787033
              ],
              [
                106.68343,
                10.786999
              ],
              [
                106.683406,
                10.786961
              ],
              [
                106.683377,
                10.786917
              ],
              [
                106.68335,
                10.786877
              ],
              [
                106.683333,
                10.786855
              ],
              [
                106.683323,
                10.786845
              ],
              [
                106.683313,
                10.786834
              ],
              [
                106.683303,
                10.786821
              ],
              [
                106.683293,
                10.786812
              ],
              [
                106.683281,
                10.786803
              ],
              [
                106.683267,
                10.78679
              ],
              [
                106.683252,
                10.786777
              ],
              [
                106.683236,
                10.786766
              ],
              [
                106.683211,
                10.786754
              ],
              [
                106.683156,
                10.786734
              ],
              [
                106.683075,
                10.786709
              ],
              [
                106.683013,
                10.786689
              ],
              [
                106.682968,
                10.786676
              ],
              [
                106.682914,
                10.786661
              ],
              [
                106.682832,
                10.786639
              ],
              [
                106.682731,
                10.786612
              ],
              [
                106.682652,
                10.786591
              ],
              [
                106.682598,
                10.786578
              ],
              [
                106.682549,
                10.786565
              ],
              [
                106.682484,
                10.786546
              ],
              [
                106.682388,
                10.786515
              ],
              [
                106.682276,
                10.786476
              ],
              [
                106.682269,
                10.786474
              ],
              [
                106.682147,
                10.78643
              ],
              [
                106.682041,
                10.786388
              ],
              [
                106.681967,
                10.786354
              ],
              [
                106.68192,
                10.78633
              ],
              [
                106.681877,
                10.786307
              ],
              [
                106.681822,
                10.786274
              ],
              [
                106.681756,
                10.786234
              ],
              [
                106.681685,
                10.78619
              ],
              [
                106.681614,
                10.786145
              ],
              [
                106.681548,
                10.786101
              ],
              [
                106.681489,
                10.786058
              ],
              [
                106.681438,
                10.786016
              ],
              [
                106.681398,
                10.785982
              ],
              [
                106.68137,
                10.785957
              ],
              [
                106.68134,
                10.785932
              ],
              [
                106.681327,
                10.785922
              ],
              [
                106.681506,
                10.785818
              ],
              [
                106.681637,
                10.785742
              ],
              [
                106.682142,
                10.785449
              ],
              [
                106.682712,
                10.785129
              ],
              [
                106.682753,
                10.785107
              ],
              [
                106.682953,
                10.785
              ],
              [
                106.683129,
                10.784904
              ],
              [
                106.683589,
                10.784716
              ],
              [
                106.683852,
                10.784614
              ],
              [
                106.684474,
                10.78437
              ],
              [
                106.684171,
                10.783658
              ],
              [
                106.683771,
                10.782827
              ],
              [
                106.683606,
                10.78249
              ],
              [
                106.683583,
                10.782441
              ],
              [
                106.683401,
                10.782051
              ],
              [
                106.683175,
                10.781583
              ],
              [
                106.683031,
                10.781286
              ],
              [
                106.682903,
                10.781008
              ],
              [
                106.682869,
                10.780934
              ],
              [
                106.682704,
                10.780577
              ],
              [
                106.68235,
                10.779784
              ],
              [
                106.682089,
                10.779286
              ],
              [
                106.681939,
                10.778938
              ],
              [
                106.681659,
                10.778343
              ],
              [
                106.681622,
                10.778197
              ],
              [
                106.681651,
                10.77784
              ],
              [
                106.681376,
                10.777929
              ],
              [
                106.68136,
                10.777938
              ],
              [
                106.681298,
                10.77797
              ],
              [
                106.681253,
                10.777994
              ],
              [
                106.680589,
                10.778345
              ],
              [
                106.679908,
                10.778722
              ],
              [
                106.679847,
                10.778754
              ],
              [
                106.679665,
                10.778851
              ],
              [
                106.679059,
                10.779174
              ],
              [
                106.678587,
                10.779425
              ],
              [
                106.678477,
                10.779483
              ],
              [
                106.678106,
                10.779682
              ],
              [
                106.677582,
                10.779964
              ],
              [
                106.677205,
                10.780166
              ],
              [
                106.677204,
                10.780166
              ],
              [
                106.677122,
                10.780211
              ],
              [
                106.677067,
                10.78024
              ],
              [
                106.676388,
                10.780607
              ],
              [
                106.676083,
                10.780781
              ],
              [
                106.675982,
                10.780836
              ],
              [
                106.675264,
                10.781229
              ],
              [
                106.675192,
                10.781268
              ],
              [
                106.675132,
                10.781301
              ],
              [
                106.674535,
                10.78163
              ],
              [
                106.674252,
                10.781781
              ],
              [
                106.673958,
                10.781937
              ],
              [
                106.673906,
                10.781964
              ],
              [
                106.673607,
                10.782124
              ],
              [
                106.673279,
                10.7823
              ],
              [
                106.673278,
                10.7823
              ],
              [
                106.672829,
                10.782541
              ],
              [
                106.672791,
                10.782561
              ],
              [
                106.672482,
                10.782729
              ],
              [
                106.672201,
                10.782881
              ],
              [
                106.672117,
                10.782918
              ],
              [
                106.671935,
                10.783014
              ],
              [
                106.671459,
                10.783264
              ],
              [
                106.671346,
                10.783324
              ],
              [
                106.671064,
                10.783473
              ],
              [
                106.67066,
                10.783689
              ],
              [
                106.670636,
                10.783703
              ],
              [
                106.670303,
                10.783898
              ],
              [
                106.67029,
                10.783905
              ],
              [
                106.669981,
                10.784061
              ],
              [
                106.669774,
                10.784166
              ],
              [
                106.669612,
                10.784252
              ],
              [
                106.669208,
                10.784466
              ],
              [
                106.669093,
                10.784528
              ],
              [
                106.669045,
                10.784554
              ],
              [
                106.668299,
                10.784956
              ],
              [
                106.66783,
                10.785211
              ],
              [
                106.667432,
                10.785428
              ],
              [
                106.667213,
                10.785545
              ],
              [
                106.667059,
                10.785627
              ],
              [
                106.666606,
                10.785869
              ],
              [
                106.666556,
                10.785895
              ],
              [
                106.666516,
                10.785916
              ],
              [
                106.665861,
                10.786252
              ],
              [
                106.665603,
                10.786385
              ],
              [
                106.66484,
                10.786795
              ],
              [
                106.664823,
                10.786804
              ],
              [
                106.664621,
                10.786913
              ],
              [
                106.664617,
                10.786915
              ],
              [
                106.66445,
                10.787005
              ],
              [
                106.664442,
                10.787009
              ],
              [
                106.664296,
                10.787088
              ],
              [
                106.664279,
                10.787097
              ],
              [
                106.66428,
                10.7871
              ],
              [
                106.664322,
                10.787155
              ],
              [
                106.664353,
                10.787219
              ],
              [
                106.664372,
                10.787259
              ],
              [
                106.664397,
                10.78731
              ],
              [
                106.664404,
                10.787322
              ],
              [
                106.664416,
                10.78734
              ],
              [
                106.664436,
                10.78737
              ],
              [
                106.664508,
                10.787488
              ],
              [
                106.66464,
                10.787713
              ],
              [
                106.664655,
                10.787739
              ],
              [
                106.664708,
                10.787829
              ],
              [
                106.664764,
                10.787924
              ],
              [
                106.664883,
                10.788125
              ],
              [
                106.664896,
                10.788147
              ],
              [
                106.664981,
                10.78829
              ],
              [
                106.664982,
                10.788293
              ],
              [
                106.66505,
                10.788407
              ],
              [
                106.665089,
                10.788475
              ],
              [
                106.665137,
                10.788561
              ],
              [
                106.665186,
                10.788656
              ],
              [
                106.665184,
                10.788672
              ],
              [
                106.665169,
                10.788786
              ],
              [
                106.665145,
                10.788881
              ],
              [
                106.665134,
                10.788918
              ],
              [
                106.665122,
                10.788955
              ],
              [
                106.665116,
                10.788983
              ],
              [
                106.665086,
                10.789112
              ],
              [
                106.665035,
                10.789319
              ],
              [
                106.665001,
                10.789462
              ],
              [
                106.664992,
                10.789499
              ],
              [
                106.664976,
                10.789565
              ],
              [
                106.664962,
                10.78962
              ],
              [
                106.664944,
                10.789695
              ],
              [
                106.664924,
                10.789748
              ],
              [
                106.664882,
                10.789831
              ],
              [
                106.66486,
                10.789884
              ],
              [
                106.664832,
                10.789946
              ],
              [
                106.664802,
                10.790009
              ],
              [
                106.664773,
                10.790089
              ],
              [
                106.66482,
                10.790104
              ],
              [
                106.664844,
                10.790111
              ],
              [
                106.664883,
                10.790123
              ],
              [
                106.665054,
                10.790146
              ],
              [
                106.665146,
                10.790083
              ],
              [
                106.665384,
                10.789926
              ],
              [
                106.665406,
                10.789912
              ],
              [
                106.665528,
                10.789832
              ],
              [
                106.665592,
                10.789783
              ],
              [
                106.66612,
                10.789375
              ],
              [
                106.666225,
                10.789364
              ],
              [
                106.666254,
                10.789436
              ],
              [
                106.666305,
                10.789452
              ],
              [
                106.666364,
                10.789437
              ],
              [
                106.666425,
                10.789465
              ],
              [
                106.666431,
                10.789468
              ],
              [
                106.666496,
                10.789494
              ],
              [
                106.666576,
                10.789527
              ],
              [
                106.666618,
                10.789544
              ],
              [
                106.666735,
                10.789577
              ],
              [
                106.666764,
                10.789527
              ],
              [
                106.666792,
                10.789496
              ],
              [
                106.666862,
                10.789445
              ],
              [
                106.66725,
                10.789239
              ],
              [
                106.667429,
                10.789154
              ],
              [
                106.667587,
                10.789072
              ],
              [
                106.667728,
                10.789006
              ],
              [
                106.667872,
                10.788942
              ],
              [
                106.667985,
                10.788893
              ],
              [
                106.668036,
                10.788871
              ],
              [
                106.668053,
                10.788863
              ],
              [
                106.668062,
                10.788859
              ],
              [
                106.668065,
                10.788858
              ],
              [
                106.668082,
                10.788851
              ],
              [
                106.668087,
                10.788849
              ],
              [
                106.668217,
                10.788792
              ],
              [
                106.668371,
                10.78873
              ],
              [
                106.668577,
                10.788652
              ],
              [
                106.668799,
                10.788571
              ],
              [
                106.669017,
                10.788491
              ],
              [
                106.669206,
                10.788422
              ],
              [
                106.669327,
                10.788378
              ],
              [
                106.669433,
                10.788343
              ],
              [
                106.669588,
                10.788292
              ],
              [
                106.669777,
                10.788229
              ],
              [
                106.669965,
                10.788167
              ],
              [
                106.670114,
                10.788118
              ],
              [
                106.670186,
                10.788095
              ],
              [
                106.670191,
                10.788093
              ],
              [
                106.67032,
                10.788054
              ],
              [
                106.670416,
                10.788025
              ],
              [
                106.670519,
                10.787993
              ],
              [
                106.670637,
                10.787959
              ],
              [
                106.670652,
                10.78801
              ],
              [
                106.670671,
                10.788101
              ],
              [
                106.670692,
                10.788196
              ],
              [
                106.670692,
                10.788197
              ],
              [
                106.670701,
                10.788241
              ],
              [
                106.67071,
                10.788282
              ],
              [
                106.670762,
                10.788526
              ],
              [
                106.67085,
                10.788812
              ],
              [
                106.670997,
                10.789294
              ],
              [
                106.671026,
                10.78929
              ],
              [
                106.671253,
                10.789257
              ],
              [
                106.671258,
                10.789295
              ],
              [
                106.671327,
                10.7893
              ],
              [
                106.671783,
                10.789344
              ],
              [
                106.671999,
                10.789423
              ],
              [
                106.671993,
                10.789475
              ],
              [
                106.671989,
                10.789515
              ],
              [
                106.672143,
                10.789548
              ],
              [
                106.672171,
                10.789554
              ],
              [
                106.672162,
                10.789685
              ],
              [
                106.672157,
                10.789747
              ],
              [
                106.672159,
                10.789776
              ],
              [
                106.672538,
                10.789741
              ],
              [
                106.672689,
                10.789773
              ],
              [
                106.672823,
                10.789821
              ],
              [
                106.673095,
                10.789858
              ],
              [
                106.673228,
                10.789871
              ],
              [
                106.67331,
                10.789901
              ],
              [
                106.673328,
                10.789908
              ],
              [
                106.673498,
                10.789977
              ],
              [
                106.67362,
                10.79001
              ],
              [
                106.673697,
                10.789981
              ],
              [
                106.673732,
                10.789973
              ],
              [
                106.6738,
                10.789958
              ],
              [
                106.673901,
                10.790075
              ],
              [
                106.67391,
                10.790106
              ],
              [
                106.67393,
                10.790176
              ],
              [
                106.674077,
                10.790284
              ],
              [
                106.674359,
                10.790328
              ],
              [
                106.674368,
                10.790116
              ],
              [
                106.674533,
                10.790135
              ],
              [
                106.674657,
                10.79015
              ],
              [
                106.675079,
                10.790202
              ],
              [
                106.675241,
                10.790221
              ],
              [
                106.675244,
                10.790222
              ],
              [
                106.675487,
                10.790255
              ],
              [
                106.675633,
                10.790303
              ],
              [
                106.67611,
                10.790459
              ],
              [
                106.676169,
                10.790478
              ],
              [
                106.676277,
                10.790514
              ],
              [
                106.67663,
                10.790564
              ],
              [
                106.67666,
                10.79057
              ],
              [
                106.677021,
                10.790649
              ],
              [
                106.677169,
                10.790675
              ],
              [
                106.677468,
                10.790729
              ],
              [
                106.677693,
                10.790839
              ],
              [
                106.677854,
                10.790884
              ],
              [
                106.677874,
                10.790749
              ],
              [
                106.677875,
                10.790745
              ],
              [
                106.678082,
                10.790769
              ],
              [
                106.678108,
                10.790772
              ],
              [
                106.678408,
                10.790801
              ],
              [
                106.678523,
                10.790818
              ],
              [
                106.678566,
                10.790827
              ],
              [
                106.6789,
                10.79087
              ],
              [
                106.678997,
                10.790911
              ],
              [
                106.679109,
                10.79096
              ],
              [
                106.679275,
                10.791031
              ],
              [
                106.679304,
                10.790993
              ],
              [
                106.679331,
                10.790956
              ],
              [
                106.67961,
                10.791038
              ],
              [
                106.67981,
                10.79111
              ],
              [
                106.679925,
                10.791152
              ],
              [
                106.68004,
                10.791199
              ],
              [
                106.68015,
                10.791244
              ],
              [
                106.680156,
                10.791246
              ],
              [
                106.680294,
                10.791241
              ],
              [
                106.680296,
                10.791241
              ],
              [
                106.680351,
                10.791235
              ],
              [
                106.680392,
                10.791237
              ],
              [
                106.680518,
                10.791243
              ],
              [
                106.680544,
                10.791245
              ],
              [
                106.680717,
                10.791277
              ],
              [
                106.680848,
                10.791321
              ],
              [
                106.680901,
                10.791347
              ],
              [
                106.681049,
                10.791371
              ],
              [
                106.681058,
                10.791366
              ],
              [
                106.681209,
                10.791279
              ],
              [
                106.681288,
                10.791256
              ],
              [
                106.681288,
                10.791256
              ]
            ]
          ]
        ]
      },
      "properties": {
        "code": "27142",
        "name": "Nhiêu Lộc",
        "nameEn": "Nhieu Loc",
        "fullName": "Phường Nhiêu Lộc",
        "fullNameEn": "Nhieu Loc Ward",
        "codeName": "nhieu_loc",
        "postalCode": "72422",
        "postalCodePrefix": "",
        "gisServerId": "diaphanhanhchinhcapxa_2025.82",
        "areaKm2": 1.71
      }
    }
  ]
}