{
  "type": "FeatureCollection",
  "bbox": [
    106.686586,
    10.751838,
    106.70605,
    10.761706
  ],
  "features": [
    {
      "type": "Feature",
      "id": "27286",
      "bbox": [
        106.686586,
        10.751838,
        106.70605,
        10.761706
      ],
      "geometry": {
        "type": "MultiPolygon",
        "coordinates": [
          [
            [
              [
                106.70106,
                10.756217
              ],
              [
                106.701194,
                10.756053
              ],
              [
                106.70605,
                10.756161
              ],
              [
                106.706008,
                10.756006
              ],
              [
                106.705716,
                10.754922
              ],
              [
                106.705475,
                10.75402
              ],
              [
                106.705339,
                10.753524
              ],
              [
                106.705307,
                10.753358
              ],
              [
                106.705301,
                10.75325
              ],
              [
                106.705284,
                10.753249
              ],
              [
                106.705225,
                10.753247
              ],
              [
                106.705054,
                10.753236
              ],
              [
                106.705098,
                10.752392
              ],
              [
                106.70499,
                10.752389
              ],
              [
                106.7044,
                10.752377
              ],
              [
                106.704087,
                10.75237
              ],
              [
                106.704051,
                10.752367
              ],
              [
                106.703926,
                10.752356
              ],
              [
                106.703815,
                10.752346
              ],
              [
                106.703701,
                10.752339
              ],
              [
                106.703604,
                10.752336
              ],
              [
                106.703522,
                10.752334
              ],
              [
                106.703433,
                10.752332
              ],
              [
                106.703335,
                10.752328
              ],
              [
                106.703258,
                10.752325
              ],
              [
                106.703199,
                10.752323
              ],
              [
                106.703114,
                10.752322
              ],
              [
                106.702987,
                10.752328
              ],
              [
                106.702863,
                10.752342
              ],
              [
                106.702856,
                10.752343
              ],
              [
                106.702453,
                10.752334
              ],
              [
                106.702207,
                10.752331
              ],
              [
                106.700971,
                10.752312
              ],
              [
                106.69909,
                10.752311
              ],
              [
                106.69753,
                10.752319
              ],
              [
                106.696706,
                10.752331
              ],
              [
                106.695462,
                10.752349
              ],
              [
                106.69544,
                10.752348
              ],
              [
                106.695299,
                10.752345
              ],
              [
                106.69526,
                10.752352
              ],
              [
                106.695228,
                10.752354
              ],
              [
                106.695194,
                10.752355
              ],
              [
                106.695137,
                10.752357
              ],
              [
                106.695024,
                10.752353
              ],
              [
                106.694871,
                10.752345
              ],
              [
                106.694761,
                10.752337
              ],
              [
                106.694708,
                10.752332
              ],
              [
                106.694704,
                10.752331
              ],
              [
                106.694658,
                10.752323
              ],
              [
                106.694599,
                10.752312
              ],
              [
                106.694527,
                10.752301
              ],
              [
                106.694421,
                10.752291
              ],
              [
                106.694283,
                10.752282
              ],
              [
                106.694189,
                10.752276
              ],
              [
                106.694146,
                10.752274
              ],
              [
                106.694118,
                10.752273
              ],
              [
                106.694092,
                10.752271
              ],
              [
                106.694058,
                10.752269
              ],
              [
                106.69401,
                10.752267
              ],
              [
                106.693952,
                10.752269
              ],
              [
                106.693895,
                10.752274
              ],
              [
                106.693848,
                10.752279
              ],
              [
                106.693803,
                10.752284
              ],
              [
                106.693756,
                10.752289
              ],
              [
                106.693717,
                10.752291
              ],
              [
                106.693678,
                10.752292
              ],
              [
                106.693632,
                10.752294
              ],
              [
                106.693583,
                10.752295
              ],
              [
                106.693533,
                10.752295
              ],
              [
                106.69348,
                10.752292
              ],
              [
                106.693408,
                10.752289
              ],
              [
                106.693317,
                10.752287
              ],
              [
                106.693241,
                10.752285
              ],
              [
                106.693184,
                10.752286
              ],
              [
                106.693133,
                10.752293
              ],
              [
                106.693089,
                10.752302
              ],
              [
                106.693071,
                10.752308
              ],
              [
                106.693054,
                10.752314
              ],
              [
                106.693017,
                10.752328
              ],
              [
                106.692959,
                10.752341
              ],
              [
                106.692889,
                10.752348
              ],
              [
                106.692845,
                10.752351
              ],
              [
                106.692825,
                10.752351
              ],
              [
                106.692805,
                10.752352
              ],
              [
                106.692776,
                10.752355
              ],
              [
                106.692746,
                10.752358
              ],
              [
                106.692712,
                10.752362
              ],
              [
                106.692665,
                10.752363
              ],
              [
                106.692562,
                10.75236
              ],
              [
                106.692408,
                10.752353
              ],
              [
                106.692296,
                10.752342
              ],
              [
                106.692236,
                10.752331
              ],
              [
                106.692185,
                10.752318
              ],
              [
                106.692161,
                10.752313
              ],
              [
                106.692127,
                10.752306
              ],
              [
                106.692049,
                10.752294
              ],
              [
                106.691916,
                10.752284
              ],
              [
                106.691745,
                10.752276
              ],
              [
                106.691615,
                10.752274
              ],
              [
                106.69153,
                10.752282
              ],
              [
                106.691468,
                10.752292
              ],
              [
                106.691466,
                10.752292
              ],
              [
                106.691424,
                10.752298
              ],
              [
                106.691394,
                10.7523
              ],
              [
                106.691362,
                10.752304
              ],
              [
                106.691326,
                10.752307
              ],
              [
                106.691298,
                10.752308
              ],
              [
                106.691226,
                10.752309
              ],
              [
                106.691197,
                10.752299
              ],
              [
                106.691183,
                10.752294
              ],
              [
                106.691157,
                10.752288
              ],
              [
                106.691126,
                10.752282
              ],
              [
                106.691099,
                10.752277
              ],
              [
                106.691077,
                10.752272
              ],
              [
                106.691049,
                10.752266
              ],
              [
                106.691008,
                10.752259
              ],
              [
                106.690957,
                10.75225
              ],
              [
                106.690897,
                10.752235
              ],
              [
                106.690826,
                10.752209
              ],
              [
                106.690769,
                10.752181
              ],
              [
                106.690747,
                10.752171
              ],
              [
                106.690668,
                10.752132
              ],
              [
                106.69059,
                10.752095
              ],
              [
                106.690503,
                10.752065
              ],
              [
                106.690394,
                10.752039
              ],
              [
                106.69028,
                10.752017
              ],
              [
                106.690219,
                10.752011
              ],
              [
                106.690166,
                10.752007
              ],
              [
                106.690133,
                10.752007
              ],
              [
                106.690034,
                10.75201
              ],
              [
                106.689911,
                10.752017
              ],
              [
                106.689829,
                10.752023
              ],
              [
                106.689751,
                10.752022
              ],
              [
                106.689751,
                10.752022
              ],
              [
                106.689744,
                10.752021
              ],
              [
                106.689534,
                10.752004
              ],
              [
                106.688765,
                10.751944
              ],
              [
                106.687859,
                10.751874
              ],
              [
                106.6875,
                10.751865
              ],
              [
                106.68743,
                10.751843
              ],
              [
                106.68723,
                10.751838
              ],
              [
                106.687134,
                10.75185
              ],
              [
                106.686868,
                10.751885
              ],
              [
                106.686631,
                10.751925
              ],
              [
                106.686586,
                10.752201
              ],
              [
                106.686589,
                10.752245
              ],
              [
                106.686612,
                10.752334
              ],
              [
                106.686626,
                10.75245
              ],
              [
                106.686707,
                10.752722
              ],
              [
                106.686841,
                10.752984
              ],
              [
                106.687036,
                10.753334
              ],
              [
                106.687059,
                10.753361
              ],
              [
                106.687082,
                10.753388
              ],
              [
                106.68715,
                10.753465
              ],
              [
                106.687266,
                10.753595
              ],
              [
                106.687274,
                10.753604
              ],
              [
                106.687324,
                10.753651
              ],
              [
                106.687394,
                10.753719
              ],
              [
                106.687433,
                10.753757
              ],
              [
                106.687457,
                10.753782
              ],
              [
                106.687491,
                10.753817
              ],
              [
                106.687543,
                10.753871
              ],
              [
                106.687599,
                10.753927
              ],
              [
                106.687631,
                10.753959
              ],
              [
                106.687661,
                10.75399
              ],
              [
                106.68773,
                10.75406
              ],
              [
                106.687828,
                10.754159
              ],
              [
                106.687832,
                10.754162
              ],
              [
                106.68793,
                10.754261
              ],
              [
                106.688034,
                10.754365
              ],
              [
                106.688153,
                10.754482
              ],
              [
                106.688259,
                10.754586
              ],
              [
                106.688347,
                10.754668
              ],
              [
                106.688427,
                10.754736
              ],
              [
                106.688507,
                10.754805
              ],
              [
                106.688593,
                10.754886
              ],
              [
                106.688666,
                10.754959
              ],
              [
                106.688706,
                10.755002
              ],
              [
                106.688741,
                10.75504
              ],
              [
                106.688787,
                10.755089
              ],
              [
                106.688823,
                10.755126
              ],
              [
                106.688866,
                10.755169
              ],
              [
                106.688946,
                10.755247
              ],
              [
                106.689043,
                10.755342
              ],
              [
                106.689138,
                10.755435
              ],
              [
                106.68923,
                10.755523
              ],
              [
                106.689306,
                10.755595
              ],
              [
                106.689361,
                10.755648
              ],
              [
                106.689407,
                10.755691
              ],
              [
                106.689453,
                10.755734
              ],
              [
                106.689506,
                10.755783
              ],
              [
                106.689577,
                10.755844
              ],
              [
                106.689661,
                10.755917
              ],
              [
                106.68975,
                10.755993
              ],
              [
                106.689849,
                10.756077
              ],
              [
                106.689953,
                10.756166
              ],
              [
                106.690057,
                10.756253
              ],
              [
                106.690161,
                10.75634
              ],
              [
                106.690263,
                10.756424
              ],
              [
                106.690361,
                10.756506
              ],
              [
                106.690459,
                10.756586
              ],
              [
                106.690557,
                10.756666
              ],
              [
                106.690656,
                10.756746
              ],
              [
                106.690743,
                10.756818
              ],
              [
                106.690807,
                10.75687
              ],
              [
                106.690871,
                10.756923
              ],
              [
                106.690964,
                10.757001
              ],
              [
                106.691074,
                10.757093
              ],
              [
                106.691185,
                10.757187
              ],
              [
                106.691295,
                10.75728
              ],
              [
                106.691403,
                10.757369
              ],
              [
                106.691507,
                10.757453
              ],
              [
                106.691606,
                10.757533
              ],
              [
                106.691705,
                10.757611
              ],
              [
                106.691806,
                10.757691
              ],
              [
                106.691916,
                10.757773
              ],
              [
                106.692031,
                10.757858
              ],
              [
                106.692147,
                10.757943
              ],
              [
                106.692261,
                10.758025
              ],
              [
                106.69237,
                10.758102
              ],
              [
                106.692477,
                10.758175
              ],
              [
                106.692583,
                10.758247
              ],
              [
                106.692641,
                10.758285
              ],
              [
                106.692692,
                10.758319
              ],
              [
                106.692807,
                10.758393
              ],
              [
                106.692928,
                10.758468
              ],
              [
                106.693047,
                10.758542
              ],
              [
                106.693154,
                10.758607
              ],
              [
                106.693234,
                10.758655
              ],
              [
                106.693305,
                10.758696
              ],
              [
                106.693402,
                10.758753
              ],
              [
                106.693522,
                10.758822
              ],
              [
                106.693632,
                10.758886
              ],
              [
                106.693744,
                10.75895
              ],
              [
                106.69387,
                10.759023
              ],
              [
                106.69399,
                10.759092
              ],
              [
                106.69411,
                10.759161
              ],
              [
                106.69424,
                10.759236
              ],
              [
                106.694372,
                10.759312
              ],
              [
                106.694503,
                10.759387
              ],
              [
                106.694562,
                10.759422
              ],
              [
                106.694618,
                10.759455
              ],
              [
                106.694718,
                10.759513
              ],
              [
                106.694812,
                10.759569
              ],
              [
                106.6949,
                10.759621
              ],
              [
                106.694987,
                10.759674
              ],
              [
                106.695078,
                10.75973
              ],
              [
                106.695169,
                10.759785
              ],
              [
                106.695257,
                10.75984
              ],
              [
                106.69533,
                10.759888
              ],
              [
                106.695387,
                10.759927
              ],
              [
                106.695398,
                10.759935
              ],
              [
                106.695441,
                10.759965
              ],
              [
                106.695498,
                10.760004
              ],
              [
                106.695545,
                10.760038
              ],
              [
                106.695583,
                10.760066
              ],
              [
                106.695619,
                10.760094
              ],
              [
                106.695657,
                10.760125
              ],
              [
                106.695699,
                10.760163
              ],
              [
                106.695744,
                10.760206
              ],
              [
                106.69579,
                10.76025
              ],
              [
                106.695807,
                10.760266
              ],
              [
                106.696941,
                10.761706
              ],
              [
                106.698499,
                10.759634
              ],
              [
                106.698698,
                10.759361
              ],
              [
                106.69894,
                10.759039
              ],
              [
                106.699039,
                10.758906
              ],
              [
                106.699042,
                10.758902
              ],
              [
                106.699133,
                10.758782
              ],
              [
                106.699176,
                10.758724
              ],
              [
                106.699413,
                10.758406
              ],
              [
                106.699641,
                10.758105
              ],
              [
                106.69987,
                10.7578
              ],
              [
                106.700097,
                10.757502
              ],
              [
                106.700324,
                10.757204
              ],
              [
                106.700354,
                10.757165
              ],
              [
                106.700549,
                10.756906
              ],
              [
                106.70106,
                10.756217
              ],
              [
                106.70106,
                10.756217
              ]
            ]
          ]
        ]
      },
      "properties": {
        "code": "27286",
        "name": "Vĩnh Hội",
        "nameEn": "Vinh Hoi",
        "fullName": "Phường Vĩnh Hội",
        "fullNameEn": "Vinh Hoi Ward",
        "codeName": "vinh_hoi",
        "postalCode": "72821",
        "postalCodePrefix": "",
        "gisServerId": "diaphanhanhchinhcapxa_2025.94",
        "areaKm2": 1.17
      }
    }
  ]
}