{
  "type": "FeatureCollection",
  "bbox": [
    106.673261,
    10.665046,
    106.776463,
    10.725467
  ],
  "features": [
    {
      "type": "Feature",
      "id": "27655",
      "bbox": [
        106.673261,
        10.665046,
        106.776463,
        10.725467
      ],
      "geometry": {
        "type": "MultiPolygon",
        "coordinates": [
          [
            [
              [
                106.697821,
                10.724359
              ],
              [
                106.698355,
                10.724245
              ],
              [
                106.69927,
                10.724296
              ],
              [
                106.701045,
                10.724648
              ],
              [
                106.703145,
                10.725221
              ],
              [
                106.704046,
                10.725327
              ],
              [
                106.704834,
                10.725309
              ],
              [
                106.705664,
                10.725124
              ],
              [
                106.706253,
                10.72487
              ],
              [
                106.70694,
                10.724365
              ],
              [
                106.707289,
                10.723862
              ],
              [
                106.70755,
                10.722622
              ],
              [
                106.707875,
                10.720491
              ],
              [
                106.708126,
                10.720086
              ],
              [
                106.708477,
                10.719834
              ],
              [
                106.708927,
                10.719817
              ],
              [
                106.710323,
                10.720227
              ],
              [
                106.711211,
                10.720515
              ],
              [
                106.711943,
                10.72058
              ],
              [
                106.712759,
                10.720492
              ],
              [
                106.714936,
                10.71977
              ],
              [
                106.716649,
                10.719162
              ],
              [
                106.717451,
                10.719102
              ],
              [
                106.718155,
                10.719112
              ],
              [
                106.718479,
                10.719236
              ],
              [
                106.718804,
                10.719443
              ],
              [
                106.719173,
                10.7199
              ],
              [
                106.719786,
                10.721386
              ],
              [
                106.720353,
                10.722037
              ],
              [
                106.720875,
                10.722243
              ],
              [
                106.721437,
                10.72224
              ],
              [
                106.72238,
                10.722137
              ],
              [
                106.723756,
                10.721698
              ],
              [
                106.724387,
                10.721263
              ],
              [
                106.724737,
                10.720816
              ],
              [
                106.724959,
                10.720286
              ],
              [
                106.72504,
                10.719742
              ],
              [
                106.72491,
                10.719089
              ],
              [
                106.724609,
                10.718256
              ],
              [
                106.723858,
                10.717188
              ],
              [
                106.72346,
                10.716578
              ],
              [
                106.723217,
                10.715953
              ],
              [
                106.723172,
                10.715369
              ],
              [
                106.723169,
                10.714826
              ],
              [
                106.723279,
                10.714394
              ],
              [
                106.723739,
                10.713682
              ],
              [
                106.724661,
                10.712521
              ],
              [
                106.724986,
                10.712065
              ],
              [
                106.725178,
                10.711795
              ],
              [
                106.725456,
                10.711125
              ],
              [
                106.725648,
                10.71022
              ],
              [
                106.725627,
                10.709092
              ],
              [
                106.725539,
                10.708508
              ],
              [
                106.724965,
                10.706466
              ],
              [
                106.724834,
                10.705785
              ],
              [
                106.724845,
                10.705158
              ],
              [
                106.724982,
                10.704601
              ],
              [
                106.725855,
                10.702133
              ],
              [
                106.726019,
                10.701311
              ],
              [
                106.726154,
                10.700196
              ],
              [
                106.72634,
                10.699727
              ],
              [
                106.726348,
                10.699708
              ],
              [
                106.72674,
                10.699303
              ],
              [
                106.728283,
                10.698487
              ],
              [
                106.729842,
                10.698061
              ],
              [
                106.731065,
                10.697845
              ],
              [
                106.732036,
                10.697826
              ],
              [
                106.73291,
                10.697988
              ],
              [
                106.733602,
                10.698443
              ],
              [
                106.733984,
                10.698873
              ],
              [
                106.734156,
                10.699317
              ],
              [
                106.734561,
                10.701375
              ],
              [
                106.734833,
                10.702069
              ],
              [
                106.735302,
                10.702873
              ],
              [
                106.735867,
                10.70326
              ],
              [
                106.736642,
                10.703534
              ],
              [
                106.737825,
                10.703597
              ],
              [
                106.743142,
                10.703219
              ],
              [
                106.74445,
                10.70317
              ],
              [
                106.74583,
                10.70333
              ],
              [
                106.751781,
                10.704943
              ],
              [
                106.752164,
                10.705046
              ],
              [
                106.752838,
                10.702194
              ],
              [
                106.753342,
                10.700586
              ],
              [
                106.754,
                10.699186
              ],
              [
                106.754992,
                10.697147
              ],
              [
                106.756296,
                10.694838
              ],
              [
                106.756552,
                10.694524
              ],
              [
                106.757141,
                10.693802
              ],
              [
                106.757254,
                10.693664
              ],
              [
                106.757867,
                10.692876
              ],
              [
                106.759839,
                10.690902
              ],
              [
                106.759846,
                10.690895
              ],
              [
                106.760736,
                10.690017
              ],
              [
                106.760984,
                10.689818
              ],
              [
                106.763464,
                10.68783
              ],
              [
                106.765491,
                10.685971
              ],
              [
                106.766788,
                10.684433
              ],
              [
                106.770106,
                10.680497
              ],
              [
                106.770123,
                10.680476
              ],
              [
                106.772763,
                10.677307
              ],
              [
                106.7732,
                10.676782
              ],
              [
                106.774705,
                10.67584
              ],
              [
                106.775042,
                10.675529
              ],
              [
                106.776179,
                10.674691
              ],
              [
                106.776463,
                10.674491
              ],
              [
                106.772396,
                10.668144
              ],
              [
                106.770993,
                10.666473
              ],
              [
                106.770279,
                10.665946
              ],
              [
                106.769421,
                10.665477
              ],
              [
                106.768258,
                10.665096
              ],
              [
                106.766937,
                10.665046
              ],
              [
                106.764574,
                10.66539
              ],
              [
                106.761881,
                10.666381
              ],
              [
                106.754751,
                10.668793
              ],
              [
                106.753442,
                10.669272
              ],
              [
                106.751781,
                10.669927
              ],
              [
                106.750333,
                10.670475
              ],
              [
                106.749087,
                10.670827
              ],
              [
                106.748467,
                10.670935
              ],
              [
                106.745675,
                10.670987
              ],
              [
                106.743611,
                10.670367
              ],
              [
                106.742287,
                10.669657
              ],
              [
                106.74065,
                10.668484
              ],
              [
                106.740164,
                10.668123
              ],
              [
                106.739639,
                10.667562
              ],
              [
                106.738919,
                10.666716
              ],
              [
                106.738552,
                10.666044
              ],
              [
                106.738367,
                10.665359
              ],
              [
                106.738072,
                10.665403
              ],
              [
                106.736432,
                10.665646
              ],
              [
                106.735496,
                10.66581
              ],
              [
                106.734164,
                10.665987
              ],
              [
                106.732732,
                10.666137
              ],
              [
                106.731791,
                10.666216
              ],
              [
                106.730948,
                10.666329
              ],
              [
                106.730743,
                10.666388
              ],
              [
                106.730363,
                10.666521
              ],
              [
                106.729962,
                10.666691
              ],
              [
                106.729689,
                10.666845
              ],
              [
                106.729432,
                10.667056
              ],
              [
                106.729296,
                10.667223
              ],
              [
                106.729092,
                10.667566
              ],
              [
                106.728962,
                10.66781
              ],
              [
                106.728491,
                10.668819
              ],
              [
                106.728355,
                10.669156
              ],
              [
                106.728085,
                10.669826
              ],
              [
                106.728028,
                10.670003
              ],
              [
                106.727606,
                10.67131
              ],
              [
                106.72729,
                10.672315
              ],
              [
                106.727241,
                10.672532
              ],
              [
                106.727219,
                10.672689
              ],
              [
                106.727074,
                10.67359
              ],
              [
                106.727066,
                10.674257
              ],
              [
                106.727471,
                10.676063
              ],
              [
                106.727501,
                10.6762
              ],
              [
                106.727555,
                10.676505
              ],
              [
                106.727588,
                10.676806
              ],
              [
                106.727594,
                10.676927
              ],
              [
                106.72751,
                10.677517
              ],
              [
                106.727374,
                10.678139
              ],
              [
                106.727206,
                10.678771
              ],
              [
                106.727164,
                10.678913
              ],
              [
                106.727079,
                10.679093
              ],
              [
                106.726436,
                10.68026
              ],
              [
                106.726133,
                10.680706
              ],
              [
                106.725398,
                10.680781
              ],
              [
                106.724732,
                10.680882
              ],
              [
                106.724195,
                10.680984
              ],
              [
                106.723809,
                10.681021
              ],
              [
                106.723081,
                10.681076
              ],
              [
                106.722621,
                10.681088
              ],
              [
                106.72231,
                10.681084
              ],
              [
                106.721961,
                10.681069
              ],
              [
                106.721862,
                10.681054
              ],
              [
                106.721354,
                10.680935
              ],
              [
                106.720905,
                10.680798
              ],
              [
                106.720659,
                10.680725
              ],
              [
                106.720531,
                10.680676
              ],
              [
                106.72034,
                10.680578
              ],
              [
                106.720212,
                10.680532
              ],
              [
                106.720045,
                10.680497
              ],
              [
                106.719832,
                10.680485
              ],
              [
                106.719573,
                10.680481
              ],
              [
                106.719349,
                10.680489
              ],
              [
                106.71906,
                10.680564
              ],
              [
                106.71844,
                10.680931
              ],
              [
                106.717902,
                10.681343
              ],
              [
                106.717615,
                10.681539
              ],
              [
                106.717433,
                10.681627
              ],
              [
                106.71715,
                10.68171
              ],
              [
                106.716755,
                10.681758
              ],
              [
                106.716548,
                10.68174
              ],
              [
                106.716356,
                10.681696
              ],
              [
                106.716004,
                10.681566
              ],
              [
                106.715717,
                10.681478
              ],
              [
                106.715337,
                10.681391
              ],
              [
                106.715051,
                10.681365
              ],
              [
                106.714713,
                10.68139
              ],
              [
                106.714314,
                10.6815
              ],
              [
                106.713984,
                10.68162
              ],
              [
                106.713499,
                10.681882
              ],
              [
                106.713289,
                10.682122
              ],
              [
                106.713227,
                10.682232
              ],
              [
                106.713174,
                10.682361
              ],
              [
                106.71316,
                10.682584
              ],
              [
                106.713153,
                10.682717
              ],
              [
                106.713235,
                10.683277
              ],
              [
                106.713204,
                10.683494
              ],
              [
                106.71306,
                10.683846
              ],
              [
                106.712953,
                10.684005
              ],
              [
                106.712764,
                10.684198
              ],
              [
                106.712577,
                10.684331
              ],
              [
                106.712425,
                10.684331
              ],
              [
                106.712269,
                10.684201
              ],
              [
                106.712031,
                10.683997
              ],
              [
                106.711807,
                10.683812
              ],
              [
                106.711631,
                10.683626
              ],
              [
                106.711215,
                10.683107
              ],
              [
                106.711,
                10.682878
              ],
              [
                106.710821,
                10.68271
              ],
              [
                106.710601,
                10.682497
              ],
              [
                106.710382,
                10.682367
              ],
              [
                106.710236,
                10.68229
              ],
              [
                106.710114,
                10.682245
              ],
              [
                106.710004,
                10.682205
              ],
              [
                106.709888,
                10.682177
              ],
              [
                106.709745,
                10.682178
              ],
              [
                106.709584,
                10.682201
              ],
              [
                106.709338,
                10.682285
              ],
              [
                106.709136,
                10.682418
              ],
              [
                106.708981,
                10.68257
              ],
              [
                106.708903,
                10.682689
              ],
              [
                106.708848,
                10.682843
              ],
              [
                106.708767,
                10.683136
              ],
              [
                106.708731,
                10.683364
              ],
              [
                106.70872,
                10.683478
              ],
              [
                106.708711,
                10.683806
              ],
              [
                106.708672,
                10.68418
              ],
              [
                106.708586,
                10.684513
              ],
              [
                106.708323,
                10.684884
              ],
              [
                106.708173,
                10.685082
              ],
              [
                106.707976,
                10.685299
              ],
              [
                106.707605,
                10.685661
              ],
              [
                106.707463,
                10.685784
              ],
              [
                106.707226,
                10.685958
              ],
              [
                106.706898,
                10.686175
              ],
              [
                106.706664,
                10.686315
              ],
              [
                106.706465,
                10.686408
              ],
              [
                106.706239,
                10.68648
              ],
              [
                106.705849,
                10.686542
              ],
              [
                106.705653,
                10.686595
              ],
              [
                106.705431,
                10.686702
              ],
              [
                106.705051,
                10.68697
              ],
              [
                106.70467,
                10.687255
              ],
              [
                106.704208,
                10.687555
              ],
              [
                106.704011,
                10.687724
              ],
              [
                106.703855,
                10.687921
              ],
              [
                106.703676,
                10.688125
              ],
              [
                106.703485,
                10.688299
              ],
              [
                106.70312,
                10.688614
              ],
              [
                106.702995,
                10.688695
              ],
              [
                106.702892,
                10.688747
              ],
              [
                106.702763,
                10.688812
              ],
              [
                106.70241,
                10.688869
              ],
              [
                106.702146,
                10.68888
              ],
              [
                106.70202,
                10.688856
              ],
              [
                106.701904,
                10.688835
              ],
              [
                106.701778,
                10.688831
              ],
              [
                106.70169,
                10.688835
              ],
              [
                106.701558,
                10.688862
              ],
              [
                106.701451,
                10.688909
              ],
              [
                106.701388,
                10.68897
              ],
              [
                106.701192,
                10.689106
              ],
              [
                106.700954,
                10.689298
              ],
              [
                106.7008,
                10.689458
              ],
              [
                106.700697,
                10.689649
              ],
              [
                106.700624,
                10.68977
              ],
              [
                106.700454,
                10.69
              ],
              [
                106.700138,
                10.690326
              ],
              [
                106.699812,
                10.690615
              ],
              [
                106.699698,
                10.690725
              ],
              [
                106.699054,
                10.69132
              ],
              [
                106.69891,
                10.691457
              ],
              [
                106.698717,
                10.691711
              ],
              [
                106.698607,
                10.691881
              ],
              [
                106.69854,
                10.692118
              ],
              [
                106.698169,
                10.692023
              ],
              [
                106.698072,
                10.691998
              ],
              [
                106.69771,
                10.691887
              ],
              [
                106.697444,
                10.691804
              ],
              [
                106.697195,
                10.691709
              ],
              [
                106.696819,
                10.691555
              ],
              [
                106.696612,
                10.691479
              ],
              [
                106.696382,
                10.691403
              ],
              [
                106.696144,
                10.691355
              ],
              [
                106.695783,
                10.69125
              ],
              [
                106.695747,
                10.691242
              ],
              [
                106.695259,
                10.691215
              ],
              [
                106.695223,
                10.691214
              ],
              [
                106.695047,
                10.691248
              ],
              [
                106.694816,
                10.691281
              ],
              [
                106.694591,
                10.691356
              ],
              [
                106.69449,
                10.691399
              ],
              [
                106.694359,
                10.691457
              ],
              [
                106.694245,
                10.691549
              ],
              [
                106.694181,
                10.691599
              ],
              [
                106.694014,
                10.691717
              ],
              [
                106.693915,
                10.691801
              ],
              [
                106.6937,
                10.691986
              ],
              [
                106.693621,
                10.692094
              ],
              [
                106.693594,
                10.692132
              ],
              [
                106.693392,
                10.692349
              ],
              [
                106.693177,
                10.692578
              ],
              [
                106.692981,
                10.692744
              ],
              [
                106.692703,
                10.692978
              ],
              [
                106.692502,
                10.69315
              ],
              [
                106.691823,
                10.693735
              ],
              [
                106.691713,
                10.693815
              ],
              [
                106.691537,
                10.693938
              ],
              [
                106.691385,
                10.694033
              ],
              [
                106.690992,
                10.694224
              ],
              [
                106.690949,
                10.694244
              ],
              [
                106.690595,
                10.694359
              ],
              [
                106.690565,
                10.694241
              ],
              [
                106.690544,
                10.694153
              ],
              [
                106.690531,
                10.694051
              ],
              [
                106.690524,
                10.693914
              ],
              [
                106.690523,
                10.693851
              ],
              [
                106.690541,
                10.69366
              ],
              [
                106.690543,
                10.693601
              ],
              [
                106.690531,
                10.693505
              ],
              [
                106.690512,
                10.693424
              ],
              [
                106.690488,
                10.693364
              ],
              [
                106.690414,
                10.693263
              ],
              [
                106.690342,
                10.693171
              ],
              [
                106.690308,
                10.693145
              ],
              [
                106.690221,
                10.69304
              ],
              [
                106.690162,
                10.692968
              ],
              [
                106.690086,
                10.692848
              ],
              [
                106.690055,
                10.692789
              ],
              [
                106.690022,
                10.692688
              ],
              [
                106.689998,
                10.692589
              ],
              [
                106.689981,
                10.69249
              ],
              [
                106.689949,
                10.692399
              ],
              [
                106.689915,
                10.692318
              ],
              [
                106.689882,
                10.692233
              ],
              [
                106.689846,
                10.69214
              ],
              [
                106.689815,
                10.692063
              ],
              [
                106.689792,
                10.69193
              ],
              [
                106.689775,
                10.691751
              ],
              [
                106.689768,
                10.691639
              ],
              [
                106.689761,
                10.691571
              ],
              [
                106.689746,
                10.691493
              ],
              [
                106.689724,
                10.691372
              ],
              [
                106.689703,
                10.691277
              ],
              [
                106.689678,
                10.691189
              ],
              [
                106.689657,
                10.691116
              ],
              [
                106.689614,
                10.690975
              ],
              [
                106.68958,
                10.690879
              ],
              [
                106.689557,
                10.690813
              ],
              [
                106.689526,
                10.690722
              ],
              [
                106.689485,
                10.690615
              ],
              [
                106.68945,
                10.690534
              ],
              [
                106.689407,
                10.690429
              ],
              [
                106.689368,
                10.690351
              ],
              [
                106.689281,
                10.690193
              ],
              [
                106.689206,
                10.690067
              ],
              [
                106.689143,
                10.689927
              ],
              [
                106.689135,
                10.689906
              ],
              [
                106.689104,
                10.689686
              ],
              [
                106.68908,
                10.689565
              ],
              [
                106.689059,
                10.689498
              ],
              [
                106.68903,
                10.689397
              ],
              [
                106.689028,
                10.689307
              ],
              [
                106.689023,
                10.689203
              ],
              [
                106.689021,
                10.689106
              ],
              [
                106.689018,
                10.689023
              ],
              [
                106.68902,
                10.688928
              ],
              [
                106.68904,
                10.688811
              ],
              [
                106.689059,
                10.688761
              ],
              [
                106.689073,
                10.688726
              ],
              [
                106.689091,
                10.688686
              ],
              [
                106.689112,
                10.688651
              ],
              [
                106.68914,
                10.68861
              ],
              [
                106.689159,
                10.688596
              ],
              [
                106.689162,
                10.688594
              ],
              [
                106.689219,
                10.688565
              ],
              [
                106.689245,
                10.688557
              ],
              [
                106.689281,
                10.68855
              ],
              [
                106.689361,
                10.688532
              ],
              [
                106.689437,
                10.688528
              ],
              [
                106.689485,
                10.688531
              ],
              [
                106.689526,
                10.688542
              ],
              [
                106.689557,
                10.688546
              ],
              [
                106.689593,
                10.688542
              ],
              [
                106.689633,
                10.688524
              ],
              [
                106.689699,
                10.688493
              ],
              [
                106.689848,
                10.688396
              ],
              [
                106.690063,
                10.688235
              ],
              [
                106.690064,
                10.688193
              ],
              [
                106.690064,
                10.688154
              ],
              [
                106.690061,
                10.688118
              ],
              [
                106.69005,
                10.688079
              ],
              [
                106.690036,
                10.688022
              ],
              [
                106.69003,
                10.687975
              ],
              [
                106.690031,
                10.687942
              ],
              [
                106.690045,
                10.687898
              ],
              [
                106.69007,
                10.687819
              ],
              [
                106.690079,
                10.687781
              ],
              [
                106.690077,
                10.687754
              ],
              [
                106.690081,
                10.687672
              ],
              [
                106.69007,
                10.687598
              ],
              [
                106.690049,
                10.687519
              ],
              [
                106.69001,
                10.687417
              ],
              [
                106.689994,
                10.68739
              ],
              [
                106.689958,
                10.687309
              ],
              [
                106.689946,
                10.687258
              ],
              [
                106.689925,
                10.687176
              ],
              [
                106.689876,
                10.687047
              ],
              [
                106.689841,
                10.686963
              ],
              [
                106.689808,
                10.686875
              ],
              [
                106.689789,
                10.686737
              ],
              [
                106.689785,
                10.686632
              ],
              [
                106.689775,
                10.686567
              ],
              [
                106.689751,
                10.68648
              ],
              [
                106.689703,
                10.686186
              ],
              [
                106.689609,
                10.685686
              ],
              [
                106.689592,
                10.685616
              ],
              [
                106.689569,
                10.68554
              ],
              [
                106.689525,
                10.685562
              ],
              [
                106.689353,
                10.685605
              ],
              [
                106.689186,
                10.685627
              ],
              [
                106.689005,
                10.685664
              ],
              [
                106.688904,
                10.685665
              ],
              [
                106.688787,
                10.685644
              ],
              [
                106.688541,
                10.68558
              ],
              [
                106.688402,
                10.685563
              ],
              [
                106.68813,
                10.685568
              ],
              [
                106.687906,
                10.685595
              ],
              [
                106.68775,
                10.685656
              ],
              [
                106.687616,
                10.68575
              ],
              [
                106.68749,
                10.685798
              ],
              [
                106.687276,
                10.685831
              ],
              [
                106.687091,
                10.685825
              ],
              [
                106.686765,
                10.685888
              ],
              [
                106.686471,
                10.685954
              ],
              [
                106.68617,
                10.686052
              ],
              [
                106.686036,
                10.686042
              ],
              [
                106.685782,
                10.68595
              ],
              [
                106.685557,
                10.68587
              ],
              [
                106.685482,
                10.685843
              ],
              [
                106.68524,
                10.685671
              ],
              [
                106.684972,
                10.685421
              ],
              [
                106.684696,
                10.685283
              ],
              [
                106.684535,
                10.685234
              ],
              [
                106.684364,
                10.685191
              ],
              [
                106.684304,
                10.685191
              ],
              [
                106.684275,
                10.685206
              ],
              [
                106.684275,
                10.685206
              ],
              [
                106.684126,
                10.685421
              ],
              [
                106.683918,
                10.685722
              ],
              [
                106.683845,
                10.685656
              ],
              [
                106.683756,
                10.685575
              ],
              [
                106.683742,
                10.685562
              ],
              [
                106.683554,
                10.685283
              ],
              [
                106.683344,
                10.684909
              ],
              [
                106.683335,
                10.684898
              ],
              [
                106.683281,
                10.684831
              ],
              [
                106.683183,
                10.684712
              ],
              [
                106.683145,
                10.684671
              ],
              [
                106.682585,
                10.68443
              ],
              [
                106.682118,
                10.684199
              ],
              [
                106.681803,
                10.684117
              ],
              [
                106.681627,
                10.684028
              ],
              [
                106.681414,
                10.683766
              ],
              [
                106.681043,
                10.683385
              ],
              [
                106.680727,
                10.68301
              ],
              [
                106.68052,
                10.682868
              ],
              [
                106.679323,
                10.682174
              ],
              [
                106.678289,
                10.683209
              ],
              [
                106.677009,
                10.684383
              ],
              [
                106.676524,
                10.685057
              ],
              [
                106.676236,
                10.685573
              ],
              [
                106.67601,
                10.686136
              ],
              [
                106.675904,
                10.686794
              ],
              [
                106.675801,
                10.687823
              ],
              [
                106.675697,
                10.688625
              ],
              [
                106.675536,
                10.689251
              ],
              [
                106.675394,
                10.689552
              ],
              [
                106.675005,
                10.690137
              ],
              [
                106.67447,
                10.690765
              ],
              [
                106.674045,
                10.691187
              ],
              [
                106.673285,
                10.692174
              ],
              [
                106.673283,
                10.692179
              ],
              [
                106.67328,
                10.692188
              ],
              [
                106.673261,
                10.692546
              ],
              [
                106.673263,
                10.692802
              ],
              [
                106.673283,
                10.692901
              ],
              [
                106.673454,
                10.693733
              ],
              [
                106.673697,
                10.694745
              ],
              [
                106.673821,
                10.695576
              ],
              [
                106.673798,
                10.696677
              ],
              [
                106.673773,
                10.6975
              ],
              [
                106.673777,
                10.698198
              ],
              [
                106.673967,
                10.699269
              ],
              [
                106.674264,
                10.701053
              ],
              [
                106.674402,
                10.702214
              ],
              [
                106.674391,
                10.702357
              ],
              [
                106.674295,
                10.702643
              ],
              [
                106.674085,
                10.702966
              ],
              [
                106.673695,
                10.703412
              ],
              [
                106.67347,
                10.703755
              ],
              [
                106.6734,
                10.704016
              ],
              [
                106.673417,
                10.704337
              ],
              [
                106.673843,
                10.704881
              ],
              [
                106.674237,
                10.705282
              ],
              [
                106.674689,
                10.705795
              ],
              [
                106.675183,
                10.706589
              ],
              [
                106.675641,
                10.707321
              ],
              [
                106.676105,
                10.708125
              ],
              [
                106.676465,
                10.708889
              ],
              [
                106.676685,
                10.70948
              ],
              [
                106.676799,
                10.709699
              ],
              [
                106.677104,
                10.709742
              ],
              [
                106.677549,
                10.709654
              ],
              [
                106.677885,
                10.709593
              ],
              [
                106.678122,
                10.709705
              ],
              [
                106.678166,
                10.709805
              ],
              [
                106.678296,
                10.710098
              ],
              [
                106.678444,
                10.710722
              ],
              [
                106.678441,
                10.711035
              ],
              [
                106.678547,
                10.711319
              ],
              [
                106.679364,
                10.712584
              ],
              [
                106.680049,
                10.713493
              ],
              [
                106.680693,
                10.714319
              ],
              [
                106.680824,
                10.7145
              ],
              [
                106.681002,
                10.714498
              ],
              [
                106.681236,
                10.714463
              ],
              [
                106.681586,
                10.714227
              ],
              [
                106.681801,
                10.714053
              ],
              [
                106.682244,
                10.713831
              ],
              [
                106.683032,
                10.713551
              ],
              [
                106.683898,
                10.713217
              ],
              [
                106.68427,
                10.712941
              ],
              [
                106.684731,
                10.712522
              ],
              [
                106.685089,
                10.712222
              ],
              [
                106.685503,
                10.711788
              ],
              [
                106.685779,
                10.711628
              ],
              [
                106.685985,
                10.711566
              ],
              [
                106.686301,
                10.711534
              ],
              [
                106.686662,
                10.711598
              ],
              [
                106.687071,
                10.711708
              ],
              [
                106.687672,
                10.711887
              ],
              [
                106.688355,
                10.712067
              ],
              [
                106.688551,
                10.712139
              ],
              [
                106.68866,
                10.712218
              ],
              [
                106.688694,
                10.71226
              ],
              [
                106.688739,
                10.712587
              ],
              [
                106.688497,
                10.713956
              ],
              [
                106.688429,
                10.714457
              ],
              [
                106.688385,
                10.71491
              ],
              [
                106.688386,
                10.715301
              ],
              [
                106.688454,
                10.715715
              ],
              [
                106.688534,
                10.716114
              ],
              [
                106.688764,
                10.716755
              ],
              [
                106.689224,
                10.71773
              ],
              [
                106.689281,
                10.717872
              ],
              [
                106.689333,
                10.71804
              ],
              [
                106.689376,
                10.718236
              ],
              [
                106.689406,
                10.718475
              ],
              [
                106.68942,
                10.71874
              ],
              [
                106.689408,
                10.718963
              ],
              [
                106.689366,
                10.719186
              ],
              [
                106.689281,
                10.719499
              ],
              [
                106.689148,
                10.71989
              ],
              [
                106.689036,
                10.720258
              ],
              [
                106.688993,
                10.720432
              ],
              [
                106.688981,
                10.720531
              ],
              [
                106.688923,
                10.720994
              ],
              [
                106.688955,
                10.721465
              ],
              [
                106.689056,
                10.721843
              ],
              [
                106.689136,
                10.722142
              ],
              [
                106.689281,
                10.722526
              ],
              [
                106.689574,
                10.723399
              ],
              [
                106.689925,
                10.724373
              ],
              [
                106.69014,
                10.724965
              ],
              [
                106.690216,
                10.7253
              ],
              [
                106.690193,
                10.725467
              ],
              [
                106.693924,
                10.725227
              ],
              [
                106.69643,
                10.724762
              ],
              [
                106.697821,
                10.724359
              ],
              [
                106.697821,
                10.724359
              ]
            ]
          ]
        ]
      },
      "properties": {
        "code": "27655",
        "name": "Nhà Bè",
        "nameEn": "Nha Be",
        "fullName": "Xã Nhà Bè",
        "fullNameEn": "Nha Be Commune",
        "codeName": "nha_be",
        "postalCode": "73206",
        "postalCodePrefix": "",
        "gisServerId": "diaphanhanhchinhcapxa_2025.132",
        "areaKm2": 37.1
      }
    }
  ]
}