{
  "type": "FeatureCollection",
  "bbox": [
    105.148103,
    10.638432,
    105.254504,
    10.734696
  ],
  "features": [
    {
      "type": "Feature",
      "id": "30430",
      "bbox": [
        105.148103,
        10.638432,
        105.254504,
        10.734696
      ],
      "geometry": {
        "type": "MultiPolygon",
        "coordinates": [
          [
            [
              [
                105.200393,
                10.732173
              ],
              [
                105.200478,
                10.73211
              ],
              [
                105.201391,
                10.732844
              ],
              [
                105.201591,
                10.733005
              ],
              [
                105.204155,
                10.729291
              ],
              [
                105.204673,
                10.728563
              ],
              [
                105.204706,
                10.728582
              ],
              [
                105.204808,
                10.728643
              ],
              [
                105.205005,
                10.728556
              ],
              [
                105.204974,
                10.728248
              ],
              [
                105.204973,
                10.728239
              ],
              [
                105.204983,
                10.728087
              ],
              [
                105.205048,
                10.727926
              ],
              [
                105.205134,
                10.727785
              ],
              [
                105.205146,
                10.727765
              ],
              [
                105.205516,
                10.727571
              ],
              [
                105.205595,
                10.727543
              ],
              [
                105.205736,
                10.727491
              ],
              [
                105.205763,
                10.727481
              ],
              [
                105.205906,
                10.727417
              ],
              [
                105.206036,
                10.727301
              ],
              [
                105.206208,
                10.727138
              ],
              [
                105.206248,
                10.7271
              ],
              [
                105.206284,
                10.727066
              ],
              [
                105.206465,
                10.726895
              ],
              [
                105.20679,
                10.726759
              ],
              [
                105.207126,
                10.726659
              ],
              [
                105.208146,
                10.72719
              ],
              [
                105.208608,
                10.727397
              ],
              [
                105.20947,
                10.727782
              ],
              [
                105.209668,
                10.727871
              ],
              [
                105.209677,
                10.727875
              ],
              [
                105.211193,
                10.728554
              ],
              [
                105.211206,
                10.728558
              ],
              [
                105.212731,
                10.725753
              ],
              [
                105.213032,
                10.725199
              ],
              [
                105.213749,
                10.723881
              ],
              [
                105.213769,
                10.723844
              ],
              [
                105.213731,
                10.723761
              ],
              [
                105.213691,
                10.723653
              ],
              [
                105.214696,
                10.721942
              ],
              [
                105.216132,
                10.719564
              ],
              [
                105.216952,
                10.718328
              ],
              [
                105.216813,
                10.718232
              ],
              [
                105.216913,
                10.718146
              ],
              [
                105.216989,
                10.718082
              ],
              [
                105.215839,
                10.717281
              ],
              [
                105.215887,
                10.717189
              ],
              [
                105.218051,
                10.713049
              ],
              [
                105.22094,
                10.707461
              ],
              [
                105.223061,
                10.70343
              ],
              [
                105.224935,
                10.699885
              ],
              [
                105.226977,
                10.695938
              ],
              [
                105.227717,
                10.694554
              ],
              [
                105.228444,
                10.693194
              ],
              [
                105.229581,
                10.691072
              ],
              [
                105.229579,
                10.69107
              ],
              [
                105.230017,
                10.690295
              ],
              [
                105.231163,
                10.6883
              ],
              [
                105.232157,
                10.686632
              ],
              [
                105.232749,
                10.685627
              ],
              [
                105.233287,
                10.684747
              ],
              [
                105.233716,
                10.683993
              ],
              [
                105.234096,
                10.683143
              ],
              [
                105.235352,
                10.68036
              ],
              [
                105.235926,
                10.679074
              ],
              [
                105.236101,
                10.678595
              ],
              [
                105.236275,
                10.677697
              ],
              [
                105.236676,
                10.675879
              ],
              [
                105.237604,
                10.67621
              ],
              [
                105.238353,
                10.675
              ],
              [
                105.238648,
                10.674914
              ],
              [
                105.239087,
                10.674785
              ],
              [
                105.241392,
                10.67128
              ],
              [
                105.241531,
                10.671076
              ],
              [
                105.241515,
                10.671051
              ],
              [
                105.241414,
                10.670894
              ],
              [
                105.240957,
                10.670129
              ],
              [
                105.24084,
                10.669807
              ],
              [
                105.240752,
                10.669564
              ],
              [
                105.240613,
                10.668939
              ],
              [
                105.240616,
                10.668886
              ],
              [
                105.240623,
                10.668774
              ],
              [
                105.240661,
                10.668609
              ],
              [
                105.240717,
                10.668444
              ],
              [
                105.240774,
                10.668297
              ],
              [
                105.240839,
                10.668201
              ],
              [
                105.240952,
                10.668106
              ],
              [
                105.241083,
                10.668002
              ],
              [
                105.241242,
                10.667924
              ],
              [
                105.241336,
                10.667855
              ],
              [
                105.24143,
                10.667759
              ],
              [
                105.241571,
                10.667421
              ],
              [
                105.241622,
                10.667211
              ],
              [
                105.241697,
                10.666825
              ],
              [
                105.241651,
                10.666408
              ],
              [
                105.241716,
                10.666089
              ],
              [
                105.24172,
                10.66601
              ],
              [
                105.241674,
                10.665806
              ],
              [
                105.241598,
                10.665693
              ],
              [
                105.241531,
                10.665595
              ],
              [
                105.241508,
                10.665491
              ],
              [
                105.241511,
                10.665271
              ],
              [
                105.241559,
                10.664981
              ],
              [
                105.241556,
                10.664914
              ],
              [
                105.241486,
                10.664825
              ],
              [
                105.241445,
                10.664737
              ],
              [
                105.241379,
                10.664572
              ],
              [
                105.241376,
                10.664493
              ],
              [
                105.241396,
                10.664422
              ],
              [
                105.241517,
                10.664005
              ],
              [
                105.241564,
                10.663872
              ],
              [
                105.241582,
                10.663657
              ],
              [
                105.241629,
                10.663553
              ],
              [
                105.241808,
                10.663398
              ],
              [
                105.241976,
                10.663273
              ],
              [
                105.242118,
                10.663225
              ],
              [
                105.242259,
                10.663211
              ],
              [
                105.242366,
                10.6632
              ],
              [
                105.242617,
                10.663227
              ],
              [
                105.242746,
                10.663277
              ],
              [
                105.243116,
                10.663637
              ],
              [
                105.243343,
                10.66375
              ],
              [
                105.24426,
                10.664171
              ],
              [
                105.244704,
                10.664401
              ],
              [
                105.244792,
                10.66441
              ],
              [
                105.245014,
                10.664403
              ],
              [
                105.245069,
                10.664395
              ],
              [
                105.245153,
                10.664286
              ],
              [
                105.245274,
                10.664173
              ],
              [
                105.245381,
                10.664111
              ],
              [
                105.245497,
                10.664044
              ],
              [
                105.2458,
                10.66393
              ],
              [
                105.246092,
                10.663841
              ],
              [
                105.2462,
                10.663757
              ],
              [
                105.246225,
                10.663698
              ],
              [
                105.246237,
                10.663671
              ],
              [
                105.246277,
                10.663579
              ],
              [
                105.246468,
                10.663132
              ],
              [
                105.246514,
                10.66312
              ],
              [
                105.246695,
                10.663192
              ],
              [
                105.246735,
                10.663189
              ],
              [
                105.246762,
                10.663171
              ],
              [
                105.246846,
                10.662895
              ],
              [
                105.246958,
                10.662578
              ],
              [
                105.247067,
                10.662318
              ],
              [
                105.247064,
                10.662267
              ],
              [
                105.247021,
                10.662249
              ],
              [
                105.246885,
                10.662252
              ],
              [
                105.246834,
                10.662252
              ],
              [
                105.246779,
                10.662202
              ],
              [
                105.24677,
                10.66216
              ],
              [
                105.246833,
                10.661846
              ],
              [
                105.246995,
                10.661474
              ],
              [
                105.247154,
                10.661206
              ],
              [
                105.24728,
                10.661067
              ],
              [
                105.247356,
                10.661013
              ],
              [
                105.247434,
                10.660957
              ],
              [
                105.247492,
                10.660919
              ],
              [
                105.247652,
                10.660727
              ],
              [
                105.247821,
                10.660521
              ],
              [
                105.247947,
                10.660421
              ],
              [
                105.248435,
                10.660071
              ],
              [
                105.248659,
                10.659937
              ],
              [
                105.248875,
                10.659836
              ],
              [
                105.249064,
                10.659721
              ],
              [
                105.249282,
                10.659558
              ],
              [
                105.249552,
                10.659299
              ],
              [
                105.249718,
                10.6592
              ],
              [
                105.249827,
                10.659155
              ],
              [
                105.249966,
                10.65914
              ],
              [
                105.250054,
                10.659113
              ],
              [
                105.250223,
                10.659038
              ],
              [
                105.250661,
                10.658843
              ],
              [
                105.250755,
                10.658831
              ],
              [
                105.250882,
                10.658897
              ],
              [
                105.250942,
                10.658906
              ],
              [
                105.251366,
                10.658789
              ],
              [
                105.251397,
                10.658768
              ],
              [
                105.251624,
                10.658456
              ],
              [
                105.251682,
                10.658428
              ],
              [
                105.251783,
                10.658399
              ],
              [
                105.251784,
                10.658399
              ],
              [
                105.251895,
                10.658288
              ],
              [
                105.252391,
                10.657911
              ],
              [
                105.252723,
                10.65766
              ],
              [
                105.253037,
                10.657408
              ],
              [
                105.253267,
                10.657246
              ],
              [
                105.253396,
                10.657158
              ],
              [
                105.253464,
                10.657079
              ],
              [
                105.253533,
                10.656981
              ],
              [
                105.253557,
                10.656913
              ],
              [
                105.25357,
                10.656822
              ],
              [
                105.253571,
                10.656668
              ],
              [
                105.253562,
                10.656481
              ],
              [
                105.253489,
                10.655934
              ],
              [
                105.253483,
                10.655714
              ],
              [
                105.253537,
                10.655564
              ],
              [
                105.253647,
                10.655475
              ],
              [
                105.253779,
                10.655367
              ],
              [
                105.253975,
                10.655141
              ],
              [
                105.254038,
                10.654983
              ],
              [
                105.254117,
                10.654761
              ],
              [
                105.254145,
                10.654624
              ],
              [
                105.254154,
                10.654534
              ],
              [
                105.254172,
                10.654232
              ],
              [
                105.254169,
                10.654149
              ],
              [
                105.254158,
                10.653879
              ],
              [
                105.254122,
                10.653678
              ],
              [
                105.254047,
                10.653551
              ],
              [
                105.25395,
                10.653472
              ],
              [
                105.253876,
                10.653426
              ],
              [
                105.253727,
                10.653334
              ],
              [
                105.253715,
                10.653329
              ],
              [
                105.253643,
                10.653296
              ],
              [
                105.253539,
                10.653276
              ],
              [
                105.253307,
                10.653266
              ],
              [
                105.253152,
                10.65326
              ],
              [
                105.253077,
                10.653251
              ],
              [
                105.252945,
                10.653218
              ],
              [
                105.252918,
                10.653207
              ],
              [
                105.252885,
                10.65318
              ],
              [
                105.252852,
                10.653135
              ],
              [
                105.252834,
                10.653083
              ],
              [
                105.252829,
                10.653028
              ],
              [
                105.252835,
                10.652919
              ],
              [
                105.252856,
                10.652837
              ],
              [
                105.252948,
                10.652603
              ],
              [
                105.253025,
                10.652412
              ],
              [
                105.253089,
                10.652282
              ],
              [
                105.253267,
                10.652106
              ],
              [
                105.253343,
                10.652055
              ],
              [
                105.253628,
                10.651925
              ],
              [
                105.253749,
                10.651852
              ],
              [
                105.253813,
                10.651808
              ],
              [
                105.253851,
                10.651771
              ],
              [
                105.253904,
                10.651697
              ],
              [
                105.25394,
                10.651607
              ],
              [
                105.253969,
                10.651476
              ],
              [
                105.254022,
                10.65114
              ],
              [
                105.254062,
                10.650881
              ],
              [
                105.254097,
                10.65066
              ],
              [
                105.254109,
                10.650587
              ],
              [
                105.254141,
                10.650506
              ],
              [
                105.254232,
                10.650373
              ],
              [
                105.254247,
                10.650351
              ],
              [
                105.254293,
                10.650261
              ],
              [
                105.254415,
                10.649894
              ],
              [
                105.254463,
                10.649752
              ],
              [
                105.254504,
                10.649599
              ],
              [
                105.25441,
                10.649586
              ],
              [
                105.254345,
                10.649604
              ],
              [
                105.254288,
                10.64962
              ],
              [
                105.254074,
                10.649667
              ],
              [
                105.253432,
                10.649808
              ],
              [
                105.253015,
                10.649991
              ],
              [
                105.252855,
                10.650045
              ],
              [
                105.252659,
                10.650074
              ],
              [
                105.252297,
                10.650085
              ],
              [
                105.252072,
                10.65011
              ],
              [
                105.251908,
                10.650164
              ],
              [
                105.251832,
                10.650232
              ],
              [
                105.251784,
                10.650258
              ],
              [
                105.251784,
                10.650257
              ],
              [
                105.251554,
                10.650192
              ],
              [
                105.251209,
                10.650087
              ],
              [
                105.250793,
                10.649885
              ],
              [
                105.250472,
                10.649706
              ],
              [
                105.250125,
                10.649454
              ],
              [
                105.249921,
                10.649308
              ],
              [
                105.249716,
                10.64914
              ],
              [
                105.249559,
                10.649106
              ],
              [
                105.249257,
                10.649072
              ],
              [
                105.248907,
                10.649038
              ],
              [
                105.248364,
                10.648936
              ],
              [
                105.248002,
                10.648857
              ],
              [
                105.24764,
                10.64871
              ],
              [
                105.2473,
                10.648507
              ],
              [
                105.242348,
                10.647051
              ],
              [
                105.242324,
                10.647044
              ],
              [
                105.242239,
                10.647195
              ],
              [
                105.238857,
                10.646119
              ],
              [
                105.238735,
                10.646158
              ],
              [
                105.238659,
                10.646157
              ],
              [
                105.238589,
                10.646144
              ],
              [
                105.238513,
                10.646112
              ],
              [
                105.237891,
                10.645848
              ],
              [
                105.237718,
                10.645802
              ],
              [
                105.237559,
                10.645789
              ],
              [
                105.237434,
                10.645776
              ],
              [
                105.237289,
                10.645724
              ],
              [
                105.235255,
                10.645091
              ],
              [
                105.235152,
                10.645059
              ],
              [
                105.234861,
                10.645077
              ],
              [
                105.234728,
                10.645089
              ],
              [
                105.234501,
                10.644987
              ],
              [
                105.234453,
                10.644954
              ],
              [
                105.234404,
                10.644896
              ],
              [
                105.234363,
                10.644813
              ],
              [
                105.23336,
                10.64456
              ],
              [
                105.233048,
                10.644489
              ],
              [
                105.23289,
                10.644488
              ],
              [
                105.232717,
                10.644494
              ],
              [
                105.23258,
                10.644494
              ],
              [
                105.232483,
                10.644475
              ],
              [
                105.230551,
                10.643813
              ],
              [
                105.230427,
                10.643487
              ],
              [
                105.229516,
                10.643194
              ],
              [
                105.229395,
                10.643158
              ],
              [
                105.228567,
                10.642911
              ],
              [
                105.225543,
                10.641964
              ],
              [
                105.223528,
                10.641317
              ],
              [
                105.2215,
                10.640689
              ],
              [
                105.220396,
                10.640324
              ],
              [
                105.21883,
                10.639858
              ],
              [
                105.21871,
                10.63981
              ],
              [
                105.218789,
                10.638801
              ],
              [
                105.218631,
                10.638788
              ],
              [
                105.218583,
                10.638784
              ],
              [
                105.218377,
                10.6387
              ],
              [
                105.218055,
                10.638492
              ],
              [
                105.217723,
                10.638433
              ],
              [
                105.217508,
                10.638432
              ],
              [
                105.217311,
                10.63844
              ],
              [
                105.217168,
                10.638465
              ],
              [
                105.217042,
                10.638514
              ],
              [
                105.216871,
                10.63863
              ],
              [
                105.216851,
                10.638645
              ],
              [
                105.216791,
                10.638687
              ],
              [
                105.216725,
                10.638734
              ],
              [
                105.216719,
                10.638738
              ],
              [
                105.216691,
                10.638754
              ],
              [
                105.216557,
                10.638829
              ],
              [
                105.216423,
                10.63887
              ],
              [
                105.216324,
                10.638854
              ],
              [
                105.216044,
                10.638749
              ],
              [
                105.215782,
                10.638807
              ],
              [
                105.21434,
                10.63901
              ],
              [
                105.214352,
                10.639071
              ],
              [
                105.214378,
                10.639252
              ],
              [
                105.215416,
                10.646728
              ],
              [
                105.216145,
                10.651543
              ],
              [
                105.216268,
                10.654385
              ],
              [
                105.216209,
                10.656658
              ],
              [
                105.215758,
                10.65926
              ],
              [
                105.213736,
                10.666411
              ],
              [
                105.213273,
                10.667656
              ],
              [
                105.212589,
                10.669492
              ],
              [
                105.211321,
                10.672245
              ],
              [
                105.209478,
                10.674879
              ],
              [
                105.207212,
                10.677871
              ],
              [
                105.205188,
                10.680894
              ],
              [
                105.204493,
                10.68218
              ],
              [
                105.203134,
                10.685352
              ],
              [
                105.20241,
                10.686998
              ],
              [
                105.201322,
                10.688613
              ],
              [
                105.199267,
                10.6902
              ],
              [
                105.196868,
                10.691354
              ],
              [
                105.188806,
                10.695232
              ],
              [
                105.187984,
                10.695579
              ],
              [
                105.179946,
                10.698976
              ],
              [
                105.176953,
                10.699726
              ],
              [
                105.172719,
                10.700386
              ],
              [
                105.167003,
                10.700838
              ],
              [
                105.156085,
                10.702159
              ],
              [
                105.149796,
                10.704466
              ],
              [
                105.148103,
                10.704727
              ],
              [
                105.149863,
                10.706483
              ],
              [
                105.150314,
                10.706957
              ],
              [
                105.150459,
                10.707109
              ],
              [
                105.150545,
                10.707164
              ],
              [
                105.150952,
                10.70742
              ],
              [
                105.152777,
                10.708494
              ],
              [
                105.156715,
                10.710895
              ],
              [
                105.159198,
                10.712408
              ],
              [
                105.163296,
                10.714845
              ],
              [
                105.16533,
                10.716044
              ],
              [
                105.165664,
                10.716242
              ],
              [
                105.168059,
                10.717669
              ],
              [
                105.174119,
                10.721209
              ],
              [
                105.176209,
                10.722456
              ],
              [
                105.176432,
                10.722589
              ],
              [
                105.176663,
                10.722727
              ],
              [
                105.179562,
                10.72444
              ],
              [
                105.182627,
                10.726217
              ],
              [
                105.184718,
                10.727434
              ],
              [
                105.187468,
                10.729035
              ],
              [
                105.187752,
                10.729207
              ],
              [
                105.187835,
                10.729257
              ],
              [
                105.190926,
                10.731121
              ],
              [
                105.193695,
                10.732732
              ],
              [
                105.196429,
                10.734387
              ],
              [
                105.196954,
                10.734696
              ],
              [
                105.197075,
                10.734607
              ],
              [
                105.200353,
                10.732203
              ],
              [
                105.200393,
                10.732173
              ],
              [
                105.200393,
                10.732173
              ]
            ]
          ]
        ]
      },
      "properties": {
        "code": "30430",
        "name": "Hoà Lạc",
        "nameEn": "Hoa Lac",
        "fullName": "Xã Hoà Lạc",
        "fullNameEn": "Hoa Lac Commune",
        "codeName": "hoa_lac",
        "postalCode": "90315",
        "postalCodePrefix": "",
        "gisServerId": "diaphanhanhchinhcapxa_2025.323",
        "areaKm2": 41.11
      }
    }
  ]
}