{
  "type": "FeatureCollection",
  "bbox": [
    104.992439,
    10.270828,
    105.124808,
    10.43927
  ],
  "features": [
    {
      "type": "Feature",
      "id": "30580",
      "bbox": [
        104.992439,
        10.270828,
        105.124808,
        10.43927
      ],
      "geometry": {
        "type": "MultiPolygon",
        "coordinates": [
          [
            [
              [
                105.118532,
                10.387031
              ],
              [
                105.118583,
                10.386566
              ],
              [
                105.118636,
                10.386052
              ],
              [
                105.118692,
                10.385509
              ],
              [
                105.118754,
                10.384939
              ],
              [
                105.118822,
                10.384337
              ],
              [
                105.118894,
                10.383719
              ],
              [
                105.118964,
                10.383133
              ],
              [
                105.119022,
                10.38265
              ],
              [
                105.119064,
                10.38232
              ],
              [
                105.119089,
                10.382124
              ],
              [
                105.119109,
                10.381979
              ],
              [
                105.119139,
                10.381769
              ],
              [
                105.119189,
                10.381414
              ],
              [
                105.119259,
                10.380922
              ],
              [
                105.119339,
                10.380349
              ],
              [
                105.119425,
                10.379735
              ],
              [
                105.119512,
                10.379115
              ],
              [
                105.119594,
                10.378524
              ],
              [
                105.119667,
                10.377991
              ],
              [
                105.11973,
                10.377539
              ],
              [
                105.119779,
                10.377177
              ],
              [
                105.119818,
                10.376888
              ],
              [
                105.11984,
                10.376714
              ],
              [
                105.119843,
                10.376685
              ],
              [
                105.119845,
                10.376552
              ],
              [
                105.119851,
                10.376368
              ],
              [
                105.119857,
                10.376185
              ],
              [
                105.119859,
                10.376134
              ],
              [
                105.119861,
                10.376062
              ],
              [
                105.119834,
                10.376016
              ],
              [
                105.119779,
                10.37601
              ],
              [
                105.119369,
                10.376243
              ],
              [
                105.119245,
                10.376289
              ],
              [
                105.119159,
                10.376273
              ],
              [
                105.119103,
                10.376233
              ],
              [
                105.119095,
                10.376082
              ],
              [
                105.119217,
                10.373989
              ],
              [
                105.119218,
                10.373989
              ],
              [
                105.119316,
                10.372936
              ],
              [
                105.119365,
                10.372414
              ],
              [
                105.119415,
                10.371883
              ],
              [
                105.119495,
                10.370988
              ],
              [
                105.119548,
                10.370372
              ],
              [
                105.119573,
                10.370082
              ],
              [
                105.119652,
                10.369138
              ],
              [
                105.119704,
                10.368508
              ],
              [
                105.119718,
                10.36834
              ],
              [
                105.119772,
                10.367708
              ],
              [
                105.119824,
                10.367126
              ],
              [
                105.119875,
                10.366567
              ],
              [
                105.119919,
                10.36608
              ],
              [
                105.119958,
                10.36565
              ],
              [
                105.120018,
                10.365005
              ],
              [
                105.120109,
                10.36407
              ],
              [
                105.120196,
                10.363251
              ],
              [
                105.120199,
                10.363224
              ],
              [
                105.12027,
                10.362577
              ],
              [
                105.120354,
                10.361728
              ],
              [
                105.120447,
                10.360708
              ],
              [
                105.120516,
                10.359954
              ],
              [
                105.120553,
                10.359542
              ],
              [
                105.120586,
                10.35918
              ],
              [
                105.120634,
                10.358651
              ],
              [
                105.120692,
                10.358007
              ],
              [
                105.120742,
                10.357486
              ],
              [
                105.12078,
                10.357133
              ],
              [
                105.120822,
                10.356744
              ],
              [
                105.120846,
                10.356502
              ],
              [
                105.120868,
                10.356268
              ],
              [
                105.120892,
                10.356018
              ],
              [
                105.1209,
                10.355926
              ],
              [
                105.120911,
                10.355807
              ],
              [
                105.120917,
                10.355706
              ],
              [
                105.120919,
                10.355583
              ],
              [
                105.120921,
                10.355461
              ],
              [
                105.120927,
                10.355335
              ],
              [
                105.120944,
                10.35516
              ],
              [
                105.120988,
                10.354686
              ],
              [
                105.12107,
                10.353785
              ],
              [
                105.121172,
                10.352652
              ],
              [
                105.121275,
                10.351507
              ],
              [
                105.121363,
                10.350542
              ],
              [
                105.121433,
                10.349798
              ],
              [
                105.121514,
                10.348973
              ],
              [
                105.121619,
                10.347902
              ],
              [
                105.121726,
                10.346814
              ],
              [
                105.121831,
                10.345741
              ],
              [
                105.121929,
                10.344744
              ],
              [
                105.121998,
                10.344048
              ],
              [
                105.122078,
                10.343274
              ],
              [
                105.122217,
                10.34195
              ],
              [
                105.122394,
                10.340263
              ],
              [
                105.12257,
                10.338579
              ],
              [
                105.122704,
                10.337284
              ],
              [
                105.122764,
                10.33664
              ],
              [
                105.12278,
                10.336391
              ],
              [
                105.122787,
                10.336232
              ],
              [
                105.122789,
                10.336169
              ],
              [
                105.122792,
                10.33609
              ],
              [
                105.122795,
                10.335962
              ],
              [
                105.122798,
                10.335843
              ],
              [
                105.1228,
                10.335726
              ],
              [
                105.1228,
                10.335609
              ],
              [
                105.122795,
                10.335494
              ],
              [
                105.122787,
                10.33538
              ],
              [
                105.122778,
                10.335262
              ],
              [
                105.122769,
                10.335128
              ],
              [
                105.122761,
                10.334966
              ],
              [
                105.122752,
                10.334787
              ],
              [
                105.122744,
                10.334608
              ],
              [
                105.122736,
                10.334442
              ],
              [
                105.122729,
                10.334297
              ],
              [
                105.122723,
                10.334165
              ],
              [
                105.122718,
                10.334036
              ],
              [
                105.122716,
                10.333906
              ],
              [
                105.122718,
                10.333772
              ],
              [
                105.122723,
                10.333636
              ],
              [
                105.12273,
                10.333476
              ],
              [
                105.122741,
                10.333208
              ],
              [
                105.122759,
                10.332761
              ],
              [
                105.122828,
                10.331013
              ],
              [
                105.122831,
                10.33093
              ],
              [
                105.122832,
                10.330913
              ],
              [
                105.122883,
                10.330893
              ],
              [
                105.122967,
                10.33086
              ],
              [
                105.123086,
                10.330814
              ],
              [
                105.12333,
                10.330718
              ],
              [
                105.123332,
                10.330686
              ],
              [
                105.123336,
                10.330562
              ],
              [
                105.123346,
                10.33024
              ],
              [
                105.123365,
                10.330044
              ],
              [
                105.123392,
                10.329766
              ],
              [
                105.123434,
                10.329329
              ],
              [
                105.123487,
                10.328767
              ],
              [
                105.123525,
                10.328339
              ],
              [
                105.123534,
                10.328209
              ],
              [
                105.123544,
                10.328066
              ],
              [
                105.123568,
                10.327781
              ],
              [
                105.123616,
                10.327324
              ],
              [
                105.123651,
                10.326988
              ],
              [
                105.12368,
                10.326723
              ],
              [
                105.123736,
                10.326211
              ],
              [
                105.123783,
                10.325758
              ],
              [
                105.123812,
                10.325458
              ],
              [
                105.123843,
                10.325137
              ],
              [
                105.12392,
                10.324302
              ],
              [
                105.123995,
                10.323466
              ],
              [
                105.12407,
                10.322617
              ],
              [
                105.124153,
                10.32171
              ],
              [
                105.124226,
                10.320912
              ],
              [
                105.124289,
                10.320224
              ],
              [
                105.124342,
                10.319622
              ],
              [
                105.124381,
                10.319167
              ],
              [
                105.124418,
                10.318724
              ],
              [
                105.124466,
                10.318196
              ],
              [
                105.124514,
                10.317705
              ],
              [
                105.124557,
                10.317282
              ],
              [
                105.124598,
                10.316903
              ],
              [
                105.124636,
                10.31661
              ],
              [
                105.124667,
                10.316385
              ],
              [
                105.124691,
                10.316155
              ],
              [
                105.124702,
                10.316031
              ],
              [
                105.124714,
                10.315901
              ],
              [
                105.124736,
                10.315728
              ],
              [
                105.124758,
                10.315647
              ],
              [
                105.124771,
                10.315608
              ],
              [
                105.124779,
                10.315585
              ],
              [
                105.124794,
                10.315496
              ],
              [
                105.124804,
                10.315378
              ],
              [
                105.124808,
                10.315237
              ],
              [
                105.124797,
                10.315107
              ],
              [
                105.124789,
                10.31502
              ],
              [
                105.124789,
                10.315013
              ],
              [
                105.124735,
                10.314681
              ],
              [
                105.124684,
                10.314402
              ],
              [
                105.124668,
                10.314319
              ],
              [
                105.124665,
                10.314302
              ],
              [
                105.124595,
                10.313933
              ],
              [
                105.124566,
                10.313778
              ],
              [
                105.124544,
                10.313655
              ],
              [
                105.124514,
                10.313484
              ],
              [
                105.124472,
                10.313253
              ],
              [
                105.124384,
                10.312783
              ],
              [
                105.124261,
                10.312135
              ],
              [
                105.12413,
                10.311446
              ],
              [
                105.123993,
                10.310742
              ],
              [
                105.12386,
                10.310074
              ],
              [
                105.123736,
                10.309472
              ],
              [
                105.123628,
                10.308954
              ],
              [
                105.123536,
                10.308529
              ],
              [
                105.123449,
                10.308129
              ],
              [
                105.123361,
                10.307708
              ],
              [
                105.123318,
                10.307497
              ],
              [
                105.123257,
                10.307191
              ],
              [
                105.123138,
                10.306594
              ],
              [
                105.123017,
                10.305984
              ],
              [
                105.122902,
                10.305413
              ],
              [
                105.1228,
                10.304902
              ],
              [
                105.122709,
                10.304427
              ],
              [
                105.122624,
                10.30398
              ],
              [
                105.122559,
                10.303631
              ],
              [
                105.122525,
                10.303455
              ],
              [
                105.12251,
                10.303397
              ],
              [
                105.122473,
                10.303258
              ],
              [
                105.122449,
                10.303203
              ],
              [
                105.122413,
                10.303153
              ],
              [
                105.122407,
                10.303145
              ],
              [
                105.122045,
                10.303437
              ],
              [
                105.12196,
                10.303506
              ],
              [
                105.121659,
                10.30375
              ],
              [
                105.12106,
                10.304221
              ],
              [
                105.120334,
                10.304785
              ],
              [
                105.119612,
                10.305346
              ],
              [
                105.119369,
                10.305533
              ],
              [
                105.119141,
                10.305709
              ],
              [
                105.119035,
                10.305792
              ],
              [
                105.118743,
                10.306013
              ],
              [
                105.118681,
                10.306059
              ],
              [
                105.118659,
                10.306028
              ],
              [
                105.118552,
                10.305882
              ],
              [
                105.118507,
                10.30582
              ],
              [
                105.118394,
                10.305649
              ],
              [
                105.118155,
                10.305273
              ],
              [
                105.117825,
                10.304749
              ],
              [
                105.117623,
                10.304429
              ],
              [
                105.117478,
                10.304198
              ],
              [
                105.117141,
                10.303665
              ],
              [
                105.116849,
                10.303199
              ],
              [
                105.116573,
                10.30276
              ],
              [
                105.116253,
                10.302251
              ],
              [
                105.116114,
                10.302029
              ],
              [
                105.116114,
                10.302029
              ],
              [
                105.115887,
                10.301669
              ],
              [
                105.115488,
                10.301034
              ],
              [
                105.115001,
                10.300255
              ],
              [
                105.114486,
                10.299426
              ],
              [
                105.114106,
                10.298807
              ],
              [
                105.113772,
                10.298266
              ],
              [
                105.113291,
                10.297501
              ],
              [
                105.112699,
                10.296562
              ],
              [
                105.112196,
                10.295761
              ],
              [
                105.111866,
                10.295224
              ],
              [
                105.111866,
                10.295224
              ],
              [
                105.111854,
                10.295204
              ],
              [
                105.111746,
                10.295024
              ],
              [
                105.111746,
                10.295024
              ],
              [
                105.111609,
                10.294794
              ],
              [
                105.111376,
                10.294404
              ],
              [
                105.111289,
                10.294262
              ],
              [
                105.111289,
                10.294262
              ],
              [
                105.111119,
                10.293983
              ],
              [
                105.110866,
                10.293584
              ],
              [
                105.110643,
                10.293243
              ],
              [
                105.110507,
                10.293035
              ],
              [
                105.110507,
                10.293035
              ],
              [
                105.110507,
                10.293035
              ],
              [
                105.110435,
                10.292927
              ],
              [
                105.110302,
                10.292723
              ],
              [
                105.110259,
                10.292657
              ],
              [
                105.110164,
                10.29251
              ],
              [
                105.110128,
                10.292451
              ],
              [
                105.110111,
                10.292416
              ],
              [
                105.110108,
                10.292409
              ],
              [
                105.110099,
                10.292386
              ],
              [
                105.11009,
                10.292356
              ],
              [
                105.110054,
                10.292269
              ],
              [
                105.109935,
                10.292076
              ],
              [
                105.109673,
                10.291682
              ],
              [
                105.109619,
                10.291601
              ],
              [
                105.109512,
                10.291442
              ],
              [
                105.109304,
                10.291136
              ],
              [
                105.109022,
                10.290721
              ],
              [
                105.10873,
                10.290291
              ],
              [
                105.108456,
                10.289888
              ],
              [
                105.108234,
                10.289561
              ],
              [
                105.108046,
                10.289283
              ],
              [
                105.107853,
                10.288992
              ],
              [
                105.107758,
                10.288845
              ],
              [
                105.10765,
                10.288681
              ],
              [
                105.107432,
                10.288346
              ],
              [
                105.107159,
                10.287924
              ],
              [
                105.106801,
                10.287367
              ],
              [
                105.106394,
                10.286736
              ],
              [
                105.105987,
                10.286106
              ],
              [
                105.105629,
                10.28555
              ],
              [
                105.105337,
                10.285094
              ],
              [
                105.105081,
                10.284695
              ],
              [
                105.104862,
                10.28435
              ],
              [
                105.104658,
                10.284027
              ],
              [
                105.104451,
                10.283699
              ],
              [
                105.104284,
                10.283434
              ],
              [
                105.104154,
                10.283231
              ],
              [
                105.104029,
                10.28304
              ],
              [
                105.103894,
                10.282836
              ],
              [
                105.103714,
                10.282566
              ],
              [
                105.103462,
                10.282194
              ],
              [
                105.103173,
                10.281772
              ],
              [
                105.102909,
                10.281384
              ],
              [
                105.10267,
                10.281035
              ],
              [
                105.102444,
                10.280703
              ],
              [
                105.102377,
                10.280605
              ],
              [
                105.102301,
                10.280493
              ],
              [
                105.102196,
                10.280364
              ],
              [
                105.102073,
                10.280214
              ],
              [
                105.102007,
                10.280159
              ],
              [
                105.101932,
                10.280097
              ],
              [
                105.10188,
                10.280035
              ],
              [
                105.101837,
                10.279958
              ],
              [
                105.101733,
                10.279794
              ],
              [
                105.10153,
                10.279505
              ],
              [
                105.101517,
                10.279487
              ],
              [
                105.101224,
                10.279078
              ],
              [
                105.101001,
                10.278768
              ],
              [
                105.101,
                10.278768
              ],
              [
                105.10091,
                10.278643
              ],
              [
                105.100576,
                10.27818
              ],
              [
                105.100212,
                10.277681
              ],
              [
                105.099779,
                10.277088
              ],
              [
                105.099233,
                10.276335
              ],
              [
                105.098615,
                10.27548
              ],
              [
                105.097987,
                10.274609
              ],
              [
                105.09738,
                10.27377
              ],
              [
                105.096836,
                10.273018
              ],
              [
                105.096353,
                10.272347
              ],
              [
                105.095939,
                10.271773
              ],
              [
                105.095907,
                10.271729
              ],
              [
                105.095584,
                10.271282
              ],
              [
                105.095444,
                10.271079
              ],
              [
                105.095271,
                10.270828
              ],
              [
                105.095249,
                10.27084
              ],
              [
                105.095223,
                10.270855
              ],
              [
                105.095087,
                10.270924
              ],
              [
                105.095019,
                10.270952
              ],
              [
                105.094965,
                10.27097
              ],
              [
                105.094886,
                10.271005
              ],
              [
                105.094723,
                10.271089
              ],
              [
                105.094428,
                10.271252
              ],
              [
                105.094027,
                10.271474
              ],
              [
                105.093546,
                10.271738
              ],
              [
                105.093111,
                10.271972
              ],
              [
                105.093091,
                10.271983
              ],
              [
                105.093076,
                10.271991
              ],
              [
                105.092785,
                10.272144
              ],
              [
                105.092634,
                10.272221
              ],
              [
                105.092482,
                10.272299
              ],
              [
                105.092173,
                10.272463
              ],
              [
                105.091905,
                10.27261
              ],
              [
                105.091634,
                10.272758
              ],
              [
                105.091365,
                10.272909
              ],
              [
                105.09111,
                10.273053
              ],
              [
                105.090817,
                10.273221
              ],
              [
                105.090571,
                10.273364
              ],
              [
                105.09013,
                10.273623
              ],
              [
                105.089557,
                10.273957
              ],
              [
                105.089094,
                10.274227
              ],
              [
                105.088835,
                10.274379
              ],
              [
                105.088682,
                10.274468
              ],
              [
                105.088526,
                10.274559
              ],
              [
                105.088243,
                10.274726
              ],
              [
                105.087956,
                10.274898
              ],
              [
                105.087769,
                10.275009
              ],
              [
                105.08721,
                10.275345
              ],
              [
                105.08662,
                10.275698
              ],
              [
                105.085968,
                10.276082
              ],
              [
                105.085228,
                10.276512
              ],
              [
                105.084415,
                10.276983
              ],
              [
                105.083766,
                10.277359
              ],
              [
                105.083565,
                10.277476
              ],
              [
                105.082625,
                10.278024
              ],
              [
                105.082422,
                10.278143
              ],
              [
                105.081707,
                10.278561
              ],
              [
                105.081055,
                10.278942
              ],
              [
                105.080984,
                10.278983
              ],
              [
                105.080305,
                10.27938
              ],
              [
                105.079619,
                10.279782
              ],
              [
                105.079148,
                10.280058
              ],
              [
                105.078769,
                10.280279
              ],
              [
                105.07832,
                10.280542
              ],
              [
                105.077911,
                10.28078
              ],
              [
                105.077467,
                10.281039
              ],
              [
                105.076826,
                10.281414
              ],
              [
                105.076667,
                10.281507
              ],
              [
                105.076061,
                10.281859
              ],
              [
                105.07528,
                10.282309
              ],
              [
                105.074755,
                10.28261
              ],
              [
                105.074514,
                10.282748
              ],
              [
                105.074045,
                10.283012
              ],
              [
                105.073815,
                10.283142
              ],
              [
                105.073673,
                10.28322
              ],
              [
                105.073673,
                10.28322
              ],
              [
                105.073215,
                10.283472
              ],
              [
                105.072698,
                10.283757
              ],
              [
                105.072276,
                10.283998
              ],
              [
                105.071934,
                10.284199
              ],
              [
                105.071629,
                10.284381
              ],
              [
                105.071422,
                10.284507
              ],
              [
                105.071328,
                10.284566
              ],
              [
                105.071271,
                10.2846
              ],
              [
                105.071208,
                10.284635
              ],
              [
                105.071146,
                10.284672
              ],
              [
                105.071128,
                10.284683
              ],
              [
                105.071085,
                10.28471
              ],
              [
                105.07103,
                10.284752
              ],
              [
                105.071025,
                10.284759
              ],
              [
                105.071019,
                10.284769
              ],
              [
                105.071002,
                10.284796
              ],
              [
                105.070998,
                10.284803
              ],
              [
                105.070974,
                10.284866
              ],
              [
                105.070972,
                10.284869
              ],
              [
                105.07094,
                10.284936
              ],
              [
                105.070906,
                10.284991
              ],
              [
                105.070871,
                10.285042
              ],
              [
                105.070828,
                10.285098
              ],
              [
                105.070785,
                10.285131
              ],
              [
                105.070733,
                10.285151
              ],
              [
                105.070667,
                10.285178
              ],
              [
                105.070601,
                10.285204
              ],
              [
                105.070528,
                10.285236
              ],
              [
                105.070414,
                10.285295
              ],
              [
                105.070352,
                10.28533
              ],
              [
                105.070229,
                10.285399
              ],
              [
                105.069906,
                10.285586
              ],
              [
                105.069393,
                10.285887
              ],
              [
                105.068771,
                10.286254
              ],
              [
                105.068127,
                10.286635
              ],
              [
                105.068112,
                10.286643
              ],
              [
                105.0675,
                10.287005
              ],
              [
                105.067474,
                10.28702
              ],
              [
                105.067474,
                10.28702
              ],
              [
                105.067446,
                10.287036
              ],
              [
                105.066962,
                10.287319
              ],
              [
                105.066559,
                10.287548
              ],
              [
                105.066139,
                10.287787
              ],
              [
                105.065509,
                10.288152
              ],
              [
                105.064895,
                10.288507
              ],
              [
                105.064895,
                10.288507
              ],
              [
                105.064895,
                10.288507
              ],
              [
                105.064651,
                10.288648
              ],
              [
                105.063677,
                10.289209
              ],
              [
                105.062866,
                10.289676
              ],
              [
                105.062669,
                10.289789
              ],
              [
                105.061629,
                10.290386
              ],
              [
                105.060663,
                10.290939
              ],
              [
                105.059894,
                10.29138
              ],
              [
                105.059146,
                10.291809
              ],
              [
                105.058304,
                10.292296
              ],
              [
                105.057553,
                10.292735
              ],
              [
                105.056937,
                10.293099
              ],
              [
                105.056382,
                10.293429
              ],
              [
                105.055952,
                10.293684
              ],
              [
                105.055705,
                10.293831
              ],
              [
                105.055558,
                10.293919
              ],
              [
                105.055556,
                10.29392
              ],
              [
                105.055556,
                10.29392
              ],
              [
                105.055388,
                10.294018
              ],
              [
                105.05501,
                10.294236
              ],
              [
                105.054582,
                10.294481
              ],
              [
                105.054582,
                10.294481
              ],
              [
                105.054247,
                10.294672
              ],
              [
                105.053221,
                10.295259
              ],
              [
                105.05215,
                10.295872
              ],
              [
                105.051141,
                10.296449
              ],
              [
                105.050436,
                10.296855
              ],
              [
                105.050326,
                10.296918
              ],
              [
                105.049679,
                10.297291
              ],
              [
                105.049054,
                10.297652
              ],
              [
                105.048368,
                10.298048
              ],
              [
                105.047874,
                10.298334
              ],
              [
                105.047545,
                10.298524
              ],
              [
                105.046647,
                10.299044
              ],
              [
                105.045748,
                10.299564
              ],
              [
                105.04492,
                10.300042
              ],
              [
                105.044233,
                10.300441
              ],
              [
                105.043624,
                10.300797
              ],
              [
                105.04305,
                10.301133
              ],
              [
                105.042469,
                10.301471
              ],
              [
                105.041933,
                10.30178
              ],
              [
                105.04151,
                10.302019
              ],
              [
                105.041363,
                10.3021
              ],
              [
                105.041154,
                10.302216
              ],
              [
                105.040919,
                10.302346
              ],
              [
                105.040862,
                10.302378
              ],
              [
                105.040854,
                10.302382
              ],
              [
                105.0408,
                10.302413
              ],
              [
                105.040728,
                10.302459
              ],
              [
                105.040655,
                10.302508
              ],
              [
                105.040564,
                10.302563
              ],
              [
                105.040474,
                10.302618
              ],
              [
                105.04007,
                10.302854
              ],
              [
                105.039502,
                10.303183
              ],
              [
                105.038885,
                10.303541
              ],
              [
                105.038208,
                10.303932
              ],
              [
                105.037745,
                10.304198
              ],
              [
                105.037745,
                10.304198
              ],
              [
                105.037721,
                10.304212
              ],
              [
                105.037529,
                10.304322
              ],
              [
                105.036938,
                10.304657
              ],
              [
                105.036363,
                10.304984
              ],
              [
                105.035764,
                10.30533
              ],
              [
                105.035214,
                10.305655
              ],
              [
                105.034626,
                10.306004
              ],
              [
                105.033937,
                10.306411
              ],
              [
                105.033273,
                10.306799
              ],
              [
                105.032584,
                10.307202
              ],
              [
                105.031757,
                10.307685
              ],
              [
                105.031704,
                10.307715
              ],
              [
                105.030885,
                10.30819
              ],
              [
                105.030445,
                10.308444
              ],
              [
                105.030445,
                10.308444
              ],
              [
                105.030445,
                10.308444
              ],
              [
                105.030046,
                10.308675
              ],
              [
                105.02946,
                10.309013
              ],
              [
                105.029235,
                10.309143
              ],
              [
                105.029007,
                10.309274
              ],
              [
                105.028498,
                10.309569
              ],
              [
                105.028458,
                10.309592
              ],
              [
                105.027817,
                10.309961
              ],
              [
                105.027662,
                10.31005
              ],
              [
                105.027584,
                10.310095
              ],
              [
                105.027125,
                10.310359
              ],
              [
                105.026407,
                10.310771
              ],
              [
                105.025576,
                10.311248
              ],
              [
                105.025508,
                10.311287
              ],
              [
                105.025062,
                10.311545
              ],
              [
                105.024632,
                10.311792
              ],
              [
                105.023833,
                10.312256
              ],
              [
                105.023661,
                10.312355
              ],
              [
                105.022727,
                10.312897
              ],
              [
                105.021986,
                10.313327
              ],
              [
                105.021529,
                10.313591
              ],
              [
                105.021217,
                10.313768
              ],
              [
                105.021173,
                10.313793
              ],
              [
                105.020724,
                10.31405
              ],
              [
                105.020188,
                10.314359
              ],
              [
                105.019657,
                10.314666
              ],
              [
                105.01923,
                10.314919
              ],
              [
                105.018999,
                10.315064
              ],
              [
                105.018993,
                10.315068
              ],
              [
                105.018907,
                10.315123
              ],
              [
                105.018868,
                10.315143
              ],
              [
                105.018855,
                10.315146
              ],
              [
                105.018853,
                10.315147
              ],
              [
                105.01884,
                10.315148
              ],
              [
                105.018816,
                10.315151
              ],
              [
                105.018782,
                10.315161
              ],
              [
                105.018739,
                10.315186
              ],
              [
                105.018724,
                10.315198
              ],
              [
                105.018689,
                10.315225
              ],
              [
                105.018647,
                10.31526
              ],
              [
                105.018637,
                10.315269
              ],
              [
                105.018615,
                10.31529
              ],
              [
                105.01857,
                10.31533
              ],
              [
                105.018476,
                10.315398
              ],
              [
                105.018317,
                10.315492
              ],
              [
                105.018123,
                10.315593
              ],
              [
                105.018045,
                10.315632
              ],
              [
                105.01795,
                10.31568
              ],
              [
                105.017928,
                10.315691
              ],
              [
                105.017765,
                10.31577
              ],
              [
                105.017656,
                10.315824
              ],
              [
                105.017581,
                10.315864
              ],
              [
                105.017382,
                10.315971
              ],
              [
                105.017167,
                10.316087
              ],
              [
                105.017163,
                10.316088
              ],
              [
                105.017201,
                10.31614
              ],
              [
                105.01741,
                10.316438
              ],
              [
                105.01745,
                10.316496
              ],
              [
                105.017735,
                10.3169
              ],
              [
                105.017948,
                10.317186
              ],
              [
                105.018098,
                10.317379
              ],
              [
                105.018237,
                10.317574
              ],
              [
                105.01842,
                10.317845
              ],
              [
                105.018632,
                10.318172
              ],
              [
                105.018767,
                10.318401
              ],
              [
                105.018772,
                10.318409
              ],
              [
                105.018837,
                10.318532
              ],
              [
                105.018875,
                10.318596
              ],
              [
                105.018915,
                10.318651
              ],
              [
                105.018963,
                10.31871
              ],
              [
                105.01897,
                10.318719
              ],
              [
                105.019005,
                10.318761
              ],
              [
                105.018756,
                10.318817
              ],
              [
                105.01808,
                10.318968
              ],
              [
                105.017942,
                10.319
              ],
              [
                105.017919,
                10.319005
              ],
              [
                105.017919,
                10.319005
              ],
              [
                105.017485,
                10.319108
              ],
              [
                105.016876,
                10.319248
              ],
              [
                105.016105,
                10.319424
              ],
              [
                105.015306,
                10.319603
              ],
              [
                105.014687,
                10.319743
              ],
              [
                105.014386,
                10.319813
              ],
              [
                105.014265,
                10.319844
              ],
              [
                105.01413,
                10.319881
              ],
              [
                105.013809,
                10.319957
              ],
              [
                105.013199,
                10.320093
              ],
              [
                105.012416,
                10.320267
              ],
              [
                105.011616,
                10.320448
              ],
              [
                105.010928,
                10.320604
              ],
              [
                105.010346,
                10.320738
              ],
              [
                105.009799,
                10.320865
              ],
              [
                105.009413,
                10.320955
              ],
              [
                105.009201,
                10.321003
              ],
              [
                105.009037,
                10.321039
              ],
              [
                105.008827,
                10.321086
              ],
              [
                105.008546,
                10.32115
              ],
              [
                105.008481,
                10.321165
              ],
              [
                105.008042,
                10.321267
              ],
              [
                105.00773,
                10.321342
              ],
              [
                105.00755,
                10.321388
              ],
              [
                105.007359,
                10.321434
              ],
              [
                105.007022,
                10.321512
              ],
              [
                105.006527,
                10.321624
              ],
              [
                105.006082,
                10.321725
              ],
              [
                105.005789,
                10.32179
              ],
              [
                105.005635,
                10.321824
              ],
              [
                105.005557,
                10.321842
              ],
              [
                105.005487,
                10.321858
              ],
              [
                105.005434,
                10.321871
              ],
              [
                105.005317,
                10.321898
              ],
              [
                105.004914,
                10.321991
              ],
              [
                105.004349,
                10.322122
              ],
              [
                105.003857,
                10.322236
              ],
              [
                105.003455,
                10.32233
              ],
              [
                105.002991,
                10.322438
              ],
              [
                105.00221,
                10.32261
              ],
              [
                105.001783,
                10.322705
              ],
              [
                104.999769,
                10.323152
              ],
              [
                104.999325,
                10.323258
              ],
              [
                104.997419,
                10.323685
              ],
              [
                104.996888,
                10.323808
              ],
              [
                104.99732,
                10.325084
              ],
              [
                104.997837,
                10.326751
              ],
              [
                104.997932,
                10.327056
              ],
              [
                104.998412,
                10.328617
              ],
              [
                104.998876,
                10.330174
              ],
              [
                104.999597,
                10.332529
              ],
              [
                104.999912,
                10.333554
              ],
              [
                105.000207,
                10.334543
              ],
              [
                105.00057,
                10.335735
              ],
              [
                105.001211,
                10.337801
              ],
              [
                105.001359,
                10.338465
              ],
              [
                105.000939,
                10.338576
              ],
              [
                105.000936,
                10.338644
              ],
              [
                105.000718,
                10.339902
              ],
              [
                105.000742,
                10.340286
              ],
              [
                105.000623,
                10.341573
              ],
              [
                105.00035,
                10.341523
              ],
              [
                105.000158,
                10.342327
              ],
              [
                105.000045,
                10.342949
              ],
              [
                104.999806,
                10.343727
              ],
              [
                104.999583,
                10.344464
              ],
              [
                104.999168,
                10.345481
              ],
              [
                104.998729,
                10.346305
              ],
              [
                104.998442,
                10.347596
              ],
              [
                104.998168,
                10.348535
              ],
              [
                104.998048,
                10.349257
              ],
              [
                104.998074,
                10.349964
              ],
              [
                104.998125,
                10.3516
              ],
              [
                104.998127,
                10.351656
              ],
              [
                104.998129,
                10.351717
              ],
              [
                104.997994,
                10.352509
              ],
              [
                104.997982,
                10.352688
              ],
              [
                104.998029,
                10.352697
              ],
              [
                104.998116,
                10.352716
              ],
              [
                104.998189,
                10.352731
              ],
              [
                104.998235,
                10.352741
              ],
              [
                104.998228,
                10.352922
              ],
              [
                104.998222,
                10.353087
              ],
              [
                104.998196,
                10.353271
              ],
              [
                104.99817,
                10.353455
              ],
              [
                104.998199,
                10.353498
              ],
              [
                104.998303,
                10.353652
              ],
              [
                104.998309,
                10.353661
              ],
              [
                104.998404,
                10.353801
              ],
              [
                104.998393,
                10.353945
              ],
              [
                104.998321,
                10.354128
              ],
              [
                104.9983,
                10.354191
              ],
              [
                104.998241,
                10.354372
              ],
              [
                104.998217,
                10.354446
              ],
              [
                104.998227,
                10.354725
              ],
              [
                104.998239,
                10.354944
              ],
              [
                104.998248,
                10.35513
              ],
              [
                104.998242,
                10.355265
              ],
              [
                104.998236,
                10.355399
              ],
              [
                104.998234,
                10.355404
              ],
              [
                104.998207,
                10.35588
              ],
              [
                104.998196,
                10.35595
              ],
              [
                104.998159,
                10.35596
              ],
              [
                104.997975,
                10.35601
              ],
              [
                104.997552,
                10.356112
              ],
              [
                104.997455,
                10.356126
              ],
              [
                104.997371,
                10.356139
              ],
              [
                104.997245,
                10.356157
              ],
              [
                104.997174,
                10.35617
              ],
              [
                104.997156,
                10.356503
              ],
              [
                104.997153,
                10.356558
              ],
              [
                104.997152,
                10.356571
              ],
              [
                104.997127,
                10.357033
              ],
              [
                104.997123,
                10.357112
              ],
              [
                104.997274,
                10.357962
              ],
              [
                104.997297,
                10.358093
              ],
              [
                104.997295,
                10.358179
              ],
              [
                104.99729,
                10.358397
              ],
              [
                104.997285,
                10.358614
              ],
              [
                104.996862,
                10.360624
              ],
              [
                104.996857,
                10.361139
              ],
              [
                104.996931,
                10.361679
              ],
              [
                104.997046,
                10.362452
              ],
              [
                104.997135,
                10.363013
              ],
              [
                104.997326,
                10.36311
              ],
              [
                104.997312,
                10.363532
              ],
              [
                104.997166,
                10.363682
              ],
              [
                104.996931,
                10.363924
              ],
              [
                104.996776,
                10.364107
              ],
              [
                104.996681,
                10.364204
              ],
              [
                104.996673,
                10.364212
              ],
              [
                104.996589,
                10.364299
              ],
              [
                104.996413,
                10.36446
              ],
              [
                104.996343,
                10.364524
              ],
              [
                104.996337,
                10.364538
              ],
              [
                104.996244,
                10.364747
              ],
              [
                104.996473,
                10.365028
              ],
              [
                104.996365,
                10.365289
              ],
              [
                104.995796,
                10.366185
              ],
              [
                104.995211,
                10.367064
              ],
              [
                104.995054,
                10.367316
              ],
              [
                104.994494,
                10.369599
              ],
              [
                104.994463,
                10.369762
              ],
              [
                104.994203,
                10.371122
              ],
              [
                104.993902,
                10.372017
              ],
              [
                104.993633,
                10.373106
              ],
              [
                104.99367,
                10.37399
              ],
              [
                104.993627,
                10.374147
              ],
              [
                104.993486,
                10.374654
              ],
              [
                104.993356,
                10.375039
              ],
              [
                104.992439,
                10.377466
              ],
              [
                104.992515,
                10.377451
              ],
              [
                104.99252,
                10.377451
              ],
              [
                104.994754,
                10.376812
              ],
              [
                104.995836,
                10.377753
              ],
              [
                104.995885,
                10.377812
              ],
              [
                104.995896,
                10.377826
              ],
              [
                104.995905,
                10.37783
              ],
              [
                104.996659,
                10.37815
              ],
              [
                104.996815,
                10.378224
              ],
              [
                104.996856,
                10.37831
              ],
              [
                105.000896,
                10.386779
              ],
              [
                105.001013,
                10.38689
              ],
              [
                105.001031,
                10.386906
              ],
              [
                105.001149,
                10.386989
              ],
              [
                105.001783,
                10.387408
              ],
              [
                105.002054,
                10.387875
              ],
              [
                105.002387,
                10.38845
              ],
              [
                105.002618,
                10.38862
              ],
              [
                105.003067,
                10.38895
              ],
              [
                105.003873,
                10.389343
              ],
              [
                105.004212,
                10.389322
              ],
              [
                105.004541,
                10.389303
              ],
              [
                105.004914,
                10.389462
              ],
              [
                105.005227,
                10.389631
              ],
              [
                105.005731,
                10.389815
              ],
              [
                105.00674,
                10.390185
              ],
              [
                105.007065,
                10.390299
              ],
              [
                105.007235,
                10.390329
              ],
              [
                105.007441,
                10.390364
              ],
              [
                105.007765,
                10.39033
              ],
              [
                105.007911,
                10.390619
              ],
              [
                105.008167,
                10.391134
              ],
              [
                105.008256,
                10.391374
              ],
              [
                105.008753,
                10.391551
              ],
              [
                105.008758,
                10.391555
              ],
              [
                105.009232,
                10.391784
              ],
              [
                105.009703,
                10.390512
              ],
              [
                105.010548,
                10.388736
              ],
              [
                105.010614,
                10.388597
              ],
              [
                105.010638,
                10.388631
              ],
              [
                105.010776,
                10.388744
              ],
              [
                105.011033,
                10.388874
              ],
              [
                105.011354,
                10.388973
              ],
              [
                105.011776,
                10.389082
              ],
              [
                105.012269,
                10.389163
              ],
              [
                105.012684,
                10.389219
              ],
              [
                105.013015,
                10.3893
              ],
              [
                105.013198,
                10.389373
              ],
              [
                105.013492,
                10.389573
              ],
              [
                105.013619,
                10.389697
              ],
              [
                105.013819,
                10.38988
              ],
              [
                105.01389,
                10.389939
              ],
              [
                105.013977,
                10.390232
              ],
              [
                105.013991,
                10.390334
              ],
              [
                105.014015,
                10.390512
              ],
              [
                105.014094,
                10.390834
              ],
              [
                105.014162,
                10.390941
              ],
              [
                105.014298,
                10.390992
              ],
              [
                105.014618,
                10.390953
              ],
              [
                105.014884,
                10.390849
              ],
              [
                105.014964,
                10.390899
              ],
              [
                105.015304,
                10.390858
              ],
              [
                105.015685,
                10.390895
              ],
              [
                105.016015,
                10.39094
              ],
              [
                105.016624,
                10.391106
              ],
              [
                105.017054,
                10.391127
              ],
              [
                105.017687,
                10.391227
              ],
              [
                105.017691,
                10.391052
              ],
              [
                105.018989,
                10.391222
              ],
              [
                105.019705,
                10.391316
              ],
              [
                105.021047,
                10.391391
              ],
              [
                105.02436,
                10.391577
              ],
              [
                105.024427,
                10.391998
              ],
              [
                105.024431,
                10.392025
              ],
              [
                105.024527,
                10.392005
              ],
              [
                105.024643,
                10.391981
              ],
              [
                105.02468,
                10.391974
              ],
              [
                105.024706,
                10.391966
              ],
              [
                105.030376,
                10.390584
              ],
              [
                105.034149,
                10.389628
              ],
              [
                105.036948,
                10.388932
              ],
              [
                105.039317,
                10.388379
              ],
              [
                105.044795,
                10.386993
              ],
              [
                105.045268,
                10.386873
              ],
              [
                105.045481,
                10.386823
              ],
              [
                105.045496,
                10.386922
              ],
              [
                105.045541,
                10.387161
              ],
              [
                105.045606,
                10.387479
              ],
              [
                105.045679,
                10.387837
              ],
              [
                105.045767,
                10.388282
              ],
              [
                105.045859,
                10.388763
              ],
              [
                105.045927,
                10.389128
              ],
              [
                105.045989,
                10.389445
              ],
              [
                105.046075,
                10.389879
              ],
              [
                105.046179,
                10.390406
              ],
              [
                105.046269,
                10.390854
              ],
              [
                105.046341,
                10.391218
              ],
              [
                105.04641,
                10.391577
              ],
              [
                105.046477,
                10.39191
              ],
              [
                105.046546,
                10.392251
              ],
              [
                105.046602,
                10.392532
              ],
              [
                105.046745,
                10.39326
              ],
              [
                105.046801,
                10.393543
              ],
              [
                105.046817,
                10.393623
              ],
              [
                105.046845,
                10.393769
              ],
              [
                105.046888,
                10.393991
              ],
              [
                105.046944,
                10.394272
              ],
              [
                105.047003,
                10.394569
              ],
              [
                105.047064,
                10.394889
              ],
              [
                105.047124,
                10.395234
              ],
              [
                105.047192,
                10.395634
              ],
              [
                105.047272,
                10.396071
              ],
              [
                105.047339,
                10.396429
              ],
              [
                105.0474,
                10.39674
              ],
              [
                105.047478,
                10.397129
              ],
              [
                105.047568,
                10.397587
              ],
              [
                105.047649,
                10.397988
              ],
              [
                105.047724,
                10.398357
              ],
              [
                105.047802,
                10.398754
              ],
              [
                105.047877,
                10.39913
              ],
              [
                105.047958,
                10.399537
              ],
              [
                105.048047,
                10.399992
              ],
              [
                105.048122,
                10.400378
              ],
              [
                105.048178,
                10.400674
              ],
              [
                105.048226,
                10.400931
              ],
              [
                105.048259,
                10.401112
              ],
              [
                105.048279,
                10.401213
              ],
              [
                105.048305,
                10.40135
              ],
              [
                105.048354,
                10.401619
              ],
              [
                105.048419,
                10.401976
              ],
              [
                105.048491,
                10.402371
              ],
              [
                105.048592,
                10.402912
              ],
              [
                105.04872,
                10.40359
              ],
              [
                105.048814,
                10.404093
              ],
              [
                105.04887,
                10.404403
              ],
              [
                105.048919,
                10.404674
              ],
              [
                105.048977,
                10.404996
              ],
              [
                105.049076,
                10.405521
              ],
              [
                105.049211,
                10.406217
              ],
              [
                105.049318,
                10.406742
              ],
              [
                105.049389,
                10.407076
              ],
              [
                105.049443,
                10.407325
              ],
              [
                105.049458,
                10.407397
              ],
              [
                105.049541,
                10.407807
              ],
              [
                105.049635,
                10.408296
              ],
              [
                105.049722,
                10.40875
              ],
              [
                105.049807,
                10.409197
              ],
              [
                105.049996,
                10.410191
              ],
              [
                105.050053,
                10.410508
              ],
              [
                105.050382,
                10.412223
              ],
              [
                105.050643,
                10.413544
              ],
              [
                105.050663,
                10.413632
              ],
              [
                105.050793,
                10.414223
              ],
              [
                105.050938,
                10.414919
              ],
              [
                105.051066,
                10.415569
              ],
              [
                105.051132,
                10.415909
              ],
              [
                105.051153,
                10.416026
              ],
              [
                105.051168,
                10.416121
              ],
              [
                105.051192,
                10.416263
              ],
              [
                105.051228,
                10.416467
              ],
              [
                105.051277,
                10.416738
              ],
              [
                105.05136,
                10.417173
              ],
              [
                105.051366,
                10.417204
              ],
              [
                105.05147,
                10.417742
              ],
              [
                105.051549,
                10.418145
              ],
              [
                105.051596,
                10.418375
              ],
              [
                105.051658,
                10.418685
              ],
              [
                105.051761,
                10.419219
              ],
              [
                105.051889,
                10.419883
              ],
              [
                105.052017,
                10.420543
              ],
              [
                105.052117,
                10.421052
              ],
              [
                105.052171,
                10.421327
              ],
              [
                105.05221,
                10.421521
              ],
              [
                105.05227,
                10.421815
              ],
              [
                105.052371,
                10.422313
              ],
              [
                105.052528,
                10.423092
              ],
              [
                105.052712,
                10.424018
              ],
              [
                105.052865,
                10.424781
              ],
              [
                105.052968,
                10.425295
              ],
              [
                105.053072,
                10.425822
              ],
              [
                105.053195,
                10.426454
              ],
              [
                105.053291,
                10.426933
              ],
              [
                105.053356,
                10.427251
              ],
              [
                105.053419,
                10.427561
              ],
              [
                105.053485,
                10.427888
              ],
              [
                105.053517,
                10.428055
              ],
              [
                105.053542,
                10.428183
              ],
              [
                105.053594,
                10.428452
              ],
              [
                105.053647,
                10.428737
              ],
              [
                105.053705,
                10.429059
              ],
              [
                105.053787,
                10.42951
              ],
              [
                105.053895,
                10.430089
              ],
              [
                105.054014,
                10.430725
              ],
              [
                105.054158,
                10.431478
              ],
              [
                105.054312,
                10.432266
              ],
              [
                105.054441,
                10.432913
              ],
              [
                105.054569,
                10.433551
              ],
              [
                105.054719,
                10.434298
              ],
              [
                105.054863,
                10.434981
              ],
              [
                105.054986,
                10.435532
              ],
              [
                105.055015,
                10.435661
              ],
              [
                105.055086,
                10.435974
              ],
              [
                105.055161,
                10.436304
              ],
              [
                105.055226,
                10.436576
              ],
              [
                105.055271,
                10.436769
              ],
              [
                105.055289,
                10.436853
              ],
              [
                105.055284,
                10.436941
              ],
              [
                105.055245,
                10.437649
              ],
              [
                105.055394,
                10.437709
              ],
              [
                105.055447,
                10.437718
              ],
              [
                105.055679,
                10.437756
              ],
              [
                105.056462,
                10.437809
              ],
              [
                105.057502,
                10.43789
              ],
              [
                105.060528,
                10.438143
              ],
              [
                105.062433,
                10.438291
              ],
              [
                105.064696,
                10.438487
              ],
              [
                105.067505,
                10.438702
              ],
              [
                105.069749,
                10.438864
              ],
              [
                105.071407,
                10.439017
              ],
              [
                105.073612,
                10.439155
              ],
              [
                105.074381,
                10.439219
              ],
              [
                105.074415,
                10.439222
              ],
              [
                105.075072,
                10.43927
              ],
              [
                105.075807,
                10.43926
              ],
              [
                105.07733,
                10.439116
              ],
              [
                105.078737,
                10.438991
              ],
              [
                105.080657,
                10.438809
              ],
              [
                105.082745,
                10.438598
              ],
              [
                105.084868,
                10.43843
              ],
              [
                105.087131,
                10.438185
              ],
              [
                105.090268,
                10.437811
              ],
              [
                105.09271,
                10.437609
              ],
              [
                105.09681,
                10.437177
              ],
              [
                105.100344,
                10.43686
              ],
              [
                105.104812,
                10.436442
              ],
              [
                105.104941,
                10.436428
              ],
              [
                105.107074,
                10.436193
              ],
              [
                105.109206,
                10.435967
              ],
              [
                105.112056,
                10.435669
              ],
              [
                105.11233,
                10.435641
              ],
              [
                105.113401,
                10.43553
              ],
              [
                105.113745,
                10.435517
              ],
              [
                105.11368,
                10.435257
              ],
              [
                105.113615,
                10.435
              ],
              [
                105.113385,
                10.434366
              ],
              [
                105.112942,
                10.433356
              ],
              [
                105.113018,
                10.433239
              ],
              [
                105.113075,
                10.43275
              ],
              [
                105.113152,
                10.432251
              ],
              [
                105.113273,
                10.43191
              ],
              [
                105.11346,
                10.431515
              ],
              [
                105.113581,
                10.431246
              ],
              [
                105.113653,
                10.430977
              ],
              [
                105.113738,
                10.430534
              ],
              [
                105.113876,
                10.429774
              ],
              [
                105.113985,
                10.42859
              ],
              [
                105.114141,
                10.427082
              ],
              [
                105.114238,
                10.426334
              ],
              [
                105.114244,
                10.425987
              ],
              [
                105.114189,
                10.425539
              ],
              [
                105.114146,
                10.425018
              ],
              [
                105.114134,
                10.424557
              ],
              [
                105.114176,
                10.424097
              ],
              [
                105.114266,
                10.423513
              ],
              [
                105.114285,
                10.42345
              ],
              [
                105.114287,
                10.423426
              ],
              [
                105.114512,
                10.423383
              ],
              [
                105.114579,
                10.423363
              ],
              [
                105.114739,
                10.423315
              ],
              [
                105.114836,
                10.423295
              ],
              [
                105.114836,
                10.423233
              ],
              [
                105.114848,
                10.423213
              ],
              [
                105.114876,
                10.422801
              ],
              [
                105.114921,
                10.421994
              ],
              [
                105.11501,
                10.420744
              ],
              [
                105.115125,
                10.419727
              ],
              [
                105.11536,
                10.418207
              ],
              [
                105.11561,
                10.416669
              ],
              [
                105.115687,
                10.416104
              ],
              [
                105.11574,
                10.415592
              ],
              [
                105.11587,
                10.414142
              ],
              [
                105.11601,
                10.412605
              ],
              [
                105.116106,
                10.411538
              ],
              [
                105.116304,
                10.409418
              ],
              [
                105.116559,
                10.406556
              ],
              [
                105.116785,
                10.404277
              ],
              [
                105.117021,
                10.401846
              ],
              [
                105.117248,
                10.399376
              ],
              [
                105.117334,
                10.39842
              ],
              [
                105.117335,
                10.398403
              ],
              [
                105.117348,
                10.398268
              ],
              [
                105.117357,
                10.398159
              ],
              [
                105.11736,
                10.398108
              ],
              [
                105.117326,
                10.398095
              ],
              [
                105.11733,
                10.397998
              ],
              [
                105.117332,
                10.397952
              ],
              [
                105.117337,
                10.397874
              ],
              [
                105.117352,
                10.397729
              ],
              [
                105.117378,
                10.397491
              ],
              [
                105.117415,
                10.397168
              ],
              [
                105.117459,
                10.396784
              ],
              [
                105.117508,
                10.396357
              ],
              [
                105.117558,
                10.395916
              ],
              [
                105.117606,
                10.395485
              ],
              [
                105.117654,
                10.395041
              ],
              [
                105.117707,
                10.39455
              ],
              [
                105.117764,
                10.39401
              ],
              [
                105.117825,
                10.393436
              ],
              [
                105.117889,
                10.392847
              ],
              [
                105.117952,
                10.39227
              ],
              [
                105.118009,
                10.391761
              ],
              [
                105.118052,
                10.391381
              ],
              [
                105.118078,
                10.391144
              ],
              [
                105.118097,
                10.390976
              ],
              [
                105.118119,
                10.390773
              ],
              [
                105.11815,
                10.390464
              ],
              [
                105.118193,
                10.390038
              ],
              [
                105.118243,
                10.38954
              ],
              [
                105.118294,
                10.389033
              ],
              [
                105.118345,
                10.38857
              ],
              [
                105.118392,
                10.388168
              ],
              [
                105.118437,
                10.387805
              ],
              [
                105.118483,
                10.387439
              ],
              [
                105.1185,
                10.387298
              ],
              [
                105.118532,
                10.387031
              ],
              [
                105.118532,
                10.387031
              ]
            ]
          ]
        ]
      },
      "properties": {
        "code": "30580",
        "name": "Cô Tô",
        "nameEn": "Co To",
        "fullName": "Xã Cô Tô",
        "fullNameEn": "Co To Commune",
        "codeName": "co_to",
        "postalCode": "90818",
        "postalCodePrefix": "",
        "gisServerId": "diaphanhanhchinhcapxa_2025.340",
        "areaKm2": 176.75
      }
    }
  ]
}