{
  "type": "FeatureCollection",
  "bbox": [
    105.112942,
    10.370986,
    105.225515,
    10.472854
  ],
  "features": [
    {
      "type": "Feature",
      "id": "30604",
      "bbox": [
        105.112942,
        10.370986,
        105.225515,
        10.472854
      ],
      "geometry": {
        "type": "MultiPolygon",
        "coordinates": [
          [
            [
              [
                105.175105,
                10.457998
              ],
              [
                105.175758,
                10.458282
              ],
              [
                105.175811,
                10.458305
              ],
              [
                105.176267,
                10.458382
              ],
              [
                105.176384,
                10.458401
              ],
              [
                105.17848,
                10.45919
              ],
              [
                105.180243,
                10.457729
              ],
              [
                105.180151,
                10.457624
              ],
              [
                105.18015,
                10.457623
              ],
              [
                105.180212,
                10.457623
              ],
              [
                105.223492,
                10.472854
              ],
              [
                105.223905,
                10.466667
              ],
              [
                105.223933,
                10.466673
              ],
              [
                105.224086,
                10.459972
              ],
              [
                105.224158,
                10.456837
              ],
              [
                105.224285,
                10.45067
              ],
              [
                105.224292,
                10.45049
              ],
              [
                105.224222,
                10.45048
              ],
              [
                105.223846,
                10.450428
              ],
              [
                105.22344,
                10.450372
              ],
              [
                105.223123,
                10.450327
              ],
              [
                105.222834,
                10.450287
              ],
              [
                105.222576,
                10.450251
              ],
              [
                105.222011,
                10.44738
              ],
              [
                105.221943,
                10.447041
              ],
              [
                105.221864,
                10.446646
              ],
              [
                105.221729,
                10.445983
              ],
              [
                105.221593,
                10.445311
              ],
              [
                105.221438,
                10.444519
              ],
              [
                105.221425,
                10.444453
              ],
              [
                105.22129,
                10.443742
              ],
              [
                105.22116,
                10.443046
              ],
              [
                105.221047,
                10.44244
              ],
              [
                105.220945,
                10.44191
              ],
              [
                105.22085,
                10.441422
              ],
              [
                105.220782,
                10.441081
              ],
              [
                105.220752,
                10.440927
              ],
              [
                105.220738,
                10.440861
              ],
              [
                105.220727,
                10.440806
              ],
              [
                105.220713,
                10.44073
              ],
              [
                105.220687,
                10.440597
              ],
              [
                105.220634,
                10.44033
              ],
              [
                105.220535,
                10.439832
              ],
              [
                105.220406,
                10.439183
              ],
              [
                105.220283,
                10.438568
              ],
              [
                105.220163,
                10.437967
              ],
              [
                105.220036,
                10.437331
              ],
              [
                105.21992,
                10.436751
              ],
              [
                105.219805,
                10.436175
              ],
              [
                105.219678,
                10.435538
              ],
              [
                105.219551,
                10.434898
              ],
              [
                105.219413,
                10.434198
              ],
              [
                105.219297,
                10.433609
              ],
              [
                105.219259,
                10.433414
              ],
              [
                105.219099,
                10.432587
              ],
              [
                105.218936,
                10.431728
              ],
              [
                105.218926,
                10.431676
              ],
              [
                105.218591,
                10.429917
              ],
              [
                105.218444,
                10.429146
              ],
              [
                105.21842,
                10.429022
              ],
              [
                105.218433,
                10.429023
              ],
              [
                105.218649,
                10.42903
              ],
              [
                105.219532,
                10.429058
              ],
              [
                105.220325,
                10.429081
              ],
              [
                105.220868,
                10.429095
              ],
              [
                105.220868,
                10.429095
              ],
              [
                105.220868,
                10.429095
              ],
              [
                105.221098,
                10.4291
              ],
              [
                105.2221,
                10.429126
              ],
              [
                105.225316,
                10.429233
              ],
              [
                105.225515,
                10.429243
              ],
              [
                105.225431,
                10.428962
              ],
              [
                105.225431,
                10.428961
              ],
              [
                105.225414,
                10.428939
              ],
              [
                105.225401,
                10.42892
              ],
              [
                105.225374,
                10.428883
              ],
              [
                105.225354,
                10.428859
              ],
              [
                105.225339,
                10.428843
              ],
              [
                105.225325,
                10.42883
              ],
              [
                105.225282,
                10.428793
              ],
              [
                105.22522,
                10.428748
              ],
              [
                105.225166,
                10.42871
              ],
              [
                105.225147,
                10.428698
              ],
              [
                105.225072,
                10.428644
              ],
              [
                105.224995,
                10.428582
              ],
              [
                105.224918,
                10.428505
              ],
              [
                105.224899,
                10.428485
              ],
              [
                105.224839,
                10.428419
              ],
              [
                105.224759,
                10.428326
              ],
              [
                105.224671,
                10.428217
              ],
              [
                105.224572,
                10.428085
              ],
              [
                105.224465,
                10.42794
              ],
              [
                105.224355,
                10.427789
              ],
              [
                105.224237,
                10.427628
              ],
              [
                105.224104,
                10.427446
              ],
              [
                105.22396,
                10.427252
              ],
              [
                105.223811,
                10.427051
              ],
              [
                105.223644,
                10.426831
              ],
              [
                105.223609,
                10.426786
              ],
              [
                105.223451,
                10.42658
              ],
              [
                105.223245,
                10.42631
              ],
              [
                105.223063,
                10.426071
              ],
              [
                105.223041,
                10.426042
              ],
              [
                105.222854,
                10.425804
              ],
              [
                105.222689,
                10.425603
              ],
              [
                105.222533,
                10.425423
              ],
              [
                105.222392,
                10.425264
              ],
              [
                105.222256,
                10.425113
              ],
              [
                105.222115,
                10.424955
              ],
              [
                105.221996,
                10.424818
              ],
              [
                105.221911,
                10.424717
              ],
              [
                105.221853,
                10.424646
              ],
              [
                105.221799,
                10.424579
              ],
              [
                105.221746,
                10.424506
              ],
              [
                105.221711,
                10.424447
              ],
              [
                105.221691,
                10.424405
              ],
              [
                105.221673,
                10.424372
              ],
              [
                105.221651,
                10.424343
              ],
              [
                105.221629,
                10.424316
              ],
              [
                105.221605,
                10.42429
              ],
              [
                105.221576,
                10.424266
              ],
              [
                105.221567,
                10.42426
              ],
              [
                105.221536,
                10.424242
              ],
              [
                105.221521,
                10.424235
              ],
              [
                105.221106,
                10.424072
              ],
              [
                105.221069,
                10.424059
              ],
              [
                105.220828,
                10.423976
              ],
              [
                105.220574,
                10.42389
              ],
              [
                105.220321,
                10.423811
              ],
              [
                105.220312,
                10.423808
              ],
              [
                105.220049,
                10.423736
              ],
              [
                105.219787,
                10.423666
              ],
              [
                105.219526,
                10.423596
              ],
              [
                105.219276,
                10.423527
              ],
              [
                105.219234,
                10.423516
              ],
              [
                105.219031,
                10.423459
              ],
              [
                105.218802,
                10.423391
              ],
              [
                105.218565,
                10.423309
              ],
              [
                105.218333,
                10.423222
              ],
              [
                105.218301,
                10.42321
              ],
              [
                105.218033,
                10.423108
              ],
              [
                105.217767,
                10.423002
              ],
              [
                105.217682,
                10.422967
              ],
              [
                105.217523,
                10.422901
              ],
              [
                105.217278,
                10.422793
              ],
              [
                105.217028,
                10.422679
              ],
              [
                105.216813,
                10.422582
              ],
              [
                105.216602,
                10.422485
              ],
              [
                105.216507,
                10.422439
              ],
              [
                105.21641,
                10.422392
              ],
              [
                105.215817,
                10.422048
              ],
              [
                105.215684,
                10.42196
              ],
              [
                105.215517,
                10.42185
              ],
              [
                105.215353,
                10.421736
              ],
              [
                105.215193,
                10.42162
              ],
              [
                105.215037,
                10.421502
              ],
              [
                105.214884,
                10.421385
              ],
              [
                105.214743,
                10.421273
              ],
              [
                105.214615,
                10.421167
              ],
              [
                105.214588,
                10.421144
              ],
              [
                105.214494,
                10.421064
              ],
              [
                105.214425,
                10.421006
              ],
              [
                105.214387,
                10.420974
              ],
              [
                105.214287,
                10.420893
              ],
              [
                105.214185,
                10.420815
              ],
              [
                105.214139,
                10.420782
              ],
              [
                105.214104,
                10.420757
              ],
              [
                105.214102,
                10.420756
              ],
              [
                105.214039,
                10.420719
              ],
              [
                105.213981,
                10.420692
              ],
              [
                105.213923,
                10.420667
              ],
              [
                105.213859,
                10.420642
              ],
              [
                105.213788,
                10.420616
              ],
              [
                105.213708,
                10.42059
              ],
              [
                105.213617,
                10.420564
              ],
              [
                105.213521,
                10.420538
              ],
              [
                105.213422,
                10.420512
              ],
              [
                105.213341,
                10.420488
              ],
              [
                105.213321,
                10.420482
              ],
              [
                105.213274,
                10.420466
              ],
              [
                105.213274,
                10.420466
              ],
              [
                105.213214,
                10.420445
              ],
              [
                105.213102,
                10.420406
              ],
              [
                105.212993,
                10.420365
              ],
              [
                105.212895,
                10.420327
              ],
              [
                105.212819,
                10.420293
              ],
              [
                105.212757,
                10.420257
              ],
              [
                105.212696,
                10.420213
              ],
              [
                105.212635,
                10.420162
              ],
              [
                105.21258,
                10.420115
              ],
              [
                105.212529,
                10.420069
              ],
              [
                105.212477,
                10.420017
              ],
              [
                105.21243,
                10.419961
              ],
              [
                105.212388,
                10.419895
              ],
              [
                105.21235,
                10.419824
              ],
              [
                105.212314,
                10.419753
              ],
              [
                105.212287,
                10.419693
              ],
              [
                105.21227,
                10.419644
              ],
              [
                105.212255,
                10.419592
              ],
              [
                105.212234,
                10.419527
              ],
              [
                105.212212,
                10.419451
              ],
              [
                105.21219,
                10.419373
              ],
              [
                105.212174,
                10.419294
              ],
              [
                105.212169,
                10.419213
              ],
              [
                105.21217,
                10.419131
              ],
              [
                105.212174,
                10.419049
              ],
              [
                105.21218,
                10.41897
              ],
              [
                105.212187,
                10.418898
              ],
              [
                105.212192,
                10.418833
              ],
              [
                105.212197,
                10.418773
              ],
              [
                105.212199,
                10.418716
              ],
              [
                105.212198,
                10.418661
              ],
              [
                105.212195,
                10.418612
              ],
              [
                105.212191,
                10.418589
              ],
              [
                105.212186,
                10.418562
              ],
              [
                105.212173,
                10.418507
              ],
              [
                105.21216,
                10.418461
              ],
              [
                105.212146,
                10.418419
              ],
              [
                105.212128,
                10.418368
              ],
              [
                105.212104,
                10.418305
              ],
              [
                105.212072,
                10.418242
              ],
              [
                105.212032,
                10.418173
              ],
              [
                105.211989,
                10.418096
              ],
              [
                105.211954,
                10.418029
              ],
              [
                105.211939,
                10.418002
              ],
              [
                105.211921,
                10.417968
              ],
              [
                105.211881,
                10.417896
              ],
              [
                105.211833,
                10.417813
              ],
              [
                105.211782,
                10.417738
              ],
              [
                105.211724,
                10.417672
              ],
              [
                105.211657,
                10.417608
              ],
              [
                105.211586,
                10.417544
              ],
              [
                105.211507,
                10.41748
              ],
              [
                105.211414,
                10.417417
              ],
              [
                105.211312,
                10.417355
              ],
              [
                105.211279,
                10.417337
              ],
              [
                105.211211,
                10.417299
              ],
              [
                105.211107,
                10.417246
              ],
              [
                105.211042,
                10.417215
              ],
              [
                105.210997,
                10.417194
              ],
              [
                105.210884,
                10.417147
              ],
              [
                105.210778,
                10.417106
              ],
              [
                105.210696,
                10.417072
              ],
              [
                105.210636,
                10.417044
              ],
              [
                105.210609,
                10.417032
              ],
              [
                105.210571,
                10.417015
              ],
              [
                105.210496,
                10.416984
              ],
              [
                105.210441,
                10.416955
              ],
              [
                105.210421,
                10.416939
              ],
              [
                105.210404,
                10.416926
              ],
              [
                105.210371,
                10.416895
              ],
              [
                105.210337,
                10.416863
              ],
              [
                105.210306,
                10.416828
              ],
              [
                105.21024,
                10.416712
              ],
              [
                105.210211,
                10.41659
              ],
              [
                105.210204,
                10.416472
              ],
              [
                105.210286,
                10.416477
              ],
              [
                105.210571,
                10.416499
              ],
              [
                105.211219,
                10.416548
              ],
              [
                105.212111,
                10.416613
              ],
              [
                105.213053,
                10.416681
              ],
              [
                105.213135,
                10.416687
              ],
              [
                105.213992,
                10.416748
              ],
              [
                105.214899,
                10.416815
              ],
              [
                105.215812,
                10.416885
              ],
              [
                105.216609,
                10.416948
              ],
              [
                105.216659,
                10.416952
              ],
              [
                105.216651,
                10.416863
              ],
              [
                105.216616,
                10.416455
              ],
              [
                105.216603,
                10.416261
              ],
              [
                105.216584,
                10.416046
              ],
              [
                105.216561,
                10.415801
              ],
              [
                105.216547,
                10.415672
              ],
              [
                105.216535,
                10.415559
              ],
              [
                105.216499,
                10.4153
              ],
              [
                105.216457,
                10.415016
              ],
              [
                105.216456,
                10.415015
              ],
              [
                105.216416,
                10.414757
              ],
              [
                105.216375,
                10.414504
              ],
              [
                105.216327,
                10.414215
              ],
              [
                105.216266,
                10.413852
              ],
              [
                105.21618,
                10.413334
              ],
              [
                105.216074,
                10.412698
              ],
              [
                105.215963,
                10.412033
              ],
              [
                105.215846,
                10.411355
              ],
              [
                105.215726,
                10.410694
              ],
              [
                105.215607,
                10.410063
              ],
              [
                105.21549,
                10.409448
              ],
              [
                105.215382,
                10.408865
              ],
              [
                105.21538,
                10.408851
              ],
              [
                105.215282,
                10.408294
              ],
              [
                105.215183,
                10.407705
              ],
              [
                105.215084,
                10.407109
              ],
              [
                105.214985,
                10.406509
              ],
              [
                105.214972,
                10.406427
              ],
              [
                105.214929,
                10.406166
              ],
              [
                105.214912,
                10.406048
              ],
              [
                105.214896,
                10.405951
              ],
              [
                105.214824,
                10.405469
              ],
              [
                105.214778,
                10.405106
              ],
              [
                105.214661,
                10.404397
              ],
              [
                105.214656,
                10.404397
              ],
              [
                105.214611,
                10.404391
              ],
              [
                105.214565,
                10.404385
              ],
              [
                105.214505,
                10.404377
              ],
              [
                105.214385,
                10.404362
              ],
              [
                105.214136,
                10.404331
              ],
              [
                105.213791,
                10.404286
              ],
              [
                105.213791,
                10.404286
              ],
              [
                105.213669,
                10.40427
              ],
              [
                105.212984,
                10.40418
              ],
              [
                105.212266,
                10.404086
              ],
              [
                105.21154,
                10.40399
              ],
              [
                105.210822,
                10.403893
              ],
              [
                105.210321,
                10.403824
              ],
              [
                105.210321,
                10.403824
              ],
              [
                105.210293,
                10.40382
              ],
              [
                105.209942,
                10.403771
              ],
              [
                105.209623,
                10.403727
              ],
              [
                105.209254,
                10.403678
              ],
              [
                105.208694,
                10.403606
              ],
              [
                105.207953,
                10.403513
              ],
              [
                105.207504,
                10.403457
              ],
              [
                105.207181,
                10.403416
              ],
              [
                105.206358,
                10.403316
              ],
              [
                105.205626,
                10.403226
              ],
              [
                105.20518,
                10.403172
              ],
              [
                105.204779,
                10.403123
              ],
              [
                105.204183,
                10.40305
              ],
              [
                105.203536,
                10.40297
              ],
              [
                105.203081,
                10.402912
              ],
              [
                105.202242,
                10.40281
              ],
              [
                105.201537,
                10.402718
              ],
              [
                105.196827,
                10.402105
              ],
              [
                105.19453,
                10.401845
              ],
              [
                105.194359,
                10.398501
              ],
              [
                105.1943,
                10.397301
              ],
              [
                105.19424,
                10.395999
              ],
              [
                105.194181,
                10.394661
              ],
              [
                105.194123,
                10.39333
              ],
              [
                105.194068,
                10.392064
              ],
              [
                105.19402,
                10.39092
              ],
              [
                105.193891,
                10.387808
              ],
              [
                105.193884,
                10.387684
              ],
              [
                105.193962,
                10.387687
              ],
              [
                105.194218,
                10.387697
              ],
              [
                105.194312,
                10.387701
              ],
              [
                105.194406,
                10.387706
              ],
              [
                105.194673,
                10.387719
              ],
              [
                105.194713,
                10.387721
              ],
              [
                105.194731,
                10.387595
              ],
              [
                105.194849,
                10.386545
              ],
              [
                105.194917,
                10.385988
              ],
              [
                105.194945,
                10.385764
              ],
              [
                105.195006,
                10.385277
              ],
              [
                105.195118,
                10.384416
              ],
              [
                105.195239,
                10.383508
              ],
              [
                105.195355,
                10.382638
              ],
              [
                105.195441,
                10.381989
              ],
              [
                105.195487,
                10.381641
              ],
              [
                105.195531,
                10.381288
              ],
              [
                105.195618,
                10.380598
              ],
              [
                105.195739,
                10.379643
              ],
              [
                105.195868,
                10.378622
              ],
              [
                105.196004,
                10.377545
              ],
              [
                105.196136,
                10.376512
              ],
              [
                105.196149,
                10.376416
              ],
              [
                105.196149,
                10.376416
              ],
              [
                105.196461,
                10.373994
              ],
              [
                105.196677,
                10.372252
              ],
              [
                105.196807,
                10.371132
              ],
              [
                105.196822,
                10.370996
              ],
              [
                105.196824,
                10.370986
              ],
              [
                105.196764,
                10.370987
              ],
              [
                105.196529,
                10.370993
              ],
              [
                105.19609,
                10.371004
              ],
              [
                105.195522,
                10.371018
              ],
              [
                105.195413,
                10.371021
              ],
              [
                105.195413,
                10.371021
              ],
              [
                105.19493,
                10.371033
              ],
              [
                105.194349,
                10.371048
              ],
              [
                105.19375,
                10.371063
              ],
              [
                105.193107,
                10.37108
              ],
              [
                105.192421,
                10.371098
              ],
              [
                105.191605,
                10.37112
              ],
              [
                105.190769,
                10.371143
              ],
              [
                105.190154,
                10.37116
              ],
              [
                105.189604,
                10.371174
              ],
              [
                105.188829,
                10.371194
              ],
              [
                105.187904,
                10.371219
              ],
              [
                105.187175,
                10.371237
              ],
              [
                105.186764,
                10.371246
              ],
              [
                105.186586,
                10.371249
              ],
              [
                105.186544,
                10.371249
              ],
              [
                105.18654,
                10.371249
              ],
              [
                105.186464,
                10.371251
              ],
              [
                105.186075,
                10.371257
              ],
              [
                105.185591,
                10.371267
              ],
              [
                105.185082,
                10.371278
              ],
              [
                105.184563,
                10.37129
              ],
              [
                105.1841,
                10.371304
              ],
              [
                105.183717,
                10.371316
              ],
              [
                105.183345,
                10.371328
              ],
              [
                105.182936,
                10.371339
              ],
              [
                105.182392,
                10.371354
              ],
              [
                105.181721,
                10.371373
              ],
              [
                105.181016,
                10.371393
              ],
              [
                105.180304,
                10.371413
              ],
              [
                105.179695,
                10.371429
              ],
              [
                105.179272,
                10.371437
              ],
              [
                105.178884,
                10.371445
              ],
              [
                105.178458,
                10.371454
              ],
              [
                105.178118,
                10.371461
              ],
              [
                105.177778,
                10.371466
              ],
              [
                105.177268,
                10.371474
              ],
              [
                105.176634,
                10.371485
              ],
              [
                105.176004,
                10.371495
              ],
              [
                105.175513,
                10.371504
              ],
              [
                105.175241,
                10.371509
              ],
              [
                105.175001,
                10.371516
              ],
              [
                105.174749,
                10.371524
              ],
              [
                105.174708,
                10.371526
              ],
              [
                105.174687,
                10.371526
              ],
              [
                105.174457,
                10.371533
              ],
              [
                105.174263,
                10.371537
              ],
              [
                105.173942,
                10.371544
              ],
              [
                105.173456,
                10.371555
              ],
              [
                105.172812,
                10.371572
              ],
              [
                105.172094,
                10.37159
              ],
              [
                105.171408,
                10.371606
              ],
              [
                105.17132,
                10.371607
              ],
              [
                105.17132,
                10.371607
              ],
              [
                105.170757,
                10.37162
              ],
              [
                105.170559,
                10.371624
              ],
              [
                105.170219,
                10.371632
              ],
              [
                105.169917,
                10.371638
              ],
              [
                105.169674,
                10.371644
              ],
              [
                105.169257,
                10.371654
              ],
              [
                105.168697,
                10.371669
              ],
              [
                105.168092,
                10.371685
              ],
              [
                105.167447,
                10.371701
              ],
              [
                105.16688,
                10.371714
              ],
              [
                105.16656,
                10.37172
              ],
              [
                105.166414,
                10.371722
              ],
              [
                105.166312,
                10.371723
              ],
              [
                105.166186,
                10.371724
              ],
              [
                105.165981,
                10.371726
              ],
              [
                105.165628,
                10.371731
              ],
              [
                105.165548,
                10.371732
              ],
              [
                105.165548,
                10.371732
              ],
              [
                105.165548,
                10.371732
              ],
              [
                105.165187,
                10.371739
              ],
              [
                105.164882,
                10.371744
              ],
              [
                105.164737,
                10.371746
              ],
              [
                105.164634,
                10.37175
              ],
              [
                105.164425,
                10.371762
              ],
              [
                105.164396,
                10.371763
              ],
              [
                105.164009,
                10.371786
              ],
              [
                105.163473,
                10.371817
              ],
              [
                105.162923,
                10.371848
              ],
              [
                105.162705,
                10.371858
              ],
              [
                105.162423,
                10.371871
              ],
              [
                105.161968,
                10.371883
              ],
              [
                105.161505,
                10.37189
              ],
              [
                105.161199,
                10.371893
              ],
              [
                105.161008,
                10.371895
              ],
              [
                105.160427,
                10.371902
              ],
              [
                105.159782,
                10.371911
              ],
              [
                105.159109,
                10.371921
              ],
              [
                105.158903,
                10.371923
              ],
              [
                105.158608,
                10.371927
              ],
              [
                105.158474,
                10.371928
              ],
              [
                105.157896,
                10.371934
              ],
              [
                105.157352,
                10.371941
              ],
              [
                105.157142,
                10.371944
              ],
              [
                105.156921,
                10.371948
              ],
              [
                105.156641,
                10.371957
              ],
              [
                105.156448,
                10.371967
              ],
              [
                105.156276,
                10.371978
              ],
              [
                105.156156,
                10.371989
              ],
              [
                105.155883,
                10.372016
              ],
              [
                105.155379,
                10.372029
              ],
              [
                105.154948,
                10.37207
              ],
              [
                105.154678,
                10.372116
              ],
              [
                105.154456,
                10.372145
              ],
              [
                105.154174,
                10.372186
              ],
              [
                105.153863,
                10.37223
              ],
              [
                105.15349,
                10.37228
              ],
              [
                105.153068,
                10.372331
              ],
              [
                105.152674,
                10.372377
              ],
              [
                105.152288,
                10.37242
              ],
              [
                105.151904,
                10.372464
              ],
              [
                105.151611,
                10.372497
              ],
              [
                105.151377,
                10.372523
              ],
              [
                105.151115,
                10.372551
              ],
              [
                105.150819,
                10.372582
              ],
              [
                105.150509,
                10.372614
              ],
              [
                105.15017,
                10.372649
              ],
              [
                105.149769,
                10.372691
              ],
              [
                105.149233,
                10.372746
              ],
              [
                105.148568,
                10.372814
              ],
              [
                105.147927,
                10.372878
              ],
              [
                105.147293,
                10.372942
              ],
              [
                105.146669,
                10.373005
              ],
              [
                105.146249,
                10.373046
              ],
              [
                105.146013,
                10.373069
              ],
              [
                105.145833,
                10.373086
              ],
              [
                105.145712,
                10.373098
              ],
              [
                105.145653,
                10.373104
              ],
              [
                105.145396,
                10.373125
              ],
              [
                105.145104,
                10.373149
              ],
              [
                105.145032,
                10.373149
              ],
              [
                105.1449,
                10.373147
              ],
              [
                105.144621,
                10.373147
              ],
              [
                105.144208,
                10.373152
              ],
              [
                105.143864,
                10.373163
              ],
              [
                105.143634,
                10.373175
              ],
              [
                105.143446,
                10.373181
              ],
              [
                105.143229,
                10.373183
              ],
              [
                105.142881,
                10.373184
              ],
              [
                105.142421,
                10.373187
              ],
              [
                105.142013,
                10.37319
              ],
              [
                105.141669,
                10.373196
              ],
              [
                105.141344,
                10.373206
              ],
              [
                105.141022,
                10.373216
              ],
              [
                105.140715,
                10.373224
              ],
              [
                105.140433,
                10.373233
              ],
              [
                105.140066,
                10.373245
              ],
              [
                105.139494,
                10.373265
              ],
              [
                105.13879,
                10.373289
              ],
              [
                105.13807,
                10.373314
              ],
              [
                105.137421,
                10.373335
              ],
              [
                105.136928,
                10.373349
              ],
              [
                105.136558,
                10.373357
              ],
              [
                105.136208,
                10.373364
              ],
              [
                105.135834,
                10.373369
              ],
              [
                105.135384,
                10.373375
              ],
              [
                105.134874,
                10.373381
              ],
              [
                105.134363,
                10.373388
              ],
              [
                105.133913,
                10.373393
              ],
              [
                105.133539,
                10.373397
              ],
              [
                105.133197,
                10.373402
              ],
              [
                105.132872,
                10.373407
              ],
              [
                105.132522,
                10.373412
              ],
              [
                105.132142,
                10.373418
              ],
              [
                105.131802,
                10.373424
              ],
              [
                105.131508,
                10.37343
              ],
              [
                105.131146,
                10.373437
              ],
              [
                105.130658,
                10.373445
              ],
              [
                105.130143,
                10.373451
              ],
              [
                105.129632,
                10.373456
              ],
              [
                105.12917,
                10.37346
              ],
              [
                105.128881,
                10.37346
              ],
              [
                105.128742,
                10.373459
              ],
              [
                105.128676,
                10.373461
              ],
              [
                105.128641,
                10.373461
              ],
              [
                105.128621,
                10.37346
              ],
              [
                105.128457,
                10.373451
              ],
              [
                105.128189,
                10.373452
              ],
              [
                105.128177,
                10.373452
              ],
              [
                105.12815,
                10.373453
              ],
              [
                105.128043,
                10.373454
              ],
              [
                105.127821,
                10.373458
              ],
              [
                105.12762,
                10.373463
              ],
              [
                105.126783,
                10.373481
              ],
              [
                105.126353,
                10.373468
              ],
              [
                105.126244,
                10.373465
              ],
              [
                105.126199,
                10.373464
              ],
              [
                105.126102,
                10.373461
              ],
              [
                105.12598,
                10.37346
              ],
              [
                105.125874,
                10.373463
              ],
              [
                105.125769,
                10.37347
              ],
              [
                105.12566,
                10.373486
              ],
              [
                105.125562,
                10.37351
              ],
              [
                105.125501,
                10.37353
              ],
              [
                105.12549,
                10.373534
              ],
              [
                105.125464,
                10.373545
              ],
              [
                105.125425,
                10.373561
              ],
              [
                105.125363,
                10.373584
              ],
              [
                105.125277,
                10.373615
              ],
              [
                105.125193,
                10.373648
              ],
              [
                105.125101,
                10.373685
              ],
              [
                105.124963,
                10.373742
              ],
              [
                105.124789,
                10.37381
              ],
              [
                105.124409,
                10.37398
              ],
              [
                105.124389,
                10.373988
              ],
              [
                105.124389,
                10.373989
              ],
              [
                105.124369,
                10.374002
              ],
              [
                105.124357,
                10.37401
              ],
              [
                105.12411,
                10.374094
              ],
              [
                105.12386,
                10.374207
              ],
              [
                105.12372,
                10.374272
              ],
              [
                105.123469,
                10.374385
              ],
              [
                105.123091,
                10.374552
              ],
              [
                105.122628,
                10.374757
              ],
              [
                105.122147,
                10.374969
              ],
              [
                105.121674,
                10.375177
              ],
              [
                105.121243,
                10.375365
              ],
              [
                105.120858,
                10.375532
              ],
              [
                105.120504,
                10.375685
              ],
              [
                105.120247,
                10.375797
              ],
              [
                105.120125,
                10.375852
              ],
              [
                105.120051,
                10.375889
              ],
              [
                105.119942,
                10.375947
              ],
              [
                105.119834,
                10.376016
              ],
              [
                105.119861,
                10.376062
              ],
              [
                105.119859,
                10.376134
              ],
              [
                105.119857,
                10.376185
              ],
              [
                105.119851,
                10.376368
              ],
              [
                105.119845,
                10.376552
              ],
              [
                105.119843,
                10.376685
              ],
              [
                105.11984,
                10.376714
              ],
              [
                105.119818,
                10.376888
              ],
              [
                105.119779,
                10.377177
              ],
              [
                105.11973,
                10.377539
              ],
              [
                105.119667,
                10.377991
              ],
              [
                105.119594,
                10.378524
              ],
              [
                105.119512,
                10.379115
              ],
              [
                105.119425,
                10.379735
              ],
              [
                105.119339,
                10.380349
              ],
              [
                105.119259,
                10.380922
              ],
              [
                105.119189,
                10.381414
              ],
              [
                105.119139,
                10.381769
              ],
              [
                105.119109,
                10.381979
              ],
              [
                105.119089,
                10.382124
              ],
              [
                105.119064,
                10.38232
              ],
              [
                105.119022,
                10.38265
              ],
              [
                105.118964,
                10.383133
              ],
              [
                105.118894,
                10.383719
              ],
              [
                105.118822,
                10.384337
              ],
              [
                105.118754,
                10.384939
              ],
              [
                105.118692,
                10.385509
              ],
              [
                105.118636,
                10.386052
              ],
              [
                105.118583,
                10.386566
              ],
              [
                105.118532,
                10.387031
              ],
              [
                105.1185,
                10.387298
              ],
              [
                105.118483,
                10.387439
              ],
              [
                105.118437,
                10.387805
              ],
              [
                105.118392,
                10.388168
              ],
              [
                105.118345,
                10.38857
              ],
              [
                105.118294,
                10.389033
              ],
              [
                105.118243,
                10.38954
              ],
              [
                105.118193,
                10.390038
              ],
              [
                105.11815,
                10.390464
              ],
              [
                105.118119,
                10.390773
              ],
              [
                105.118097,
                10.390976
              ],
              [
                105.118078,
                10.391144
              ],
              [
                105.118052,
                10.391381
              ],
              [
                105.118009,
                10.391761
              ],
              [
                105.117952,
                10.39227
              ],
              [
                105.117889,
                10.392847
              ],
              [
                105.117825,
                10.393436
              ],
              [
                105.117764,
                10.39401
              ],
              [
                105.117707,
                10.39455
              ],
              [
                105.117654,
                10.395041
              ],
              [
                105.117606,
                10.395485
              ],
              [
                105.117558,
                10.395916
              ],
              [
                105.117508,
                10.396357
              ],
              [
                105.117459,
                10.396784
              ],
              [
                105.117415,
                10.397168
              ],
              [
                105.117378,
                10.397491
              ],
              [
                105.117352,
                10.397729
              ],
              [
                105.117337,
                10.397874
              ],
              [
                105.117332,
                10.397952
              ],
              [
                105.11733,
                10.397998
              ],
              [
                105.117326,
                10.398095
              ],
              [
                105.11736,
                10.398108
              ],
              [
                105.117357,
                10.398159
              ],
              [
                105.117348,
                10.398268
              ],
              [
                105.117335,
                10.398403
              ],
              [
                105.117334,
                10.39842
              ],
              [
                105.117248,
                10.399376
              ],
              [
                105.117021,
                10.401846
              ],
              [
                105.116785,
                10.404277
              ],
              [
                105.116559,
                10.406556
              ],
              [
                105.116304,
                10.409418
              ],
              [
                105.116106,
                10.411538
              ],
              [
                105.11601,
                10.412605
              ],
              [
                105.11587,
                10.414142
              ],
              [
                105.11574,
                10.415592
              ],
              [
                105.115687,
                10.416104
              ],
              [
                105.11561,
                10.416669
              ],
              [
                105.11536,
                10.418207
              ],
              [
                105.115125,
                10.419727
              ],
              [
                105.11501,
                10.420744
              ],
              [
                105.114921,
                10.421994
              ],
              [
                105.114876,
                10.422801
              ],
              [
                105.114848,
                10.423213
              ],
              [
                105.114836,
                10.423233
              ],
              [
                105.114836,
                10.423295
              ],
              [
                105.114739,
                10.423315
              ],
              [
                105.114579,
                10.423363
              ],
              [
                105.114512,
                10.423383
              ],
              [
                105.114287,
                10.423426
              ],
              [
                105.114285,
                10.42345
              ],
              [
                105.114266,
                10.423513
              ],
              [
                105.114176,
                10.424097
              ],
              [
                105.114134,
                10.424557
              ],
              [
                105.114146,
                10.425018
              ],
              [
                105.114189,
                10.425539
              ],
              [
                105.114244,
                10.425987
              ],
              [
                105.114238,
                10.426334
              ],
              [
                105.114141,
                10.427082
              ],
              [
                105.113985,
                10.42859
              ],
              [
                105.113876,
                10.429774
              ],
              [
                105.113738,
                10.430534
              ],
              [
                105.113653,
                10.430977
              ],
              [
                105.113581,
                10.431246
              ],
              [
                105.11346,
                10.431515
              ],
              [
                105.113273,
                10.43191
              ],
              [
                105.113152,
                10.432251
              ],
              [
                105.113075,
                10.43275
              ],
              [
                105.113018,
                10.433239
              ],
              [
                105.112942,
                10.433356
              ],
              [
                105.113385,
                10.434366
              ],
              [
                105.113615,
                10.435
              ],
              [
                105.11368,
                10.435257
              ],
              [
                105.113745,
                10.435517
              ],
              [
                105.113858,
                10.435536
              ],
              [
                105.113859,
                10.435538
              ],
              [
                105.113968,
                10.435669
              ],
              [
                105.114234,
                10.435991
              ],
              [
                105.114584,
                10.436424
              ],
              [
                105.114647,
                10.436502
              ],
              [
                105.115045,
                10.437016
              ],
              [
                105.115047,
                10.437019
              ],
              [
                105.120354,
                10.437961
              ],
              [
                105.129343,
                10.440973
              ],
              [
                105.141337,
                10.445853
              ],
              [
                105.141675,
                10.44599
              ],
              [
                105.144019,
                10.446944
              ],
              [
                105.14578,
                10.447738
              ],
              [
                105.152412,
                10.450727
              ],
              [
                105.162699,
                10.453651
              ],
              [
                105.173331,
                10.457377
              ],
              [
                105.174784,
                10.457886
              ],
              [
                105.175105,
                10.457998
              ],
              [
                105.175105,
                10.457998
              ]
            ]
          ]
        ]
      },
      "properties": {
        "code": "30604",
        "name": "Vĩnh An",
        "nameEn": "Vinh An",
        "fullName": "Xã Vĩnh An",
        "fullNameEn": "Vinh An Commune",
        "codeName": "vinh_an",
        "postalCode": "90913",
        "postalCodePrefix": "",
        "gisServerId": "diaphanhanhchinhcapxa_2025.346",
        "areaKm2": 93.41
      }
    }
  ]
}