{
  "type": "FeatureCollection",
  "bbox": [
    104.820379,
    21.608135,
    104.938117,
    21.713669
  ],
  "features": [
    {
      "type": "Feature",
      "id": "04543",
      "bbox": [
        104.820379,
        21.608135,
        104.938117,
        21.713669
      ],
      "geometry": {
        "type": "MultiPolygon",
        "coordinates": [
          [
            [
              [
                104.83677,
                21.669509
              ],
              [
                104.836626,
                21.669363
              ],
              [
                104.8363,
                21.668912
              ],
              [
                104.835601,
                21.667843
              ],
              [
                104.834756,
                21.666771
              ],
              [
                104.833956,
                21.667541
              ],
              [
                104.833809,
                21.667615
              ],
              [
                104.833656,
                21.667736
              ],
              [
                104.832667,
                21.668048
              ],
              [
                104.831776,
                21.668554
              ],
              [
                104.8311,
                21.669308
              ],
              [
                104.830875,
                21.669473
              ],
              [
                104.83066,
                21.669464
              ],
              [
                104.83049,
                21.669435
              ],
              [
                104.829762,
                21.669181
              ],
              [
                104.829425,
                21.669226
              ],
              [
                104.829288,
                21.669262
              ],
              [
                104.828668,
                21.669611
              ],
              [
                104.827591,
                21.670015
              ],
              [
                104.827163,
                21.670228
              ],
              [
                104.827153,
                21.670242
              ],
              [
                104.827127,
                21.67028
              ],
              [
                104.826912,
                21.670589
              ],
              [
                104.826869,
                21.670651
              ],
              [
                104.826693,
                21.671248
              ],
              [
                104.826645,
                21.672149
              ],
              [
                104.826674,
                21.672589
              ],
              [
                104.826616,
                21.673012
              ],
              [
                104.826383,
                21.673666
              ],
              [
                104.82624,
                21.674154
              ],
              [
                104.826164,
                21.674997
              ],
              [
                104.826178,
                21.675277
              ],
              [
                104.826027,
                21.675472
              ],
              [
                104.825867,
                21.675665
              ],
              [
                104.825741,
                21.675884
              ],
              [
                104.825718,
                21.676115
              ],
              [
                104.825774,
                21.676653
              ],
              [
                104.825722,
                21.677012
              ],
              [
                104.825677,
                21.677442
              ],
              [
                104.82567,
                21.677699
              ],
              [
                104.825708,
                21.677977
              ],
              [
                104.825688,
                21.678248
              ],
              [
                104.825756,
                21.678496
              ],
              [
                104.825913,
                21.678643
              ],
              [
                104.826246,
                21.678808
              ],
              [
                104.826501,
                21.678918
              ],
              [
                104.826561,
                21.678995
              ],
              [
                104.826843,
                21.679574
              ],
              [
                104.827264,
                21.680543
              ],
              [
                104.827481,
                21.681015
              ],
              [
                104.827519,
                21.681141
              ],
              [
                104.827545,
                21.681272
              ],
              [
                104.827502,
                21.681549
              ],
              [
                104.827482,
                21.681655
              ],
              [
                104.827267,
                21.682078
              ],
              [
                104.826934,
                21.682675
              ],
              [
                104.826768,
                21.683042
              ],
              [
                104.826719,
                21.683428
              ],
              [
                104.826758,
                21.683795
              ],
              [
                104.826759,
                21.684181
              ],
              [
                104.8267,
                21.684567
              ],
              [
                104.826602,
                21.685091
              ],
              [
                104.826573,
                21.685504
              ],
              [
                104.826593,
                21.686083
              ],
              [
                104.826502,
                21.686495
              ],
              [
                104.826398,
                21.686964
              ],
              [
                104.826153,
                21.687516
              ],
              [
                104.825987,
                21.687975
              ],
              [
                104.825958,
                21.6886
              ],
              [
                104.82586,
                21.689022
              ],
              [
                104.825204,
                21.690097
              ],
              [
                104.82447,
                21.690695
              ],
              [
                104.823833,
                21.691246
              ],
              [
                104.823284,
                21.69165
              ],
              [
                104.822927,
                21.691988
              ],
              [
                104.822573,
                21.692295
              ],
              [
                104.822145,
                21.692852
              ],
              [
                104.821944,
                21.693084
              ],
              [
                104.821874,
                21.693214
              ],
              [
                104.822165,
                21.693293
              ],
              [
                104.8225,
                21.693437
              ],
              [
                104.822725,
                21.693561
              ],
              [
                104.822874,
                21.693672
              ],
              [
                104.822962,
                21.693795
              ],
              [
                104.822976,
                21.6939
              ],
              [
                104.822935,
                21.694032
              ],
              [
                104.822837,
                21.694217
              ],
              [
                104.822806,
                21.694347
              ],
              [
                104.822806,
                21.694456
              ],
              [
                104.822841,
                21.694554
              ],
              [
                104.82295,
                21.694699
              ],
              [
                104.823345,
                21.695113
              ],
              [
                104.82366,
                21.695406
              ],
              [
                104.823918,
                21.695674
              ],
              [
                104.82402,
                21.695844
              ],
              [
                104.824108,
                21.696011
              ],
              [
                104.824139,
                21.696114
              ],
              [
                104.824181,
                21.696301
              ],
              [
                104.824181,
                21.696477
              ],
              [
                104.824094,
                21.696793
              ],
              [
                104.823988,
                21.6971
              ],
              [
                104.823979,
                21.697229
              ],
              [
                104.82401,
                21.697426
              ],
              [
                104.824097,
                21.697648
              ],
              [
                104.824195,
                21.697848
              ],
              [
                104.824314,
                21.697988
              ],
              [
                104.82444,
                21.698097
              ],
              [
                104.824642,
                21.698217
              ],
              [
                104.824719,
                21.698256
              ],
              [
                104.825283,
                21.698576
              ],
              [
                104.825426,
                21.698689
              ],
              [
                104.825457,
                21.698766
              ],
              [
                104.825469,
                21.698833
              ],
              [
                104.825467,
                21.698925
              ],
              [
                104.825315,
                21.699347
              ],
              [
                104.82519,
                21.699647
              ],
              [
                104.825087,
                21.699732
              ],
              [
                104.82508,
                21.699738
              ],
              [
                104.824922,
                21.699888
              ],
              [
                104.824767,
                21.700036
              ],
              [
                104.82457,
                21.70021
              ],
              [
                104.82457,
                21.70021
              ],
              [
                104.82457,
                21.70021
              ],
              [
                104.82457,
                21.70021
              ],
              [
                104.82457,
                21.70021
              ],
              [
                104.82457,
                21.70021
              ],
              [
                104.82457,
                21.70021
              ],
              [
                104.824539,
                21.700587
              ],
              [
                104.824551,
                21.701036
              ],
              [
                104.824555,
                21.701271
              ],
              [
                104.824564,
                21.70168
              ],
              [
                104.824492,
                21.702151
              ],
              [
                104.824489,
                21.702443
              ],
              [
                104.82463,
                21.702611
              ],
              [
                104.825001,
                21.702949
              ],
              [
                104.824875,
                21.703031
              ],
              [
                104.824587,
                21.703499
              ],
              [
                104.824078,
                21.704119
              ],
              [
                104.823911,
                21.704453
              ],
              [
                104.823852,
                21.70465
              ],
              [
                104.823749,
                21.704906
              ],
              [
                104.823627,
                21.705065
              ],
              [
                104.823359,
                21.705196
              ],
              [
                104.823166,
                21.705309
              ],
              [
                104.82293,
                21.705473
              ],
              [
                104.822862,
                21.705552
              ],
              [
                104.822615,
                21.705803
              ],
              [
                104.822271,
                21.706056
              ],
              [
                104.822179,
                21.706127
              ],
              [
                104.82193,
                21.706395
              ],
              [
                104.821703,
                21.706734
              ],
              [
                104.821675,
                21.706761
              ],
              [
                104.821612,
                21.706942
              ],
              [
                104.821601,
                21.707083
              ],
              [
                104.821626,
                21.707197
              ],
              [
                104.821794,
                21.707582
              ],
              [
                104.821868,
                21.707686
              ],
              [
                104.821883,
                21.707763
              ],
              [
                104.821832,
                21.707927
              ],
              [
                104.821754,
                21.708057
              ],
              [
                104.821646,
                21.708151
              ],
              [
                104.821539,
                21.708171
              ],
              [
                104.821289,
                21.708238
              ],
              [
                104.820919,
                21.708322
              ],
              [
                104.820558,
                21.708564
              ],
              [
                104.820475,
                21.708835
              ],
              [
                104.820382,
                21.709464
              ],
              [
                104.820379,
                21.709846
              ],
              [
                104.820941,
                21.71019
              ],
              [
                104.821263,
                21.710446
              ],
              [
                104.821416,
                21.710515
              ],
              [
                104.821637,
                21.710562
              ],
              [
                104.821829,
                21.710552
              ],
              [
                104.82209,
                21.710514
              ],
              [
                104.822209,
                21.71053
              ],
              [
                104.822271,
                21.710557
              ],
              [
                104.822308,
                21.710561
              ],
              [
                104.822668,
                21.710689
              ],
              [
                104.82281,
                21.710753
              ],
              [
                104.822895,
                21.710795
              ],
              [
                104.822949,
                21.710823
              ],
              [
                104.823009,
                21.710811
              ],
              [
                104.82315,
                21.710753
              ],
              [
                104.823281,
                21.710652
              ],
              [
                104.823343,
                21.710599
              ],
              [
                104.823413,
                21.710594
              ],
              [
                104.823694,
                21.710652
              ],
              [
                104.823949,
                21.710699
              ],
              [
                104.824068,
                21.710699
              ],
              [
                104.824187,
                21.710662
              ],
              [
                104.824295,
                21.710651
              ],
              [
                104.824423,
                21.710651
              ],
              [
                104.824544,
                21.710651
              ],
              [
                104.824571,
                21.710658
              ],
              [
                104.824637,
                21.710671
              ],
              [
                104.824687,
                21.710695
              ],
              [
                104.824779,
                21.710757
              ],
              [
                104.824836,
                21.710797
              ],
              [
                104.824897,
                21.710837
              ],
              [
                104.824946,
                21.710865
              ],
              [
                104.825008,
                21.710892
              ],
              [
                104.825095,
                21.710938
              ],
              [
                104.825159,
                21.710971
              ],
              [
                104.825258,
                21.711002
              ],
              [
                104.825404,
                21.711037
              ],
              [
                104.825774,
                21.71113
              ],
              [
                104.825941,
                21.711176
              ],
              [
                104.825989,
                21.711183
              ],
              [
                104.826048,
                21.711183
              ],
              [
                104.826165,
                21.71118
              ],
              [
                104.826326,
                21.711163
              ],
              [
                104.826385,
                21.711165
              ],
              [
                104.826531,
                21.711191
              ],
              [
                104.826658,
                21.711244
              ],
              [
                104.826779,
                21.71135
              ],
              [
                104.826957,
                21.711581
              ],
              [
                104.827285,
                21.711888
              ],
              [
                104.82749,
                21.712092
              ],
              [
                104.827723,
                21.712258
              ],
              [
                104.827996,
                21.712348
              ],
              [
                104.828218,
                21.712372
              ],
              [
                104.828615,
                21.712363
              ],
              [
                104.828854,
                21.712325
              ],
              [
                104.829232,
                21.712214
              ],
              [
                104.829387,
                21.712154
              ],
              [
                104.83002,
                21.711532
              ],
              [
                104.830257,
                21.711494
              ],
              [
                104.830456,
                21.711514
              ],
              [
                104.830648,
                21.711586
              ],
              [
                104.830827,
                21.71163
              ],
              [
                104.83091,
                21.711618
              ],
              [
                104.831135,
                21.711542
              ],
              [
                104.831319,
                21.711452
              ],
              [
                104.831437,
                21.711456
              ],
              [
                104.831662,
                21.71148
              ],
              [
                104.831767,
                21.711509
              ],
              [
                104.832059,
                21.711575
              ],
              [
                104.83216,
                21.711535
              ],
              [
                104.832343,
                21.711423
              ],
              [
                104.832461,
                21.711303
              ],
              [
                104.832846,
                21.710987
              ],
              [
                104.832982,
                21.710962
              ],
              [
                104.833291,
                21.71091
              ],
              [
                104.833453,
                21.710936
              ],
              [
                104.833624,
                21.711054
              ],
              [
                104.833745,
                21.711207
              ],
              [
                104.833809,
                21.711267
              ],
              [
                104.83392,
                21.711354
              ],
              [
                104.833995,
                21.711419
              ],
              [
                104.834076,
                21.71149
              ],
              [
                104.834109,
                21.711519
              ],
              [
                104.834114,
                21.711596
              ],
              [
                104.834173,
                21.711742
              ],
              [
                104.834233,
                21.711886
              ],
              [
                104.834418,
                21.711946
              ],
              [
                104.834529,
                21.711973
              ],
              [
                104.834743,
                21.712033
              ],
              [
                104.834952,
                21.712055
              ],
              [
                104.835269,
                21.712094
              ],
              [
                104.83562,
                21.71211
              ],
              [
                104.83591,
                21.712134
              ],
              [
                104.83676,
                21.712401
              ],
              [
                104.836931,
                21.712452
              ],
              [
                104.837324,
                21.712505
              ],
              [
                104.837632,
                21.712593
              ],
              [
                104.837823,
                21.712676
              ],
              [
                104.837956,
                21.712683
              ],
              [
                104.838216,
                21.712663
              ],
              [
                104.838516,
                21.712567
              ],
              [
                104.838591,
                21.712579
              ],
              [
                104.838805,
                21.712666
              ],
              [
                104.83964,
                21.713045
              ],
              [
                104.840423,
                21.712445
              ],
              [
                104.841115,
                21.711861
              ],
              [
                104.841428,
                21.712099
              ],
              [
                104.841586,
                21.712227
              ],
              [
                104.842029,
                21.712757
              ],
              [
                104.842323,
                21.713276
              ],
              [
                104.844852,
                21.712711
              ],
              [
                104.846878,
                21.712484
              ],
              [
                104.849334,
                21.712486
              ],
              [
                104.852732,
                21.712764
              ],
              [
                104.855652,
                21.713281
              ],
              [
                104.856056,
                21.713339
              ],
              [
                104.858376,
                21.713492
              ],
              [
                104.860326,
                21.713669
              ],
              [
                104.861447,
                21.71365
              ],
              [
                104.861945,
                21.713631
              ],
              [
                104.86263,
                21.713477
              ],
              [
                104.862895,
                21.713369
              ],
              [
                104.863151,
                21.713215
              ],
              [
                104.863506,
                21.712918
              ],
              [
                104.865186,
                21.710977
              ],
              [
                104.866262,
                21.709421
              ],
              [
                104.86644,
                21.709224
              ],
              [
                104.867085,
                21.708133
              ],
              [
                104.86729,
                21.707445
              ],
              [
                104.86746,
                21.706669
              ],
              [
                104.867598,
                21.705422
              ],
              [
                104.867604,
                21.70533
              ],
              [
                104.867615,
                21.705147
              ],
              [
                104.867615,
                21.704958
              ],
              [
                104.867614,
                21.704305
              ],
              [
                104.867525,
                21.701293
              ],
              [
                104.867542,
                21.700402
              ],
              [
                104.867827,
                21.69807
              ],
              [
                104.867952,
                21.697587
              ],
              [
                104.868136,
                21.697128
              ],
              [
                104.868444,
                21.696626
              ],
              [
                104.868577,
                21.696447
              ],
              [
                104.86892,
                21.695987
              ],
              [
                104.869442,
                21.695344
              ],
              [
                104.870332,
                21.69473
              ],
              [
                104.872415,
                21.693661
              ],
              [
                104.873142,
                21.693413
              ],
              [
                104.873955,
                21.693212
              ],
              [
                104.874615,
                21.693184
              ],
              [
                104.874977,
                21.693238
              ],
              [
                104.875425,
                21.693421
              ],
              [
                104.875822,
                21.693685
              ],
              [
                104.876886,
                21.694318
              ],
              [
                104.876886,
                21.694318
              ],
              [
                104.876912,
                21.694328
              ],
              [
                104.877649,
                21.694718
              ],
              [
                104.878451,
                21.695272
              ],
              [
                104.879307,
                21.69606
              ],
              [
                104.879824,
                21.696651
              ],
              [
                104.879827,
                21.696654
              ],
              [
                104.882029,
                21.699416
              ],
              [
                104.883535,
                21.701425
              ],
              [
                104.884527,
                21.703075
              ],
              [
                104.884529,
                21.703078
              ],
              [
                104.884533,
                21.703082
              ],
              [
                104.885207,
                21.703944
              ],
              [
                104.885736,
                21.704621
              ],
              [
                104.886345,
                21.705273
              ],
              [
                104.887406,
                21.7061
              ],
              [
                104.888918,
                21.706865
              ],
              [
                104.889788,
                21.707272
              ],
              [
                104.890708,
                21.707595
              ],
              [
                104.891527,
                21.707679
              ],
              [
                104.892481,
                21.707684
              ],
              [
                104.893949,
                21.707387
              ],
              [
                104.894536,
                21.707225
              ],
              [
                104.89515,
                21.706851
              ],
              [
                104.896485,
                21.705644
              ],
              [
                104.899003,
                21.702641
              ],
              [
                104.899159,
                21.702455
              ],
              [
                104.900142,
                21.701327
              ],
              [
                104.900603,
                21.70077
              ],
              [
                104.9009,
                21.70041
              ],
              [
                104.90129,
                21.699798
              ],
              [
                104.901658,
                21.698938
              ],
              [
                104.902191,
                21.697599
              ],
              [
                104.902724,
                21.696223
              ],
              [
                104.904029,
                21.693145
              ],
              [
                104.904487,
                21.691328
              ],
              [
                104.905021,
                21.689438
              ],
              [
                104.905676,
                21.687982
              ],
              [
                104.906291,
                21.68695
              ],
              [
                104.907048,
                21.686185
              ],
              [
                104.908215,
                21.685516
              ],
              [
                104.909587,
                21.684848
              ],
              [
                104.911776,
                21.683931
              ],
              [
                104.913864,
                21.683186
              ],
              [
                104.915972,
                21.682365
              ],
              [
                104.917793,
                21.681525
              ],
              [
                104.919799,
                21.680378
              ],
              [
                104.921989,
                21.678926
              ],
              [
                104.922003,
                21.678916
              ],
              [
                104.923402,
                21.677951
              ],
              [
                104.924364,
                21.677053
              ],
              [
                104.925305,
                21.676231
              ],
              [
                104.926165,
                21.675715
              ],
              [
                104.927536,
                21.674836
              ],
              [
                104.928662,
                21.674033
              ],
              [
                104.929747,
                21.672982
              ],
              [
                104.93075,
                21.671682
              ],
              [
                104.931651,
                21.670152
              ],
              [
                104.932143,
                21.668756
              ],
              [
                104.932511,
                21.667379
              ],
              [
                104.932717,
                21.665888
              ],
              [
                104.932799,
                21.664358
              ],
              [
                104.932902,
                21.663249
              ],
              [
                104.933107,
                21.662388
              ],
              [
                104.933558,
                21.661375
              ],
              [
                104.935431,
                21.658331
              ],
              [
                104.937074,
                21.654933
              ],
              [
                104.937402,
                21.654253
              ],
              [
                104.937755,
                21.653235
              ],
              [
                104.938001,
                21.652188
              ],
              [
                104.938117,
                21.651355
              ],
              [
                104.938111,
                21.649994
              ],
              [
                104.937996,
                21.648811
              ],
              [
                104.937728,
                21.647412
              ],
              [
                104.937269,
                21.646086
              ],
              [
                104.936502,
                21.644866
              ],
              [
                104.935774,
                21.643898
              ],
              [
                104.934854,
                21.642929
              ],
              [
                104.933818,
                21.64214
              ],
              [
                104.93263,
                21.641458
              ],
              [
                104.931326,
                21.640991
              ],
              [
                104.929677,
                21.64074
              ],
              [
                104.927606,
                21.640631
              ],
              [
                104.925476,
                21.640652
              ],
              [
                104.923251,
                21.640627
              ],
              [
                104.921568,
                21.640385
              ],
              [
                104.919516,
                21.639632
              ],
              [
                104.918285,
                21.638731
              ],
              [
                104.916869,
                21.63806
              ],
              [
                104.913393,
                21.636337
              ],
              [
                104.913223,
                21.636248
              ],
              [
                104.912639,
                21.635942
              ],
              [
                104.911569,
                21.635308
              ],
              [
                104.909247,
                21.633698
              ],
              [
                104.907387,
                21.631861
              ],
              [
                104.905323,
                21.629068
              ],
              [
                104.904403,
                21.627729
              ],
              [
                104.903362,
                21.625739
              ],
              [
                104.903117,
                21.625032
              ],
              [
                104.903131,
                21.624033
              ],
              [
                104.903131,
                21.624029
              ],
              [
                104.903132,
                21.624025
              ],
              [
                104.903175,
                21.62363
              ],
              [
                104.903188,
                21.623526
              ],
              [
                104.903247,
                21.623121
              ],
              [
                104.903343,
                21.622912
              ],
              [
                104.903554,
                21.622565
              ],
              [
                104.903861,
                21.622231
              ],
              [
                104.904289,
                21.621776
              ],
              [
                104.904328,
                21.62102
              ],
              [
                104.904442,
                21.619536
              ],
              [
                104.904445,
                21.619511
              ],
              [
                104.904512,
                21.618862
              ],
              [
                104.904412,
                21.618489
              ],
              [
                104.904382,
                21.618159
              ],
              [
                104.904466,
                21.617556
              ],
              [
                104.904636,
                21.616725
              ],
              [
                104.904636,
                21.616595
              ],
              [
                104.904605,
                21.616474
              ],
              [
                104.904498,
                21.616287
              ],
              [
                104.904498,
                21.616115
              ],
              [
                104.904506,
                21.615807
              ],
              [
                104.904629,
                21.615419
              ],
              [
                104.904752,
                21.615025
              ],
              [
                104.904752,
                21.614795
              ],
              [
                104.904768,
                21.614458
              ],
              [
                104.904798,
                21.614279
              ],
              [
                104.90483,
                21.614229
              ],
              [
                104.904926,
                21.614179
              ],
              [
                104.905,
                21.614095
              ],
              [
                104.905019,
                21.614001
              ],
              [
                104.90516,
                21.612953
              ],
              [
                104.905191,
                21.612357
              ],
              [
                104.905276,
                21.611848
              ],
              [
                104.905406,
                21.611275
              ],
              [
                104.905414,
                21.610765
              ],
              [
                104.905491,
                21.610271
              ],
              [
                104.905629,
                21.609777
              ],
              [
                104.905711,
                21.609457
              ],
              [
                104.905765,
                21.609295
              ],
              [
                104.905899,
                21.608934
              ],
              [
                104.90591,
                21.608648
              ],
              [
                104.905811,
                21.608135
              ],
              [
                104.905495,
                21.608358
              ],
              [
                104.905342,
                21.608579
              ],
              [
                104.905228,
                21.608529
              ],
              [
                104.904968,
                21.608305
              ],
              [
                104.904887,
                21.608215
              ],
              [
                104.9045,
                21.608496
              ],
              [
                104.904154,
                21.608778
              ],
              [
                104.903349,
                21.609521
              ],
              [
                104.903343,
                21.609525
              ],
              [
                104.903335,
                21.609532
              ],
              [
                104.90329,
                21.609554
              ],
              [
                104.903224,
                21.609591
              ],
              [
                104.903076,
                21.609688
              ],
              [
                104.902982,
                21.609759
              ],
              [
                104.902915,
                21.609818
              ],
              [
                104.902854,
                21.609885
              ],
              [
                104.90276,
                21.610014
              ],
              [
                104.902696,
                21.610093
              ],
              [
                104.902647,
                21.61016
              ],
              [
                104.902618,
                21.610208
              ],
              [
                104.902586,
                21.610249
              ],
              [
                104.90255,
                21.610274
              ],
              [
                104.902474,
                21.610309
              ],
              [
                104.902434,
                21.610321
              ],
              [
                104.902391,
                21.610327
              ],
              [
                104.902356,
                21.610318
              ],
              [
                104.90232,
                21.610303
              ],
              [
                104.902307,
                21.610291
              ],
              [
                104.902277,
                21.61026
              ],
              [
                104.901622,
                21.610519
              ],
              [
                104.901525,
                21.610558
              ],
              [
                104.901402,
                21.610604
              ],
              [
                104.90125,
                21.610664
              ],
              [
                104.901115,
                21.610656
              ],
              [
                104.90091,
                21.610588
              ],
              [
                104.900907,
                21.610603
              ],
              [
                104.900879,
                21.610676
              ],
              [
                104.900358,
                21.610523
              ],
              [
                104.898795,
                21.610026
              ],
              [
                104.897767,
                21.609669
              ],
              [
                104.897088,
                21.609333
              ],
              [
                104.896951,
                21.609233
              ],
              [
                104.896919,
                21.609209
              ],
              [
                104.896883,
                21.609196
              ],
              [
                104.896853,
                21.609185
              ],
              [
                104.89672,
                21.609218
              ],
              [
                104.896488,
                21.609258
              ],
              [
                104.896346,
                21.609259
              ],
              [
                104.896132,
                21.609233
              ],
              [
                104.895694,
                21.609145
              ],
              [
                104.895377,
                21.609046
              ],
              [
                104.895179,
                21.608978
              ],
              [
                104.894917,
                21.608807
              ],
              [
                104.89469,
                21.608652
              ],
              [
                104.89446,
                21.608445
              ],
              [
                104.894358,
                21.608371
              ],
              [
                104.894166,
                21.60829
              ],
              [
                104.893959,
                21.608251
              ],
              [
                104.893687,
                21.608218
              ],
              [
                104.893515,
                21.608221
              ],
              [
                104.893237,
                21.608232
              ],
              [
                104.893128,
                21.608243
              ],
              [
                104.893049,
                21.608267
              ],
              [
                104.893027,
                21.608281
              ],
              [
                104.893026,
                21.608286
              ],
              [
                104.893035,
                21.608316
              ],
              [
                104.893055,
                21.608344
              ],
              [
                104.893096,
                21.60838
              ],
              [
                104.893233,
                21.608455
              ],
              [
                104.893294,
                21.608497
              ],
              [
                104.893333,
                21.608548
              ],
              [
                104.893366,
                21.608628
              ],
              [
                104.893395,
                21.608802
              ],
              [
                104.893407,
                21.608953
              ],
              [
                104.893402,
                21.608978
              ],
              [
                104.893396,
                21.609011
              ],
              [
                104.893347,
                21.609067
              ],
              [
                104.893274,
                21.609099
              ],
              [
                104.893211,
                21.609102
              ],
              [
                104.893161,
                21.609087
              ],
              [
                104.893152,
                21.609084
              ],
              [
                104.893091,
                21.609031
              ],
              [
                104.893054,
                21.60898
              ],
              [
                104.893029,
                21.608922
              ],
              [
                104.892988,
                21.608706
              ],
              [
                104.89297,
                21.608647
              ],
              [
                104.89295,
                21.608614
              ],
              [
                104.892906,
                21.608583
              ],
              [
                104.89283,
                21.608563
              ],
              [
                104.892761,
                21.608565
              ],
              [
                104.892334,
                21.608645
              ],
              [
                104.89219,
                21.608731
              ],
              [
                104.892166,
                21.608736
              ],
              [
                104.892127,
                21.608736
              ],
              [
                104.892086,
                21.608724
              ],
              [
                104.892004,
                21.60869
              ],
              [
                104.891965,
                21.608688
              ],
              [
                104.891923,
                21.608704
              ],
              [
                104.891882,
                21.608761
              ],
              [
                104.891799,
                21.608864
              ],
              [
                104.891764,
                21.608884
              ],
              [
                104.891682,
                21.608904
              ],
              [
                104.891621,
                21.608902
              ],
              [
                104.891562,
                21.608889
              ],
              [
                104.891419,
                21.608806
              ],
              [
                104.891365,
                21.60879
              ],
              [
                104.891293,
                21.608798
              ],
              [
                104.891165,
                21.60885
              ],
              [
                104.891109,
                21.608851
              ],
              [
                104.891076,
                21.608837
              ],
              [
                104.891031,
                21.608801
              ],
              [
                104.891012,
                21.608778
              ],
              [
                104.890966,
                21.608773
              ],
              [
                104.890943,
                21.608781
              ],
              [
                104.890894,
                21.608797
              ],
              [
                104.890872,
                21.608842
              ],
              [
                104.890751,
                21.609088
              ],
              [
                104.890572,
                21.609471
              ],
              [
                104.890178,
                21.609839
              ],
              [
                104.889763,
                21.610168
              ],
              [
                104.889523,
                21.610378
              ],
              [
                104.889179,
                21.610724
              ],
              [
                104.888989,
                21.610949
              ],
              [
                104.888686,
                21.611443
              ],
              [
                104.888264,
                21.612056
              ],
              [
                104.888059,
                21.612258
              ],
              [
                104.887906,
                21.612402
              ],
              [
                104.887775,
                21.612508
              ],
              [
                104.887879,
                21.612609
              ],
              [
                104.889125,
                21.613789
              ],
              [
                104.889906,
                21.614571
              ],
              [
                104.890619,
                21.61549
              ],
              [
                104.890627,
                21.615675
              ],
              [
                104.890634,
                21.61582
              ],
              [
                104.890595,
                21.616221
              ],
              [
                104.890537,
                21.616733
              ],
              [
                104.890548,
                21.617081
              ],
              [
                104.890683,
                21.617643
              ],
              [
                104.8909,
                21.618165
              ],
              [
                104.891262,
                21.618571
              ],
              [
                104.891365,
                21.618784
              ],
              [
                104.891358,
                21.618838
              ],
              [
                104.891304,
                21.619239
              ],
              [
                104.891335,
                21.619597
              ],
              [
                104.891418,
                21.619888
              ],
              [
                104.891325,
                21.620277
              ],
              [
                104.891199,
                21.620654
              ],
              [
                104.891145,
                21.62089
              ],
              [
                104.891119,
                21.621043
              ],
              [
                104.891122,
                21.621279
              ],
              [
                104.891122,
                21.621295
              ],
              [
                104.891116,
                21.621521
              ],
              [
                104.890968,
                21.621676
              ],
              [
                104.890838,
                21.621783
              ],
              [
                104.890601,
                21.621977
              ],
              [
                104.890308,
                21.622137
              ],
              [
                104.889821,
                21.622366
              ],
              [
                104.889784,
                21.622384
              ],
              [
                104.889562,
                21.622494
              ],
              [
                104.889197,
                21.622586
              ],
              [
                104.889015,
                21.622667
              ],
              [
                104.888794,
                21.622849
              ],
              [
                104.888777,
                21.622875
              ],
              [
                104.888506,
                21.623249
              ],
              [
                104.888398,
                21.623455
              ],
              [
                104.888235,
                21.623619
              ],
              [
                104.888116,
                21.623769
              ],
              [
                104.888062,
                21.623882
              ],
              [
                104.888031,
                21.624012
              ],
              [
                104.88803,
                21.624026
              ],
              [
                104.888029,
                21.624029
              ],
              [
                104.88808,
                21.62419
              ],
              [
                104.888323,
                21.624608
              ],
              [
                104.888476,
                21.624937
              ],
              [
                104.888546,
                21.62523
              ],
              [
                104.888571,
                21.625577
              ],
              [
                104.888527,
                21.625971
              ],
              [
                104.888608,
                21.626313
              ],
              [
                104.888252,
                21.626277
              ],
              [
                104.887682,
                21.626238
              ],
              [
                104.887305,
                21.626363
              ],
              [
                104.886994,
                21.626612
              ],
              [
                104.886797,
                21.626759
              ],
              [
                104.886512,
                21.627007
              ],
              [
                104.886123,
                21.627275
              ],
              [
                104.885939,
                21.627365
              ],
              [
                104.88553,
                21.627466
              ],
              [
                104.885417,
                21.627719
              ],
              [
                104.885315,
                21.62792
              ],
              [
                104.88511,
                21.628106
              ],
              [
                104.884829,
                21.628326
              ],
              [
                104.884491,
                21.628647
              ],
              [
                104.884317,
                21.62888
              ],
              [
                104.884194,
                21.629167
              ],
              [
                104.884045,
                21.629712
              ],
              [
                104.883901,
                21.630333
              ],
              [
                104.883814,
                21.630849
              ],
              [
                104.883788,
                21.631519
              ],
              [
                104.882594,
                21.632014
              ],
              [
                104.882305,
                21.632163
              ],
              [
                104.882141,
                21.632354
              ],
              [
                104.881701,
                21.632875
              ],
              [
                104.883173,
                21.634678
              ],
              [
                104.883953,
                21.635755
              ],
              [
                104.883483,
                21.636037
              ],
              [
                104.883283,
                21.636242
              ],
              [
                104.883022,
                21.636639
              ],
              [
                104.882817,
                21.636954
              ],
              [
                104.88273,
                21.637226
              ],
              [
                104.882643,
                21.637532
              ],
              [
                104.882597,
                21.637795
              ],
              [
                104.882504,
                21.638073
              ],
              [
                104.882325,
                21.638249
              ],
              [
                104.882085,
                21.638488
              ],
              [
                104.881839,
                21.638708
              ],
              [
                104.881583,
                21.638956
              ],
              [
                104.881348,
                21.639167
              ],
              [
                104.881015,
                21.639382
              ],
              [
                104.88074,
                21.639608
              ],
              [
                104.880217,
                21.640122
              ],
              [
                104.879981,
                21.640275
              ],
              [
                104.879772,
                21.64038
              ],
              [
                104.879495,
                21.640542
              ],
              [
                104.879148,
                21.640676
              ],
              [
                104.878877,
                21.640752
              ],
              [
                104.878728,
                21.640905
              ],
              [
                104.878651,
                21.641053
              ],
              [
                104.878554,
                21.641287
              ],
              [
                104.878431,
                21.641426
              ],
              [
                104.878119,
                21.64166
              ],
              [
                104.877357,
                21.64219
              ],
              [
                104.876886,
                21.642023
              ],
              [
                104.876886,
                21.642023
              ],
              [
                104.876678,
                21.642002
              ],
              [
                104.876463,
                21.642009
              ],
              [
                104.876439,
                21.64202
              ],
              [
                104.876436,
                21.642064
              ],
              [
                104.876413,
                21.64225
              ],
              [
                104.876366,
                21.642458
              ],
              [
                104.876273,
                21.6426
              ],
              [
                104.876191,
                21.642742
              ],
              [
                104.876133,
                21.642917
              ],
              [
                104.876133,
                21.643081
              ],
              [
                104.876051,
                21.64318
              ],
              [
                104.875713,
                21.643486
              ],
              [
                104.875608,
                21.643651
              ],
              [
                104.875655,
                21.643902
              ],
              [
                104.875676,
                21.643913
              ],
              [
                104.875747,
                21.644052
              ],
              [
                104.875939,
                21.644322
              ],
              [
                104.876029,
                21.644599
              ],
              [
                104.875977,
                21.644793
              ],
              [
                104.875794,
                21.645029
              ],
              [
                104.87566,
                21.645159
              ],
              [
                104.875622,
                21.6452
              ],
              [
                104.875419,
                21.645316
              ],
              [
                104.875069,
                21.645443
              ],
              [
                104.874854,
                21.64556
              ],
              [
                104.874775,
                21.645729
              ],
              [
                104.874741,
                21.645887
              ],
              [
                104.874798,
                21.646173
              ],
              [
                104.874911,
                21.646479
              ],
              [
                104.874911,
                21.646701
              ],
              [
                104.874855,
                21.646923
              ],
              [
                104.874596,
                21.647219
              ],
              [
                104.874517,
                21.647473
              ],
              [
                104.874551,
                21.647748
              ],
              [
                104.874698,
                21.64816
              ],
              [
                104.874924,
                21.648604
              ],
              [
                104.874981,
                21.648899
              ],
              [
                104.87497,
                21.649216
              ],
              [
                104.874903,
                21.649481
              ],
              [
                104.874888,
                21.649524
              ],
              [
                104.874783,
                21.649874
              ],
              [
                104.874678,
                21.650027
              ],
              [
                104.874491,
                21.650148
              ],
              [
                104.874158,
                21.650293
              ],
              [
                104.873989,
                21.650771
              ],
              [
                104.87374,
                21.651162
              ],
              [
                104.873661,
                21.651363
              ],
              [
                104.873695,
                21.651564
              ],
              [
                104.87382,
                21.651881
              ],
              [
                104.874114,
                21.652335
              ],
              [
                104.874103,
                21.652684
              ],
              [
                104.874092,
                21.653043
              ],
              [
                104.873991,
                21.653297
              ],
              [
                104.873675,
                21.653624
              ],
              [
                104.873257,
                21.65409
              ],
              [
                104.872896,
                21.654576
              ],
              [
                104.872433,
                21.655285
              ],
              [
                104.872264,
                21.655528
              ],
              [
                104.872264,
                21.65575
              ],
              [
                104.872253,
                21.656056
              ],
              [
                104.872231,
                21.656447
              ],
              [
                104.872095,
                21.656765
              ],
              [
                104.871937,
                21.656913
              ],
              [
                104.871779,
                21.657156
              ],
              [
                104.871723,
                21.657304
              ],
              [
                104.871757,
                21.657589
              ],
              [
                104.871735,
                21.657854
              ],
              [
                104.871599,
                21.657991
              ],
              [
                104.871227,
                21.658266
              ],
              [
                104.870911,
                21.658615
              ],
              [
                104.870606,
                21.659355
              ],
              [
                104.870414,
                21.659704
              ],
              [
                104.870414,
                21.659841
              ],
              [
                104.87048,
                21.660127
              ],
              [
                104.870587,
                21.660475
              ],
              [
                104.870571,
                21.660724
              ],
              [
                104.870526,
                21.660909
              ],
              [
                104.870294,
                21.661252
              ],
              [
                104.869989,
                21.661659
              ],
              [
                104.869679,
                21.662135
              ],
              [
                104.869408,
                21.662431
              ],
              [
                104.869036,
                21.662844
              ],
              [
                104.868537,
                21.663499
              ],
              [
                104.868427,
                21.663666
              ],
              [
                104.868023,
                21.664204
              ],
              [
                104.867837,
                21.664384
              ],
              [
                104.867342,
                21.664508
              ],
              [
                104.86697,
                21.664747
              ],
              [
                104.866412,
                21.665041
              ],
              [
                104.865756,
                21.665409
              ],
              [
                104.865462,
                21.665713
              ],
              [
                104.864963,
                21.666273
              ],
              [
                104.864621,
                21.666494
              ],
              [
                104.86374,
                21.667101
              ],
              [
                104.863351,
                21.66731
              ],
              [
                104.863348,
                21.667312
              ],
              [
                104.862902,
                21.667575
              ],
              [
                104.862725,
                21.667627
              ],
              [
                104.86207,
                21.670252
              ],
              [
                104.854726,
                21.667638
              ],
              [
                104.851948,
                21.667624
              ],
              [
                104.849213,
                21.669842
              ],
              [
                104.845443,
                21.668576
              ],
              [
                104.841946,
                21.66809
              ],
              [
                104.839441,
                21.668855
              ],
              [
                104.836855,
                21.66956
              ],
              [
                104.83677,
                21.669509
              ],
              [
                104.83677,
                21.669509
              ]
            ]
          ]
        ]
      },
      "properties": {
        "code": "04543",
        "name": "Âu Lâu",
        "nameEn": "Au Lau",
        "fullName": "Phường Âu Lâu",
        "fullNameEn": "Au Lau Ward",
        "codeName": "au_lau",
        "postalCode": "33112",
        "postalCodePrefix": "",
        "gisServerId": "diaphanhanhchinhcapxa_2025.1033",
        "areaKm2": 66.17
      }
    }
  ]
}