{
  "type": "FeatureCollection",
  "bbox": [
    104.471095,
    21.610743,
    104.522805,
    21.676307
  ],
  "features": [
    {
      "type": "Feature",
      "id": "04660",
      "bbox": [
        104.471095,
        21.610743,
        104.522805,
        21.676307
      ],
      "geometry": {
        "type": "MultiPolygon",
        "coordinates": [
          [
            [
              [
                104.485273,
                21.676086
              ],
              [
                104.485318,
                21.67601
              ],
              [
                104.485641,
                21.676116
              ],
              [
                104.486093,
                21.675896
              ],
              [
                104.486827,
                21.675467
              ],
              [
                104.487916,
                21.674714
              ],
              [
                104.488517,
                21.674396
              ],
              [
                104.488825,
                21.674014
              ],
              [
                104.488943,
                21.674058
              ],
              [
                104.489189,
                21.673719
              ],
              [
                104.489327,
                21.673848
              ],
              [
                104.489465,
                21.673763
              ],
              [
                104.489974,
                21.673109
              ],
              [
                104.490299,
                21.672384
              ],
              [
                104.490416,
                21.672384
              ],
              [
                104.490966,
                21.671592
              ],
              [
                104.491385,
                21.671813
              ],
              [
                104.491509,
                21.671541
              ],
              [
                104.491703,
                21.671537
              ],
              [
                104.491863,
                21.671294
              ],
              [
                104.492072,
                21.671266
              ],
              [
                104.491892,
                21.670338
              ],
              [
                104.492275,
                21.670377
              ],
              [
                104.49244,
                21.670072
              ],
              [
                104.492169,
                21.669913
              ],
              [
                104.492662,
                21.669494
              ],
              [
                104.492683,
                21.669255
              ],
              [
                104.492478,
                21.669245
              ],
              [
                104.492105,
                21.669186
              ],
              [
                104.49187,
                21.669061
              ],
              [
                104.491701,
                21.668859
              ],
              [
                104.491606,
                21.668635
              ],
              [
                104.491586,
                21.668283
              ],
              [
                104.491582,
                21.668214
              ],
              [
                104.491449,
                21.668046
              ],
              [
                104.491788,
                21.667746
              ],
              [
                104.491929,
                21.667842
              ],
              [
                104.491992,
                21.667885
              ],
              [
                104.492078,
                21.668141
              ],
              [
                104.49218,
                21.668402
              ],
              [
                104.492384,
                21.668518
              ],
              [
                104.493038,
                21.668586
              ],
              [
                104.493142,
                21.668238
              ],
              [
                104.492667,
                21.667954
              ],
              [
                104.492496,
                21.667704
              ],
              [
                104.492472,
                21.66767
              ],
              [
                104.49226,
                21.66737
              ],
              [
                104.492231,
                21.66733
              ],
              [
                104.492287,
                21.667331
              ],
              [
                104.492308,
                21.667321
              ],
              [
                104.492409,
                21.667272
              ],
              [
                104.493026,
                21.666437
              ],
              [
                104.493225,
                21.666139
              ],
              [
                104.493707,
                21.665447
              ],
              [
                104.493861,
                21.665179
              ],
              [
                104.494253,
                21.664612
              ],
              [
                104.494484,
                21.664272
              ],
              [
                104.494561,
                21.664195
              ],
              [
                104.494638,
                21.664165
              ],
              [
                104.494836,
                21.66416
              ],
              [
                104.495067,
                21.664148
              ],
              [
                104.495604,
                21.664019
              ],
              [
                104.495791,
                21.663964
              ],
              [
                104.496372,
                21.663794
              ],
              [
                104.497252,
                21.663424
              ],
              [
                104.497275,
                21.663414
              ],
              [
                104.497267,
                21.663397
              ],
              [
                104.497182,
                21.663218
              ],
              [
                104.496989,
                21.662971
              ],
              [
                104.496717,
                21.662719
              ],
              [
                104.496698,
                21.662701
              ],
              [
                104.49669,
                21.662694
              ],
              [
                104.496542,
                21.662576
              ],
              [
                104.496478,
                21.662434
              ],
              [
                104.496446,
                21.662313
              ],
              [
                104.496463,
                21.662197
              ],
              [
                104.49656,
                21.662056
              ],
              [
                104.496555,
                21.66191
              ],
              [
                104.496362,
                21.661652
              ],
              [
                104.496297,
                21.661637
              ],
              [
                104.496775,
                21.661556
              ],
              [
                104.496998,
                21.661427
              ],
              [
                104.497195,
                21.661217
              ],
              [
                104.497458,
                21.660927
              ],
              [
                104.497479,
                21.660817
              ],
              [
                104.4977,
                21.660465
              ],
              [
                104.497899,
                21.660182
              ],
              [
                104.49821,
                21.659375
              ],
              [
                104.498298,
                21.659431
              ],
              [
                104.498404,
                21.6595
              ],
              [
                104.498479,
                21.659599
              ],
              [
                104.498542,
                21.659682
              ],
              [
                104.498874,
                21.659736
              ],
              [
                104.498906,
                21.659732
              ],
              [
                104.499002,
                21.659722
              ],
              [
                104.499191,
                21.659813
              ],
              [
                104.499462,
                21.659685
              ],
              [
                104.499584,
                21.659919
              ],
              [
                104.499722,
                21.65992
              ],
              [
                104.499829,
                21.660188
              ],
              [
                104.499936,
                21.660284
              ],
              [
                104.500059,
                21.660126
              ],
              [
                104.500101,
                21.659921
              ],
              [
                104.500388,
                21.659635
              ],
              [
                104.500712,
                21.659256
              ],
              [
                104.500888,
                21.659051
              ],
              [
                104.501183,
                21.658813
              ],
              [
                104.501304,
                21.658818
              ],
              [
                104.501372,
                21.658821
              ],
              [
                104.501375,
                21.658771
              ],
              [
                104.50138,
                21.658675
              ],
              [
                104.501428,
                21.658595
              ],
              [
                104.501444,
                21.658568
              ],
              [
                104.501457,
                21.658588
              ],
              [
                104.501518,
                21.658688
              ],
              [
                104.501623,
                21.658792
              ],
              [
                104.501759,
                21.658891
              ],
              [
                104.501887,
                21.658949
              ],
              [
                104.501887,
                21.658949
              ],
              [
                104.50204,
                21.65896
              ],
              [
                104.502247,
                21.658968
              ],
              [
                104.502551,
                21.658978
              ],
              [
                104.503297,
                21.658218
              ],
              [
                104.50353,
                21.65798
              ],
              [
                104.503742,
                21.657885
              ],
              [
                104.503905,
                21.657694
              ],
              [
                104.504067,
                21.657502
              ],
              [
                104.504142,
                21.657331
              ],
              [
                104.504295,
                21.65711
              ],
              [
                104.504454,
                21.656957
              ],
              [
                104.504654,
                21.656813
              ],
              [
                104.504873,
                21.656707
              ],
              [
                104.505162,
                21.656573
              ],
              [
                104.505381,
                21.65649
              ],
              [
                104.505452,
                21.656472
              ],
              [
                104.505749,
                21.656368
              ],
              [
                104.506114,
                21.656351
              ],
              [
                104.50683,
                21.656359
              ],
              [
                104.507354,
                21.656421
              ],
              [
                104.507763,
                21.656531
              ],
              [
                104.507826,
                21.656548
              ],
              [
                104.508503,
                21.656908
              ],
              [
                104.508777,
                21.657202
              ],
              [
                104.509559,
                21.658328
              ],
              [
                104.509929,
                21.659053
              ],
              [
                104.50997,
                21.659119
              ],
              [
                104.510183,
                21.659028
              ],
              [
                104.510209,
                21.659017
              ],
              [
                104.510433,
                21.658934
              ],
              [
                104.510607,
                21.658865
              ],
              [
                104.510723,
                21.65878
              ],
              [
                104.511149,
                21.65837
              ],
              [
                104.511374,
                21.65812
              ],
              [
                104.511453,
                21.658022
              ],
              [
                104.51155,
                21.657902
              ],
              [
                104.511589,
                21.657857
              ],
              [
                104.511787,
                21.657643
              ],
              [
                104.512052,
                21.657287
              ],
              [
                104.512311,
                21.656921
              ],
              [
                104.512506,
                21.656648
              ],
              [
                104.512665,
                21.656523
              ],
              [
                104.512939,
                21.656398
              ],
              [
                104.513122,
                21.656343
              ],
              [
                104.513376,
                21.65614
              ],
              [
                104.513597,
                21.65587
              ],
              [
                104.513616,
                21.655848
              ],
              [
                104.514005,
                21.655329
              ],
              [
                104.514095,
                21.655158
              ],
              [
                104.51411,
                21.65506
              ],
              [
                104.514085,
                21.655004
              ],
              [
                104.513823,
                21.654832
              ],
              [
                104.513522,
                21.654494
              ],
              [
                104.513754,
                21.654437
              ],
              [
                104.513938,
                21.654404
              ],
              [
                104.514088,
                21.654391
              ],
              [
                104.514201,
                21.654384
              ],
              [
                104.514338,
                21.65438
              ],
              [
                104.514433,
                21.654379
              ],
              [
                104.514565,
                21.654357
              ],
              [
                104.514651,
                21.654328
              ],
              [
                104.514832,
                21.654236
              ],
              [
                104.514992,
                21.654042
              ],
              [
                104.515172,
                21.65375
              ],
              [
                104.515296,
                21.653592
              ],
              [
                104.515814,
                21.653297
              ],
              [
                104.516018,
                21.653172
              ],
              [
                104.516609,
                21.652937
              ],
              [
                104.516833,
                21.652815
              ],
              [
                104.516982,
                21.652734
              ],
              [
                104.517161,
                21.652684
              ],
              [
                104.51727,
                21.652698
              ],
              [
                104.517483,
                21.652779
              ],
              [
                104.517528,
                21.652796
              ],
              [
                104.517692,
                21.652788
              ],
              [
                104.517896,
                21.652778
              ],
              [
                104.518089,
                21.652737
              ],
              [
                104.518338,
                21.652483
              ],
              [
                104.518458,
                21.652381
              ],
              [
                104.518692,
                21.652275
              ],
              [
                104.518956,
                21.652025
              ],
              [
                104.519115,
                21.651882
              ],
              [
                104.519234,
                21.651771
              ],
              [
                104.519419,
                21.651507
              ],
              [
                104.519713,
                21.651178
              ],
              [
                104.519799,
                21.651055
              ],
              [
                104.519972,
                21.650807
              ],
              [
                104.520152,
                21.650631
              ],
              [
                104.520217,
                21.650474
              ],
              [
                104.520342,
                21.650172
              ],
              [
                104.520332,
                21.650052
              ],
              [
                104.520273,
                21.649931
              ],
              [
                104.520204,
                21.64975
              ],
              [
                104.520146,
                21.649462
              ],
              [
                104.520132,
                21.649206
              ],
              [
                104.520147,
                21.6491
              ],
              [
                104.520267,
                21.648854
              ],
              [
                104.520307,
                21.648645
              ],
              [
                104.520353,
                21.648321
              ],
              [
                104.520294,
                21.648167
              ],
              [
                104.52016,
                21.647995
              ],
              [
                104.519972,
                21.647837
              ],
              [
                104.519918,
                21.64779
              ],
              [
                104.520126,
                21.647629
              ],
              [
                104.52064,
                21.647293
              ],
              [
                104.520797,
                21.647067
              ],
              [
                104.521042,
                21.646539
              ],
              [
                104.521559,
                21.645957
              ],
              [
                104.522129,
                21.645539
              ],
              [
                104.522805,
                21.644839
              ],
              [
                104.522765,
                21.644751
              ],
              [
                104.522695,
                21.644666
              ],
              [
                104.522489,
                21.644433
              ],
              [
                104.522428,
                21.644311
              ],
              [
                104.522412,
                21.64423
              ],
              [
                104.5224,
                21.644164
              ],
              [
                104.522414,
                21.643989
              ],
              [
                104.522467,
                21.643792
              ],
              [
                104.522563,
                21.643578
              ],
              [
                104.522647,
                21.643409
              ],
              [
                104.522675,
                21.643251
              ],
              [
                104.522668,
                21.643209
              ],
              [
                104.52264,
                21.643178
              ],
              [
                104.522577,
                21.643154
              ],
              [
                104.522183,
                21.643221
              ],
              [
                104.522067,
                21.643209
              ],
              [
                104.521992,
                21.643162
              ],
              [
                104.521937,
                21.643083
              ],
              [
                104.521929,
                21.643006
              ],
              [
                104.521943,
                21.642967
              ],
              [
                104.521953,
                21.642929
              ],
              [
                104.522108,
                21.642676
              ],
              [
                104.522137,
                21.642627
              ],
              [
                104.522159,
                21.642567
              ],
              [
                104.522148,
                21.642516
              ],
              [
                104.522084,
                21.642468
              ],
              [
                104.522,
                21.642419
              ],
              [
                104.521727,
                21.642268
              ],
              [
                104.521596,
                21.642203
              ],
              [
                104.521265,
                21.642039
              ],
              [
                104.521049,
                21.641929
              ],
              [
                104.52087,
                21.641849
              ],
              [
                104.520732,
                21.64181
              ],
              [
                104.520555,
                21.641758
              ],
              [
                104.520438,
                21.641682
              ],
              [
                104.520067,
                21.641355
              ],
              [
                104.520022,
                21.641283
              ],
              [
                104.520022,
                21.641218
              ],
              [
                104.520067,
                21.641133
              ],
              [
                104.52016,
                21.641001
              ],
              [
                104.520207,
                21.640903
              ],
              [
                104.52019,
                21.640844
              ],
              [
                104.520146,
                21.640815
              ],
              [
                104.519986,
                21.640814
              ],
              [
                104.519664,
                21.64083
              ],
              [
                104.519544,
                21.640855
              ],
              [
                104.519466,
                21.640872
              ],
              [
                104.519346,
                21.640879
              ],
              [
                104.519238,
                21.64086
              ],
              [
                104.519063,
                21.640773
              ],
              [
                104.51876,
                21.640511
              ],
              [
                104.518697,
                21.64048
              ],
              [
                104.51844,
                21.640355
              ],
              [
                104.518247,
                21.640318
              ],
              [
                104.518048,
                21.640322
              ],
              [
                104.517884,
                21.640357
              ],
              [
                104.517684,
                21.640437
              ],
              [
                104.517502,
                21.640521
              ],
              [
                104.517499,
                21.640522
              ],
              [
                104.517474,
                21.640531
              ],
              [
                104.517401,
                21.640534
              ],
              [
                104.517304,
                21.640527
              ],
              [
                104.517192,
                21.640475
              ],
              [
                104.517002,
                21.640282
              ],
              [
                104.516963,
                21.640232
              ],
              [
                104.516932,
                21.640191
              ],
              [
                104.516915,
                21.640169
              ],
              [
                104.516903,
                21.640154
              ],
              [
                104.516879,
                21.640026
              ],
              [
                104.516917,
                21.639924
              ],
              [
                104.516966,
                21.639784
              ],
              [
                104.516949,
                21.639641
              ],
              [
                104.516883,
                21.639521
              ],
              [
                104.516772,
                21.639487
              ],
              [
                104.516632,
                21.639467
              ],
              [
                104.516172,
                21.639444
              ],
              [
                104.516188,
                21.639388
              ],
              [
                104.516198,
                21.639337
              ],
              [
                104.516203,
                21.639291
              ],
              [
                104.516207,
                21.639233
              ],
              [
                104.516206,
                21.639215
              ],
              [
                104.516091,
                21.638761
              ],
              [
                104.515981,
                21.638094
              ],
              [
                104.515976,
                21.638079
              ],
              [
                104.515945,
                21.637984
              ],
              [
                104.515921,
                21.637915
              ],
              [
                104.515628,
                21.63727
              ],
              [
                104.515527,
                21.636696
              ],
              [
                104.515529,
                21.636675
              ],
              [
                104.515526,
                21.636661
              ],
              [
                104.515516,
                21.636599
              ],
              [
                104.515508,
                21.636542
              ],
              [
                104.515502,
                21.636492
              ],
              [
                104.5155,
                21.636447
              ],
              [
                104.515514,
                21.636339
              ],
              [
                104.515521,
                21.63629
              ],
              [
                104.515535,
                21.636208
              ],
              [
                104.515572,
                21.636018
              ],
              [
                104.515587,
                21.635963
              ],
              [
                104.515603,
                21.635906
              ],
              [
                104.51562,
                21.63584
              ],
              [
                104.515637,
                21.635777
              ],
              [
                104.515652,
                21.635726
              ],
              [
                104.515664,
                21.635688
              ],
              [
                104.515676,
                21.635648
              ],
              [
                104.515686,
                21.6356
              ],
              [
                104.515691,
                21.635565
              ],
              [
                104.515694,
                21.63554
              ],
              [
                104.515698,
                21.635508
              ],
              [
                104.515705,
                21.635459
              ],
              [
                104.515716,
                21.635396
              ],
              [
                104.515725,
                21.635343
              ],
              [
                104.515731,
                21.63531
              ],
              [
                104.515737,
                21.635282
              ],
              [
                104.515744,
                21.635251
              ],
              [
                104.51575,
                21.635228
              ],
              [
                104.515756,
                21.635215
              ],
              [
                104.515762,
                21.635201
              ],
              [
                104.515769,
                21.635185
              ],
              [
                104.515777,
                21.635166
              ],
              [
                104.51579,
                21.635137
              ],
              [
                104.515811,
                21.635095
              ],
              [
                104.515839,
                21.635047
              ],
              [
                104.51586,
                21.635012
              ],
              [
                104.515873,
                21.634964
              ],
              [
                104.516079,
                21.634571
              ],
              [
                104.51637,
                21.634122
              ],
              [
                104.516532,
                21.633874
              ],
              [
                104.516546,
                21.633852
              ],
              [
                104.516564,
                21.63377
              ],
              [
                104.516573,
                21.633761
              ],
              [
                104.516619,
                21.633714
              ],
              [
                104.516654,
                21.633672
              ],
              [
                104.516708,
                21.633615
              ],
              [
                104.516779,
                21.633546
              ],
              [
                104.516838,
                21.633487
              ],
              [
                104.516885,
                21.63344
              ],
              [
                104.516928,
                21.633398
              ],
              [
                104.516961,
                21.633367
              ],
              [
                104.51698,
                21.63335
              ],
              [
                104.516997,
                21.633335
              ],
              [
                104.517025,
                21.633309
              ],
              [
                104.517062,
                21.633274
              ],
              [
                104.517091,
                21.633245
              ],
              [
                104.517111,
                21.633223
              ],
              [
                104.517134,
                21.633192
              ],
              [
                104.517171,
                21.633141
              ],
              [
                104.517216,
                21.633079
              ],
              [
                104.517263,
                21.633015
              ],
              [
                104.517303,
                21.632959
              ],
              [
                104.517329,
                21.632921
              ],
              [
                104.51734,
                21.6329
              ],
              [
                104.517348,
                21.63288
              ],
              [
                104.517362,
                21.632849
              ],
              [
                104.517376,
                21.632819
              ],
              [
                104.517386,
                21.632801
              ],
              [
                104.517394,
                21.632782
              ],
              [
                104.517406,
                21.632753
              ],
              [
                104.51742,
                21.632724
              ],
              [
                104.517428,
                21.632707
              ],
              [
                104.517435,
                21.632687
              ],
              [
                104.517447,
                21.632647
              ],
              [
                104.517455,
                21.632607
              ],
              [
                104.517248,
                21.63261
              ],
              [
                104.516972,
                21.632615
              ],
              [
                104.516807,
                21.632617
              ],
              [
                104.5166,
                21.632606
              ],
              [
                104.51634,
                21.632591
              ],
              [
                104.514357,
                21.632479
              ],
              [
                104.513887,
                21.632452
              ],
              [
                104.513711,
                21.632442
              ],
              [
                104.513539,
                21.632432
              ],
              [
                104.513515,
                21.632431
              ],
              [
                104.513484,
                21.632268
              ],
              [
                104.513475,
                21.632205
              ],
              [
                104.513382,
                21.631557
              ],
              [
                104.513381,
                21.631508
              ],
              [
                104.51338,
                21.631454
              ],
              [
                104.513423,
                21.631096
              ],
              [
                104.513462,
                21.630914
              ],
              [
                104.513478,
                21.630839
              ],
              [
                104.513549,
                21.630597
              ],
              [
                104.513668,
                21.63032
              ],
              [
                104.513778,
                21.630175
              ],
              [
                104.513901,
                21.63007
              ],
              [
                104.513955,
                21.630037
              ],
              [
                104.513972,
                21.630026
              ],
              [
                104.514006,
                21.630006
              ],
              [
                104.514012,
                21.630003
              ],
              [
                104.514054,
                21.629981
              ],
              [
                104.514097,
                21.629961
              ],
              [
                104.514141,
                21.629943
              ],
              [
                104.514189,
                21.629926
              ],
              [
                104.514231,
                21.629912
              ],
              [
                104.514275,
                21.629898
              ],
              [
                104.514345,
                21.629904
              ],
              [
                104.51442,
                21.629771
              ],
              [
                104.514453,
                21.629711
              ],
              [
                104.514472,
                21.629674
              ],
              [
                104.51449,
                21.629644
              ],
              [
                104.514511,
                21.629615
              ],
              [
                104.514524,
                21.629597
              ],
              [
                104.514564,
                21.629543
              ],
              [
                104.5147,
                21.629257
              ],
              [
                104.514751,
                21.629066
              ],
              [
                104.514733,
                21.628838
              ],
              [
                104.514653,
                21.628609
              ],
              [
                104.514582,
                21.628538
              ],
              [
                104.514111,
                21.628213
              ],
              [
                104.51341,
                21.627625
              ],
              [
                104.513304,
                21.627521
              ],
              [
                104.513022,
                21.627245
              ],
              [
                104.512751,
                21.626885
              ],
              [
                104.51261,
                21.626598
              ],
              [
                104.512496,
                21.626259
              ],
              [
                104.512482,
                21.626217
              ],
              [
                104.512422,
                21.625894
              ],
              [
                104.512415,
                21.625848
              ],
              [
                104.512399,
                21.625524
              ],
              [
                104.512399,
                21.625294
              ],
              [
                104.512552,
                21.62462
              ],
              [
                104.512576,
                21.624516
              ],
              [
                104.512695,
                21.624102
              ],
              [
                104.512717,
                21.624055
              ],
              [
                104.512727,
                21.624034
              ],
              [
                104.512727,
                21.624033
              ],
              [
                104.512771,
                21.623872
              ],
              [
                104.512881,
                21.623819
              ],
              [
                104.513107,
                21.623712
              ],
              [
                104.513277,
                21.623596
              ],
              [
                104.51361,
                21.62332
              ],
              [
                104.513767,
                21.623138
              ],
              [
                104.513898,
                21.622986
              ],
              [
                104.514052,
                21.622849
              ],
              [
                104.514157,
                21.622799
              ],
              [
                104.514434,
                21.622667
              ],
              [
                104.514612,
                21.622561
              ],
              [
                104.51475,
                21.622479
              ],
              [
                104.51507,
                21.6222
              ],
              [
                104.515231,
                21.622108
              ],
              [
                104.515419,
                21.622021
              ],
              [
                104.515559,
                21.621954
              ],
              [
                104.515689,
                21.621897
              ],
              [
                104.515814,
                21.621831
              ],
              [
                104.515923,
                21.621753
              ],
              [
                104.516023,
                21.621621
              ],
              [
                104.516102,
                21.621469
              ],
              [
                104.516198,
                21.621302
              ],
              [
                104.51643,
                21.621035
              ],
              [
                104.516517,
                21.620864
              ],
              [
                104.516567,
                21.620697
              ],
              [
                104.51657,
                21.620588
              ],
              [
                104.516522,
                21.620477
              ],
              [
                104.516437,
                21.620387
              ],
              [
                104.516235,
                21.620269
              ],
              [
                104.51606,
                21.62012
              ],
              [
                104.515921,
                21.619964
              ],
              [
                104.515865,
                21.619829
              ],
              [
                104.515847,
                21.619702
              ],
              [
                104.515839,
                21.619487
              ],
              [
                104.515853,
                21.619383
              ],
              [
                104.515847,
                21.619255
              ],
              [
                104.51581,
                21.619181
              ],
              [
                104.51573,
                21.619117
              ],
              [
                104.515581,
                21.619077
              ],
              [
                104.515116,
                21.619092
              ],
              [
                104.514721,
                21.619151
              ],
              [
                104.514565,
                21.619162
              ],
              [
                104.514514,
                21.619057
              ],
              [
                104.514386,
                21.618774
              ],
              [
                104.514248,
                21.618587
              ],
              [
                104.514239,
                21.618578
              ],
              [
                104.513991,
                21.618326
              ],
              [
                104.513752,
                21.618081
              ],
              [
                104.513713,
                21.618033
              ],
              [
                104.513652,
                21.617996
              ],
              [
                104.513575,
                21.617975
              ],
              [
                104.513485,
                21.617952
              ],
              [
                104.513418,
                21.617948
              ],
              [
                104.513277,
                21.617962
              ],
              [
                104.513065,
                21.617977
              ],
              [
                104.512901,
                21.617957
              ],
              [
                104.512628,
                21.617906
              ],
              [
                104.512415,
                21.61784
              ],
              [
                104.512025,
                21.617718
              ],
              [
                104.511874,
                21.617339
              ],
              [
                104.511772,
                21.617118
              ],
              [
                104.511676,
                21.616884
              ],
              [
                104.511393,
                21.616147
              ],
              [
                104.511175,
                21.61558
              ],
              [
                104.511084,
                21.615345
              ],
              [
                104.511063,
                21.615281
              ],
              [
                104.511016,
                21.615168
              ],
              [
                104.510854,
                21.61475
              ],
              [
                104.510726,
                21.614419
              ],
              [
                104.510604,
                21.61422
              ],
              [
                104.51039,
                21.613867
              ],
              [
                104.510325,
                21.613761
              ],
              [
                104.510168,
                21.613638
              ],
              [
                104.509924,
                21.613448
              ],
              [
                104.509889,
                21.61342
              ],
              [
                104.509567,
                21.613169
              ],
              [
                104.509473,
                21.613096
              ],
              [
                104.509104,
                21.612902
              ],
              [
                104.508442,
                21.612555
              ],
              [
                104.507028,
                21.612033
              ],
              [
                104.506997,
                21.612179
              ],
              [
                104.506917,
                21.612556
              ],
              [
                104.50679,
                21.612564
              ],
              [
                104.506539,
                21.61258
              ],
              [
                104.506239,
                21.612598
              ],
              [
                104.506504,
                21.613203
              ],
              [
                104.506576,
                21.613367
              ],
              [
                104.506956,
                21.614185
              ],
              [
                104.506993,
                21.614266
              ],
              [
                104.506959,
                21.614279
              ],
              [
                104.506542,
                21.614474
              ],
              [
                104.506103,
                21.614685
              ],
              [
                104.50597,
                21.614781
              ],
              [
                104.505903,
                21.614741
              ],
              [
                104.50575,
                21.614652
              ],
              [
                104.505648,
                21.614735
              ],
              [
                104.505639,
                21.614742
              ],
              [
                104.505511,
                21.614847
              ],
              [
                104.505497,
                21.614857
              ],
              [
                104.50537,
                21.614954
              ],
              [
                104.505329,
                21.61498
              ],
              [
                104.505196,
                21.615065
              ],
              [
                104.505119,
                21.615067
              ],
              [
                104.505007,
                21.615032
              ],
              [
                104.504865,
                21.614925
              ],
              [
                104.504669,
                21.614571
              ],
              [
                104.504669,
                21.614399
              ],
              [
                104.504687,
                21.61381
              ],
              [
                104.504693,
                21.613653
              ],
              [
                104.504699,
                21.613572
              ],
              [
                104.504591,
                21.613509
              ],
              [
                104.504307,
                21.613388
              ],
              [
                104.504001,
                21.61334
              ],
              [
                104.50396,
                21.613337
              ],
              [
                104.50388,
                21.613331
              ],
              [
                104.503866,
                21.613329
              ],
              [
                104.503858,
                21.613334
              ],
              [
                104.503773,
                21.613398
              ],
              [
                104.503659,
                21.613475
              ],
              [
                104.503099,
                21.61375
              ],
              [
                104.502848,
                21.613849
              ],
              [
                104.502513,
                21.614037
              ],
              [
                104.502087,
                21.614278
              ],
              [
                104.501886,
                21.61437
              ],
              [
                104.500355,
                21.615043
              ],
              [
                104.499971,
                21.615161
              ],
              [
                104.49885,
                21.615441
              ],
              [
                104.498823,
                21.615341
              ],
              [
                104.498644,
                21.614686
              ],
              [
                104.498541,
                21.614571
              ],
              [
                104.498285,
                21.614372
              ],
              [
                104.498099,
                21.614223
              ],
              [
                104.497893,
                21.614049
              ],
              [
                104.497886,
                21.613804
              ],
              [
                104.49794,
                21.612973
              ],
              [
                104.497963,
                21.612322
              ],
              [
                104.497945,
                21.611777
              ],
              [
                104.497935,
                21.611516
              ],
              [
                104.497935,
                21.61151
              ],
              [
                104.497441,
                21.6111
              ],
              [
                104.497399,
                21.611065
              ],
              [
                104.49712,
                21.610809
              ],
              [
                104.496977,
                21.610799
              ],
              [
                104.496792,
                21.610842
              ],
              [
                104.49622,
                21.610743
              ],
              [
                104.495821,
                21.611005
              ],
              [
                104.49556,
                21.611193
              ],
              [
                104.495469,
                21.611253
              ],
              [
                104.495017,
                21.611687
              ],
              [
                104.494627,
                21.612082
              ],
              [
                104.494386,
                21.612426
              ],
              [
                104.494186,
                21.612636
              ],
              [
                104.493986,
                21.612745
              ],
              [
                104.493295,
                21.612841
              ],
              [
                104.493299,
                21.612943
              ],
              [
                104.493314,
                21.613379
              ],
              [
                104.493273,
                21.61455
              ],
              [
                104.493555,
                21.614899
              ],
              [
                104.494035,
                21.61548
              ],
              [
                104.494198,
                21.615629
              ],
              [
                104.494607,
                21.616214
              ],
              [
                104.494626,
                21.616327
              ],
              [
                104.494717,
                21.616385
              ],
              [
                104.495115,
                21.616816
              ],
              [
                104.495257,
                21.617027
              ],
              [
                104.49535,
                21.617165
              ],
              [
                104.495111,
                21.617479
              ],
              [
                104.49511,
                21.617482
              ],
              [
                104.495019,
                21.61763
              ],
              [
                104.495057,
                21.617795
              ],
              [
                104.495174,
                21.617952
              ],
              [
                104.495217,
                21.61801
              ],
              [
                104.495255,
                21.618111
              ],
              [
                104.495167,
                21.618101
              ],
              [
                104.495125,
                21.618096
              ],
              [
                104.494765,
                21.617973
              ],
              [
                104.494535,
                21.617901
              ],
              [
                104.494526,
                21.6179
              ],
              [
                104.494475,
                21.617892
              ],
              [
                104.494388,
                21.617881
              ],
              [
                104.49425,
                21.617903
              ],
              [
                104.494039,
                21.617936
              ],
              [
                104.493728,
                21.617986
              ],
              [
                104.492852,
                21.618342
              ],
              [
                104.492393,
                21.618505
              ],
              [
                104.49233,
                21.618527
              ],
              [
                104.491962,
                21.618547
              ],
              [
                104.491249,
                21.618588
              ],
              [
                104.491245,
                21.618586
              ],
              [
                104.490711,
                21.618711
              ],
              [
                104.490353,
                21.618729
              ],
              [
                104.489218,
                21.618821
              ],
              [
                104.48887,
                21.618753
              ],
              [
                104.487614,
                21.618453
              ],
              [
                104.486899,
                21.618107
              ],
              [
                104.486174,
                21.617951
              ],
              [
                104.485888,
                21.617683
              ],
              [
                104.485254,
                21.617604
              ],
              [
                104.484963,
                21.617493
              ],
              [
                104.484433,
                21.617457
              ],
              [
                104.484333,
                21.617428
              ],
              [
                104.484297,
                21.617393
              ],
              [
                104.484215,
                21.617407
              ],
              [
                104.48395,
                21.617398
              ],
              [
                104.483831,
                21.617365
              ],
              [
                104.483716,
                21.617359
              ],
              [
                104.483644,
                21.617415
              ],
              [
                104.483577,
                21.61743
              ],
              [
                104.483533,
                21.617412
              ],
              [
                104.483393,
                21.617304
              ],
              [
                104.483326,
                21.617293
              ],
              [
                104.483264,
                21.617322
              ],
              [
                104.483158,
                21.617358
              ],
              [
                104.483099,
                21.617338
              ],
              [
                104.483005,
                21.617227
              ],
              [
                104.48295,
                21.617164
              ],
              [
                104.482884,
                21.617133
              ],
              [
                104.48278,
                21.617114
              ],
              [
                104.482687,
                21.617091
              ],
              [
                104.482633,
                21.617036
              ],
              [
                104.482615,
                21.616969
              ],
              [
                104.482631,
                21.616847
              ],
              [
                104.482641,
                21.616762
              ],
              [
                104.48259,
                21.616681
              ],
              [
                104.482509,
                21.616595
              ],
              [
                104.482439,
                21.616566
              ],
              [
                104.482369,
                21.61655
              ],
              [
                104.482257,
                21.616547
              ],
              [
                104.482169,
                21.616512
              ],
              [
                104.482079,
                21.616456
              ],
              [
                104.482018,
                21.61639
              ],
              [
                104.481942,
                21.616343
              ],
              [
                104.481853,
                21.616331
              ],
              [
                104.481719,
                21.616374
              ],
              [
                104.48158,
                21.616411
              ],
              [
                104.481518,
                21.616427
              ],
              [
                104.481428,
                21.616324
              ],
              [
                104.481379,
                21.616194
              ],
              [
                104.481377,
                21.616162
              ],
              [
                104.481336,
                21.616165
              ],
              [
                104.48132,
                21.616198
              ],
              [
                104.481329,
                21.616342
              ],
              [
                104.481303,
                21.616452
              ],
              [
                104.481159,
                21.61649
              ],
              [
                104.481054,
                21.616417
              ],
              [
                104.480999,
                21.616445
              ],
              [
                104.480681,
                21.616609
              ],
              [
                104.480463,
                21.616746
              ],
              [
                104.480361,
                21.616775
              ],
              [
                104.480227,
                21.616727
              ],
              [
                104.480125,
                21.616589
              ],
              [
                104.480011,
                21.61629
              ],
              [
                104.479995,
                21.616275
              ],
              [
                104.47989,
                21.616176
              ],
              [
                104.479807,
                21.616164
              ],
              [
                104.47966,
                21.616164
              ],
              [
                104.479613,
                21.616207
              ],
              [
                104.479629,
                21.61623
              ],
              [
                104.479755,
                21.616606
              ],
              [
                104.479812,
                21.616857
              ],
              [
                104.479852,
                21.617254
              ],
              [
                104.47986,
                21.617598
              ],
              [
                104.479849,
                21.617808
              ],
              [
                104.47983,
                21.617855
              ],
              [
                104.479813,
                21.617899
              ],
              [
                104.479816,
                21.618011
              ],
              [
                104.479694,
                21.617925
              ],
              [
                104.479515,
                21.617868
              ],
              [
                104.479473,
                21.61787
              ],
              [
                104.479368,
                21.617876
              ],
              [
                104.479243,
                21.617963
              ],
              [
                104.478989,
                21.618341
              ],
              [
                104.4785,
                21.61926
              ],
              [
                104.478366,
                21.619415
              ],
              [
                104.478335,
                21.619431
              ],
              [
                104.47827,
                21.619464
              ],
              [
                104.478257,
                21.619471
              ],
              [
                104.478239,
                21.619473
              ],
              [
                104.478142,
                21.61948
              ],
              [
                104.478044,
                21.619452
              ],
              [
                104.478014,
                21.619444
              ],
              [
                104.477955,
                21.619375
              ],
              [
                104.477753,
                21.619135
              ],
              [
                104.477568,
                21.618961
              ],
              [
                104.477396,
                21.618904
              ],
              [
                104.477261,
                21.618906
              ],
              [
                104.477244,
                21.618906
              ],
              [
                104.477223,
                21.618906
              ],
              [
                104.477181,
                21.618923
              ],
              [
                104.476993,
                21.618998
              ],
              [
                104.476804,
                21.619145
              ],
              [
                104.476778,
                21.619165
              ],
              [
                104.476691,
                21.619306
              ],
              [
                104.476579,
                21.619487
              ],
              [
                104.476419,
                21.619642
              ],
              [
                104.476249,
                21.619746
              ],
              [
                104.476031,
                21.61985
              ],
              [
                104.475801,
                21.620014
              ],
              [
                104.475714,
                21.620065
              ],
              [
                104.475743,
                21.620198
              ],
              [
                104.47576,
                21.620275
              ],
              [
                104.476118,
                21.620929
              ],
              [
                104.476453,
                21.621582
              ],
              [
                104.47692,
                21.621993
              ],
              [
                104.477126,
                21.62233
              ],
              [
                104.477109,
                21.62261
              ],
              [
                104.477098,
                21.622725
              ],
              [
                104.476987,
                21.622799
              ],
              [
                104.476867,
                21.622887
              ],
              [
                104.476639,
                21.623045
              ],
              [
                104.476596,
                21.623084
              ],
              [
                104.4765,
                21.62315
              ],
              [
                104.476476,
                21.623185
              ],
              [
                104.476844,
                21.623725
              ],
              [
                104.476898,
                21.623887
              ],
              [
                104.476891,
                21.624034
              ],
              [
                104.476891,
                21.624038
              ],
              [
                104.476891,
                21.624038
              ],
              [
                104.47688,
                21.624261
              ],
              [
                104.476857,
                21.624739
              ],
              [
                104.476888,
                21.624989
              ],
              [
                104.476919,
                21.625237
              ],
              [
                104.476923,
                21.625267
              ],
              [
                104.476947,
                21.62546
              ],
              [
                104.47694,
                21.625692
              ],
              [
                104.47698,
                21.625991
              ],
              [
                104.477017,
                21.626263
              ],
              [
                104.476966,
                21.626306
              ],
              [
                104.476622,
                21.626608
              ],
              [
                104.476107,
                21.626893
              ],
              [
                104.475906,
                21.626979
              ],
              [
                104.475639,
                21.627225
              ],
              [
                104.475713,
                21.627405
              ],
              [
                104.475737,
                21.627474
              ],
              [
                104.475842,
                21.627762
              ],
              [
                104.475959,
                21.628097
              ],
              [
                104.476067,
                21.62825
              ],
              [
                104.476237,
                21.628337
              ],
              [
                104.476473,
                21.62838
              ],
              [
                104.47662,
                21.628437
              ],
              [
                104.476737,
                21.62856
              ],
              [
                104.4768,
                21.628859
              ],
              [
                104.476851,
                21.629023
              ],
              [
                104.476933,
                21.629232
              ],
              [
                104.476963,
                21.629369
              ],
              [
                104.476984,
                21.629378
              ],
              [
                104.477041,
                21.62943
              ],
              [
                104.477203,
                21.629617
              ],
              [
                104.47717,
                21.629737
              ],
              [
                104.477383,
                21.630254
              ],
              [
                104.477534,
                21.630864
              ],
              [
                104.477633,
                21.631151
              ],
              [
                104.478051,
                21.632185
              ],
              [
                104.478115,
                21.632374
              ],
              [
                104.47828,
                21.63286
              ],
              [
                104.478371,
                21.633284
              ],
              [
                104.478392,
                21.633384
              ],
              [
                104.478388,
                21.633392
              ],
              [
                104.478338,
                21.633513
              ],
              [
                104.47833,
                21.633534
              ],
              [
                104.478301,
                21.633534
              ],
              [
                104.478253,
                21.633534
              ],
              [
                104.477525,
                21.633496
              ],
              [
                104.476359,
                21.633485
              ],
              [
                104.476044,
                21.633512
              ],
              [
                104.475317,
                21.63365
              ],
              [
                104.47513,
                21.633645
              ],
              [
                104.474501,
                21.633689
              ],
              [
                104.473536,
                21.633669
              ],
              [
                104.473006,
                21.633675
              ],
              [
                104.472914,
                21.633746
              ],
              [
                104.472883,
                21.633882
              ],
              [
                104.472882,
                21.634055
              ],
              [
                104.472943,
                21.63422
              ],
              [
                104.473027,
                21.634277
              ],
              [
                104.473045,
                21.63428
              ],
              [
                104.473319,
                21.634321
              ],
              [
                104.473763,
                21.634445
              ],
              [
                104.474176,
                21.634675
              ],
              [
                104.474257,
                21.63485
              ],
              [
                104.474193,
                21.634887
              ],
              [
                104.474082,
                21.634953
              ],
              [
                104.474044,
                21.634987
              ],
              [
                104.474015,
                21.63504
              ],
              [
                104.47401,
                21.635049
              ],
              [
                104.473978,
                21.635108
              ],
              [
                104.473897,
                21.635249
              ],
              [
                104.473838,
                21.635327
              ],
              [
                104.473695,
                21.635443
              ],
              [
                104.47362,
                21.6355
              ],
              [
                104.473582,
                21.635555
              ],
              [
                104.473541,
                21.635648
              ],
              [
                104.473473,
                21.635786
              ],
              [
                104.473391,
                21.635895
              ],
              [
                104.473356,
                21.635921
              ],
              [
                104.473182,
                21.63602
              ],
              [
                104.472844,
                21.636098
              ],
              [
                104.472777,
                21.636212
              ],
              [
                104.472675,
                21.636385
              ],
              [
                104.472382,
                21.636778
              ],
              [
                104.472196,
                21.637165
              ],
              [
                104.472164,
                21.637688
              ],
              [
                104.472208,
                21.638061
              ],
              [
                104.472254,
                21.638226
              ],
              [
                104.472361,
                21.638291
              ],
              [
                104.472789,
                21.638551
              ],
              [
                104.472904,
                21.638802
              ],
              [
                104.472918,
                21.639161
              ],
              [
                104.47284,
                21.639404
              ],
              [
                104.472724,
                21.639547
              ],
              [
                104.472724,
                21.639676
              ],
              [
                104.47274,
                21.639752
              ],
              [
                104.472769,
                21.639885
              ],
              [
                104.47278,
                21.640165
              ],
              [
                104.472892,
                21.640823
              ],
              [
                104.472867,
                21.640979
              ],
              [
                104.472762,
                21.641151
              ],
              [
                104.472589,
                21.641383
              ],
              [
                104.472334,
                21.641653
              ],
              [
                104.472179,
                21.641911
              ],
              [
                104.472181,
                21.642147
              ],
              [
                104.472157,
                21.642532
              ],
              [
                104.472105,
                21.64281
              ],
              [
                104.472101,
                21.642923
              ],
              [
                104.472137,
                21.643011
              ],
              [
                104.472268,
                21.643087
              ],
              [
                104.472736,
                21.643257
              ],
              [
                104.472878,
                21.64337
              ],
              [
                104.473003,
                21.64358
              ],
              [
                104.473037,
                21.643939
              ],
              [
                104.473159,
                21.644292
              ],
              [
                104.473254,
                21.645004
              ],
              [
                104.473253,
                21.645302
              ],
              [
                104.473182,
                21.645467
              ],
              [
                104.473075,
                21.645533
              ],
              [
                104.472972,
                21.645534
              ],
              [
                104.472856,
                21.645509
              ],
              [
                104.472735,
                21.645506
              ],
              [
                104.472682,
                21.645534
              ],
              [
                104.472638,
                21.645577
              ],
              [
                104.472605,
                21.645625
              ],
              [
                104.472587,
                21.645668
              ],
              [
                104.472578,
                21.645743
              ],
              [
                104.472598,
                21.645839
              ],
              [
                104.472654,
                21.645954
              ],
              [
                104.472659,
                21.645978
              ],
              [
                104.472672,
                21.646031
              ],
              [
                104.472656,
                21.646083
              ],
              [
                104.472627,
                21.646119
              ],
              [
                104.472561,
                21.646187
              ],
              [
                104.472441,
                21.646284
              ],
              [
                104.47233,
                21.646387
              ],
              [
                104.472165,
                21.646545
              ],
              [
                104.472061,
                21.646626
              ],
              [
                104.471991,
                21.646675
              ],
              [
                104.471909,
                21.646751
              ],
              [
                104.471812,
                21.646865
              ],
              [
                104.471753,
                21.64696
              ],
              [
                104.471675,
                21.647078
              ],
              [
                104.471578,
                21.647194
              ],
              [
                104.471473,
                21.647312
              ],
              [
                104.471387,
                21.647406
              ],
              [
                104.471347,
                21.647484
              ],
              [
                104.471319,
                21.647566
              ],
              [
                104.471296,
                21.647684
              ],
              [
                104.471255,
                21.647864
              ],
              [
                104.471204,
                21.648085
              ],
              [
                104.471175,
                21.648238
              ],
              [
                104.471186,
                21.64834
              ],
              [
                104.471203,
                21.648423
              ],
              [
                104.471244,
                21.648483
              ],
              [
                104.471352,
                21.64858
              ],
              [
                104.471485,
                21.648698
              ],
              [
                104.47152,
                21.648756
              ],
              [
                104.471562,
                21.648853
              ],
              [
                104.471626,
                21.648954
              ],
              [
                104.471732,
                21.649094
              ],
              [
                104.471768,
                21.649154
              ],
              [
                104.471795,
                21.649233
              ],
              [
                104.47181,
                21.649287
              ],
              [
                104.471813,
                21.64936
              ],
              [
                104.471795,
                21.649455
              ],
              [
                104.471751,
                21.649571
              ],
              [
                104.471708,
                21.64968
              ],
              [
                104.471704,
                21.649801
              ],
              [
                104.471657,
                21.64994
              ],
              [
                104.471634,
                21.650053
              ],
              [
                104.471641,
                21.650088
              ],
              [
                104.471687,
                21.650124
              ],
              [
                104.471741,
                21.650142
              ],
              [
                104.471798,
                21.650148
              ],
              [
                104.471834,
                21.650167
              ],
              [
                104.471857,
                21.650217
              ],
              [
                104.471924,
                21.650428
              ],
              [
                104.472746,
                21.650577
              ],
              [
                104.47367,
                21.650768
              ],
              [
                104.474745,
                21.651372
              ],
              [
                104.47492,
                21.651544
              ],
              [
                104.474869,
                21.651588
              ],
              [
                104.474638,
                21.65175
              ],
              [
                104.474543,
                21.651822
              ],
              [
                104.474481,
                21.65209
              ],
              [
                104.473772,
                21.652562
              ],
              [
                104.473443,
                21.652831
              ],
              [
                104.473112,
                21.653217
              ],
              [
                104.472708,
                21.654514
              ],
              [
                104.472491,
                21.655259
              ],
              [
                104.472538,
                21.655636
              ],
              [
                104.472543,
                21.655675
              ],
              [
                104.47278,
                21.656027
              ],
              [
                104.473238,
                21.656667
              ],
              [
                104.473941,
                21.657393
              ],
              [
                104.474192,
                21.657889
              ],
              [
                104.474383,
                21.658062
              ],
              [
                104.474159,
                21.658405
              ],
              [
                104.473828,
                21.658791
              ],
              [
                104.472837,
                21.659319
              ],
              [
                104.472022,
                21.659761
              ],
              [
                104.471359,
                21.660576
              ],
              [
                104.47115,
                21.661056
              ],
              [
                104.471095,
                21.661479
              ],
              [
                104.471163,
                21.661702
              ],
              [
                104.471566,
                21.662886
              ],
              [
                104.471609,
                21.663178
              ],
              [
                104.471574,
                21.663526
              ],
              [
                104.471568,
                21.664306
              ],
              [
                104.471878,
                21.664548
              ],
              [
                104.472082,
                21.664741
              ],
              [
                104.472299,
                21.665041
              ],
              [
                104.472452,
                21.665305
              ],
              [
                104.472523,
                21.665464
              ],
              [
                104.472554,
                21.665533
              ],
              [
                104.472733,
                21.666042
              ],
              [
                104.472787,
                21.666186
              ],
              [
                104.472804,
                21.666269
              ],
              [
                104.47285,
                21.666343
              ],
              [
                104.472904,
                21.666415
              ],
              [
                104.472964,
                21.666468
              ],
              [
                104.473031,
                21.666506
              ],
              [
                104.473059,
                21.666531
              ],
              [
                104.473113,
                21.666579
              ],
              [
                104.473147,
                21.666619
              ],
              [
                104.473186,
                21.666764
              ],
              [
                104.473256,
                21.667009
              ],
              [
                104.473301,
                21.667161
              ],
              [
                104.473352,
                21.667255
              ],
              [
                104.473434,
                21.667354
              ],
              [
                104.473499,
                21.667419
              ],
              [
                104.473528,
                21.667441
              ],
              [
                104.473552,
                21.6675
              ],
              [
                104.473605,
                21.667713
              ],
              [
                104.473683,
                21.667909
              ],
              [
                104.473759,
                21.668055
              ],
              [
                104.473846,
                21.668171
              ],
              [
                104.473949,
                21.66827
              ],
              [
                104.474081,
                21.668373
              ],
              [
                104.474233,
                21.668476
              ],
              [
                104.474362,
                21.668559
              ],
              [
                104.474552,
                21.668643
              ],
              [
                104.474771,
                21.668712
              ],
              [
                104.474981,
                21.668755
              ],
              [
                104.475068,
                21.668799
              ],
              [
                104.475114,
                21.668847
              ],
              [
                104.475282,
                21.669008
              ],
              [
                104.475421,
                21.669121
              ],
              [
                104.475567,
                21.669266
              ],
              [
                104.475706,
                21.669448
              ],
              [
                104.475988,
                21.669765
              ],
              [
                104.476197,
                21.669961
              ],
              [
                104.476338,
                21.670049
              ],
              [
                104.476347,
                21.670081
              ],
              [
                104.476381,
                21.670223
              ],
              [
                104.476401,
                21.670276
              ],
              [
                104.476438,
                21.670319
              ],
              [
                104.476514,
                21.670385
              ],
              [
                104.476719,
                21.670484
              ],
              [
                104.476894,
                21.670539
              ],
              [
                104.476959,
                21.670586
              ],
              [
                104.476997,
                21.670628
              ],
              [
                104.477017,
                21.670666
              ],
              [
                104.477013,
                21.670726
              ],
              [
                104.476989,
                21.670778
              ],
              [
                104.476973,
                21.670837
              ],
              [
                104.476977,
                21.670879
              ],
              [
                104.477014,
                21.670921
              ],
              [
                104.477079,
                21.670934
              ],
              [
                104.477127,
                21.670938
              ],
              [
                104.477152,
                21.67095
              ],
              [
                104.47716,
                21.670979
              ],
              [
                104.477146,
                21.671024
              ],
              [
                104.477114,
                21.671126
              ],
              [
                104.477114,
                21.671253
              ],
              [
                104.477109,
                21.671373
              ],
              [
                104.477112,
                21.671448
              ],
              [
                104.477102,
                21.671583
              ],
              [
                104.477074,
                21.671741
              ],
              [
                104.47707,
                21.6718
              ],
              [
                104.477092,
                21.671865
              ],
              [
                104.477151,
                21.671934
              ],
              [
                104.477204,
                21.671995
              ],
              [
                104.477277,
                21.672102
              ],
              [
                104.477308,
                21.672215
              ],
              [
                104.477329,
                21.672335
              ],
              [
                104.477331,
                21.672474
              ],
              [
                104.477298,
                21.672606
              ],
              [
                104.477452,
                21.672659
              ],
              [
                104.477957,
                21.672733
              ],
              [
                104.478338,
                21.672642
              ],
              [
                104.478674,
                21.672562
              ],
              [
                104.479115,
                21.672491
              ],
              [
                104.479677,
                21.672535
              ],
              [
                104.480612,
                21.672654
              ],
              [
                104.480687,
                21.672663
              ],
              [
                104.48105,
                21.673137
              ],
              [
                104.481191,
                21.673107
              ],
              [
                104.481419,
                21.673616
              ],
              [
                104.481528,
                21.67358
              ],
              [
                104.481789,
                21.673922
              ],
              [
                104.481936,
                21.673892
              ],
              [
                104.482031,
                21.674078
              ],
              [
                104.481865,
                21.674149
              ],
              [
                104.482055,
                21.674664
              ],
              [
                104.482264,
                21.674999
              ],
              [
                104.482274,
                21.675162
              ],
              [
                104.482407,
                21.675177
              ],
              [
                104.482695,
                21.675206
              ],
              [
                104.482936,
                21.675261
              ],
              [
                104.483526,
                21.675449
              ],
              [
                104.483852,
                21.675594
              ],
              [
                104.484123,
                21.675781
              ],
              [
                104.484368,
                21.675997
              ],
              [
                104.484594,
                21.676205
              ],
              [
                104.484735,
                21.676281
              ],
              [
                104.484912,
                21.676307
              ],
              [
                104.48505,
                21.676286
              ],
              [
                104.485107,
                21.676256
              ],
              [
                104.485165,
                21.676225
              ],
              [
                104.485273,
                21.676086
              ],
              [
                104.485273,
                21.676086
              ]
            ]
          ]
        ]
      },
      "properties": {
        "code": "04660",
        "name": "Liên Sơn",
        "nameEn": "Lien Son",
        "fullName": "Xã Liên Sơn",
        "fullNameEn": "Lien Son Commune",
        "codeName": "lien_son",
        "postalCode": "33837",
        "postalCodePrefix": "",
        "gisServerId": "diaphanhanhchinhcapxa_2025.1041",
        "areaKm2": 23.58
      }
    }
  ]
}