{
  "type": "FeatureCollection",
  "bbox": [
    105.280413,
    20.797082,
    105.349155,
    20.940051
  ],
  "features": [
    {
      "type": "Feature",
      "id": "04792",
      "bbox": [
        105.280413,
        20.797082,
        105.349155,
        20.940051
      ],
      "geometry": {
        "type": "MultiPolygon",
        "coordinates": [
          [
            [
              [
                105.344568,
                20.939191
              ],
              [
                105.344842,
                20.936521
              ],
              [
                105.345374,
                20.933952
              ],
              [
                105.345623,
                20.932754
              ],
              [
                105.345719,
                20.932213
              ],
              [
                105.346372,
                20.928568
              ],
              [
                105.34662,
                20.927368
              ],
              [
                105.346959,
                20.925731
              ],
              [
                105.347106,
                20.925049
              ],
              [
                105.347673,
                20.922422
              ],
              [
                105.348488,
                20.918902
              ],
              [
                105.348751,
                20.917778
              ],
              [
                105.348751,
                20.917776
              ],
              [
                105.348846,
                20.917043
              ],
              [
                105.348858,
                20.916687
              ],
              [
                105.348876,
                20.916094
              ],
              [
                105.348984,
                20.912674
              ],
              [
                105.34901,
                20.91205
              ],
              [
                105.349081,
                20.91002
              ],
              [
                105.349155,
                20.908154
              ],
              [
                105.349106,
                20.90739
              ],
              [
                105.348985,
                20.905653
              ],
              [
                105.348959,
                20.905271
              ],
              [
                105.34859,
                20.90294
              ],
              [
                105.348027,
                20.900659
              ],
              [
                105.347465,
                20.899077
              ],
              [
                105.347033,
                20.897861
              ],
              [
                105.345622,
                20.894815
              ],
              [
                105.343375,
                20.88919
              ],
              [
                105.342666,
                20.887416
              ],
              [
                105.342247,
                20.885405
              ],
              [
                105.342094,
                20.884656
              ],
              [
                105.341144,
                20.882401
              ],
              [
                105.341019,
                20.881788
              ],
              [
                105.340574,
                20.879818
              ],
              [
                105.340168,
                20.877785
              ],
              [
                105.339766,
                20.875703
              ],
              [
                105.339546,
                20.874559
              ],
              [
                105.339524,
                20.874446
              ],
              [
                105.339367,
                20.874017
              ],
              [
                105.339192,
                20.873098
              ],
              [
                105.339131,
                20.872758
              ],
              [
                105.338877,
                20.871336
              ],
              [
                105.338583,
                20.869566
              ],
              [
                105.337771,
                20.865257
              ],
              [
                105.33778,
                20.864292
              ],
              [
                105.337785,
                20.862414
              ],
              [
                105.337813,
                20.862033
              ],
              [
                105.337971,
                20.860916
              ],
              [
                105.338268,
                20.858842
              ],
              [
                105.338427,
                20.85839
              ],
              [
                105.338746,
                20.85784
              ],
              [
                105.340646,
                20.856037
              ],
              [
                105.341785,
                20.854963
              ],
              [
                105.342967,
                20.854008
              ],
              [
                105.344861,
                20.852529
              ],
              [
                105.345624,
                20.851933
              ],
              [
                105.346226,
                20.851622
              ],
              [
                105.346123,
                20.851532
              ],
              [
                105.345602,
                20.850693
              ],
              [
                105.345091,
                20.849666
              ],
              [
                105.344752,
                20.848914
              ],
              [
                105.344626,
                20.848759
              ],
              [
                105.344496,
                20.848623
              ],
              [
                105.344479,
                20.848615
              ],
              [
                105.344452,
                20.848604
              ],
              [
                105.344399,
                20.848581
              ],
              [
                105.344355,
                20.848562
              ],
              [
                105.344229,
                20.848476
              ],
              [
                105.344068,
                20.848358
              ],
              [
                105.343831,
                20.848011
              ],
              [
                105.343712,
                20.8478
              ],
              [
                105.343617,
                20.847603
              ],
              [
                105.343482,
                20.847345
              ],
              [
                105.343414,
                20.847237
              ],
              [
                105.343307,
                20.847173
              ],
              [
                105.343207,
                20.847187
              ],
              [
                105.342994,
                20.847364
              ],
              [
                105.342842,
                20.847414
              ],
              [
                105.342601,
                20.847407
              ],
              [
                105.342292,
                20.84734
              ],
              [
                105.342067,
                20.847236
              ],
              [
                105.341926,
                20.84714
              ],
              [
                105.341845,
                20.847097
              ],
              [
                105.341704,
                20.847112
              ],
              [
                105.341662,
                20.847169
              ],
              [
                105.341632,
                20.84732
              ],
              [
                105.341667,
                20.847567
              ],
              [
                105.34166,
                20.847675
              ],
              [
                105.341599,
                20.847732
              ],
              [
                105.341473,
                20.84775
              ],
              [
                105.341351,
                20.847733
              ],
              [
                105.341286,
                20.84764
              ],
              [
                105.341244,
                20.847543
              ],
              [
                105.341297,
                20.847417
              ],
              [
                105.341335,
                20.84732
              ],
              [
                105.341266,
                20.847292
              ],
              [
                105.341178,
                20.847267
              ],
              [
                105.341083,
                20.847238
              ],
              [
                105.340999,
                20.847152
              ],
              [
                105.340914,
                20.846948
              ],
              [
                105.340845,
                20.846866
              ],
              [
                105.340773,
                20.846848
              ],
              [
                105.340635,
                20.846827
              ],
              [
                105.340578,
                20.846827
              ],
              [
                105.340559,
                20.846802
              ],
              [
                105.340555,
                20.846741
              ],
              [
                105.340543,
                20.846644
              ],
              [
                105.340532,
                20.846583
              ],
              [
                105.340463,
                20.846515
              ],
              [
                105.340284,
                20.846401
              ],
              [
                105.340135,
                20.846304
              ],
              [
                105.340092,
                20.8462
              ],
              [
                105.340092,
                20.846114
              ],
              [
                105.340229,
                20.846017
              ],
              [
                105.340294,
                20.84596
              ],
              [
                105.34029,
                20.845899
              ],
              [
                105.340233,
                20.845809
              ],
              [
                105.34016,
                20.845721
              ],
              [
                105.340449,
                20.845487
              ],
              [
                105.340838,
                20.845195
              ],
              [
                105.340908,
                20.845142
              ],
              [
                105.341112,
                20.845016
              ],
              [
                105.341132,
                20.845004
              ],
              [
                105.3415,
                20.844759
              ],
              [
                105.34166,
                20.844659
              ],
              [
                105.341894,
                20.844514
              ],
              [
                105.342307,
                20.844253
              ],
              [
                105.342545,
                20.84409
              ],
              [
                105.342569,
                20.844073
              ],
              [
                105.342803,
                20.843922
              ],
              [
                105.343024,
                20.843812
              ],
              [
                105.343293,
                20.843699
              ],
              [
                105.343485,
                20.843637
              ],
              [
                105.343644,
                20.843586
              ],
              [
                105.344002,
                20.843465
              ],
              [
                105.344152,
                20.843423
              ],
              [
                105.344638,
                20.843244
              ],
              [
                105.344498,
                20.842836
              ],
              [
                105.344363,
                20.842455
              ],
              [
                105.34431,
                20.842306
              ],
              [
                105.344083,
                20.841686
              ],
              [
                105.34385,
                20.841027
              ],
              [
                105.343749,
                20.840743
              ],
              [
                105.343615,
                20.840411
              ],
              [
                105.343258,
                20.840438
              ],
              [
                105.342766,
                20.840466
              ],
              [
                105.342653,
                20.840472
              ],
              [
                105.341001,
                20.84064
              ],
              [
                105.340656,
                20.840675
              ],
              [
                105.3404,
                20.840716
              ],
              [
                105.339891,
                20.840766
              ],
              [
                105.33987,
                20.840769
              ],
              [
                105.339519,
                20.840823
              ],
              [
                105.33902,
                20.840908
              ],
              [
                105.338575,
                20.841005
              ],
              [
                105.338436,
                20.841048
              ],
              [
                105.338289,
                20.841092
              ],
              [
                105.337559,
                20.841338
              ],
              [
                105.337257,
                20.841437
              ],
              [
                105.337106,
                20.84149
              ],
              [
                105.336971,
                20.841536
              ],
              [
                105.336602,
                20.841639
              ],
              [
                105.336234,
                20.841714
              ],
              [
                105.3357,
                20.841796
              ],
              [
                105.335568,
                20.841801
              ],
              [
                105.335369,
                20.841809
              ],
              [
                105.335322,
                20.841807
              ],
              [
                105.334912,
                20.841798
              ],
              [
                105.334504,
                20.841758
              ],
              [
                105.334184,
                20.841726
              ],
              [
                105.33334,
                20.841682
              ],
              [
                105.333276,
                20.841679
              ],
              [
                105.333269,
                20.841572
              ],
              [
                105.333218,
                20.841324
              ],
              [
                105.333096,
                20.841354
              ],
              [
                105.333014,
                20.841351
              ],
              [
                105.332934,
                20.841342
              ],
              [
                105.332788,
                20.841274
              ],
              [
                105.332266,
                20.841048
              ],
              [
                105.332031,
                20.840941
              ],
              [
                105.332024,
                20.840938
              ],
              [
                105.331887,
                20.840896
              ],
              [
                105.331633,
                20.840861
              ],
              [
                105.331131,
                20.840835
              ],
              [
                105.330873,
                20.840814
              ],
              [
                105.330663,
                20.840785
              ],
              [
                105.330468,
                20.840735
              ],
              [
                105.330468,
                20.840735
              ],
              [
                105.330434,
                20.840727
              ],
              [
                105.330251,
                20.840669
              ],
              [
                105.33019,
                20.840649
              ],
              [
                105.33003,
                20.840603
              ],
              [
                105.329834,
                20.840525
              ],
              [
                105.329806,
                20.840508
              ],
              [
                105.329604,
                20.840389
              ],
              [
                105.329435,
                20.840273
              ],
              [
                105.32934,
                20.840188
              ],
              [
                105.329306,
                20.840221
              ],
              [
                105.329256,
                20.840235
              ],
              [
                105.329155,
                20.840245
              ],
              [
                105.328751,
                20.840274
              ],
              [
                105.328708,
                20.840279
              ],
              [
                105.328441,
                20.840291
              ],
              [
                105.328276,
                20.840297
              ],
              [
                105.3282,
                20.840305
              ],
              [
                105.328027,
                20.840355
              ],
              [
                105.327951,
                20.840388
              ],
              [
                105.327903,
                20.840439
              ],
              [
                105.327863,
                20.84049
              ],
              [
                105.327842,
                20.840539
              ],
              [
                105.327833,
                20.840559
              ],
              [
                105.327772,
                20.840766
              ],
              [
                105.327771,
                20.840772
              ],
              [
                105.327755,
                20.840741
              ],
              [
                105.327688,
                20.840121
              ],
              [
                105.327028,
                20.840043
              ],
              [
                105.32681,
                20.839777
              ],
              [
                105.326533,
                20.839535
              ],
              [
                105.326475,
                20.839624
              ],
              [
                105.326387,
                20.839743
              ],
              [
                105.326277,
                20.839865
              ],
              [
                105.326186,
                20.839897
              ],
              [
                105.326155,
                20.839908
              ],
              [
                105.325995,
                20.839948
              ],
              [
                105.325958,
                20.839971
              ],
              [
                105.325816,
                20.840059
              ],
              [
                105.325728,
                20.840125
              ],
              [
                105.325682,
                20.840102
              ],
              [
                105.325493,
                20.840005
              ],
              [
                105.325262,
                20.839887
              ],
              [
                105.324826,
                20.839679
              ],
              [
                105.32446,
                20.839441
              ],
              [
                105.324207,
                20.839293
              ],
              [
                105.323934,
                20.839151
              ],
              [
                105.323764,
                20.839034
              ],
              [
                105.323359,
                20.838805
              ],
              [
                105.323077,
                20.838576
              ],
              [
                105.322667,
                20.838149
              ],
              [
                105.322308,
                20.837883
              ],
              [
                105.322307,
                20.837882
              ],
              [
                105.322266,
                20.837861
              ],
              [
                105.3219,
                20.837668
              ],
              [
                105.321694,
                20.837568
              ],
              [
                105.321538,
                20.837475
              ],
              [
                105.321442,
                20.837418
              ],
              [
                105.321274,
                20.837325
              ],
              [
                105.321058,
                20.83706
              ],
              [
                105.321052,
                20.837053
              ],
              [
                105.320769,
                20.836616
              ],
              [
                105.320434,
                20.836227
              ],
              [
                105.320408,
                20.836204
              ],
              [
                105.320282,
                20.836066
              ],
              [
                105.320115,
                20.835799
              ],
              [
                105.320095,
                20.835749
              ],
              [
                105.319934,
                20.835376
              ],
              [
                105.319796,
                20.835126
              ],
              [
                105.319739,
                20.835068
              ],
              [
                105.319343,
                20.834643
              ],
              [
                105.318862,
                20.834156
              ],
              [
                105.318078,
                20.833467
              ],
              [
                105.318118,
                20.832881
              ],
              [
                105.318173,
                20.832092
              ],
              [
                105.318215,
                20.831482
              ],
              [
                105.318275,
                20.830688
              ],
              [
                105.318408,
                20.828913
              ],
              [
                105.318543,
                20.827112
              ],
              [
                105.317858,
                20.827415
              ],
              [
                105.317519,
                20.82746
              ],
              [
                105.317254,
                20.827239
              ],
              [
                105.316821,
                20.827568
              ],
              [
                105.316548,
                20.827692
              ],
              [
                105.316389,
                20.827182
              ],
              [
                105.316302,
                20.826904
              ],
              [
                105.316216,
                20.826621
              ],
              [
                105.315375,
                20.825506
              ],
              [
                105.314799,
                20.824913
              ],
              [
                105.31444,
                20.824595
              ],
              [
                105.313629,
                20.823448
              ],
              [
                105.312956,
                20.822497
              ],
              [
                105.312831,
                20.822292
              ],
              [
                105.31318,
                20.821672
              ],
              [
                105.313917,
                20.820282
              ],
              [
                105.314,
                20.820119
              ],
              [
                105.315264,
                20.817624
              ],
              [
                105.315572,
                20.816995
              ],
              [
                105.316883,
                20.814419
              ],
              [
                105.317068,
                20.814219
              ],
              [
                105.317658,
                20.813545
              ],
              [
                105.31816,
                20.813013
              ],
              [
                105.318706,
                20.812439
              ],
              [
                105.318874,
                20.812173
              ],
              [
                105.319006,
                20.812156
              ],
              [
                105.319589,
                20.81223
              ],
              [
                105.320714,
                20.811162
              ],
              [
                105.321295,
                20.810687
              ],
              [
                105.321605,
                20.810361
              ],
              [
                105.322162,
                20.809718
              ],
              [
                105.322642,
                20.809272
              ],
              [
                105.322733,
                20.809176
              ],
              [
                105.322952,
                20.809001
              ],
              [
                105.323559,
                20.808519
              ],
              [
                105.323993,
                20.808172
              ],
              [
                105.324524,
                20.807749
              ],
              [
                105.325833,
                20.806908
              ],
              [
                105.325979,
                20.806814
              ],
              [
                105.32605,
                20.806789
              ],
              [
                105.325991,
                20.806711
              ],
              [
                105.325919,
                20.806616
              ],
              [
                105.32586,
                20.80654
              ],
              [
                105.325652,
                20.806266
              ],
              [
                105.325073,
                20.805505
              ],
              [
                105.324289,
                20.804866
              ],
              [
                105.323322,
                20.804351
              ],
              [
                105.321612,
                20.803647
              ],
              [
                105.320544,
                20.803572
              ],
              [
                105.318988,
                20.804244
              ],
              [
                105.318054,
                20.804648
              ],
              [
                105.314021,
                20.80675
              ],
              [
                105.311967,
                20.807174
              ],
              [
                105.310678,
                20.807045
              ],
              [
                105.310279,
                20.807005
              ],
              [
                105.309384,
                20.806611
              ],
              [
                105.308202,
                20.806091
              ],
              [
                105.306012,
                20.804373
              ],
              [
                105.304901,
                20.803132
              ],
              [
                105.303882,
                20.802063
              ],
              [
                105.301051,
                20.800146
              ],
              [
                105.29976,
                20.799392
              ],
              [
                105.298472,
                20.79864
              ],
              [
                105.297752,
                20.79822
              ],
              [
                105.29515,
                20.797455
              ],
              [
                105.29471,
                20.797326
              ],
              [
                105.292299,
                20.797082
              ],
              [
                105.290147,
                20.797156
              ],
              [
                105.289553,
                20.797177
              ],
              [
                105.287957,
                20.797232
              ],
              [
                105.287317,
                20.79731
              ],
              [
                105.286384,
                20.797574
              ],
              [
                105.286013,
                20.79768
              ],
              [
                105.284298,
                20.798166
              ],
              [
                105.282652,
                20.798667
              ],
              [
                105.282139,
                20.798823
              ],
              [
                105.281626,
                20.798979
              ],
              [
                105.280898,
                20.7992
              ],
              [
                105.280972,
                20.799337
              ],
              [
                105.281136,
                20.79975
              ],
              [
                105.281693,
                20.801157
              ],
              [
                105.281859,
                20.801595
              ],
              [
                105.281889,
                20.801761
              ],
              [
                105.281899,
                20.801813
              ],
              [
                105.281938,
                20.802032
              ],
              [
                105.28181,
                20.802915
              ],
              [
                105.281807,
                20.803183
              ],
              [
                105.281802,
                20.803236
              ],
              [
                105.281847,
                20.803828
              ],
              [
                105.281788,
                20.804123
              ],
              [
                105.281682,
                20.804535
              ],
              [
                105.281384,
                20.804937
              ],
              [
                105.281328,
                20.804998
              ],
              [
                105.281302,
                20.805021
              ],
              [
                105.280844,
                20.805439
              ],
              [
                105.280672,
                20.805642
              ],
              [
                105.280661,
                20.805655
              ],
              [
                105.280502,
                20.805863
              ],
              [
                105.280464,
                20.805913
              ],
              [
                105.280413,
                20.806004
              ],
              [
                105.28042,
                20.80614
              ],
              [
                105.280423,
                20.8062
              ],
              [
                105.28049,
                20.806487
              ],
              [
                105.280509,
                20.806569
              ],
              [
                105.280624,
                20.807258
              ],
              [
                105.283104,
                20.80842
              ],
              [
                105.285052,
                20.809397
              ],
              [
                105.28878,
                20.811315
              ],
              [
                105.289053,
                20.811456
              ],
              [
                105.290175,
                20.812029
              ],
              [
                105.291819,
                20.812869
              ],
              [
                105.292217,
                20.813072
              ],
              [
                105.292517,
                20.812987
              ],
              [
                105.293027,
                20.812842
              ],
              [
                105.293615,
                20.812775
              ],
              [
                105.293966,
                20.812735
              ],
              [
                105.29431,
                20.812759
              ],
              [
                105.294526,
                20.812831
              ],
              [
                105.294758,
                20.813036
              ],
              [
                105.295009,
                20.813231
              ],
              [
                105.295312,
                20.813665
              ],
              [
                105.295506,
                20.81392
              ],
              [
                105.295957,
                20.814195
              ],
              [
                105.296122,
                20.81447
              ],
              [
                105.296294,
                20.81478
              ],
              [
                105.296524,
                20.815075
              ],
              [
                105.29671,
                20.815162
              ],
              [
                105.296975,
                20.815121
              ],
              [
                105.297561,
                20.814858
              ],
              [
                105.297768,
                20.814804
              ],
              [
                105.297959,
                20.814824
              ],
              [
                105.298083,
                20.814851
              ],
              [
                105.298222,
                20.814939
              ],
              [
                105.298335,
                20.814986
              ],
              [
                105.2987,
                20.815232
              ],
              [
                105.2988,
                20.815265
              ],
              [
                105.298838,
                20.815268
              ],
              [
                105.299207,
                20.815333
              ],
              [
                105.299607,
                20.815379
              ],
              [
                105.299836,
                20.815345
              ],
              [
                105.299943,
                20.815264
              ],
              [
                105.300079,
                20.81519
              ],
              [
                105.300423,
                20.815169
              ],
              [
                105.300609,
                20.815196
              ],
              [
                105.300709,
                20.815263
              ],
              [
                105.300795,
                20.815337
              ],
              [
                105.300817,
                20.815464
              ],
              [
                105.300796,
                20.815855
              ],
              [
                105.300796,
                20.816086
              ],
              [
                105.300796,
                20.81611
              ],
              [
                105.300827,
                20.816156
              ],
              [
                105.300875,
                20.816231
              ],
              [
                105.301119,
                20.816392
              ],
              [
                105.301305,
                20.816466
              ],
              [
                105.301519,
                20.816528
              ],
              [
                105.301563,
                20.81654
              ],
              [
                105.301704,
                20.816563
              ],
              [
                105.301938,
                20.81668
              ],
              [
                105.302289,
                20.816907
              ],
              [
                105.302493,
                20.817101
              ],
              [
                105.302732,
                20.817339
              ],
              [
                105.302893,
                20.817547
              ],
              [
                105.302951,
                20.817602
              ],
              [
                105.303056,
                20.817664
              ],
              [
                105.30325,
                20.817742
              ],
              [
                105.303549,
                20.81782
              ],
              [
                105.303628,
                20.817987
              ],
              [
                105.303827,
                20.818593
              ],
              [
                105.304064,
                20.818997
              ],
              [
                105.304215,
                20.819413
              ],
              [
                105.30428,
                20.819776
              ],
              [
                105.304367,
                20.819998
              ],
              [
                105.304582,
                20.820267
              ],
              [
                105.304661,
                20.820435
              ],
              [
                105.304698,
                20.820539
              ],
              [
                105.30464,
                20.820744
              ],
              [
                105.3046,
                20.820803
              ],
              [
                105.304319,
                20.821222
              ],
              [
                105.304262,
                20.821417
              ],
              [
                105.304277,
                20.821734
              ],
              [
                105.304379,
                20.82252
              ],
              [
                105.304423,
                20.823052
              ],
              [
                105.304266,
                20.823455
              ],
              [
                105.304102,
                20.823792
              ],
              [
                105.304017,
                20.824128
              ],
              [
                105.303875,
                20.824478
              ],
              [
                105.303774,
                20.824655
              ],
              [
                105.303207,
                20.825312
              ],
              [
                105.302688,
                20.825957
              ],
              [
                105.302134,
                20.826647
              ],
              [
                105.301818,
                20.827003
              ],
              [
                105.301256,
                20.827638
              ],
              [
                105.300511,
                20.828503
              ],
              [
                105.300488,
                20.828533
              ],
              [
                105.300343,
                20.828669
              ],
              [
                105.300156,
                20.828769
              ],
              [
                105.300078,
                20.828864
              ],
              [
                105.299871,
                20.829503
              ],
              [
                105.299558,
                20.830149
              ],
              [
                105.299222,
                20.830479
              ],
              [
                105.298501,
                20.831247
              ],
              [
                105.298216,
                20.83149
              ],
              [
                105.297716,
                20.831827
              ],
              [
                105.297208,
                20.832111
              ],
              [
                105.296958,
                20.832299
              ],
              [
                105.29628,
                20.832872
              ],
              [
                105.296101,
                20.833054
              ],
              [
                105.296095,
                20.833066
              ],
              [
                105.295937,
                20.833377
              ],
              [
                105.295781,
                20.833902
              ],
              [
                105.29571,
                20.83438
              ],
              [
                105.295754,
                20.834777
              ],
              [
                105.295948,
                20.835334
              ],
              [
                105.29605,
                20.835517
              ],
              [
                105.29619,
                20.835624
              ],
              [
                105.2964,
                20.835767
              ],
              [
                105.296801,
                20.836161
              ],
              [
                105.29703,
                20.836382
              ],
              [
                105.297138,
                20.836516
              ],
              [
                105.297176,
                20.836684
              ],
              [
                105.297046,
                20.837078
              ],
              [
                105.296836,
                20.837492
              ],
              [
                105.296794,
                20.837581
              ],
              [
                105.296753,
                20.837654
              ],
              [
                105.296695,
                20.837742
              ],
              [
                105.296633,
                20.837842
              ],
              [
                105.296579,
                20.837919
              ],
              [
                105.296518,
                20.837992
              ],
              [
                105.296406,
                20.838076
              ],
              [
                105.296337,
                20.838134
              ],
              [
                105.29623,
                20.838195
              ],
              [
                105.296076,
                20.838264
              ],
              [
                105.296002,
                20.83829
              ],
              [
                105.295919,
                20.838322
              ],
              [
                105.295862,
                20.838344
              ],
              [
                105.295747,
                20.838401
              ],
              [
                105.295611,
                20.838508
              ],
              [
                105.295459,
                20.838658
              ],
              [
                105.295255,
                20.838884
              ],
              [
                105.295193,
                20.838965
              ],
              [
                105.295102,
                20.83908
              ],
              [
                105.295036,
                20.839172
              ],
              [
                105.294989,
                20.839284
              ],
              [
                105.294979,
                20.839554
              ],
              [
                105.294994,
                20.839877
              ],
              [
                105.294994,
                20.83991
              ],
              [
                105.294977,
                20.840078
              ],
              [
                105.294849,
                20.840279
              ],
              [
                105.294642,
                20.840495
              ],
              [
                105.294463,
                20.84063
              ],
              [
                105.29392,
                20.840961
              ],
              [
                105.29342,
                20.841332
              ],
              [
                105.293019,
                20.841809
              ],
              [
                105.29289,
                20.841921
              ],
              [
                105.29266,
                20.84208
              ],
              [
                105.292546,
                20.842191
              ],
              [
                105.292417,
                20.842352
              ],
              [
                105.292161,
                20.842526
              ],
              [
                105.29199,
                20.842621
              ],
              [
                105.291767,
                20.842753
              ],
              [
                105.29164,
                20.842867
              ],
              [
                105.291545,
                20.843005
              ],
              [
                105.29152,
                20.843124
              ],
              [
                105.291559,
                20.843387
              ],
              [
                105.291585,
                20.843596
              ],
              [
                105.291611,
                20.843979
              ],
              [
                105.291624,
                20.844236
              ],
              [
                105.29158,
                20.844415
              ],
              [
                105.291466,
                20.844654
              ],
              [
                105.291387,
                20.844805
              ],
              [
                105.291427,
                20.844848
              ],
              [
                105.29159,
                20.845121
              ],
              [
                105.29183,
                20.845383
              ],
              [
                105.291937,
                20.845617
              ],
              [
                105.292213,
                20.846257
              ],
              [
                105.292749,
                20.847089
              ],
              [
                105.292773,
                20.847153
              ],
              [
                105.292784,
                20.847184
              ],
              [
                105.292887,
                20.847346
              ],
              [
                105.293106,
                20.84749
              ],
              [
                105.293263,
                20.847595
              ],
              [
                105.29346,
                20.847728
              ],
              [
                105.29364,
                20.847823
              ],
              [
                105.293662,
                20.847835
              ],
              [
                105.293666,
                20.847836
              ],
              [
                105.293935,
                20.84791
              ],
              [
                105.294005,
                20.847929
              ],
              [
                105.294185,
                20.848013
              ],
              [
                105.294191,
                20.848016
              ],
              [
                105.294196,
                20.848021
              ],
              [
                105.294247,
                20.848077
              ],
              [
                105.29432,
                20.848157
              ],
              [
                105.294543,
                20.848399
              ],
              [
                105.294958,
                20.848727
              ],
              [
                105.295245,
                20.848949
              ],
              [
                105.295367,
                20.849075
              ],
              [
                105.295351,
                20.849108
              ],
              [
                105.295292,
                20.849233
              ],
              [
                105.295227,
                20.849328
              ],
              [
                105.294951,
                20.849731
              ],
              [
                105.294868,
                20.850073
              ],
              [
                105.294978,
                20.850529
              ],
              [
                105.294973,
                20.851161
              ],
              [
                105.294875,
                20.851448
              ],
              [
                105.294729,
                20.851621
              ],
              [
                105.294578,
                20.85172
              ],
              [
                105.294396,
                20.851755
              ],
              [
                105.29425,
                20.85169
              ],
              [
                105.294247,
                20.851685
              ],
              [
                105.293861,
                20.852008
              ],
              [
                105.29372,
                20.852361
              ],
              [
                105.293727,
                20.852446
              ],
              [
                105.294046,
                20.852494
              ],
              [
                105.294169,
                20.852534
              ],
              [
                105.294381,
                20.852603
              ],
              [
                105.294548,
                20.852681
              ],
              [
                105.29466,
                20.852887
              ],
              [
                105.294715,
                20.853103
              ],
              [
                105.294791,
                20.853169
              ],
              [
                105.294911,
                20.853201
              ],
              [
                105.295011,
                20.853188
              ],
              [
                105.295391,
                20.852961
              ],
              [
                105.295501,
                20.852941
              ],
              [
                105.29558,
                20.852986
              ],
              [
                105.295613,
                20.853087
              ],
              [
                105.295613,
                20.853279
              ],
              [
                105.29562,
                20.853379
              ],
              [
                105.295689,
                20.853461
              ],
              [
                105.295961,
                20.853653
              ],
              [
                105.296113,
                20.853745
              ],
              [
                105.296317,
                20.853868
              ],
              [
                105.296539,
                20.853933
              ],
              [
                105.2971,
                20.854158
              ],
              [
                105.29727,
                20.854323
              ],
              [
                105.29751,
                20.854556
              ],
              [
                105.297751,
                20.854639
              ],
              [
                105.29783,
                20.854739
              ],
              [
                105.297848,
                20.854842
              ],
              [
                105.297866,
                20.854964
              ],
              [
                105.297873,
                20.855071
              ],
              [
                105.298015,
                20.855215
              ],
              [
                105.298572,
                20.855666
              ],
              [
                105.29884,
                20.855807
              ],
              [
                105.299233,
                20.855891
              ],
              [
                105.299479,
                20.856047
              ],
              [
                105.299873,
                20.856408
              ],
              [
                105.299915,
                20.856447
              ],
              [
                105.300048,
                20.856726
              ],
              [
                105.30015,
                20.856864
              ],
              [
                105.300298,
                20.857132
              ],
              [
                105.300335,
                20.857381
              ],
              [
                105.30025,
                20.857939
              ],
              [
                105.300115,
                20.858505
              ],
              [
                105.299794,
                20.859003
              ],
              [
                105.29948,
                20.859488
              ],
              [
                105.299209,
                20.86002
              ],
              [
                105.299088,
                20.860369
              ],
              [
                105.298768,
                20.861271
              ],
              [
                105.298561,
                20.861729
              ],
              [
                105.298519,
                20.861897
              ],
              [
                105.298555,
                20.862065
              ],
              [
                105.298656,
                20.862267
              ],
              [
                105.298684,
                20.862374
              ],
              [
                105.298678,
                20.862549
              ],
              [
                105.298572,
                20.86287
              ],
              [
                105.298547,
                20.862985
              ],
              [
                105.298507,
                20.863439
              ],
              [
                105.298512,
                20.863532
              ],
              [
                105.298523,
                20.863982
              ],
              [
                105.298423,
                20.864332
              ],
              [
                105.298319,
                20.864585
              ],
              [
                105.298275,
                20.864736
              ],
              [
                105.298225,
                20.865176
              ],
              [
                105.298191,
                20.865644
              ],
              [
                105.298191,
                20.866061
              ],
              [
                105.298091,
                20.866364
              ],
              [
                105.297902,
                20.866813
              ],
              [
                105.297835,
                20.866987
              ],
              [
                105.297664,
                20.86734
              ],
              [
                105.297423,
                20.867789
              ],
              [
                105.297239,
                20.868106
              ],
              [
                105.297011,
                20.868375
              ],
              [
                105.296795,
                20.868603
              ],
              [
                105.296706,
                20.86874
              ],
              [
                105.296611,
                20.869063
              ],
              [
                105.296574,
                20.869296
              ],
              [
                105.2966,
                20.869529
              ],
              [
                105.296664,
                20.870049
              ],
              [
                105.296697,
                20.870408
              ],
              [
                105.296545,
                20.870934
              ],
              [
                105.296482,
                20.871084
              ],
              [
                105.296368,
                20.871209
              ],
              [
                105.296272,
                20.871311
              ],
              [
                105.295717,
                20.871656
              ],
              [
                105.295552,
                20.871747
              ],
              [
                105.294839,
                20.87214
              ],
              [
                105.293485,
                20.872745
              ],
              [
                105.293475,
                20.872749
              ],
              [
                105.293754,
                20.873306
              ],
              [
                105.293855,
                20.873454
              ],
              [
                105.293901,
                20.873521
              ],
              [
                105.293923,
                20.873553
              ],
              [
                105.294048,
                20.873736
              ],
              [
                105.294242,
                20.874018
              ],
              [
                105.294303,
                20.874114
              ],
              [
                105.294718,
                20.874608
              ],
              [
                105.294855,
                20.874922
              ],
              [
                105.294851,
                20.875049
              ],
              [
                105.294785,
                20.875482
              ],
              [
                105.294655,
                20.876016
              ],
              [
                105.294631,
                20.876107
              ],
              [
                105.294505,
                20.876348
              ],
              [
                105.294433,
                20.876459
              ],
              [
                105.294291,
                20.876622
              ],
              [
                105.294155,
                20.87685
              ],
              [
                105.294147,
                20.877151
              ],
              [
                105.294143,
                20.877243
              ],
              [
                105.294173,
                20.877348
              ],
              [
                105.294225,
                20.877538
              ],
              [
                105.294269,
                20.877728
              ],
              [
                105.294288,
                20.877773
              ],
              [
                105.294354,
                20.877991
              ],
              [
                105.294356,
                20.878141
              ],
              [
                105.29436,
                20.878313
              ],
              [
                105.294423,
                20.87859
              ],
              [
                105.294465,
                20.878871
              ],
              [
                105.294511,
                20.879107
              ],
              [
                105.2946,
                20.879345
              ],
              [
                105.294699,
                20.879667
              ],
              [
                105.294733,
                20.879951
              ],
              [
                105.294675,
                20.880151
              ],
              [
                105.294662,
                20.880225
              ],
              [
                105.29462,
                20.880362
              ],
              [
                105.294562,
                20.88043
              ],
              [
                105.294442,
                20.880551
              ],
              [
                105.294344,
                20.88062
              ],
              [
                105.294108,
                20.880735
              ],
              [
                105.293958,
                20.880887
              ],
              [
                105.293851,
                20.881011
              ],
              [
                105.293712,
                20.881158
              ],
              [
                105.293553,
                20.881324
              ],
              [
                105.293408,
                20.881553
              ],
              [
                105.293271,
                20.881991
              ],
              [
                105.293166,
                20.882347
              ],
              [
                105.292869,
                20.882676
              ],
              [
                105.292745,
                20.882785
              ],
              [
                105.292551,
                20.882982
              ],
              [
                105.292404,
                20.883129
              ],
              [
                105.292311,
                20.883238
              ],
              [
                105.292234,
                20.88345
              ],
              [
                105.292188,
                20.883814
              ],
              [
                105.292184,
                20.883898
              ],
              [
                105.292159,
                20.884361
              ],
              [
                105.292171,
                20.884563
              ],
              [
                105.292256,
                20.884939
              ],
              [
                105.292514,
                20.88543
              ],
              [
                105.292798,
                20.885987
              ],
              [
                105.292985,
                20.886395
              ],
              [
                105.293129,
                20.886754
              ],
              [
                105.293274,
                20.886956
              ],
              [
                105.293621,
                20.887353
              ],
              [
                105.294181,
                20.887816
              ],
              [
                105.294607,
                20.888421
              ],
              [
                105.294875,
                20.888786
              ],
              [
                105.294925,
                20.888943
              ],
              [
                105.295286,
                20.889345
              ],
              [
                105.295902,
                20.889789
              ],
              [
                105.29616,
                20.889988
              ],
              [
                105.296546,
                20.890129
              ],
              [
                105.296998,
                20.890228
              ],
              [
                105.297356,
                20.890393
              ],
              [
                105.297566,
                20.890493
              ],
              [
                105.29774,
                20.890549
              ],
              [
                105.298221,
                20.890756
              ],
              [
                105.298493,
                20.890919
              ],
              [
                105.298578,
                20.89107
              ],
              [
                105.29861,
                20.891245
              ],
              [
                105.298622,
                20.891545
              ],
              [
                105.298653,
                20.891805
              ],
              [
                105.298685,
                20.891985
              ],
              [
                105.298788,
                20.892184
              ],
              [
                105.298903,
                20.892301
              ],
              [
                105.299141,
                20.892541
              ],
              [
                105.299401,
                20.892756
              ],
              [
                105.299674,
                20.892919
              ],
              [
                105.299963,
                20.893055
              ],
              [
                105.300347,
                20.893121
              ],
              [
                105.300536,
                20.89316
              ],
              [
                105.300881,
                20.89321
              ],
              [
                105.300747,
                20.893685
              ],
              [
                105.300545,
                20.895031
              ],
              [
                105.300412,
                20.895488
              ],
              [
                105.300349,
                20.895774
              ],
              [
                105.300323,
                20.89601
              ],
              [
                105.300356,
                20.896372
              ],
              [
                105.300399,
                20.896595
              ],
              [
                105.300431,
                20.896755
              ],
              [
                105.300495,
                20.896856
              ],
              [
                105.300647,
                20.897027
              ],
              [
                105.300814,
                20.897335
              ],
              [
                105.301067,
                20.897747
              ],
              [
                105.3012,
                20.898023
              ],
              [
                105.301217,
                20.898309
              ],
              [
                105.301157,
                20.898548
              ],
              [
                105.301097,
                20.898879
              ],
              [
                105.301097,
                20.899079
              ],
              [
                105.301148,
                20.899266
              ],
              [
                105.301224,
                20.899401
              ],
              [
                105.301374,
                20.89957
              ],
              [
                105.30153,
                20.899678
              ],
              [
                105.30172,
                20.899761
              ],
              [
                105.302076,
                20.899775
              ],
              [
                105.302272,
                20.89975
              ],
              [
                105.302318,
                20.899744
              ],
              [
                105.302788,
                20.899743
              ],
              [
                105.303375,
                20.89984
              ],
              [
                105.303701,
                20.89987
              ],
              [
                105.304139,
                20.89998
              ],
              [
                105.304792,
                20.900107
              ],
              [
                105.30489,
                20.900126
              ],
              [
                105.305014,
                20.900199
              ],
              [
                105.305204,
                20.900366
              ],
              [
                105.305536,
                20.900339
              ],
              [
                105.305614,
                20.900339
              ],
              [
                105.305764,
                20.900357
              ],
              [
                105.306091,
                20.900479
              ],
              [
                105.306549,
                20.90078
              ],
              [
                105.306853,
                20.901062
              ],
              [
                105.307002,
                20.901185
              ],
              [
                105.307115,
                20.901275
              ],
              [
                105.307346,
                20.901408
              ],
              [
                105.307493,
                20.901496
              ],
              [
                105.307622,
                20.901596
              ],
              [
                105.307747,
                20.901687
              ],
              [
                105.307902,
                20.901858
              ],
              [
                105.308094,
                20.902087
              ],
              [
                105.308448,
                20.902645
              ],
              [
                105.308799,
                20.902846
              ],
              [
                105.309031,
                20.902941
              ],
              [
                105.309223,
                20.903067
              ],
              [
                105.309326,
                20.903205
              ],
              [
                105.30952,
                20.903814
              ],
              [
                105.3097,
                20.904362
              ],
              [
                105.309912,
                20.90466
              ],
              [
                105.310133,
                20.904987
              ],
              [
                105.310327,
                20.905271
              ],
              [
                105.310474,
                20.905472
              ],
              [
                105.310558,
                20.905668
              ],
              [
                105.310624,
                20.90583
              ],
              [
                105.310635,
                20.905858
              ],
              [
                105.310692,
                20.906129
              ],
              [
                105.311002,
                20.906858
              ],
              [
                105.311166,
                20.907115
              ],
              [
                105.31127,
                20.90743
              ],
              [
                105.311358,
                20.907703
              ],
              [
                105.311393,
                20.90776
              ],
              [
                105.311536,
                20.908108
              ],
              [
                105.31156,
                20.908166
              ],
              [
                105.31156,
                20.908169
              ],
              [
                105.311659,
                20.90864
              ],
              [
                105.311662,
                20.908656
              ],
              [
                105.311674,
                20.908752
              ],
              [
                105.311727,
                20.909217
              ],
              [
                105.311791,
                20.90954
              ],
              [
                105.311945,
                20.909874
              ],
              [
                105.31206,
                20.910197
              ],
              [
                105.312124,
                20.910543
              ],
              [
                105.312104,
                20.910749
              ],
              [
                105.312074,
                20.911057
              ],
              [
                105.312075,
                20.911471
              ],
              [
                105.312075,
                20.9115
              ],
              [
                105.312102,
                20.911624
              ],
              [
                105.312152,
                20.911858
              ],
              [
                105.312293,
                20.912276
              ],
              [
                105.312302,
                20.912331
              ],
              [
                105.312331,
                20.912502
              ],
              [
                105.312401,
                20.91266
              ],
              [
                105.312671,
                20.913054
              ],
              [
                105.313041,
                20.913399
              ],
              [
                105.313353,
                20.913813
              ],
              [
                105.313413,
                20.914002
              ],
              [
                105.313445,
                20.914144
              ],
              [
                105.313437,
                20.914258
              ],
              [
                105.313389,
                20.914408
              ],
              [
                105.313131,
                20.914616
              ],
              [
                105.312919,
                20.914779
              ],
              [
                105.312561,
                20.915192
              ],
              [
                105.312477,
                20.91525
              ],
              [
                105.312476,
                20.915288
              ],
              [
                105.31248,
                20.915311
              ],
              [
                105.312487,
                20.915354
              ],
              [
                105.312488,
                20.915375
              ],
              [
                105.312516,
                20.915423
              ],
              [
                105.312539,
                20.915504
              ],
              [
                105.312539,
                20.915589
              ],
              [
                105.312519,
                20.915638
              ],
              [
                105.312488,
                20.915689
              ],
              [
                105.31246,
                20.915714
              ],
              [
                105.312423,
                20.915752
              ],
              [
                105.312399,
                20.915791
              ],
              [
                105.312348,
                20.915857
              ],
              [
                105.312282,
                20.91595
              ],
              [
                105.312235,
                20.916027
              ],
              [
                105.312218,
                20.916107
              ],
              [
                105.312186,
                20.916191
              ],
              [
                105.312157,
                20.916258
              ],
              [
                105.312129,
                20.916309
              ],
              [
                105.312095,
                20.916363
              ],
              [
                105.312048,
                20.916429
              ],
              [
                105.311982,
                20.916495
              ],
              [
                105.311932,
                20.916544
              ],
              [
                105.311856,
                20.916624
              ],
              [
                105.311828,
                20.916672
              ],
              [
                105.311796,
                20.916739
              ],
              [
                105.311755,
                20.916841
              ],
              [
                105.311704,
                20.916952
              ],
              [
                105.311676,
                20.917005
              ],
              [
                105.311658,
                20.917052
              ],
              [
                105.311641,
                20.917093
              ],
              [
                105.311619,
                20.917155
              ],
              [
                105.311607,
                20.917202
              ],
              [
                105.311592,
                20.91727
              ],
              [
                105.311606,
                20.917407
              ],
              [
                105.311617,
                20.917506
              ],
              [
                105.311618,
                20.917678
              ],
              [
                105.311632,
                20.91775
              ],
              [
                105.311647,
                20.917868
              ],
              [
                105.311668,
                20.917996
              ],
              [
                105.311676,
                20.918028
              ],
              [
                105.311684,
                20.918092
              ],
              [
                105.311919,
                20.918737
              ],
              [
                105.311928,
                20.918916
              ],
              [
                105.311951,
                20.919323
              ],
              [
                105.311981,
                20.919519
              ],
              [
                105.31194,
                20.919767
              ],
              [
                105.311903,
                20.920012
              ],
              [
                105.311955,
                20.920174
              ],
              [
                105.312104,
                20.920332
              ],
              [
                105.312371,
                20.920805
              ],
              [
                105.312523,
                20.921178
              ],
              [
                105.312657,
                20.921417
              ],
              [
                105.312886,
                20.921662
              ],
              [
                105.312824,
                20.921804
              ],
              [
                105.312761,
                20.921982
              ],
              [
                105.312595,
                20.922178
              ],
              [
                105.312316,
                20.922491
              ],
              [
                105.312255,
                20.922779
              ],
              [
                105.312253,
                20.922839
              ],
              [
                105.312233,
                20.923083
              ],
              [
                105.312147,
                20.923389
              ],
              [
                105.31231,
                20.923385
              ],
              [
                105.312847,
                20.924041
              ],
              [
                105.313294,
                20.924585
              ],
              [
                105.313766,
                20.92497
              ],
              [
                105.314007,
                20.925113
              ],
              [
                105.315066,
                20.925741
              ],
              [
                105.315632,
                20.926758
              ],
              [
                105.316148,
                20.927324
              ],
              [
                105.31637,
                20.927703
              ],
              [
                105.316529,
                20.927959
              ],
              [
                105.316562,
                20.928295
              ],
              [
                105.316407,
                20.929074
              ],
              [
                105.316473,
                20.929329
              ],
              [
                105.316583,
                20.929723
              ],
              [
                105.316561,
                20.930552
              ],
              [
                105.316482,
                20.930905
              ],
              [
                105.316396,
                20.931529
              ],
              [
                105.316335,
                20.932101
              ],
              [
                105.316297,
                20.932728
              ],
              [
                105.316333,
                20.932939
              ],
              [
                105.316433,
                20.933092
              ],
              [
                105.316553,
                20.933347
              ],
              [
                105.316632,
                20.933791
              ],
              [
                105.316919,
                20.933999
              ],
              [
                105.318143,
                20.934518
              ],
              [
                105.318714,
                20.934631
              ],
              [
                105.318937,
                20.934668
              ],
              [
                105.319455,
                20.935012
              ],
              [
                105.31998,
                20.935258
              ],
              [
                105.320183,
                20.935344
              ],
              [
                105.320681,
                20.935504
              ],
              [
                105.321337,
                20.935698
              ],
              [
                105.32246,
                20.936063
              ],
              [
                105.323471,
                20.936401
              ],
              [
                105.323922,
                20.936568
              ],
              [
                105.324162,
                20.936642
              ],
              [
                105.324229,
                20.936663
              ],
              [
                105.32489,
                20.936801
              ],
              [
                105.325464,
                20.937024
              ],
              [
                105.326282,
                20.937258
              ],
              [
                105.327223,
                20.937423
              ],
              [
                105.328003,
                20.937593
              ],
              [
                105.328087,
                20.937647
              ],
              [
                105.328096,
                20.937653
              ],
              [
                105.328146,
                20.937685
              ],
              [
                105.328146,
                20.937685
              ],
              [
                105.328359,
                20.937781
              ],
              [
                105.328928,
                20.937895
              ],
              [
                105.329247,
                20.937987
              ],
              [
                105.329674,
                20.938109
              ],
              [
                105.32981,
                20.938148
              ],
              [
                105.330654,
                20.938379
              ],
              [
                105.330857,
                20.938469
              ],
              [
                105.330942,
                20.938529
              ],
              [
                105.331094,
                20.938637
              ],
              [
                105.331174,
                20.938701
              ],
              [
                105.331355,
                20.938555
              ],
              [
                105.331415,
                20.938461
              ],
              [
                105.331542,
                20.938404
              ],
              [
                105.332943,
                20.938447
              ],
              [
                105.333133,
                20.938453
              ],
              [
                105.333869,
                20.938544
              ],
              [
                105.334412,
                20.938661
              ],
              [
                105.334435,
                20.938653
              ],
              [
                105.3345,
                20.938615
              ],
              [
                105.334578,
                20.938636
              ],
              [
                105.334714,
                20.938672
              ],
              [
                105.334864,
                20.938724
              ],
              [
                105.334864,
                20.938724
              ],
              [
                105.334896,
                20.938731
              ],
              [
                105.334906,
                20.938738
              ],
              [
                105.334907,
                20.938738
              ],
              [
                105.335141,
                20.938766
              ],
              [
                105.335274,
                20.938738
              ],
              [
                105.335276,
                20.938737
              ],
              [
                105.335416,
                20.938689
              ],
              [
                105.335568,
                20.938613
              ],
              [
                105.335782,
                20.938555
              ],
              [
                105.336016,
                20.938583
              ],
              [
                105.336149,
                20.938631
              ],
              [
                105.336302,
                20.938764
              ],
              [
                105.336444,
                20.938888
              ],
              [
                105.336468,
                20.938901
              ],
              [
                105.336543,
                20.938923
              ],
              [
                105.336645,
                20.938983
              ],
              [
                105.337005,
                20.938983
              ],
              [
                105.337258,
                20.938907
              ],
              [
                105.337544,
                20.938822
              ],
              [
                105.337528,
                20.938882
              ],
              [
                105.337544,
                20.938993
              ],
              [
                105.337628,
                20.939345
              ],
              [
                105.337666,
                20.939432
              ],
              [
                105.337736,
                20.93947
              ],
              [
                105.337857,
                20.939485
              ],
              [
                105.337923,
                20.939492
              ],
              [
                105.338099,
                20.939509
              ],
              [
                105.338232,
                20.93949
              ],
              [
                105.338331,
                20.93943
              ],
              [
                105.338413,
                20.939254
              ],
              [
                105.338509,
                20.938974
              ],
              [
                105.33851,
                20.938969
              ],
              [
                105.338955,
                20.938688
              ],
              [
                105.339045,
                20.93887
              ],
              [
                105.339246,
                20.939147
              ],
              [
                105.339418,
                20.939347
              ],
              [
                105.339573,
                20.939436
              ],
              [
                105.339584,
                20.939442
              ],
              [
                105.339658,
                20.939462
              ],
              [
                105.339889,
                20.939522
              ],
              [
                105.340254,
                20.939571
              ],
              [
                105.341247,
                20.939703
              ],
              [
                105.341434,
                20.939732
              ],
              [
                105.341904,
                20.93994
              ],
              [
                105.343185,
                20.939996
              ],
              [
                105.344426,
                20.940051
              ],
              [
                105.344429,
                20.940051
              ],
              [
                105.344556,
                20.939312
              ],
              [
                105.344568,
                20.939191
              ],
              [
                105.344568,
                20.939191
              ]
            ]
          ]
        ]
      },
      "properties": {
        "code": "04792",
        "name": "Tân Hoà",
        "nameEn": "Tan Hoa",
        "fullName": "Phường Tân Hoà",
        "fullNameEn": "Tan Hoa Ward",
        "codeName": "tan_hoa",
        "postalCode": "36111",
        "postalCodePrefix": "",
        "gisServerId": "diaphanhanhchinhcapxa_2025.1659",
        "areaKm2": 56.98
      }
    }
  ]
}