{
  "type": "FeatureCollection",
  "bbox": [
    104.91127,
    20.570995,
    105.033665,
    20.716269
  ],
  "features": [
    {
      "type": "Feature",
      "id": "05245",
      "bbox": [
        104.91127,
        20.570995,
        105.033665,
        20.716269
      ],
      "geometry": {
        "type": "MultiPolygon",
        "coordinates": [
          [
            [
              [
                104.982164,
                20.701695
              ],
              [
                104.982352,
                20.701458
              ],
              [
                104.982522,
                20.701225
              ],
              [
                104.982764,
                20.701082
              ],
              [
                104.983102,
                20.700883
              ],
              [
                104.98336,
                20.700749
              ],
              [
                104.983751,
                20.700579
              ],
              [
                104.98384,
                20.700429
              ],
              [
                104.983938,
                20.700255
              ],
              [
                104.983992,
                20.70014
              ],
              [
                104.98411,
                20.699953
              ],
              [
                104.984388,
                20.699536
              ],
              [
                104.984944,
                20.699757
              ],
              [
                104.98534,
                20.699897
              ],
              [
                104.985601,
                20.699946
              ],
              [
                104.985795,
                20.699857
              ],
              [
                104.98599,
                20.69974
              ],
              [
                104.986106,
                20.69965
              ],
              [
                104.98629,
                20.69949
              ],
              [
                104.986895,
                20.698841
              ],
              [
                104.987304,
                20.698416
              ],
              [
                104.987308,
                20.698412
              ],
              [
                104.987488,
                20.698248
              ],
              [
                104.987611,
                20.698151
              ],
              [
                104.987716,
                20.698081
              ],
              [
                104.987783,
                20.698047
              ],
              [
                104.987858,
                20.698026
              ],
              [
                104.988096,
                20.698098
              ],
              [
                104.988208,
                20.698821
              ],
              [
                104.988267,
                20.6992
              ],
              [
                104.988304,
                20.699438
              ],
              [
                104.988505,
                20.700528
              ],
              [
                104.992777,
                20.701039
              ],
              [
                104.992777,
                20.701039
              ],
              [
                104.992502,
                20.675175
              ],
              [
                104.991384,
                20.67005
              ],
              [
                104.991943,
                20.670053
              ],
              [
                104.992503,
                20.670055
              ],
              [
                104.992974,
                20.670065
              ],
              [
                104.993435,
                20.66993
              ],
              [
                104.993843,
                20.669589
              ],
              [
                104.994092,
                20.669432
              ],
              [
                104.994167,
                20.669408
              ],
              [
                104.994309,
                20.669358
              ],
              [
                104.994467,
                20.669301
              ],
              [
                104.994663,
                20.66927
              ],
              [
                104.995225,
                20.669162
              ],
              [
                104.996012,
                20.669069
              ],
              [
                104.996646,
                20.668988
              ],
              [
                104.996646,
                20.668988
              ],
              [
                104.998441,
                20.667884
              ],
              [
                104.999354,
                20.66844
              ],
              [
                105.010665,
                20.668956
              ],
              [
                105.01091,
                20.668921
              ],
              [
                105.011641,
                20.668853
              ],
              [
                105.012014,
                20.668838
              ],
              [
                105.012363,
                20.668812
              ],
              [
                105.012501,
                20.668812
              ],
              [
                105.012691,
                20.668834
              ],
              [
                105.012965,
                20.669056
              ],
              [
                105.013192,
                20.669213
              ],
              [
                105.013553,
                20.669343
              ],
              [
                105.013877,
                20.669403
              ],
              [
                105.014216,
                20.669424
              ],
              [
                105.014592,
                20.669392
              ],
              [
                105.015329,
                20.669294
              ],
              [
                105.015582,
                20.669259
              ],
              [
                105.015959,
                20.669218
              ],
              [
                105.016337,
                20.669178
              ],
              [
                105.017102,
                20.66909
              ],
              [
                105.025446,
                20.663915
              ],
              [
                105.025826,
                20.660945
              ],
              [
                105.025794,
                20.660176
              ],
              [
                105.025794,
                20.659584
              ],
              [
                105.025669,
                20.658979
              ],
              [
                105.025526,
                20.658135
              ],
              [
                105.025689,
                20.657742
              ],
              [
                105.025886,
                20.6575
              ],
              [
                105.026077,
                20.657218
              ],
              [
                105.026405,
                20.654551
              ],
              [
                105.026865,
                20.654411
              ],
              [
                105.027527,
                20.653209
              ],
              [
                105.02804,
                20.652912
              ],
              [
                105.028496,
                20.652469
              ],
              [
                105.028656,
                20.652147
              ],
              [
                105.028656,
                20.652147
              ],
              [
                105.025713,
                20.650462
              ],
              [
                105.024179,
                20.649983
              ],
              [
                105.023784,
                20.64996
              ],
              [
                105.023407,
                20.649988
              ],
              [
                105.023047,
                20.649904
              ],
              [
                105.023047,
                20.649904
              ],
              [
                105.022814,
                20.650029
              ],
              [
                105.022814,
                20.650029
              ],
              [
                105.022473,
                20.650142
              ],
              [
                105.021893,
                20.650163
              ],
              [
                105.021534,
                20.650168
              ],
              [
                105.021163,
                20.650039
              ],
              [
                105.020921,
                20.649868
              ],
              [
                105.020858,
                20.649667
              ],
              [
                105.020811,
                20.649524
              ],
              [
                105.020729,
                20.649297
              ],
              [
                105.02063,
                20.649048
              ],
              [
                105.018363,
                20.648477
              ],
              [
                105.017117,
                20.648029
              ],
              [
                105.014294,
                20.647127
              ],
              [
                105.013139,
                20.646484
              ],
              [
                105.013129,
                20.646483
              ],
              [
                105.013129,
                20.646481
              ],
              [
                105.014225,
                20.643263
              ],
              [
                105.0145,
                20.64274
              ],
              [
                105.014787,
                20.642025
              ],
              [
                105.015038,
                20.641554
              ],
              [
                105.015107,
                20.640867
              ],
              [
                105.014844,
                20.639978
              ],
              [
                105.014204,
                20.638562
              ],
              [
                105.014195,
                20.638543
              ],
              [
                105.015536,
                20.637682
              ],
              [
                105.015536,
                20.637682
              ],
              [
                105.015506,
                20.636901
              ],
              [
                105.015428,
                20.635959
              ],
              [
                105.017745,
                20.634563
              ],
              [
                105.017745,
                20.634563
              ],
              [
                105.020573,
                20.633371
              ],
              [
                105.020573,
                20.633371
              ],
              [
                105.022019,
                20.632241
              ],
              [
                105.022019,
                20.632241
              ],
              [
                105.0226,
                20.631497
              ],
              [
                105.023529,
                20.630346
              ],
              [
                105.024597,
                20.629646
              ],
              [
                105.024597,
                20.629646
              ],
              [
                105.025213,
                20.629315
              ],
              [
                105.025213,
                20.629315
              ],
              [
                105.025524,
                20.629146
              ],
              [
                105.02578,
                20.628853
              ],
              [
                105.025877,
                20.628691
              ],
              [
                105.025979,
                20.628485
              ],
              [
                105.025979,
                20.628485
              ],
              [
                105.026082,
                20.628415
              ],
              [
                105.026082,
                20.628415
              ],
              [
                105.02632,
                20.628362
              ],
              [
                105.026509,
                20.628213
              ],
              [
                105.026509,
                20.628213
              ],
              [
                105.026807,
                20.628004
              ],
              [
                105.026807,
                20.628003
              ],
              [
                105.027045,
                20.62778
              ],
              [
                105.027121,
                20.627606
              ],
              [
                105.027254,
                20.627413
              ],
              [
                105.027216,
                20.627187
              ],
              [
                105.027212,
                20.62691
              ],
              [
                105.027381,
                20.62668
              ],
              [
                105.027483,
                20.626473
              ],
              [
                105.02759,
                20.626169
              ],
              [
                105.02759,
                20.626169
              ],
              [
                105.027747,
                20.626043
              ],
              [
                105.027748,
                20.626043
              ],
              [
                105.028198,
                20.62597
              ],
              [
                105.028569,
                20.625926
              ],
              [
                105.029054,
                20.625535
              ],
              [
                105.029054,
                20.625535
              ],
              [
                105.029454,
                20.62517
              ],
              [
                105.029454,
                20.62517
              ],
              [
                105.029979,
                20.624655
              ],
              [
                105.029979,
                20.624655
              ],
              [
                105.030667,
                20.624029
              ],
              [
                105.030667,
                20.624029
              ],
              [
                105.030668,
                20.624027
              ],
              [
                105.030937,
                20.623583
              ],
              [
                105.030924,
                20.622951
              ],
              [
                105.030589,
                20.622037
              ],
              [
                105.030532,
                20.621974
              ],
              [
                105.030406,
                20.621758
              ],
              [
                105.030253,
                20.621404
              ],
              [
                105.03017,
                20.621242
              ],
              [
                105.030018,
                20.621023
              ],
              [
                105.029957,
                20.62097
              ],
              [
                105.02974,
                20.620804
              ],
              [
                105.029677,
                20.620723
              ],
              [
                105.029649,
                20.620606
              ],
              [
                105.029656,
                20.62054
              ],
              [
                105.029678,
                20.620439
              ],
              [
                105.029738,
                20.620367
              ],
              [
                105.029875,
                20.62022
              ],
              [
                105.029875,
                20.62022
              ],
              [
                105.030012,
                20.620104
              ],
              [
                105.030012,
                20.620104
              ],
              [
                105.030088,
                20.619954
              ],
              [
                105.030187,
                20.619509
              ],
              [
                105.030316,
                20.618885
              ],
              [
                105.030423,
                20.618605
              ],
              [
                105.03056,
                20.618433
              ],
              [
                105.030819,
                20.618325
              ],
              [
                105.030819,
                20.618325
              ],
              [
                105.031238,
                20.618081
              ],
              [
                105.031238,
                20.618081
              ],
              [
                105.03171,
                20.617737
              ],
              [
                105.03171,
                20.617737
              ],
              [
                105.032236,
                20.617414
              ],
              [
                105.03238,
                20.617228
              ],
              [
                105.032693,
                20.616733
              ],
              [
                105.032906,
                20.616334
              ],
              [
                105.03254,
                20.616008
              ],
              [
                105.031923,
                20.615428
              ],
              [
                105.031717,
                20.615169
              ],
              [
                105.031546,
                20.614641
              ],
              [
                105.031546,
                20.614431
              ],
              [
                105.031559,
                20.614336
              ],
              [
                105.031597,
                20.614234
              ],
              [
                105.031657,
                20.614138
              ],
              [
                105.031657,
                20.614138
              ],
              [
                105.031746,
                20.614086
              ],
              [
                105.032356,
                20.613938
              ],
              [
                105.032356,
                20.613938
              ],
              [
                105.03248,
                20.613902
              ],
              [
                105.032498,
                20.613875
              ],
              [
                105.03249,
                20.613844
              ],
              [
                105.032429,
                20.613813
              ],
              [
                105.031961,
                20.613558
              ],
              [
                105.031931,
                20.61353
              ],
              [
                105.03178,
                20.613381
              ],
              [
                105.031709,
                20.613255
              ],
              [
                105.031693,
                20.613101
              ],
              [
                105.031758,
                20.61297
              ],
              [
                105.031839,
                20.612851
              ],
              [
                105.031839,
                20.612851
              ],
              [
                105.031993,
                20.612723
              ],
              [
                105.031993,
                20.612723
              ],
              [
                105.032178,
                20.61258
              ],
              [
                105.032178,
                20.61258
              ],
              [
                105.032372,
                20.61246
              ],
              [
                105.032372,
                20.61246
              ],
              [
                105.032565,
                20.612386
              ],
              [
                105.032565,
                20.612386
              ],
              [
                105.032726,
                20.612356
              ],
              [
                105.032726,
                20.612356
              ],
              [
                105.033176,
                20.612309
              ],
              [
                105.033176,
                20.612309
              ],
              [
                105.033258,
                20.612285
              ],
              [
                105.033258,
                20.612285
              ],
              [
                105.033288,
                20.612259
              ],
              [
                105.033288,
                20.612259
              ],
              [
                105.033365,
                20.612173
              ],
              [
                105.033435,
                20.612
              ],
              [
                105.033551,
                20.61148
              ],
              [
                105.033533,
                20.611103
              ],
              [
                105.033471,
                20.610899
              ],
              [
                105.03336,
                20.610598
              ],
              [
                105.033372,
                20.610519
              ],
              [
                105.033402,
                20.610497
              ],
              [
                105.033402,
                20.610497
              ],
              [
                105.033547,
                20.61044
              ],
              [
                105.033547,
                20.61044
              ],
              [
                105.033631,
                20.610401
              ],
              [
                105.033661,
                20.610361
              ],
              [
                105.033665,
                20.610322
              ],
              [
                105.033621,
                20.610139
              ],
              [
                105.033579,
                20.609976
              ],
              [
                105.033173,
                20.609303
              ],
              [
                105.032723,
                20.608905
              ],
              [
                105.031542,
                20.608329
              ],
              [
                105.030645,
                20.609967
              ],
              [
                105.029994,
                20.609538
              ],
              [
                105.029886,
                20.609483
              ],
              [
                105.029576,
                20.609334
              ],
              [
                105.028496,
                20.609038
              ],
              [
                105.027744,
                20.608705
              ],
              [
                105.027302,
                20.607714
              ],
              [
                105.027261,
                20.607562
              ],
              [
                105.027248,
                20.607513
              ],
              [
                105.026261,
                20.607388
              ],
              [
                105.025426,
                20.607263
              ],
              [
                105.025147,
                20.607224
              ],
              [
                105.024938,
                20.607117
              ],
              [
                105.024709,
                20.606839
              ],
              [
                105.024404,
                20.606397
              ],
              [
                105.024306,
                20.606304
              ],
              [
                105.02423,
                20.60631
              ],
              [
                105.02423,
                20.60631
              ],
              [
                105.024074,
                20.606436
              ],
              [
                105.02396,
                20.606421
              ],
              [
                105.023798,
                20.606286
              ],
              [
                105.023588,
                20.606212
              ],
              [
                105.02349,
                20.606176
              ],
              [
                105.02349,
                20.606176
              ],
              [
                105.023331,
                20.606224
              ],
              [
                105.023271,
                20.606218
              ],
              [
                105.023201,
                20.606032
              ],
              [
                105.02315,
                20.605961
              ],
              [
                105.02296,
                20.605904
              ],
              [
                105.022881,
                20.605862
              ],
              [
                105.022798,
                20.605701
              ],
              [
                105.022528,
                20.60559
              ],
              [
                105.022195,
                20.605509
              ],
              [
                105.02209,
                20.605465
              ],
              [
                105.021919,
                20.605244
              ],
              [
                105.021906,
                20.60513
              ],
              [
                105.021911,
                20.605075
              ],
              [
                105.02192,
                20.604962
              ],
              [
                105.021928,
                20.604861
              ],
              [
                105.021871,
                20.604774
              ],
              [
                105.02175,
                20.604655
              ],
              [
                105.021712,
                20.604571
              ],
              [
                105.021707,
                20.604283
              ],
              [
                105.021714,
                20.604276
              ],
              [
                105.021715,
                20.604197
              ],
              [
                105.021708,
                20.604163
              ],
              [
                105.0217,
                20.604129
              ],
              [
                105.021675,
                20.604082
              ],
              [
                105.021668,
                20.604068
              ],
              [
                105.02163,
                20.604006
              ],
              [
                105.02139,
                20.603643
              ],
              [
                105.020994,
                20.603614
              ],
              [
                105.020811,
                20.603528
              ],
              [
                105.020872,
                20.603126
              ],
              [
                105.020933,
                20.602452
              ],
              [
                105.020689,
                20.601936
              ],
              [
                105.019607,
                20.601204
              ],
              [
                105.019028,
                20.600688
              ],
              [
                105.019028,
                20.600401
              ],
              [
                105.01915,
                20.59987
              ],
              [
                105.019866,
                20.598737
              ],
              [
                105.019744,
                20.598551
              ],
              [
                105.019297,
                20.598274
              ],
              [
                105.018845,
                20.598043
              ],
              [
                105.018718,
                20.597952
              ],
              [
                105.018622,
                20.597823
              ],
              [
                105.018611,
                20.597708
              ],
              [
                105.018657,
                20.597483
              ],
              [
                105.018718,
                20.597282
              ],
              [
                105.018698,
                20.59711
              ],
              [
                105.018458,
                20.596699
              ],
              [
                105.018032,
                20.596149
              ],
              [
                105.0179,
                20.595963
              ],
              [
                105.01786,
                20.595819
              ],
              [
                105.01787,
                20.595686
              ],
              [
                105.018085,
                20.595312
              ],
              [
                105.018469,
                20.594839
              ],
              [
                105.01857,
                20.594619
              ],
              [
                105.018707,
                20.594304
              ],
              [
                105.018666,
                20.593329
              ],
              [
                105.018298,
                20.592241
              ],
              [
                105.017638,
                20.591366
              ],
              [
                105.017636,
                20.591363
              ],
              [
                105.017377,
                20.591043
              ],
              [
                105.016773,
                20.590568
              ],
              [
                105.01672,
                20.590532
              ],
              [
                105.015733,
                20.589838
              ],
              [
                105.014565,
                20.589587
              ],
              [
                105.014146,
                20.589468
              ],
              [
                105.013829,
                20.589277
              ],
              [
                105.013702,
                20.589181
              ],
              [
                105.013108,
                20.587597
              ],
              [
                105.012637,
                20.58713
              ],
              [
                105.011943,
                20.586639
              ],
              [
                105.011862,
                20.586606
              ],
              [
                105.011653,
                20.586587
              ],
              [
                105.011421,
                20.586633
              ],
              [
                105.011421,
                20.586633
              ],
              [
                105.010938,
                20.586791
              ],
              [
                105.010938,
                20.586791
              ],
              [
                105.010582,
                20.586907
              ],
              [
                105.010582,
                20.586907
              ],
              [
                105.010374,
                20.58695
              ],
              [
                105.010374,
                20.58695
              ],
              [
                105.010027,
                20.586927
              ],
              [
                105.009199,
                20.586891
              ],
              [
                105.007366,
                20.586774
              ],
              [
                105.007355,
                20.586778
              ],
              [
                105.006373,
                20.586615
              ],
              [
                105.005828,
                20.586619
              ],
              [
                105.004778,
                20.586578
              ],
              [
                105.002743,
                20.586335
              ],
              [
                105.002477,
                20.586307
              ],
              [
                105.002432,
                20.58631
              ],
              [
                105.002432,
                20.58631
              ],
              [
                105.0024,
                20.586321
              ],
              [
                105.002286,
                20.586488
              ],
              [
                105.002286,
                20.586488
              ],
              [
                105.002225,
                20.586552
              ],
              [
                105.002225,
                20.586553
              ],
              [
                105.002144,
                20.586605
              ],
              [
                105.002144,
                20.586605
              ],
              [
                105.001872,
                20.586713
              ],
              [
                105.001872,
                20.586714
              ],
              [
                105.001546,
                20.586843
              ],
              [
                105.001546,
                20.586843
              ],
              [
                105.001421,
                20.586888
              ],
              [
                105.001421,
                20.586888
              ],
              [
                105.001158,
                20.58694
              ],
              [
                105.001158,
                20.58694
              ],
              [
                105.000986,
                20.586964
              ],
              [
                105.000986,
                20.586964
              ],
              [
                105.000465,
                20.586988
              ],
              [
                105.000372,
                20.586987
              ],
              [
                105.00019,
                20.586959
              ],
              [
                104.99996,
                20.586931
              ],
              [
                104.999706,
                20.586884
              ],
              [
                104.999603,
                20.586851
              ],
              [
                104.999324,
                20.586724
              ],
              [
                104.999227,
                20.586677
              ],
              [
                104.999151,
                20.586654
              ],
              [
                104.998908,
                20.586653
              ],
              [
                104.998844,
                20.58666
              ],
              [
                104.998759,
                20.586671
              ],
              [
                104.998759,
                20.586671
              ],
              [
                104.998698,
                20.586686
              ],
              [
                104.998698,
                20.586686
              ],
              [
                104.998609,
                20.586712
              ],
              [
                104.998609,
                20.586712
              ],
              [
                104.998337,
                20.586809
              ],
              [
                104.998337,
                20.586809
              ],
              [
                104.997797,
                20.587028
              ],
              [
                104.996495,
                20.574768
              ],
              [
                104.996495,
                20.574768
              ],
              [
                104.996494,
                20.574734
              ],
              [
                104.996494,
                20.574734
              ],
              [
                104.995426,
                20.5747
              ],
              [
                104.994563,
                20.574533
              ],
              [
                104.993781,
                20.574457
              ],
              [
                104.993151,
                20.574437
              ],
              [
                104.993151,
                20.574437
              ],
              [
                104.992633,
                20.574504
              ],
              [
                104.991963,
                20.574638
              ],
              [
                104.991963,
                20.574638
              ],
              [
                104.991624,
                20.574697
              ],
              [
                104.99109,
                20.574705
              ],
              [
                104.990694,
                20.574743
              ],
              [
                104.990552,
                20.574801
              ],
              [
                104.990409,
                20.574858
              ],
              [
                104.990409,
                20.574858
              ],
              [
                104.990176,
                20.575049
              ],
              [
                104.990176,
                20.575049
              ],
              [
                104.989944,
                20.575274
              ],
              [
                104.989944,
                20.575274
              ],
              [
                104.989794,
                20.575355
              ],
              [
                104.989794,
                20.575355
              ],
              [
                104.989555,
                20.575394
              ],
              [
                104.989555,
                20.575394
              ],
              [
                104.989445,
                20.575394
              ],
              [
                104.989181,
                20.575327
              ],
              [
                104.988835,
                20.575164
              ],
              [
                104.98847,
                20.574877
              ],
              [
                104.987942,
                20.574409
              ],
              [
                104.987046,
                20.573428
              ],
              [
                104.986509,
                20.572822
              ],
              [
                104.985843,
                20.572114
              ],
              [
                104.985458,
                20.571655
              ],
              [
                104.985183,
                20.571177
              ],
              [
                104.984859,
                20.570995
              ],
              [
                104.984493,
                20.570995
              ],
              [
                104.984016,
                20.57111
              ],
              [
                104.984016,
                20.57111
              ],
              [
                104.982594,
                20.571607
              ],
              [
                104.982594,
                20.571607
              ],
              [
                104.981561,
                20.572097
              ],
              [
                104.98156,
                20.572097
              ],
              [
                104.980675,
                20.572598
              ],
              [
                104.980491,
                20.572754
              ],
              [
                104.980332,
                20.572981
              ],
              [
                104.980218,
                20.57322
              ],
              [
                104.980002,
                20.573513
              ],
              [
                104.979767,
                20.573758
              ],
              [
                104.979767,
                20.573758
              ],
              [
                104.979416,
                20.573941
              ],
              [
                104.978303,
                20.574317
              ],
              [
                104.974427,
                20.574475
              ],
              [
                104.972713,
                20.574701
              ],
              [
                104.970819,
                20.576065
              ],
              [
                104.969136,
                20.57704
              ],
              [
                104.968624,
                20.577155
              ],
              [
                104.967781,
                20.577177
              ],
              [
                104.966312,
                20.578042
              ],
              [
                104.965696,
                20.578189
              ],
              [
                104.965061,
                20.578147
              ],
              [
                104.960191,
                20.579639
              ],
              [
                104.96229,
                20.583206
              ],
              [
                104.962141,
                20.585266
              ],
              [
                104.962362,
                20.588511
              ],
              [
                104.962718,
                20.590365
              ],
              [
                104.962629,
                20.591601
              ],
              [
                104.961907,
                20.594101
              ],
              [
                104.961764,
                20.594903
              ],
              [
                104.967247,
                20.595049
              ],
              [
                104.969357,
                20.595442
              ],
              [
                104.969357,
                20.595442
              ],
              [
                104.969254,
                20.595666
              ],
              [
                104.968649,
                20.596641
              ],
              [
                104.968382,
                20.5969
              ],
              [
                104.968382,
                20.5969
              ],
              [
                104.967811,
                20.597093
              ],
              [
                104.966912,
                20.597172
              ],
              [
                104.966455,
                20.597229
              ],
              [
                104.966188,
                20.597279
              ],
              [
                104.966188,
                20.597279
              ],
              [
                104.966188,
                20.597279
              ],
              [
                104.965929,
                20.597537
              ],
              [
                104.96514,
                20.598607
              ],
              [
                104.965077,
                20.598712
              ],
              [
                104.964867,
                20.599022
              ],
              [
                104.96481,
                20.599351
              ],
              [
                104.964829,
                20.599752
              ],
              [
                104.964841,
                20.600062
              ],
              [
                104.96481,
                20.60029
              ],
              [
                104.964805,
                20.600304
              ],
              [
                104.964754,
                20.6004
              ],
              [
                104.964529,
                20.600676
              ],
              [
                104.964305,
                20.600956
              ],
              [
                104.964197,
                20.601104
              ],
              [
                104.964182,
                20.601133
              ],
              [
                104.964163,
                20.601153
              ],
              [
                104.964122,
                20.601228
              ],
              [
                104.964039,
                20.601482
              ],
              [
                104.963985,
                20.601698
              ],
              [
                104.963947,
                20.601878
              ],
              [
                104.963863,
                20.602229
              ],
              [
                104.963832,
                20.602419
              ],
              [
                104.963809,
                20.602595
              ],
              [
                104.963804,
                20.602702
              ],
              [
                104.963781,
                20.602961
              ],
              [
                104.96378,
                20.603029
              ],
              [
                104.963797,
                20.603161
              ],
              [
                104.963838,
                20.603324
              ],
              [
                104.963841,
                20.603364
              ],
              [
                104.963834,
                20.603397
              ],
              [
                104.963825,
                20.60341
              ],
              [
                104.963824,
                20.603431
              ],
              [
                104.963767,
                20.60356
              ],
              [
                104.963607,
                20.603778
              ],
              [
                104.963281,
                20.604052
              ],
              [
                104.963196,
                20.604108
              ],
              [
                104.962967,
                20.604334
              ],
              [
                104.962902,
                20.604438
              ],
              [
                104.962834,
                20.604596
              ],
              [
                104.962803,
                20.604768
              ],
              [
                104.962803,
                20.604886
              ],
              [
                104.962806,
                20.604989
              ],
              [
                104.962802,
                20.605032
              ],
              [
                104.96238,
                20.606055
              ],
              [
                104.962205,
                20.606493
              ],
              [
                104.96344,
                20.608167
              ],
              [
                104.961479,
                20.61122
              ],
              [
                104.960445,
                20.615282
              ],
              [
                104.9603,
                20.620466
              ],
              [
                104.960317,
                20.620507
              ],
              [
                104.960342,
                20.620583
              ],
              [
                104.960362,
                20.620657
              ],
              [
                104.960379,
                20.620736
              ],
              [
                104.96039,
                20.620811
              ],
              [
                104.960395,
                20.620887
              ],
              [
                104.960395,
                20.620912
              ],
              [
                104.960395,
                20.620946
              ],
              [
                104.960392,
                20.621005
              ],
              [
                104.960381,
                20.621108
              ],
              [
                104.960372,
                20.621169
              ],
              [
                104.960363,
                20.621206
              ],
              [
                104.960352,
                20.62124
              ],
              [
                104.960338,
                20.621271
              ],
              [
                104.960322,
                20.621297
              ],
              [
                104.960245,
                20.62163
              ],
              [
                104.960245,
                20.621936
              ],
              [
                104.960326,
                20.62229
              ],
              [
                104.96055,
                20.622529
              ],
              [
                104.960623,
                20.622674
              ],
              [
                104.960673,
                20.622834
              ],
              [
                104.960712,
                20.623113
              ],
              [
                104.960724,
                20.623292
              ],
              [
                104.960718,
                20.62337
              ],
              [
                104.960701,
                20.623466
              ],
              [
                104.960666,
                20.623631
              ],
              [
                104.960645,
                20.62377
              ],
              [
                104.960642,
                20.623877
              ],
              [
                104.960648,
                20.624014
              ],
              [
                104.960647,
                20.62403
              ],
              [
                104.960647,
                20.624031
              ],
              [
                104.960649,
                20.624181
              ],
              [
                104.960693,
                20.624797
              ],
              [
                104.96066,
                20.624905
              ],
              [
                104.960558,
                20.625096
              ],
              [
                104.960358,
                20.625427
              ],
              [
                104.960235,
                20.625705
              ],
              [
                104.960172,
                20.626058
              ],
              [
                104.960151,
                20.626973
              ],
              [
                104.960077,
                20.627751
              ],
              [
                104.960097,
                20.628155
              ],
              [
                104.960075,
                20.628229
              ],
              [
                104.959984,
                20.62854
              ],
              [
                104.95981,
                20.628853
              ],
              [
                104.959499,
                20.629152
              ],
              [
                104.959499,
                20.629152
              ],
              [
                104.959349,
                20.62936
              ],
              [
                104.959077,
                20.629583
              ],
              [
                104.958548,
                20.629997
              ],
              [
                104.958261,
                20.630143
              ],
              [
                104.958261,
                20.630143
              ],
              [
                104.957667,
                20.630508
              ],
              [
                104.95693,
                20.631045
              ],
              [
                104.956552,
                20.631258
              ],
              [
                104.956552,
                20.631258
              ],
              [
                104.955592,
                20.6318
              ],
              [
                104.955204,
                20.631928
              ],
              [
                104.954911,
                20.631984
              ],
              [
                104.954911,
                20.631984
              ],
              [
                104.95472,
                20.63208
              ],
              [
                104.954512,
                20.632276
              ],
              [
                104.954258,
                20.632653
              ],
              [
                104.953891,
                20.633206
              ],
              [
                104.953627,
                20.633833
              ],
              [
                104.953475,
                20.634068
              ],
              [
                104.95335,
                20.634186
              ],
              [
                104.95335,
                20.634186
              ],
              [
                104.953248,
                20.634242
              ],
              [
                104.953128,
                20.63427
              ],
              [
                104.953128,
                20.63427
              ],
              [
                104.952872,
                20.634326
              ],
              [
                104.952634,
                20.634441
              ],
              [
                104.952549,
                20.634689
              ],
              [
                104.952468,
                20.634924
              ],
              [
                104.952284,
                20.635431
              ],
              [
                104.95151,
                20.6361
              ],
              [
                104.951231,
                20.636246
              ],
              [
                104.951089,
                20.636813
              ],
              [
                104.950989,
                20.637098
              ],
              [
                104.950819,
                20.637179
              ],
              [
                104.950568,
                20.637379
              ],
              [
                104.950284,
                20.637684
              ],
              [
                104.950284,
                20.637684
              ],
              [
                104.950127,
                20.637878
              ],
              [
                104.950019,
                20.638117
              ],
              [
                104.949756,
                20.638434
              ],
              [
                104.949379,
                20.638684
              ],
              [
                104.949379,
                20.638684
              ],
              [
                104.949184,
                20.638811
              ],
              [
                104.949184,
                20.638811
              ],
              [
                104.948899,
                20.638922
              ],
              [
                104.948737,
                20.639052
              ],
              [
                104.948737,
                20.639052
              ],
              [
                104.948624,
                20.639181
              ],
              [
                104.948498,
                20.639463
              ],
              [
                104.948472,
                20.639865
              ],
              [
                104.948469,
                20.640155
              ],
              [
                104.948444,
                20.640336
              ],
              [
                104.948413,
                20.640642
              ],
              [
                104.948241,
                20.640848
              ],
              [
                104.948241,
                20.640848
              ],
              [
                104.948121,
                20.640967
              ],
              [
                104.947957,
                20.641106
              ],
              [
                104.947957,
                20.641106
              ],
              [
                104.947651,
                20.641274
              ],
              [
                104.947359,
                20.641566
              ],
              [
                104.9469,
                20.642078
              ],
              [
                104.946666,
                20.642328
              ],
              [
                104.946444,
                20.642863
              ],
              [
                104.946156,
                20.643293
              ],
              [
                104.945977,
                20.643585
              ],
              [
                104.944912,
                20.643728
              ],
              [
                104.94404,
                20.64387
              ],
              [
                104.943216,
                20.643843
              ],
              [
                104.942767,
                20.643832
              ],
              [
                104.942696,
                20.643813
              ],
              [
                104.94257,
                20.643781
              ],
              [
                104.942354,
                20.643625
              ],
              [
                104.942253,
                20.643595
              ],
              [
                104.942154,
                20.643603
              ],
              [
                104.942154,
                20.643603
              ],
              [
                104.941851,
                20.643683
              ],
              [
                104.941446,
                20.643837
              ],
              [
                104.941347,
                20.643902
              ],
              [
                104.941075,
                20.644094
              ],
              [
                104.940896,
                20.644262
              ],
              [
                104.940667,
                20.644477
              ],
              [
                104.940512,
                20.644535
              ],
              [
                104.939866,
                20.644935
              ],
              [
                104.93937,
                20.645144
              ],
              [
                104.938834,
                20.645325
              ],
              [
                104.937282,
                20.645499
              ],
              [
                104.936816,
                20.645503
              ],
              [
                104.936403,
                20.645478
              ],
              [
                104.936175,
                20.645469
              ],
              [
                104.935789,
                20.645492
              ],
              [
                104.935573,
                20.645509
              ],
              [
                104.935517,
                20.645527
              ],
              [
                104.935442,
                20.645575
              ],
              [
                104.935442,
                20.645575
              ],
              [
                104.935275,
                20.645636
              ],
              [
                104.934708,
                20.645843
              ],
              [
                104.934241,
                20.646104
              ],
              [
                104.934227,
                20.646118
              ],
              [
                104.933891,
                20.646453
              ],
              [
                104.933891,
                20.646453
              ],
              [
                104.933518,
                20.646584
              ],
              [
                104.933392,
                20.646583
              ],
              [
                104.933236,
                20.646627
              ],
              [
                104.933236,
                20.646627
              ],
              [
                104.93294,
                20.646771
              ],
              [
                104.932822,
                20.646802
              ],
              [
                104.932822,
                20.646802
              ],
              [
                104.932307,
                20.646892
              ],
              [
                104.932091,
                20.647163
              ],
              [
                104.931896,
                20.647365
              ],
              [
                104.931551,
                20.647794
              ],
              [
                104.93137,
                20.648085
              ],
              [
                104.931283,
                20.648229
              ],
              [
                104.931142,
                20.648302
              ],
              [
                104.931124,
                20.648306
              ],
              [
                104.930433,
                20.648468
              ],
              [
                104.929904,
                20.648591
              ],
              [
                104.928084,
                20.649072
              ],
              [
                104.927757,
                20.649265
              ],
              [
                104.927696,
                20.6494
              ],
              [
                104.927604,
                20.649645
              ],
              [
                104.927359,
                20.650836
              ],
              [
                104.927236,
                20.651177
              ],
              [
                104.927037,
                20.651446
              ],
              [
                104.926801,
                20.651691
              ],
              [
                104.926727,
                20.651797
              ],
              [
                104.926503,
                20.652199
              ],
              [
                104.926375,
                20.652544
              ],
              [
                104.926011,
                20.65269
              ],
              [
                104.926011,
                20.65269
              ],
              [
                104.925507,
                20.652905
              ],
              [
                104.924357,
                20.653222
              ],
              [
                104.923203,
                20.653617
              ],
              [
                104.923203,
                20.653617
              ],
              [
                104.922617,
                20.653851
              ],
              [
                104.922339,
                20.653985
              ],
              [
                104.922339,
                20.653985
              ],
              [
                104.921989,
                20.654202
              ],
              [
                104.921237,
                20.654723
              ],
              [
                104.920915,
                20.655079
              ],
              [
                104.92079,
                20.655243
              ],
              [
                104.920731,
                20.655372
              ],
              [
                104.920728,
                20.656132
              ],
              [
                104.920641,
                20.656413
              ],
              [
                104.920404,
                20.65667
              ],
              [
                104.920082,
                20.657089
              ],
              [
                104.919355,
                20.6579
              ],
              [
                104.918985,
                20.658309
              ],
              [
                104.9188,
                20.658555
              ],
              [
                104.918574,
                20.659152
              ],
              [
                104.916717,
                20.659669
              ],
              [
                104.916348,
                20.659888
              ],
              [
                104.915835,
                20.660103
              ],
              [
                104.915668,
                20.660193
              ],
              [
                104.915668,
                20.660193
              ],
              [
                104.914783,
                20.660724
              ],
              [
                104.913679,
                20.661021
              ],
              [
                104.913499,
                20.661077
              ],
              [
                104.912041,
                20.661802
              ],
              [
                104.912041,
                20.661802
              ],
              [
                104.91127,
                20.662524
              ],
              [
                104.91127,
                20.662524
              ],
              [
                104.911432,
                20.663195
              ],
              [
                104.911856,
                20.663533
              ],
              [
                104.912284,
                20.663968
              ],
              [
                104.912537,
                20.664215
              ],
              [
                104.912806,
                20.664457
              ],
              [
                104.912947,
                20.664639
              ],
              [
                104.913083,
                20.664771
              ],
              [
                104.913525,
                20.665161
              ],
              [
                104.914034,
                20.665494
              ],
              [
                104.914201,
                20.665646
              ],
              [
                104.914458,
                20.665924
              ],
              [
                104.914567,
                20.666078
              ],
              [
                104.914696,
                20.666277
              ],
              [
                104.914816,
                20.666369
              ],
              [
                104.91498,
                20.666509
              ],
              [
                104.915262,
                20.666761
              ],
              [
                104.915442,
                20.666835
              ],
              [
                104.915552,
                20.666875
              ],
              [
                104.915672,
                20.66691
              ],
              [
                104.915764,
                20.666941
              ],
              [
                104.915829,
                20.666972
              ],
              [
                104.915948,
                20.667047
              ],
              [
                104.91607,
                20.667155
              ],
              [
                104.916134,
                20.667238
              ],
              [
                104.916198,
                20.667334
              ],
              [
                104.91628,
                20.667483
              ],
              [
                104.916348,
                20.667622
              ],
              [
                104.916408,
                20.667705
              ],
              [
                104.916458,
                20.667762
              ],
              [
                104.916504,
                20.667798
              ],
              [
                104.916573,
                20.667828
              ],
              [
                104.916717,
                20.66785
              ],
              [
                104.916954,
                20.667948
              ],
              [
                104.917123,
                20.667979
              ],
              [
                104.917376,
                20.668094
              ],
              [
                104.91755,
                20.668278
              ],
              [
                104.91763,
                20.668354
              ],
              [
                104.917794,
                20.668513
              ],
              [
                104.917698,
                20.668691
              ],
              [
                104.917656,
                20.668801
              ],
              [
                104.917561,
                20.66894
              ],
              [
                104.917524,
                20.669145
              ],
              [
                104.91752,
                20.669273
              ],
              [
                104.917552,
                20.669429
              ],
              [
                104.9176,
                20.66955
              ],
              [
                104.917734,
                20.669734
              ],
              [
                104.91787,
                20.669815
              ],
              [
                104.917966,
                20.669892
              ],
              [
                104.918253,
                20.670078
              ],
              [
                104.918448,
                20.67019
              ],
              [
                104.918568,
                20.670256
              ],
              [
                104.918687,
                20.670309
              ],
              [
                104.918784,
                20.670345
              ],
              [
                104.918961,
                20.670425
              ],
              [
                104.91906,
                20.670487
              ],
              [
                104.919223,
                20.670692
              ],
              [
                104.919381,
                20.670902
              ],
              [
                104.919559,
                20.671257
              ],
              [
                104.919723,
                20.671458
              ],
              [
                104.91998,
                20.671772
              ],
              [
                104.92042,
                20.67217
              ],
              [
                104.920523,
                20.67248
              ],
              [
                104.920494,
                20.672755
              ],
              [
                104.920467,
                20.672867
              ],
              [
                104.920427,
                20.673006
              ],
              [
                104.920374,
                20.673084
              ],
              [
                104.920336,
                20.673175
              ],
              [
                104.920322,
                20.673271
              ],
              [
                104.920326,
                20.673376
              ],
              [
                104.920362,
                20.67348
              ],
              [
                104.920456,
                20.673636
              ],
              [
                104.920575,
                20.673798
              ],
              [
                104.920818,
                20.674025
              ],
              [
                104.920985,
                20.674151
              ],
              [
                104.921055,
                20.674182
              ],
              [
                104.921174,
                20.674209
              ],
              [
                104.921322,
                20.674222
              ],
              [
                104.921603,
                20.67422
              ],
              [
                104.921794,
                20.674252
              ],
              [
                104.921963,
                20.674312
              ],
              [
                104.922075,
                20.674358
              ],
              [
                104.922173,
                20.674401
              ],
              [
                104.922292,
                20.674476
              ],
              [
                104.92252,
                20.674634
              ],
              [
                104.922963,
                20.674938
              ],
              [
                104.923294,
                20.675152
              ],
              [
                104.923978,
                20.675403
              ],
              [
                104.924177,
                20.675503
              ],
              [
                104.924347,
                20.675652
              ],
              [
                104.924399,
                20.675762
              ],
              [
                104.924463,
                20.67595
              ],
              [
                104.924505,
                20.676048
              ],
              [
                104.924519,
                20.67608
              ],
              [
                104.924644,
                20.67638
              ],
              [
                104.92488,
                20.676779
              ],
              [
                104.925059,
                20.67723
              ],
              [
                104.925379,
                20.677713
              ],
              [
                104.925895,
                20.678486
              ],
              [
                104.925971,
                20.678602
              ],
              [
                104.926281,
                20.678889
              ],
              [
                104.926388,
                20.679008
              ],
              [
                104.926637,
                20.67931
              ],
              [
                104.926874,
                20.679517
              ],
              [
                104.927449,
                20.679853
              ],
              [
                104.927817,
                20.680011
              ],
              [
                104.928112,
                20.680169
              ],
              [
                104.928532,
                20.680367
              ],
              [
                104.929034,
                20.68053
              ],
              [
                104.929288,
                20.680555
              ],
              [
                104.929682,
                20.680589
              ],
              [
                104.930223,
                20.680709
              ],
              [
                104.930539,
                20.680859
              ],
              [
                104.931362,
                20.681151
              ],
              [
                104.931824,
                20.681357
              ],
              [
                104.932042,
                20.681571
              ],
              [
                104.932297,
                20.688179
              ],
              [
                104.93531,
                20.701588
              ],
              [
                104.935338,
                20.701761
              ],
              [
                104.935228,
                20.702146
              ],
              [
                104.935112,
                20.702351
              ],
              [
                104.934996,
                20.702556
              ],
              [
                104.934974,
                20.702874
              ],
              [
                104.934992,
                20.70295
              ],
              [
                104.935028,
                20.703545
              ],
              [
                104.934995,
                20.703885
              ],
              [
                104.934885,
                20.704273
              ],
              [
                104.934864,
                20.704348
              ],
              [
                104.9347,
                20.704827
              ],
              [
                104.93435,
                20.706009
              ],
              [
                104.934289,
                20.706433
              ],
              [
                104.934309,
                20.706702
              ],
              [
                104.934526,
                20.707861
              ],
              [
                104.934587,
                20.708188
              ],
              [
                104.934615,
                20.708279
              ],
              [
                104.934735,
                20.708615
              ],
              [
                104.934973,
                20.708948
              ],
              [
                104.93511,
                20.709198
              ],
              [
                104.935229,
                20.709454
              ],
              [
                104.9355,
                20.709842
              ],
              [
                104.93544,
                20.709905
              ],
              [
                104.93544,
                20.709905
              ],
              [
                104.935168,
                20.710154
              ],
              [
                104.93507,
                20.710301
              ],
              [
                104.934884,
                20.710631
              ],
              [
                104.934833,
                20.710717
              ],
              [
                104.934764,
                20.711109
              ],
              [
                104.93508,
                20.711599
              ],
              [
                104.935107,
                20.711789
              ],
              [
                104.935153,
                20.712129
              ],
              [
                104.935126,
                20.71233
              ],
              [
                104.93508,
                20.712447
              ],
              [
                104.934806,
                20.712934
              ],
              [
                104.934659,
                20.713227
              ],
              [
                104.934426,
                20.713488
              ],
              [
                104.934282,
                20.713719
              ],
              [
                104.934644,
                20.713433
              ],
              [
                104.934645,
                20.713433
              ],
              [
                104.934964,
                20.713197
              ],
              [
                104.934964,
                20.713197
              ],
              [
                104.935317,
                20.713072
              ],
              [
                104.935318,
                20.713072
              ],
              [
                104.935594,
                20.713003
              ],
              [
                104.935809,
                20.712755
              ],
              [
                104.935809,
                20.712755
              ],
              [
                104.935887,
                20.712671
              ],
              [
                104.93593,
                20.712479
              ],
              [
                104.936034,
                20.712321
              ],
              [
                104.936252,
                20.71202
              ],
              [
                104.936605,
                20.711815
              ],
              [
                104.936605,
                20.711815
              ],
              [
                104.937093,
                20.711483
              ],
              [
                104.937093,
                20.711482
              ],
              [
                104.937378,
                20.711245
              ],
              [
                104.937378,
                20.711245
              ],
              [
                104.937614,
                20.711008
              ],
              [
                104.937614,
                20.711008
              ],
              [
                104.938,
                20.710818
              ],
              [
                104.938,
                20.710818
              ],
              [
                104.938421,
                20.71066
              ],
              [
                104.938421,
                20.71066
              ],
              [
                104.93874,
                20.710597
              ],
              [
                104.938992,
                20.710597
              ],
              [
                104.93921,
                20.710597
              ],
              [
                104.939371,
                20.710669
              ],
              [
                104.939482,
                20.710724
              ],
              [
                104.939556,
                20.710746
              ],
              [
                104.939648,
                20.710764
              ],
              [
                104.93986,
                20.710796
              ],
              [
                104.94011,
                20.71085
              ],
              [
                104.940357,
                20.71088
              ],
              [
                104.940564,
                20.710894
              ],
              [
                104.940754,
                20.710912
              ],
              [
                104.940973,
                20.710933
              ],
              [
                104.941126,
                20.710955
              ],
              [
                104.941238,
                20.710991
              ],
              [
                104.941422,
                20.711228
              ],
              [
                104.941497,
                20.71149
              ],
              [
                104.941582,
                20.711782
              ],
              [
                104.941636,
                20.712063
              ],
              [
                104.941871,
                20.712315
              ],
              [
                104.941999,
                20.712547
              ],
              [
                104.942074,
                20.712778
              ],
              [
                104.942277,
                20.71309
              ],
              [
                104.942512,
                20.713503
              ],
              [
                104.942787,
                20.713686
              ],
              [
                104.943228,
                20.713915
              ],
              [
                104.943377,
                20.714046
              ],
              [
                104.943527,
                20.714238
              ],
              [
                104.943712,
                20.714853
              ],
              [
                104.943804,
                20.715324
              ],
              [
                104.943954,
                20.715687
              ],
              [
                104.944274,
                20.715979
              ],
              [
                104.944527,
                20.716117
              ],
              [
                104.944841,
                20.71621
              ],
              [
                104.94522,
                20.716269
              ],
              [
                104.94748,
                20.716193
              ],
              [
                104.949766,
                20.714874
              ],
              [
                104.951978,
                20.713795
              ],
              [
                104.953098,
                20.713867
              ],
              [
                104.954868,
                20.715107
              ],
              [
                104.955898,
                20.715227
              ],
              [
                104.961485,
                20.713074
              ],
              [
                104.961818,
                20.712839
              ],
              [
                104.962313,
                20.712495
              ],
              [
                104.962739,
                20.712295
              ],
              [
                104.963029,
                20.712164
              ],
              [
                104.964076,
                20.711426
              ],
              [
                104.964921,
                20.710668
              ],
              [
                104.965934,
                20.710342
              ],
              [
                104.966267,
                20.710226
              ],
              [
                104.966557,
                20.710115
              ],
              [
                104.96704,
                20.709958
              ],
              [
                104.967432,
                20.709895
              ],
              [
                104.967922,
                20.70981
              ],
              [
                104.968495,
                20.709792
              ],
              [
                104.968919,
                20.709857
              ],
              [
                104.969375,
                20.709585
              ],
              [
                104.969671,
                20.709433
              ],
              [
                104.969848,
                20.709342
              ],
              [
                104.970428,
                20.708984
              ],
              [
                104.970887,
                20.708746
              ],
              [
                104.971038,
                20.708674
              ],
              [
                104.97119,
                20.708505
              ],
              [
                104.972013,
                20.708096
              ],
              [
                104.972226,
                20.707991
              ],
              [
                104.972441,
                20.707857
              ],
              [
                104.973388,
                20.707343
              ],
              [
                104.973594,
                20.707252
              ],
              [
                104.973867,
                20.70707
              ],
              [
                104.973992,
                20.706965
              ],
              [
                104.974123,
                20.706865
              ],
              [
                104.974237,
                20.706787
              ],
              [
                104.974314,
                20.706732
              ],
              [
                104.974434,
                20.70668
              ],
              [
                104.974591,
                20.706641
              ],
              [
                104.974752,
                20.706591
              ],
              [
                104.974854,
                20.706568
              ],
              [
                104.974923,
                20.706555
              ],
              [
                104.97516,
                20.706525
              ],
              [
                104.97538,
                20.706485
              ],
              [
                104.97597,
                20.706597
              ],
              [
                104.976217,
                20.706562
              ],
              [
                104.976379,
                20.706509
              ],
              [
                104.977162,
                20.705754
              ],
              [
                104.97742,
                20.705657
              ],
              [
                104.977984,
                20.70539
              ],
              [
                104.97828,
                20.705238
              ],
              [
                104.978709,
                20.705018
              ],
              [
                104.97885,
                20.704947
              ],
              [
                104.979021,
                20.704903
              ],
              [
                104.979125,
                20.704885
              ],
              [
                104.979218,
                20.704865
              ],
              [
                104.979337,
                20.704848
              ],
              [
                104.979351,
                20.704848
              ],
              [
                104.979613,
                20.704857
              ],
              [
                104.979761,
                20.704836
              ],
              [
                104.979865,
                20.704795
              ],
              [
                104.980034,
                20.704691
              ],
              [
                104.980266,
                20.704527
              ],
              [
                104.980459,
                20.704367
              ],
              [
                104.980725,
                20.704092
              ],
              [
                104.980887,
                20.703886
              ],
              [
                104.981149,
                20.70354
              ],
              [
                104.981284,
                20.703334
              ],
              [
                104.98139,
                20.703121
              ],
              [
                104.981767,
                20.702408
              ],
              [
                104.98186,
                20.702246
              ],
              [
                104.982001,
                20.701996
              ],
              [
                104.982164,
                20.701695
              ],
              [
                104.982164,
                20.701695
              ]
            ]
          ]
        ]
      },
      "properties": {
        "code": "05245",
        "name": "Bao La",
        "nameEn": "Bao La",
        "fullName": "Xã Bao La",
        "fullNameEn": "Bao La Commune",
        "codeName": "bao_la",
        "postalCode": "36418",
        "postalCodePrefix": "",
        "gisServerId": "diaphanhanhchinhcapxa_2025.1684",
        "areaKm2": 104.27
      }
    }
  ]
}