{
  "type": "FeatureCollection",
  "bbox": [
    108.631038,
    15.236045,
    108.751426,
    15.291077
  ],
  "features": [
    {
      "type": "Feature",
      "id": "21100",
      "bbox": [
        108.631038,
        15.236045,
        108.751426,
        15.291077
      ],
      "geometry": {
        "type": "MultiPolygon",
        "coordinates": [
          [
            [
              [
                108.632408,
                15.24671
              ],
              [
                108.63132,
                15.248718
              ],
              [
                108.63134,
                15.248748
              ],
              [
                108.631384,
                15.248835
              ],
              [
                108.631421,
                15.248909
              ],
              [
                108.631422,
                15.248912
              ],
              [
                108.631444,
                15.24897
              ],
              [
                108.631445,
                15.248972
              ],
              [
                108.631447,
                15.248972
              ],
              [
                108.63146,
                15.249007
              ],
              [
                108.631486,
                15.249076
              ],
              [
                108.631488,
                15.249083
              ],
              [
                108.631522,
                15.249154
              ],
              [
                108.631576,
                15.249244
              ],
              [
                108.63158,
                15.24925
              ],
              [
                108.631658,
                15.24934
              ],
              [
                108.631762,
                15.249411
              ],
              [
                108.631836,
                15.249446
              ],
              [
                108.631871,
                15.249462
              ],
              [
                108.631936,
                15.249554
              ],
              [
                108.632105,
                15.249696
              ],
              [
                108.632252,
                15.249777
              ],
              [
                108.632628,
                15.249989
              ],
              [
                108.63276,
                15.250093
              ],
              [
                108.632818,
                15.250173
              ],
              [
                108.632837,
                15.250247
              ],
              [
                108.632815,
                15.2505
              ],
              [
                108.63284,
                15.250636
              ],
              [
                108.632905,
                15.250809
              ],
              [
                108.632994,
                15.250973
              ],
              [
                108.63322,
                15.251274
              ],
              [
                108.633458,
                15.251523
              ],
              [
                108.633552,
                15.251674
              ],
              [
                108.633672,
                15.251875
              ],
              [
                108.633679,
                15.251886
              ],
              [
                108.633915,
                15.25224
              ],
              [
                108.633975,
                15.252381
              ],
              [
                108.634111,
                15.252603
              ],
              [
                108.634262,
                15.25275
              ],
              [
                108.634339,
                15.252883
              ],
              [
                108.634459,
                15.253137
              ],
              [
                108.634545,
                15.253422
              ],
              [
                108.634539,
                15.253542
              ],
              [
                108.634508,
                15.253606
              ],
              [
                108.634476,
                15.253637
              ],
              [
                108.63433,
                15.253674
              ],
              [
                108.634204,
                15.253706
              ],
              [
                108.63416,
                15.253727
              ],
              [
                108.634142,
                15.253761
              ],
              [
                108.634128,
                15.253845
              ],
              [
                108.634078,
                15.253916
              ],
              [
                108.633926,
                15.254035
              ],
              [
                108.633866,
                15.254125
              ],
              [
                108.633834,
                15.254209
              ],
              [
                108.633811,
                15.254338
              ],
              [
                108.633766,
                15.254449
              ],
              [
                108.633723,
                15.254518
              ],
              [
                108.633712,
                15.254559
              ],
              [
                108.633718,
                15.254675
              ],
              [
                108.633735,
                15.254782
              ],
              [
                108.633745,
                15.254927
              ],
              [
                108.633745,
                15.255136
              ],
              [
                108.633771,
                15.255251
              ],
              [
                108.633833,
                15.255385
              ],
              [
                108.63389,
                15.255419
              ],
              [
                108.633954,
                15.255415
              ],
              [
                108.634047,
                15.255384
              ],
              [
                108.634222,
                15.255303
              ],
              [
                108.634348,
                15.25527
              ],
              [
                108.634548,
                15.255229
              ],
              [
                108.634637,
                15.255244
              ],
              [
                108.634691,
                15.255268
              ],
              [
                108.634727,
                15.255356
              ],
              [
                108.634748,
                15.255485
              ],
              [
                108.634753,
                15.255574
              ],
              [
                108.634773,
                15.255635
              ],
              [
                108.634834,
                15.255687
              ],
              [
                108.634977,
                15.255757
              ],
              [
                108.635104,
                15.255812
              ],
              [
                108.635278,
                15.255874
              ],
              [
                108.635453,
                15.255954
              ],
              [
                108.635563,
                15.255999
              ],
              [
                108.635625,
                15.255999
              ],
              [
                108.635689,
                15.255974
              ],
              [
                108.635791,
                15.255891
              ],
              [
                108.635891,
                15.255781
              ],
              [
                108.635959,
                15.255733
              ],
              [
                108.636042,
                15.255724
              ],
              [
                108.636235,
                15.255745
              ],
              [
                108.636573,
                15.255841
              ],
              [
                108.636873,
                15.255999
              ],
              [
                108.637092,
                15.256211
              ],
              [
                108.637262,
                15.256416
              ],
              [
                108.637322,
                15.256548
              ],
              [
                108.637326,
                15.256784
              ],
              [
                108.637314,
                15.256984
              ],
              [
                108.637352,
                15.257158
              ],
              [
                108.637481,
                15.257473
              ],
              [
                108.637595,
                15.257701
              ],
              [
                108.63775,
                15.257876
              ],
              [
                108.637826,
                15.258005
              ],
              [
                108.637877,
                15.258108
              ],
              [
                108.637882,
                15.258227
              ],
              [
                108.637886,
                15.258325
              ],
              [
                108.637917,
                15.258411
              ],
              [
                108.637987,
                15.258487
              ],
              [
                108.638127,
                15.258622
              ],
              [
                108.638297,
                15.258754
              ],
              [
                108.638522,
                15.25889
              ],
              [
                108.638863,
                15.25906
              ],
              [
                108.639105,
                15.259169
              ],
              [
                108.639159,
                15.259193
              ],
              [
                108.63954,
                15.259295
              ],
              [
                108.639876,
                15.259365
              ],
              [
                108.640243,
                15.25944
              ],
              [
                108.64044,
                15.259496
              ],
              [
                108.640577,
                15.25956
              ],
              [
                108.64073,
                15.259638
              ],
              [
                108.64081,
                15.259666
              ],
              [
                108.640922,
                15.259673
              ],
              [
                108.64106,
                15.259663
              ],
              [
                108.641143,
                15.259623
              ],
              [
                108.6413,
                15.259495
              ],
              [
                108.641364,
                15.259452
              ],
              [
                108.641486,
                15.259424
              ],
              [
                108.64167,
                15.259428
              ],
              [
                108.641781,
                15.25947
              ],
              [
                108.641931,
                15.259615
              ],
              [
                108.641977,
                15.259686
              ],
              [
                108.642102,
                15.259876
              ],
              [
                108.642288,
                15.260159
              ],
              [
                108.643414,
                15.259864
              ],
              [
                108.643965,
                15.259843
              ],
              [
                108.644099,
                15.259838
              ],
              [
                108.645236,
                15.259946
              ],
              [
                108.646037,
                15.260093
              ],
              [
                108.646542,
                15.260265
              ],
              [
                108.647124,
                15.260582
              ],
              [
                108.647858,
                15.261025
              ],
              [
                108.648787,
                15.261597
              ],
              [
                108.648885,
                15.261657
              ],
              [
                108.649483,
                15.261974
              ],
              [
                108.649924,
                15.262108
              ],
              [
                108.650347,
                15.262189
              ],
              [
                108.650937,
                15.262267
              ],
              [
                108.651507,
                15.262354
              ],
              [
                108.651792,
                15.262462
              ],
              [
                108.652153,
                15.262743
              ],
              [
                108.652508,
                15.263125
              ],
              [
                108.652845,
                15.263434
              ],
              [
                108.652957,
                15.263478
              ],
              [
                108.6531,
                15.26347
              ],
              [
                108.653278,
                15.263401
              ],
              [
                108.653576,
                15.263246
              ],
              [
                108.653848,
                15.263134
              ],
              [
                108.654302,
                15.263019
              ],
              [
                108.654806,
                15.262872
              ],
              [
                108.655582,
                15.262574
              ],
              [
                108.656152,
                15.262312
              ],
              [
                108.656582,
                15.262135
              ],
              [
                108.656839,
                15.262075
              ],
              [
                108.65708,
                15.262097
              ],
              [
                108.657271,
                15.262175
              ],
              [
                108.657456,
                15.26233
              ],
              [
                108.657574,
                15.262403
              ],
              [
                108.657731,
                15.262443
              ],
              [
                108.65807,
                15.262542
              ],
              [
                108.658477,
                15.262685
              ],
              [
                108.658796,
                15.262813
              ],
              [
                108.6591,
                15.262854
              ],
              [
                108.659172,
                15.26286
              ],
              [
                108.659391,
                15.262876
              ],
              [
                108.659824,
                15.262847
              ],
              [
                108.660039,
                15.262826
              ],
              [
                108.660253,
                15.262804
              ],
              [
                108.660846,
                15.262879
              ],
              [
                108.661533,
                15.263038
              ],
              [
                108.661924,
                15.263057
              ],
              [
                108.662447,
                15.263051
              ],
              [
                108.66324,
                15.262999
              ],
              [
                108.663824,
                15.263065
              ],
              [
                108.664339,
                15.263255
              ],
              [
                108.664877,
                15.263595
              ],
              [
                108.665609,
                15.264141
              ],
              [
                108.666007,
                15.26433
              ],
              [
                108.666511,
                15.264449
              ],
              [
                108.666997,
                15.264478
              ],
              [
                108.667792,
                15.264397
              ],
              [
                108.668464,
                15.264278
              ],
              [
                108.669255,
                15.264
              ],
              [
                108.670138,
                15.263746
              ],
              [
                108.670588,
                15.263721
              ],
              [
                108.670962,
                15.263802
              ],
              [
                108.671312,
                15.263949
              ],
              [
                108.671886,
                15.264314
              ],
              [
                108.672514,
                15.264864
              ],
              [
                108.673404,
                15.265674
              ],
              [
                108.674018,
                15.26635
              ],
              [
                108.674469,
                15.266779
              ],
              [
                108.675386,
                15.267422
              ],
              [
                108.676457,
                15.267923
              ],
              [
                108.677433,
                15.268226
              ],
              [
                108.679091,
                15.26856
              ],
              [
                108.680215,
                15.268846
              ],
              [
                108.681031,
                15.269028
              ],
              [
                108.681557,
                15.269081
              ],
              [
                108.682806,
                15.269059
              ],
              [
                108.682911,
                15.269062
              ],
              [
                108.682922,
                15.269062
              ],
              [
                108.683678,
                15.269087
              ],
              [
                108.684166,
                15.269181
              ],
              [
                108.684494,
                15.269244
              ],
              [
                108.685147,
                15.269444
              ],
              [
                108.685206,
                15.269462
              ],
              [
                108.685863,
                15.269693
              ],
              [
                108.686344,
                15.269925
              ],
              [
                108.686441,
                15.269972
              ],
              [
                108.686577,
                15.270062
              ],
              [
                108.687082,
                15.270399
              ],
              [
                108.687102,
                15.270413
              ],
              [
                108.687576,
                15.270729
              ],
              [
                108.687615,
                15.270759
              ],
              [
                108.68772,
                15.270837
              ],
              [
                108.687927,
                15.270991
              ],
              [
                108.688238,
                15.271349
              ],
              [
                108.688263,
                15.271377
              ],
              [
                108.688353,
                15.271453
              ],
              [
                108.688575,
                15.27164
              ],
              [
                108.688622,
                15.271679
              ],
              [
                108.688692,
                15.271708
              ],
              [
                108.689063,
                15.271863
              ],
              [
                108.689645,
                15.272019
              ],
              [
                108.690267,
                15.272078
              ],
              [
                108.690324,
                15.272084
              ],
              [
                108.690448,
                15.272088
              ],
              [
                108.690899,
                15.272103
              ],
              [
                108.691232,
                15.272115
              ],
              [
                108.69183,
                15.272121
              ],
              [
                108.691905,
                15.272131
              ],
              [
                108.692336,
                15.272193
              ],
              [
                108.69259,
                15.272229
              ],
              [
                108.693366,
                15.272187
              ],
              [
                108.693863,
                15.272041
              ],
              [
                108.694331,
                15.271781
              ],
              [
                108.694801,
                15.271334
              ],
              [
                108.695165,
                15.270844
              ],
              [
                108.695446,
                15.270466
              ],
              [
                108.695927,
                15.269761
              ],
              [
                108.69614,
                15.269418
              ],
              [
                108.69634,
                15.269098
              ],
              [
                108.696887,
                15.268415
              ],
              [
                108.697375,
                15.267935
              ],
              [
                108.697522,
                15.267791
              ],
              [
                108.698274,
                15.267196
              ],
              [
                108.698847,
                15.26685
              ],
              [
                108.699365,
                15.266712
              ],
              [
                108.699909,
                15.266639
              ],
              [
                108.699957,
                15.266632
              ],
              [
                108.701835,
                15.266288
              ],
              [
                108.703183,
                15.266192
              ],
              [
                108.703526,
                15.266216
              ],
              [
                108.704401,
                15.266276
              ],
              [
                108.705101,
                15.266434
              ],
              [
                108.705975,
                15.266902
              ],
              [
                108.706971,
                15.267694
              ],
              [
                108.707504,
                15.268162
              ],
              [
                108.707871,
                15.268485
              ],
              [
                108.70858,
                15.269209
              ],
              [
                108.709232,
                15.269675
              ],
              [
                108.710004,
                15.270048
              ],
              [
                108.710901,
                15.270403
              ],
              [
                108.71154,
                15.270655
              ],
              [
                108.712696,
                15.271109
              ],
              [
                108.71445,
                15.271741
              ],
              [
                108.714733,
                15.271945
              ],
              [
                108.715049,
                15.272359
              ],
              [
                108.715548,
                15.273091
              ],
              [
                108.715985,
                15.273736
              ],
              [
                108.71661,
                15.274641
              ],
              [
                108.717142,
                15.275588
              ],
              [
                108.717676,
                15.276727
              ],
              [
                108.718177,
                15.277443
              ],
              [
                108.718248,
                15.277545
              ],
              [
                108.718285,
                15.277587
              ],
              [
                108.718496,
                15.277829
              ],
              [
                108.718565,
                15.277907
              ],
              [
                108.719142,
                15.278286
              ],
              [
                108.719704,
                15.278646
              ],
              [
                108.719841,
                15.278742
              ],
              [
                108.720628,
                15.279296
              ],
              [
                108.722405,
                15.280303
              ],
              [
                108.723689,
                15.281073
              ],
              [
                108.724506,
                15.281681
              ],
              [
                108.724647,
                15.281785
              ],
              [
                108.725545,
                15.282475
              ],
              [
                108.725751,
                15.282633
              ],
              [
                108.727002,
                15.283855
              ],
              [
                108.727564,
                15.284416
              ],
              [
                108.728119,
                15.284971
              ],
              [
                108.72853,
                15.285436
              ],
              [
                108.728691,
                15.285619
              ],
              [
                108.729068,
                15.286142
              ],
              [
                108.729554,
                15.28682
              ],
              [
                108.729923,
                15.287229
              ],
              [
                108.729942,
                15.287245
              ],
              [
                108.730404,
                15.287653
              ],
              [
                108.730861,
                15.287982
              ],
              [
                108.730973,
                15.288063
              ],
              [
                108.731655,
                15.288468
              ],
              [
                108.73192,
                15.288564
              ],
              [
                108.73261,
                15.288817
              ],
              [
                108.733123,
                15.289004
              ],
              [
                108.733811,
                15.289246
              ],
              [
                108.734243,
                15.289399
              ],
              [
                108.735135,
                15.289562
              ],
              [
                108.735992,
                15.28957
              ],
              [
                108.736895,
                15.2894
              ],
              [
                108.739036,
                15.288701
              ],
              [
                108.739546,
                15.28855
              ],
              [
                108.740914,
                15.288146
              ],
              [
                108.741465,
                15.288107
              ],
              [
                108.741734,
                15.288087
              ],
              [
                108.742429,
                15.288196
              ],
              [
                108.743362,
                15.28848
              ],
              [
                108.744367,
                15.288939
              ],
              [
                108.74496,
                15.289273
              ],
              [
                108.745077,
                15.289387
              ],
              [
                108.745405,
                15.289708
              ],
              [
                108.746103,
                15.290494
              ],
              [
                108.746633,
                15.291077
              ],
              [
                108.746422,
                15.290005
              ],
              [
                108.746406,
                15.289663
              ],
              [
                108.746407,
                15.289319
              ],
              [
                108.746453,
                15.289155
              ],
              [
                108.746638,
                15.288882
              ],
              [
                108.746758,
                15.288747
              ],
              [
                108.746916,
                15.288679
              ],
              [
                108.746951,
                15.288662
              ],
              [
                108.747415,
                15.288447
              ],
              [
                108.748091,
                15.288438
              ],
              [
                108.748097,
                15.28807
              ],
              [
                108.747906,
                15.287673
              ],
              [
                108.748016,
                15.287017
              ],
              [
                108.748004,
                15.286853
              ],
              [
                108.747995,
                15.286791
              ],
              [
                108.747989,
                15.286746
              ],
              [
                108.747998,
                15.286664
              ],
              [
                108.748007,
                15.286518
              ],
              [
                108.747997,
                15.286386
              ],
              [
                108.747966,
                15.286172
              ],
              [
                108.747967,
                15.286032
              ],
              [
                108.74799,
                15.285883
              ],
              [
                108.748059,
                15.285754
              ],
              [
                108.748173,
                15.285596
              ],
              [
                108.748282,
                15.285481
              ],
              [
                108.748392,
                15.285365
              ],
              [
                108.748427,
                15.285317
              ],
              [
                108.748518,
                15.285193
              ],
              [
                108.748678,
                15.284949
              ],
              [
                108.74878,
                15.284777
              ],
              [
                108.749072,
                15.283072
              ],
              [
                108.749259,
                15.282029
              ],
              [
                108.749451,
                15.281009
              ],
              [
                108.749582,
                15.280219
              ],
              [
                108.749808,
                15.278962
              ],
              [
                108.750014,
                15.277967
              ],
              [
                108.750214,
                15.276898
              ],
              [
                108.750255,
                15.276729
              ],
              [
                108.750262,
                15.276614
              ],
              [
                108.75023,
                15.276505
              ],
              [
                108.750214,
                15.276338
              ],
              [
                108.750233,
                15.276246
              ],
              [
                108.750305,
                15.276155
              ],
              [
                108.750421,
                15.276053
              ],
              [
                108.750674,
                15.275889
              ],
              [
                108.750926,
                15.275767
              ],
              [
                108.751168,
                15.275736
              ],
              [
                108.751351,
                15.275666
              ],
              [
                108.751426,
                15.275572
              ],
              [
                108.751407,
                15.275495
              ],
              [
                108.751314,
                15.275427
              ],
              [
                108.751142,
                15.275401
              ],
              [
                108.751034,
                15.275333
              ],
              [
                108.750996,
                15.275228
              ],
              [
                108.750904,
                15.275098
              ],
              [
                108.750762,
                15.275039
              ],
              [
                108.75057,
                15.275018
              ],
              [
                108.75046,
                15.275132
              ],
              [
                108.750346,
                15.27524
              ],
              [
                108.750188,
                15.275224
              ],
              [
                108.750081,
                15.275161
              ],
              [
                108.750003,
                15.275007
              ],
              [
                108.749941,
                15.274863
              ],
              [
                108.749804,
                15.274762
              ],
              [
                108.749643,
                15.274674
              ],
              [
                108.749545,
                15.274539
              ],
              [
                108.749498,
                15.2744
              ],
              [
                108.749464,
                15.274299
              ],
              [
                108.749426,
                15.274237
              ],
              [
                108.749352,
                15.274231
              ],
              [
                108.749268,
                15.27424
              ],
              [
                108.749219,
                15.274206
              ],
              [
                108.7492,
                15.274163
              ],
              [
                108.749201,
                15.274034
              ],
              [
                108.749203,
                15.2739
              ],
              [
                108.748928,
                15.273366
              ],
              [
                108.748689,
                15.273115
              ],
              [
                108.748493,
                15.272989
              ],
              [
                108.748415,
                15.272983
              ],
              [
                108.74832,
                15.273026
              ],
              [
                108.748295,
                15.273087
              ],
              [
                108.748318,
                15.273222
              ],
              [
                108.748719,
                15.273967
              ],
              [
                108.748794,
                15.274345
              ],
              [
                108.749061,
                15.274702
              ],
              [
                108.749242,
                15.274809
              ],
              [
                108.749256,
                15.274866
              ],
              [
                108.748986,
                15.275322
              ],
              [
                108.748995,
                15.275385
              ],
              [
                108.749087,
                15.275476
              ],
              [
                108.749081,
                15.275567
              ],
              [
                108.749125,
                15.275644
              ],
              [
                108.749213,
                15.275688
              ],
              [
                108.749337,
                15.275617
              ],
              [
                108.749396,
                15.275623
              ],
              [
                108.749474,
                15.275705
              ],
              [
                108.749692,
                15.276023
              ],
              [
                108.749803,
                15.276215
              ],
              [
                108.74978,
                15.276361
              ],
              [
                108.749566,
                15.276806
              ],
              [
                108.749543,
                15.276807
              ],
              [
                108.749506,
                15.276874
              ],
              [
                108.749358,
                15.276923
              ],
              [
                108.747836,
                15.276872
              ],
              [
                108.747319,
                15.276838
              ],
              [
                108.747187,
                15.276765
              ],
              [
                108.747129,
                15.276671
              ],
              [
                108.747057,
                15.275774
              ],
              [
                108.747007,
                15.275637
              ],
              [
                108.746596,
                15.275173
              ],
              [
                108.74654,
                15.275106
              ],
              [
                108.746331,
                15.274801
              ],
              [
                108.746266,
                15.27443
              ],
              [
                108.746231,
                15.274214
              ],
              [
                108.746229,
                15.274092
              ],
              [
                108.74632,
                15.273853
              ],
              [
                108.746694,
                15.273146
              ],
              [
                108.746504,
                15.272775
              ],
              [
                108.746515,
                15.272733
              ],
              [
                108.746646,
                15.272518
              ],
              [
                108.746803,
                15.272304
              ],
              [
                108.746908,
                15.272202
              ],
              [
                108.746997,
                15.272154
              ],
              [
                108.747098,
                15.272088
              ],
              [
                108.747145,
                15.272017
              ],
              [
                108.747191,
                15.271864
              ],
              [
                108.747188,
                15.2717
              ],
              [
                108.747199,
                15.271633
              ],
              [
                108.747281,
                15.271443
              ],
              [
                108.7474,
                15.271196
              ],
              [
                108.747508,
                15.270903
              ],
              [
                108.747574,
                15.270653
              ],
              [
                108.747583,
                15.270502
              ],
              [
                108.747526,
                15.270301
              ],
              [
                108.74742,
                15.270199
              ],
              [
                108.747181,
                15.270064
              ],
              [
                108.747108,
                15.269981
              ],
              [
                108.747077,
                15.269784
              ],
              [
                108.747065,
                15.269507
              ],
              [
                108.747134,
                15.269257
              ],
              [
                108.747222,
                15.26895
              ],
              [
                108.747406,
                15.268444
              ],
              [
                108.747411,
                15.26843
              ],
              [
                108.747408,
                15.268427
              ],
              [
                108.746928,
                15.267989
              ],
              [
                108.746841,
                15.268055
              ],
              [
                108.746823,
                15.268068
              ],
              [
                108.746675,
                15.267995
              ],
              [
                108.746544,
                15.267859
              ],
              [
                108.746435,
                15.267694
              ],
              [
                108.746239,
                15.267267
              ],
              [
                108.745845,
                15.266412
              ],
              [
                108.745798,
                15.266241
              ],
              [
                108.745787,
                15.26614
              ],
              [
                108.745831,
                15.265994
              ],
              [
                108.74597,
                15.265684
              ],
              [
                108.746009,
                15.265535
              ],
              [
                108.746019,
                15.26528
              ],
              [
                108.746021,
                15.265237
              ],
              [
                108.74606,
                15.26501
              ],
              [
                108.746277,
                15.264283
              ],
              [
                108.746329,
                15.263996
              ],
              [
                108.746396,
                15.263861
              ],
              [
                108.746428,
                15.263771
              ],
              [
                108.74644,
                15.263697
              ],
              [
                108.746438,
                15.263633
              ],
              [
                108.746339,
                15.263499
              ],
              [
                108.746182,
                15.263386
              ],
              [
                108.745503,
                15.262996
              ],
              [
                108.745194,
                15.262853
              ],
              [
                108.744848,
                15.262643
              ],
              [
                108.744447,
                15.262442
              ],
              [
                108.744168,
                15.262331
              ],
              [
                108.743951,
                15.262248
              ],
              [
                108.743541,
                15.262341
              ],
              [
                108.743287,
                15.262414
              ],
              [
                108.743028,
                15.262561
              ],
              [
                108.742856,
                15.262745
              ],
              [
                108.742678,
                15.262801
              ],
              [
                108.742183,
                15.262767
              ],
              [
                108.741601,
                15.262618
              ],
              [
                108.741432,
                15.262273
              ],
              [
                108.741348,
                15.262172
              ],
              [
                108.740861,
                15.261334
              ],
              [
                108.740495,
                15.260566
              ],
              [
                108.740215,
                15.259607
              ],
              [
                108.740114,
                15.259072
              ],
              [
                108.739919,
                15.257535
              ],
              [
                108.739882,
                15.257243
              ],
              [
                108.739851,
                15.25697
              ],
              [
                108.739785,
                15.256728
              ],
              [
                108.739772,
                15.256576
              ],
              [
                108.739789,
                15.256397
              ],
              [
                108.739831,
                15.256197
              ],
              [
                108.73986,
                15.256048
              ],
              [
                108.73985,
                15.255818
              ],
              [
                108.739838,
                15.255588
              ],
              [
                108.739856,
                15.255334
              ],
              [
                108.739879,
                15.255143
              ],
              [
                108.739905,
                15.255044
              ],
              [
                108.739995,
                15.254953
              ],
              [
                108.740042,
                15.254843
              ],
              [
                108.740055,
                15.254762
              ],
              [
                108.740039,
                15.254649
              ],
              [
                108.739974,
                15.254474
              ],
              [
                108.739892,
                15.254332
              ],
              [
                108.739789,
                15.254222
              ],
              [
                108.73959,
                15.254055
              ],
              [
                108.739538,
                15.253988
              ],
              [
                108.739496,
                15.253867
              ],
              [
                108.739445,
                15.253622
              ],
              [
                108.739434,
                15.253441
              ],
              [
                108.739486,
                15.253171
              ],
              [
                108.739565,
                15.252776
              ],
              [
                108.739637,
                15.252478
              ],
              [
                108.739724,
                15.252296
              ],
              [
                108.739789,
                15.252146
              ],
              [
                108.739876,
                15.251917
              ],
              [
                108.740004,
                15.251542
              ],
              [
                108.739983,
                15.251273
              ],
              [
                108.739981,
                15.251086
              ],
              [
                108.739905,
                15.250913
              ],
              [
                108.739833,
                15.250794
              ],
              [
                108.739812,
                15.250701
              ],
              [
                108.739942,
                15.250272
              ],
              [
                108.740011,
                15.250004
              ],
              [
                108.740062,
                15.249767
              ],
              [
                108.740137,
                15.249327
              ],
              [
                108.740193,
                15.249057
              ],
              [
                108.740211,
                15.248972
              ],
              [
                108.740211,
                15.24897
              ],
              [
                108.740263,
                15.248681
              ],
              [
                108.739827,
                15.248707
              ],
              [
                108.73917,
                15.248708
              ],
              [
                108.738942,
                15.248555
              ],
              [
                108.737009,
                15.248328
              ],
              [
                108.736181,
                15.248377
              ],
              [
                108.73486,
                15.248263
              ],
              [
                108.734276,
                15.248308
              ],
              [
                108.733916,
                15.248189
              ],
              [
                108.732351,
                15.248094
              ],
              [
                108.731666,
                15.248116
              ],
              [
                108.731575,
                15.24809
              ],
              [
                108.731425,
                15.248047
              ],
              [
                108.731373,
                15.248032
              ],
              [
                108.731342,
                15.24803
              ],
              [
                108.731049,
                15.248011
              ],
              [
                108.730813,
                15.247973
              ],
              [
                108.730633,
                15.247917
              ],
              [
                108.73029,
                15.247844
              ],
              [
                108.73026,
                15.24784
              ],
              [
                108.72991,
                15.247791
              ],
              [
                108.729559,
                15.247836
              ],
              [
                108.729289,
                15.247833
              ],
              [
                108.729087,
                15.247802
              ],
              [
                108.728905,
                15.247772
              ],
              [
                108.728792,
                15.247723
              ],
              [
                108.728581,
                15.24761
              ],
              [
                108.728455,
                15.247554
              ],
              [
                108.728392,
                15.247505
              ],
              [
                108.728065,
                15.247756
              ],
              [
                108.727961,
                15.247812
              ],
              [
                108.727848,
                15.247783
              ],
              [
                108.727706,
                15.247719
              ],
              [
                108.727252,
                15.247776
              ],
              [
                108.7271,
                15.247751
              ],
              [
                108.726943,
                15.247687
              ],
              [
                108.726854,
                15.247701
              ],
              [
                108.726789,
                15.247786
              ],
              [
                108.726734,
                15.247905
              ],
              [
                108.726674,
                15.247986
              ],
              [
                108.726491,
                15.248027
              ],
              [
                108.725816,
                15.248097
              ],
              [
                108.725195,
                15.248119
              ],
              [
                108.72366,
                15.248476
              ],
              [
                108.723196,
                15.248534
              ],
              [
                108.722895,
                15.248607
              ],
              [
                108.722515,
                15.248728
              ],
              [
                108.722293,
                15.248725
              ],
              [
                108.722066,
                15.248761
              ],
              [
                108.721834,
                15.248835
              ],
              [
                108.72139,
                15.249122
              ],
              [
                108.718617,
                15.250748
              ],
              [
                108.717296,
                15.251533
              ],
              [
                108.713958,
                15.25358
              ],
              [
                108.713374,
                15.254306
              ],
              [
                108.713211,
                15.254361
              ],
              [
                108.711705,
                15.254289
              ],
              [
                108.711466,
                15.254544
              ],
              [
                108.711083,
                15.254754
              ],
              [
                108.711049,
                15.254753
              ],
              [
                108.711015,
                15.254742
              ],
              [
                108.710964,
                15.254706
              ],
              [
                108.710865,
                15.254633
              ],
              [
                108.710744,
                15.254564
              ],
              [
                108.710633,
                15.254555
              ],
              [
                108.710504,
                15.254532
              ],
              [
                108.710254,
                15.254422
              ],
              [
                108.709831,
                15.254325
              ],
              [
                108.709611,
                15.254361
              ],
              [
                108.70952,
                15.254368
              ],
              [
                108.709532,
                15.254418
              ],
              [
                108.709494,
                15.254695
              ],
              [
                108.709381,
                15.255124
              ],
              [
                108.708865,
                15.255458
              ],
              [
                108.708215,
                15.255887
              ],
              [
                108.707939,
                15.255965
              ],
              [
                108.707609,
                15.255971
              ],
              [
                108.707172,
                15.255862
              ],
              [
                108.706893,
                15.255677
              ],
              [
                108.706639,
                15.255493
              ],
              [
                108.706345,
                15.255356
              ],
              [
                108.706035,
                15.255269
              ],
              [
                108.705918,
                15.255237
              ],
              [
                108.705554,
                15.255147
              ],
              [
                108.705313,
                15.255173
              ],
              [
                108.704867,
                15.255427
              ],
              [
                108.704677,
                15.25564
              ],
              [
                108.704461,
                15.255799
              ],
              [
                108.704341,
                15.255928
              ],
              [
                108.704625,
                15.256481
              ],
              [
                108.705265,
                15.257702
              ],
              [
                108.702782,
                15.257503
              ],
              [
                108.702584,
                15.257487
              ],
              [
                108.701622,
                15.25741
              ],
              [
                108.700203,
                15.257297
              ],
              [
                108.69803,
                15.257166
              ],
              [
                108.697896,
                15.257154
              ],
              [
                108.697821,
                15.257148
              ],
              [
                108.69781,
                15.256882
              ],
              [
                108.697771,
                15.256798
              ],
              [
                108.697729,
                15.25674
              ],
              [
                108.697623,
                15.256693
              ],
              [
                108.69745,
                15.256634
              ],
              [
                108.697313,
                15.256577
              ],
              [
                108.697189,
                15.256511
              ],
              [
                108.697107,
                15.256488
              ],
              [
                108.69694,
                15.256467
              ],
              [
                108.696824,
                15.256466
              ],
              [
                108.696648,
                15.25648
              ],
              [
                108.696499,
                15.256483
              ],
              [
                108.696345,
                15.256458
              ],
              [
                108.696188,
                15.256405
              ],
              [
                108.696015,
                15.256332
              ],
              [
                108.695878,
                15.256291
              ],
              [
                108.695666,
                15.256256
              ],
              [
                108.695227,
                15.256202
              ],
              [
                108.695009,
                15.256146
              ],
              [
                108.69487,
                15.256066
              ],
              [
                108.694788,
                15.255991
              ],
              [
                108.694759,
                15.255925
              ],
              [
                108.694737,
                15.255833
              ],
              [
                108.694748,
                15.255694
              ],
              [
                108.694792,
                15.255603
              ],
              [
                108.694862,
                15.25551
              ],
              [
                108.695024,
                15.255352
              ],
              [
                108.695066,
                15.255261
              ],
              [
                108.695073,
                15.255135
              ],
              [
                108.695031,
                15.255031
              ],
              [
                108.694936,
                15.254902
              ],
              [
                108.694772,
                15.254782
              ],
              [
                108.694538,
                15.254705
              ],
              [
                108.69409,
                15.254624
              ],
              [
                108.693889,
                15.254582
              ],
              [
                108.69378,
                15.254527
              ],
              [
                108.693678,
                15.254425
              ],
              [
                108.693582,
                15.254261
              ],
              [
                108.69354,
                15.254092
              ],
              [
                108.693519,
                15.253861
              ],
              [
                108.693513,
                15.253727
              ],
              [
                108.693454,
                15.253523
              ],
              [
                108.693428,
                15.253324
              ],
              [
                108.693422,
                15.253043
              ],
              [
                108.693415,
                15.252724
              ],
              [
                108.69338,
                15.252565
              ],
              [
                108.693365,
                15.252431
              ],
              [
                108.693392,
                15.252328
              ],
              [
                108.693481,
                15.252126
              ],
              [
                108.693516,
                15.251998
              ],
              [
                108.693511,
                15.251895
              ],
              [
                108.693465,
                15.251802
              ],
              [
                108.693356,
                15.251662
              ],
              [
                108.693286,
                15.251562
              ],
              [
                108.693261,
                15.251485
              ],
              [
                108.693264,
                15.251395
              ],
              [
                108.693318,
                15.251183
              ],
              [
                108.693479,
                15.250825
              ],
              [
                108.693584,
                15.250614
              ],
              [
                108.693605,
                15.250521
              ],
              [
                108.693582,
                15.250425
              ],
              [
                108.693516,
                15.250334
              ],
              [
                108.693356,
                15.250249
              ],
              [
                108.692507,
                15.249951
              ],
              [
                108.692387,
                15.249936
              ],
              [
                108.692319,
                15.249928
              ],
              [
                108.692259,
                15.24994
              ],
              [
                108.692171,
                15.249998
              ],
              [
                108.692076,
                15.250069
              ],
              [
                108.692009,
                15.250104
              ],
              [
                108.691954,
                15.250118
              ],
              [
                108.69189,
                15.250121
              ],
              [
                108.691828,
                15.250109
              ],
              [
                108.691726,
                15.250083
              ],
              [
                108.691683,
                15.250059
              ],
              [
                108.69165,
                15.250012
              ],
              [
                108.691626,
                15.249954
              ],
              [
                108.691601,
                15.249877
              ],
              [
                108.691569,
                15.249791
              ],
              [
                108.691543,
                15.249739
              ],
              [
                108.691517,
                15.249703
              ],
              [
                108.691455,
                15.24963
              ],
              [
                108.691449,
                15.249623
              ],
              [
                108.691388,
                15.249556
              ],
              [
                108.691293,
                15.249476
              ],
              [
                108.691212,
                15.249407
              ],
              [
                108.691142,
                15.249334
              ],
              [
                108.691054,
                15.249262
              ],
              [
                108.690933,
                15.249143
              ],
              [
                108.690826,
                15.24905
              ],
              [
                108.690756,
                15.249002
              ],
              [
                108.690732,
                15.248977
              ],
              [
                108.690725,
                15.24897
              ],
              [
                108.690674,
                15.248912
              ],
              [
                108.690657,
                15.248882
              ],
              [
                108.690637,
                15.248841
              ],
              [
                108.690596,
                15.248739
              ],
              [
                108.690571,
                15.248681
              ],
              [
                108.690487,
                15.248573
              ],
              [
                108.690316,
                15.248487
              ],
              [
                108.689988,
                15.248397
              ],
              [
                108.689901,
                15.248392
              ],
              [
                108.689845,
                15.248418
              ],
              [
                108.689772,
                15.24849
              ],
              [
                108.689602,
                15.248608
              ],
              [
                108.689451,
                15.248654
              ],
              [
                108.689332,
                15.248631
              ],
              [
                108.689255,
                15.248565
              ],
              [
                108.689225,
                15.248492
              ],
              [
                108.689221,
                15.248414
              ],
              [
                108.689255,
                15.24833
              ],
              [
                108.689388,
                15.248222
              ],
              [
                108.689638,
                15.248072
              ],
              [
                108.689933,
                15.247908
              ],
              [
                108.690134,
                15.247784
              ],
              [
                108.690181,
                15.247734
              ],
              [
                108.690203,
                15.247656
              ],
              [
                108.690201,
                15.247594
              ],
              [
                108.690177,
                15.247543
              ],
              [
                108.690122,
                15.247464
              ],
              [
                108.690061,
                15.247442
              ],
              [
                108.690018,
                15.24743
              ],
              [
                108.689969,
                15.247429
              ],
              [
                108.689926,
                15.247449
              ],
              [
                108.689826,
                15.247535
              ],
              [
                108.689727,
                15.247562
              ],
              [
                108.689617,
                15.247534
              ],
              [
                108.689491,
                15.247494
              ],
              [
                108.689328,
                15.247468
              ],
              [
                108.689236,
                15.247419
              ],
              [
                108.689194,
                15.247365
              ],
              [
                108.689167,
                15.247302
              ],
              [
                108.689193,
                15.246836
              ],
              [
                108.689207,
                15.246744
              ],
              [
                108.689195,
                15.246669
              ],
              [
                108.689119,
                15.246564
              ],
              [
                108.689037,
                15.246509
              ],
              [
                108.68892,
                15.246472
              ],
              [
                108.688832,
                15.246417
              ],
              [
                108.688783,
                15.246327
              ],
              [
                108.688737,
                15.24622
              ],
              [
                108.688687,
                15.246167
              ],
              [
                108.688473,
                15.24613
              ],
              [
                108.688413,
                15.246115
              ],
              [
                108.688358,
                15.246074
              ],
              [
                108.688315,
                15.245994
              ],
              [
                108.688247,
                15.245859
              ],
              [
                108.688237,
                15.245836
              ],
              [
                108.688178,
                15.245786
              ],
              [
                108.688059,
                15.245725
              ],
              [
                108.68793,
                15.245643
              ],
              [
                108.687817,
                15.245528
              ],
              [
                108.687721,
                15.245308
              ],
              [
                108.687682,
                15.245257
              ],
              [
                108.687565,
                15.245208
              ],
              [
                108.687498,
                15.245198
              ],
              [
                108.687381,
                15.245206
              ],
              [
                108.687304,
                15.245211
              ],
              [
                108.687211,
                15.245192
              ],
              [
                108.687096,
                15.245084
              ],
              [
                108.686996,
                15.244942
              ],
              [
                108.686899,
                15.244738
              ],
              [
                108.686822,
                15.244525
              ],
              [
                108.686732,
                15.244291
              ],
              [
                108.686625,
                15.244182
              ],
              [
                108.68658,
                15.244131
              ],
              [
                108.686488,
                15.244091
              ],
              [
                108.686414,
                15.244076
              ],
              [
                108.686374,
                15.244084
              ],
              [
                108.686331,
                15.244126
              ],
              [
                108.686295,
                15.244236
              ],
              [
                108.686235,
                15.244379
              ],
              [
                108.686148,
                15.244536
              ],
              [
                108.686066,
                15.244697
              ],
              [
                108.685943,
                15.244963
              ],
              [
                108.685902,
                15.245
              ],
              [
                108.685823,
                15.245033
              ],
              [
                108.685574,
                15.245032
              ],
              [
                108.685269,
                15.245004
              ],
              [
                108.684976,
                15.245003
              ],
              [
                108.684803,
                15.24501
              ],
              [
                108.684482,
                15.245204
              ],
              [
                108.684377,
                15.245293
              ],
              [
                108.684263,
                15.245321
              ],
              [
                108.68417,
                15.245313
              ],
              [
                108.684105,
                15.245248
              ],
              [
                108.684054,
                15.245169
              ],
              [
                108.683962,
                15.245107
              ],
              [
                108.683896,
                15.245106
              ],
              [
                108.683814,
                15.245123
              ],
              [
                108.683633,
                15.245179
              ],
              [
                108.683518,
                15.245199
              ],
              [
                108.683234,
                15.245292
              ],
              [
                108.683026,
                15.245311
              ],
              [
                108.682835,
                15.245381
              ],
              [
                108.682726,
                15.245446
              ],
              [
                108.682496,
                15.245697
              ],
              [
                108.682334,
                15.24583
              ],
              [
                108.68222,
                15.245874
              ],
              [
                108.682134,
                15.245873
              ],
              [
                108.682072,
                15.245854
              ],
              [
                108.682005,
                15.245788
              ],
              [
                108.681878,
                15.245568
              ],
              [
                108.681731,
                15.245301
              ],
              [
                108.681591,
                15.245132
              ],
              [
                108.681448,
                15.244978
              ],
              [
                108.681232,
                15.244725
              ],
              [
                108.681157,
                15.244584
              ],
              [
                108.681066,
                15.244478
              ],
              [
                108.680913,
                15.244375
              ],
              [
                108.680806,
                15.244311
              ],
              [
                108.680625,
                15.244244
              ],
              [
                108.68045,
                15.24417
              ],
              [
                108.680218,
                15.244009
              ],
              [
                108.680001,
                15.243861
              ],
              [
                108.679843,
                15.243745
              ],
              [
                108.679761,
                15.243634
              ],
              [
                108.679713,
                15.243517
              ],
              [
                108.679663,
                15.243319
              ],
              [
                108.679581,
                15.243139
              ],
              [
                108.679475,
                15.242995
              ],
              [
                108.679308,
                15.242829
              ],
              [
                108.679217,
                15.24272
              ],
              [
                108.679156,
                15.242621
              ],
              [
                108.679098,
                15.24256
              ],
              [
                108.679,
                15.24253
              ],
              [
                108.67896,
                15.242529
              ],
              [
                108.678842,
                15.242567
              ],
              [
                108.678697,
                15.242581
              ],
              [
                108.678524,
                15.242601
              ],
              [
                108.678337,
                15.242589
              ],
              [
                108.678234,
                15.242585
              ],
              [
                108.678153,
                15.242595
              ],
              [
                108.677927,
                15.242659
              ],
              [
                108.677796,
                15.242811
              ],
              [
                108.677672,
                15.242842
              ],
              [
                108.677549,
                15.242854
              ],
              [
                108.677389,
                15.242887
              ],
              [
                108.677229,
                15.243029
              ],
              [
                108.677151,
                15.24311
              ],
              [
                108.677155,
                15.243172
              ],
              [
                108.67716,
                15.243239
              ],
              [
                108.677124,
                15.243261
              ],
              [
                108.67706,
                15.243279
              ],
              [
                108.677009,
                15.243249
              ],
              [
                108.676863,
                15.243112
              ],
              [
                108.676788,
                15.243106
              ],
              [
                108.676662,
                15.243148
              ],
              [
                108.676524,
                15.243175
              ],
              [
                108.676412,
                15.243202
              ],
              [
                108.676332,
                15.243253
              ],
              [
                108.676264,
                15.243299
              ],
              [
                108.676165,
                15.2433
              ],
              [
                108.676048,
                15.243269
              ],
              [
                108.675954,
                15.24316
              ],
              [
                108.675945,
                15.243106
              ],
              [
                108.676012,
                15.242958
              ],
              [
                108.67613,
                15.24278
              ],
              [
                108.67621,
                15.242626
              ],
              [
                108.676232,
                15.242508
              ],
              [
                108.676189,
                15.242401
              ],
              [
                108.676081,
                15.242311
              ],
              [
                108.675979,
                15.242273
              ],
              [
                108.675829,
                15.242273
              ],
              [
                108.675678,
                15.242274
              ],
              [
                108.675524,
                15.24226
              ],
              [
                108.675419,
                15.242221
              ],
              [
                108.675203,
                15.242138
              ],
              [
                108.67498,
                15.242105
              ],
              [
                108.674748,
                15.242125
              ],
              [
                108.674428,
                15.242158
              ],
              [
                108.674326,
                15.242169
              ],
              [
                108.67382,
                15.242373
              ],
              [
                108.673504,
                15.242537
              ],
              [
                108.673317,
                15.242708
              ],
              [
                108.673042,
                15.243103
              ],
              [
                108.672821,
                15.243471
              ],
              [
                108.672785,
                15.243552
              ],
              [
                108.672733,
                15.243646
              ],
              [
                108.67264,
                15.243708
              ],
              [
                108.67232,
                15.243815
              ],
              [
                108.672066,
                15.243876
              ],
              [
                108.671831,
                15.243907
              ],
              [
                108.67169,
                15.243915
              ],
              [
                108.671578,
                15.243975
              ],
              [
                108.671405,
                15.244118
              ],
              [
                108.671246,
                15.244242
              ],
              [
                108.670985,
                15.244556
              ],
              [
                108.670885,
                15.244802
              ],
              [
                108.670851,
                15.24489
              ],
              [
                108.670824,
                15.244914
              ],
              [
                108.670759,
                15.244943
              ],
              [
                108.670672,
                15.244941
              ],
              [
                108.670585,
                15.244902
              ],
              [
                108.670502,
                15.244842
              ],
              [
                108.670396,
                15.244833
              ],
              [
                108.670279,
                15.244834
              ],
              [
                108.670144,
                15.244841
              ],
              [
                108.670048,
                15.244861
              ],
              [
                108.669882,
                15.244922
              ],
              [
                108.669786,
                15.244922
              ],
              [
                108.669648,
                15.244881
              ],
              [
                108.669506,
                15.244801
              ],
              [
                108.669217,
                15.244686
              ],
              [
                108.668812,
                15.24459
              ],
              [
                108.668517,
                15.244493
              ],
              [
                108.668386,
                15.244414
              ],
              [
                108.668305,
                15.244353
              ],
              [
                108.668249,
                15.244259
              ],
              [
                108.668191,
                15.244146
              ],
              [
                108.668142,
                15.244047
              ],
              [
                108.668108,
                15.24398
              ],
              [
                108.668055,
                15.243943
              ],
              [
                108.667938,
                15.243945
              ],
              [
                108.667832,
                15.24395
              ],
              [
                108.667764,
                15.243966
              ],
              [
                108.667701,
                15.243999
              ],
              [
                108.667603,
                15.244193
              ],
              [
                108.667494,
                15.244509
              ],
              [
                108.667451,
                15.244775
              ],
              [
                108.667424,
                15.244889
              ],
              [
                108.667372,
                15.244948
              ],
              [
                108.667287,
                15.244948
              ],
              [
                108.667043,
                15.244828
              ],
              [
                108.666851,
                15.244783
              ],
              [
                108.666625,
                15.244761
              ],
              [
                108.666388,
                15.244773
              ],
              [
                108.666265,
                15.244796
              ],
              [
                108.6662,
                15.244857
              ],
              [
                108.6661,
                15.245023
              ],
              [
                108.666049,
                15.245236
              ],
              [
                108.665894,
                15.24546
              ],
              [
                108.66587,
                15.245502
              ],
              [
                108.665826,
                15.245592
              ],
              [
                108.665727,
                15.24572
              ],
              [
                108.665599,
                15.245768
              ],
              [
                108.665453,
                15.24582
              ],
              [
                108.665353,
                15.245835
              ],
              [
                108.665196,
                15.245797
              ],
              [
                108.665094,
                15.245751
              ],
              [
                108.66499,
                15.245717
              ],
              [
                108.66487,
                15.245704
              ],
              [
                108.664755,
                15.245641
              ],
              [
                108.664638,
                15.245541
              ],
              [
                108.664507,
                15.245303
              ],
              [
                108.664377,
                15.245019
              ],
              [
                108.664274,
                15.244769
              ],
              [
                108.664233,
                15.244658
              ],
              [
                108.664166,
                15.244562
              ],
              [
                108.664065,
                15.244514
              ],
              [
                108.663829,
                15.244498
              ],
              [
                108.663431,
                15.244511
              ],
              [
                108.663116,
                15.244611
              ],
              [
                108.662852,
                15.244713
              ],
              [
                108.662769,
                15.244769
              ],
              [
                108.662723,
                15.244824
              ],
              [
                108.662711,
                15.244903
              ],
              [
                108.662713,
                15.244977
              ],
              [
                108.662724,
                15.245041
              ],
              [
                108.662729,
                15.2451
              ],
              [
                108.662729,
                15.245144
              ],
              [
                108.662649,
                15.245284
              ],
              [
                108.66251,
                15.245408
              ],
              [
                108.662423,
                15.245435
              ],
              [
                108.662337,
                15.245442
              ],
              [
                108.662243,
                15.245418
              ],
              [
                108.662107,
                15.245351
              ],
              [
                108.66182,
                15.245164
              ],
              [
                108.661437,
                15.244822
              ],
              [
                108.661006,
                15.244486
              ],
              [
                108.660652,
                15.244188
              ],
              [
                108.660476,
                15.244007
              ],
              [
                108.660308,
                15.243946
              ],
              [
                108.660128,
                15.243939
              ],
              [
                108.660022,
                15.243939
              ],
              [
                108.659922,
                15.243913
              ],
              [
                108.659652,
                15.243764
              ],
              [
                108.659332,
                15.243603
              ],
              [
                108.658909,
                15.243458
              ],
              [
                108.65861,
                15.24332
              ],
              [
                108.658205,
                15.24312
              ],
              [
                108.657935,
                15.242998
              ],
              [
                108.657852,
                15.242932
              ],
              [
                108.657684,
                15.242829
              ],
              [
                108.657569,
                15.242755
              ],
              [
                108.657492,
                15.24271
              ],
              [
                108.657193,
                15.242657
              ],
              [
                108.656854,
                15.242639
              ],
              [
                108.65646,
                15.242602
              ],
              [
                108.656264,
                15.242552
              ],
              [
                108.656176,
                15.242446
              ],
              [
                108.655953,
                15.242138
              ],
              [
                108.655779,
                15.241806
              ],
              [
                108.655732,
                15.241655
              ],
              [
                108.655624,
                15.241293
              ],
              [
                108.655607,
                15.241153
              ],
              [
                108.655565,
                15.240944
              ],
              [
                108.655487,
                15.240664
              ],
              [
                108.655355,
                15.240416
              ],
              [
                108.655291,
                15.240346
              ],
              [
                108.655132,
                15.240281
              ],
              [
                108.654935,
                15.240233
              ],
              [
                108.654714,
                15.240109
              ],
              [
                108.654618,
                15.240083
              ],
              [
                108.654496,
                15.240103
              ],
              [
                108.654441,
                15.240156
              ],
              [
                108.654409,
                15.240211
              ],
              [
                108.654326,
                15.240222
              ],
              [
                108.654235,
                15.240223
              ],
              [
                108.654089,
                15.240186
              ],
              [
                108.654015,
                15.240134
              ],
              [
                108.652339,
                15.240148
              ],
              [
                108.651391,
                15.240222
              ],
              [
                108.649629,
                15.240299
              ],
              [
                108.646698,
                15.240465
              ],
              [
                108.645187,
                15.240736
              ],
              [
                108.642399,
                15.240659
              ],
              [
                108.641446,
                15.240607
              ],
              [
                108.640659,
                15.240736
              ],
              [
                108.640512,
                15.240472
              ],
              [
                108.640475,
                15.240128
              ],
              [
                108.640252,
                15.238916
              ],
              [
                108.639983,
                15.23819
              ],
              [
                108.639866,
                15.237657
              ],
              [
                108.639739,
                15.23689
              ],
              [
                108.639713,
                15.23649
              ],
              [
                108.639595,
                15.236045
              ],
              [
                108.638956,
                15.236432
              ],
              [
                108.638528,
                15.236692
              ],
              [
                108.63738,
                15.23726
              ],
              [
                108.636438,
                15.237948
              ],
              [
                108.635722,
                15.238471
              ],
              [
                108.634919,
                15.239163
              ],
              [
                108.634116,
                15.239854
              ],
              [
                108.632076,
                15.241247
              ],
              [
                108.631823,
                15.241385
              ],
              [
                108.631573,
                15.241732
              ],
              [
                108.631357,
                15.242013
              ],
              [
                108.631223,
                15.242187
              ],
              [
                108.631038,
                15.242443
              ],
              [
                108.633846,
                15.244715
              ],
              [
                108.632408,
                15.24671
              ],
              [
                108.632408,
                15.24671
              ]
            ]
          ]
        ]
      },
      "properties": {
        "code": "21100",
        "name": "Bình Chương",
        "nameEn": "Binh Chuong",
        "fullName": "Xã Bình Chương",
        "fullNameEn": "Binh Chuong Commune",
        "codeName": "binh_chuong",
        "postalCode": "53312",
        "postalCodePrefix": "",
        "gisServerId": "diaphanhanhchinhcapxa_2025.1752",
        "areaKm2": 30.79
      }
    }
  ]
}