{
  "type": "FeatureCollection",
  "bbox": [
    108.906223,
    14.825831,
    109.000456,
    14.918235
  ],
  "features": [
    {
      "type": "Feature",
      "id": "21451",
      "bbox": [
        108.906223,
        14.825831,
        109.000456,
        14.918235
      ],
      "geometry": {
        "type": "MultiPolygon",
        "coordinates": [
          [
            [
              [
                108.996782,
                14.829085
              ],
              [
                108.996903,
                14.829176
              ],
              [
                108.996959,
                14.829276
              ],
              [
                108.997141,
                14.83
              ],
              [
                108.997226,
                14.830225
              ],
              [
                108.997358,
                14.830391
              ],
              [
                108.99777,
                14.830686
              ],
              [
                108.997849,
                14.830697
              ],
              [
                108.997909,
                14.830704
              ],
              [
                108.997954,
                14.830726
              ],
              [
                108.997991,
                14.830761
              ],
              [
                108.998049,
                14.830825
              ],
              [
                108.99811,
                14.83086
              ],
              [
                108.998188,
                14.830862
              ],
              [
                108.99875,
                14.830765
              ],
              [
                108.999018,
                14.830721
              ],
              [
                108.999163,
                14.830615
              ],
              [
                108.999391,
                14.830345
              ],
              [
                108.999944,
                14.829837
              ],
              [
                109.000264,
                14.829585
              ],
              [
                109.000378,
                14.82945
              ],
              [
                109.00045,
                14.829227
              ],
              [
                109.000456,
                14.82901
              ],
              [
                109.000216,
                14.828359
              ],
              [
                109.000174,
                14.828277
              ],
              [
                108.999838,
                14.827631
              ],
              [
                108.999763,
                14.827445
              ],
              [
                108.99979,
                14.827252
              ],
              [
                108.999926,
                14.82691
              ],
              [
                109.000286,
                14.826055
              ],
              [
                109.000068,
                14.826053
              ],
              [
                108.998854,
                14.826043
              ],
              [
                108.997144,
                14.825951
              ],
              [
                108.994784,
                14.825961
              ],
              [
                108.993094,
                14.825952
              ],
              [
                108.991515,
                14.825969
              ],
              [
                108.989266,
                14.825831
              ],
              [
                108.988444,
                14.825832
              ],
              [
                108.987714,
                14.825916
              ],
              [
                108.986958,
                14.826155
              ],
              [
                108.986074,
                14.826543
              ],
              [
                108.984755,
                14.827478
              ],
              [
                108.983501,
                14.828875
              ],
              [
                108.982359,
                14.830185
              ],
              [
                108.980551,
                14.832271
              ],
              [
                108.97994,
                14.83298
              ],
              [
                108.978827,
                14.833697
              ],
              [
                108.977936,
                14.834189
              ],
              [
                108.977091,
                14.834611
              ],
              [
                108.976525,
                14.834832
              ],
              [
                108.976381,
                14.834851
              ],
              [
                108.97588,
                14.834919
              ],
              [
                108.975338,
                14.834898
              ],
              [
                108.974818,
                14.834824
              ],
              [
                108.974679,
                14.834804
              ],
              [
                108.974396,
                14.834714
              ],
              [
                108.974028,
                14.834571
              ],
              [
                108.973314,
                14.834023
              ],
              [
                108.97313,
                14.833938
              ],
              [
                108.972892,
                14.833887
              ],
              [
                108.972612,
                14.833877
              ],
              [
                108.972385,
                14.833883
              ],
              [
                108.97206,
                14.833949
              ],
              [
                108.971858,
                14.833998
              ],
              [
                108.971722,
                14.834091
              ],
              [
                108.971608,
                14.834205
              ],
              [
                108.971488,
                14.83438
              ],
              [
                108.971406,
                14.834715
              ],
              [
                108.971393,
                14.834799
              ],
              [
                108.971377,
                14.835141
              ],
              [
                108.971375,
                14.835339
              ],
              [
                108.971399,
                14.835528
              ],
              [
                108.971513,
                14.835958
              ],
              [
                108.97155,
                14.83618
              ],
              [
                108.971538,
                14.836315
              ],
              [
                108.971477,
                14.836449
              ],
              [
                108.971194,
                14.836831
              ],
              [
                108.970945,
                14.837093
              ],
              [
                108.970842,
                14.837245
              ],
              [
                108.970759,
                14.837417
              ],
              [
                108.970682,
                14.8376
              ],
              [
                108.970571,
                14.837693
              ],
              [
                108.970424,
                14.837745
              ],
              [
                108.970195,
                14.837752
              ],
              [
                108.97,
                14.837744
              ],
              [
                108.969615,
                14.837544
              ],
              [
                108.96912,
                14.837349
              ],
              [
                108.968818,
                14.837196
              ],
              [
                108.968629,
                14.837042
              ],
              [
                108.968405,
                14.836728
              ],
              [
                108.968316,
                14.836535
              ],
              [
                108.96833,
                14.836287
              ],
              [
                108.968376,
                14.836138
              ],
              [
                108.968527,
                14.835655
              ],
              [
                108.968582,
                14.835355
              ],
              [
                108.9686,
                14.835114
              ],
              [
                108.968531,
                14.834658
              ],
              [
                108.968487,
                14.834347
              ],
              [
                108.968478,
                14.834115
              ],
              [
                108.968419,
                14.83398
              ],
              [
                108.968285,
                14.833788
              ],
              [
                108.968145,
                14.833637
              ],
              [
                108.967852,
                14.833382
              ],
              [
                108.967624,
                14.833151
              ],
              [
                108.967503,
                14.832985
              ],
              [
                108.967413,
                14.832803
              ],
              [
                108.967388,
                14.832661
              ],
              [
                108.967392,
                14.832493
              ],
              [
                108.967436,
                14.832318
              ],
              [
                108.967574,
                14.832085
              ],
              [
                108.96765,
                14.831844
              ],
              [
                108.967679,
                14.83173
              ],
              [
                108.967667,
                14.831625
              ],
              [
                108.967639,
                14.831536
              ],
              [
                108.967572,
                14.831454
              ],
              [
                108.967473,
                14.831387
              ],
              [
                108.967364,
                14.831353
              ],
              [
                108.966915,
                14.831283
              ],
              [
                108.96674,
                14.831251
              ],
              [
                108.966604,
                14.831178
              ],
              [
                108.966543,
                14.831094
              ],
              [
                108.96639,
                14.83064
              ],
              [
                108.966323,
                14.830273
              ],
              [
                108.966241,
                14.830033
              ],
              [
                108.96612,
                14.829834
              ],
              [
                108.966028,
                14.829667
              ],
              [
                108.965945,
                14.829588
              ],
              [
                108.965877,
                14.829539
              ],
              [
                108.965744,
                14.829492
              ],
              [
                108.965561,
                14.829465
              ],
              [
                108.96536,
                14.829453
              ],
              [
                108.965041,
                14.829503
              ],
              [
                108.964765,
                14.829598
              ],
              [
                108.96461,
                14.829678
              ],
              [
                108.964544,
                14.829748
              ],
              [
                108.964481,
                14.829839
              ],
              [
                108.964427,
                14.829956
              ],
              [
                108.964402,
                14.830116
              ],
              [
                108.964419,
                14.830276
              ],
              [
                108.964517,
                14.830644
              ],
              [
                108.964535,
                14.830758
              ],
              [
                108.964534,
                14.830857
              ],
              [
                108.964517,
                14.830982
              ],
              [
                108.964391,
                14.831253
              ],
              [
                108.963906,
                14.831966
              ],
              [
                108.963606,
                14.832228
              ],
              [
                108.962917,
                14.832858
              ],
              [
                108.962439,
                14.833367
              ],
              [
                108.962043,
                14.833753
              ],
              [
                108.961861,
                14.83397
              ],
              [
                108.961699,
                14.834259
              ],
              [
                108.961537,
                14.834654
              ],
              [
                108.961415,
                14.835054
              ],
              [
                108.961387,
                14.835316
              ],
              [
                108.961407,
                14.83577
              ],
              [
                108.961405,
                14.835994
              ],
              [
                108.961356,
                14.836215
              ],
              [
                108.961284,
                14.8364
              ],
              [
                108.961207,
                14.836473
              ],
              [
                108.961015,
                14.836636
              ],
              [
                108.960731,
                14.836764
              ],
              [
                108.960563,
                14.836843
              ],
              [
                108.960444,
                14.836959
              ],
              [
                108.96029,
                14.83722
              ],
              [
                108.960237,
                14.837272
              ],
              [
                108.960201,
                14.837309
              ],
              [
                108.960018,
                14.837492
              ],
              [
                108.959784,
                14.837671
              ],
              [
                108.959594,
                14.837786
              ],
              [
                108.959269,
                14.837918
              ],
              [
                108.95821,
                14.838209
              ],
              [
                108.957541,
                14.838391
              ],
              [
                108.957287,
                14.838409
              ],
              [
                108.957143,
                14.838395
              ],
              [
                108.956927,
                14.838359
              ],
              [
                108.956795,
                14.838297
              ],
              [
                108.95675,
                14.838257
              ],
              [
                108.95659,
                14.838042
              ],
              [
                108.956479,
                14.837817
              ],
              [
                108.956348,
                14.83762
              ],
              [
                108.956227,
                14.837451
              ],
              [
                108.956115,
                14.837361
              ],
              [
                108.955938,
                14.837227
              ],
              [
                108.955668,
                14.837044
              ],
              [
                108.955289,
                14.836809
              ],
              [
                108.955008,
                14.836651
              ],
              [
                108.954912,
                14.836587
              ],
              [
                108.954522,
                14.836263
              ],
              [
                108.954291,
                14.836119
              ],
              [
                108.954023,
                14.835966
              ],
              [
                108.953742,
                14.835849
              ],
              [
                108.95359,
                14.835823
              ],
              [
                108.953454,
                14.835821
              ],
              [
                108.95331,
                14.83582
              ],
              [
                108.953104,
                14.835839
              ],
              [
                108.952926,
                14.835862
              ],
              [
                108.9528,
                14.835902
              ],
              [
                108.95207,
                14.836206
              ],
              [
                108.951642,
                14.836378
              ],
              [
                108.951521,
                14.836478
              ],
              [
                108.951295,
                14.836649
              ],
              [
                108.950723,
                14.837016
              ],
              [
                108.950173,
                14.837315
              ],
              [
                108.949887,
                14.837419
              ],
              [
                108.949585,
                14.837437
              ],
              [
                108.949059,
                14.83756
              ],
              [
                108.94874,
                14.837707
              ],
              [
                108.948249,
                14.838032
              ],
              [
                108.947896,
                14.838312
              ],
              [
                108.947572,
                14.838712
              ],
              [
                108.947242,
                14.839012
              ],
              [
                108.946725,
                14.839293
              ],
              [
                108.94567,
                14.839852
              ],
              [
                108.945212,
                14.840125
              ],
              [
                108.944948,
                14.840352
              ],
              [
                108.944591,
                14.840833
              ],
              [
                108.944524,
                14.840902
              ],
              [
                108.944245,
                14.841186
              ],
              [
                108.943754,
                14.841776
              ],
              [
                108.943292,
                14.842245
              ],
              [
                108.942899,
                14.84255
              ],
              [
                108.942394,
                14.842859
              ],
              [
                108.942002,
                14.843087
              ],
              [
                108.941361,
                14.843264
              ],
              [
                108.94106,
                14.843402
              ],
              [
                108.940884,
                14.843575
              ],
              [
                108.940408,
                14.843781
              ],
              [
                108.939487,
                14.844042
              ],
              [
                108.938796,
                14.844193
              ],
              [
                108.938696,
                14.844204
              ],
              [
                108.938345,
                14.844241
              ],
              [
                108.938033,
                14.844239
              ],
              [
                108.937793,
                14.844196
              ],
              [
                108.937482,
                14.844053
              ],
              [
                108.936355,
                14.843313
              ],
              [
                108.935711,
                14.842922
              ],
              [
                108.93525,
                14.842736
              ],
              [
                108.934825,
                14.842554
              ],
              [
                108.934202,
                14.842359
              ],
              [
                108.933808,
                14.842315
              ],
              [
                108.933175,
                14.842323
              ],
              [
                108.93224,
                14.842562
              ],
              [
                108.93161,
                14.842781
              ],
              [
                108.931106,
                14.842833
              ],
              [
                108.930611,
                14.84282
              ],
              [
                108.930067,
                14.842687
              ],
              [
                108.929105,
                14.842316
              ],
              [
                108.928357,
                14.842004
              ],
              [
                108.927307,
                14.841222
              ],
              [
                108.926257,
                14.840537
              ],
              [
                108.925285,
                14.839921
              ],
              [
                108.924072,
                14.838944
              ],
              [
                108.923073,
                14.838091
              ],
              [
                108.921971,
                14.836786
              ],
              [
                108.920968,
                14.835713
              ],
              [
                108.920956,
                14.835704
              ],
              [
                108.920757,
                14.835456
              ],
              [
                108.920431,
                14.835048
              ],
              [
                108.920207,
                14.834763
              ],
              [
                108.919508,
                14.833287
              ],
              [
                108.919294,
                14.832895
              ],
              [
                108.919099,
                14.832661
              ],
              [
                108.91884,
                14.832535
              ],
              [
                108.918447,
                14.832429
              ],
              [
                108.918187,
                14.8324
              ],
              [
                108.917864,
                14.83241
              ],
              [
                108.917554,
                14.832503
              ],
              [
                108.917123,
                14.832711
              ],
              [
                108.916248,
                14.833404
              ],
              [
                108.916192,
                14.833481
              ],
              [
                108.916032,
                14.833694
              ],
              [
                108.915947,
                14.83385
              ],
              [
                108.915924,
                14.83396
              ],
              [
                108.915911,
                14.83405
              ],
              [
                108.915875,
                14.834118
              ],
              [
                108.915738,
                14.834213
              ],
              [
                108.915586,
                14.834258
              ],
              [
                108.915389,
                14.834271
              ],
              [
                108.915109,
                14.834252
              ],
              [
                108.914635,
                14.834191
              ],
              [
                108.914496,
                14.834174
              ],
              [
                108.913761,
                14.834041
              ],
              [
                108.912791,
                14.833947
              ],
              [
                108.91152,
                14.833885
              ],
              [
                108.910775,
                14.833906
              ],
              [
                108.910355,
                14.833929
              ],
              [
                108.91005,
                14.833972
              ],
              [
                108.909724,
                14.834066
              ],
              [
                108.909426,
                14.834198
              ],
              [
                108.909297,
                14.834358
              ],
              [
                108.909165,
                14.834557
              ],
              [
                108.908919,
                14.835041
              ],
              [
                108.908695,
                14.835659
              ],
              [
                108.908517,
                14.836378
              ],
              [
                108.908463,
                14.83709
              ],
              [
                108.908373,
                14.837818
              ],
              [
                108.908017,
                14.838547
              ],
              [
                108.907121,
                14.839864
              ],
              [
                108.906683,
                14.84048
              ],
              [
                108.906832,
                14.840422
              ],
              [
                108.907103,
                14.84034
              ],
              [
                108.907246,
                14.840332
              ],
              [
                108.907361,
                14.840366
              ],
              [
                108.907489,
                14.840433
              ],
              [
                108.907583,
                14.840506
              ],
              [
                108.907683,
                14.840621
              ],
              [
                108.907805,
                14.840789
              ],
              [
                108.907877,
                14.84093
              ],
              [
                108.907928,
                14.841206
              ],
              [
                108.907889,
                14.841955
              ],
              [
                108.907922,
                14.843013
              ],
              [
                108.908017,
                14.843653
              ],
              [
                108.908019,
                14.84422
              ],
              [
                108.908014,
                14.844691
              ],
              [
                108.908116,
                14.845136
              ],
              [
                108.908246,
                14.845479
              ],
              [
                108.908304,
                14.845742
              ],
              [
                108.908312,
                14.845971
              ],
              [
                108.908271,
                14.846214
              ],
              [
                108.908179,
                14.846498
              ],
              [
                108.907945,
                14.84691
              ],
              [
                108.907711,
                14.847315
              ],
              [
                108.90754,
                14.847518
              ],
              [
                108.907441,
                14.847707
              ],
              [
                108.907399,
                14.84791
              ],
              [
                108.907393,
                14.84824
              ],
              [
                108.907424,
                14.848793
              ],
              [
                108.907478,
                14.849602
              ],
              [
                108.907516,
                14.850249
              ],
              [
                108.907553,
                14.850593
              ],
              [
                108.907519,
                14.850836
              ],
              [
                108.907384,
                14.851059
              ],
              [
                108.907256,
                14.851234
              ],
              [
                108.907164,
                14.851464
              ],
              [
                108.907151,
                14.851801
              ],
              [
                108.907216,
                14.85203
              ],
              [
                108.90731,
                14.852212
              ],
              [
                108.907332,
                14.8524
              ],
              [
                108.907319,
                14.852556
              ],
              [
                108.906886,
                14.85336
              ],
              [
                108.906739,
                14.853924
              ],
              [
                108.906691,
                14.854213
              ],
              [
                108.906842,
                14.854957
              ],
              [
                108.906897,
                14.855994
              ],
              [
                108.906688,
                14.856938
              ],
              [
                108.906666,
                14.857669
              ],
              [
                108.906519,
                14.858282
              ],
              [
                108.906223,
                14.859109
              ],
              [
                108.906312,
                14.859474
              ],
              [
                108.906814,
                14.860037
              ],
              [
                108.906902,
                14.860332
              ],
              [
                108.907208,
                14.861101
              ],
              [
                108.907535,
                14.861815
              ],
              [
                108.907704,
                14.863347
              ],
              [
                108.907602,
                14.86488
              ],
              [
                108.906961,
                14.866901
              ],
              [
                108.906912,
                14.867999
              ],
              [
                108.907098,
                14.869412
              ],
              [
                108.907112,
                14.870612
              ],
              [
                108.907098,
                14.871559
              ],
              [
                108.907098,
                14.871575
              ],
              [
                108.906658,
                14.871577
              ],
              [
                108.906633,
                14.871577
              ],
              [
                108.906631,
                14.871834
              ],
              [
                108.90675,
                14.871848
              ],
              [
                108.906898,
                14.87185
              ],
              [
                108.906988,
                14.871863
              ],
              [
                108.907035,
                14.871884
              ],
              [
                108.907105,
                14.871945
              ],
              [
                108.907189,
                14.872042
              ],
              [
                108.907375,
                14.872176
              ],
              [
                108.907679,
                14.872418
              ],
              [
                108.907756,
                14.872507
              ],
              [
                108.907826,
                14.872605
              ],
              [
                108.907873,
                14.872692
              ],
              [
                108.907947,
                14.872884
              ],
              [
                108.908021,
                14.873023
              ],
              [
                108.908098,
                14.873134
              ],
              [
                108.908259,
                14.873286
              ],
              [
                108.90857,
                14.873557
              ],
              [
                108.90875,
                14.873701
              ],
              [
                108.908976,
                14.87387
              ],
              [
                108.909137,
                14.873968
              ],
              [
                108.909148,
                14.873974
              ],
              [
                108.909298,
                14.8741
              ],
              [
                108.909404,
                14.874149
              ],
              [
                108.909566,
                14.874203
              ],
              [
                108.9099,
                14.87423
              ],
              [
                108.910356,
                14.87433
              ],
              [
                108.910275,
                14.875037
              ],
              [
                108.91068,
                14.875101
              ],
              [
                108.910694,
                14.875643
              ],
              [
                108.91073,
                14.875679
              ],
              [
                108.910818,
                14.875719
              ],
              [
                108.910947,
                14.875727
              ],
              [
                108.911158,
                14.875693
              ],
              [
                108.91136,
                14.875692
              ],
              [
                108.911648,
                14.875709
              ],
              [
                108.911718,
                14.875731
              ],
              [
                108.911791,
                14.875789
              ],
              [
                108.911898,
                14.875811
              ],
              [
                108.911997,
                14.87583
              ],
              [
                108.912238,
                14.875979
              ],
              [
                108.912292,
                14.87603
              ],
              [
                108.912306,
                14.876095
              ],
              [
                108.912335,
                14.876169
              ],
              [
                108.912334,
                14.876234
              ],
              [
                108.912348,
                14.87632
              ],
              [
                108.912416,
                14.876433
              ],
              [
                108.912482,
                14.876513
              ],
              [
                108.912638,
                14.876576
              ],
              [
                108.912638,
                14.876597
              ],
              [
                108.91262,
                14.876621
              ],
              [
                108.912556,
                14.876656
              ],
              [
                108.912507,
                14.876699
              ],
              [
                108.912489,
                14.876744
              ],
              [
                108.912496,
                14.876792
              ],
              [
                108.912515,
                14.876847
              ],
              [
                108.912519,
                14.876886
              ],
              [
                108.912507,
                14.876955
              ],
              [
                108.912481,
                14.877096
              ],
              [
                108.912468,
                14.877162
              ],
              [
                108.912487,
                14.877222
              ],
              [
                108.91255,
                14.877268
              ],
              [
                108.912655,
                14.877344
              ],
              [
                108.912704,
                14.877385
              ],
              [
                108.912718,
                14.877425
              ],
              [
                108.912737,
                14.87749
              ],
              [
                108.912771,
                14.877562
              ],
              [
                108.912788,
                14.877586
              ],
              [
                108.912813,
                14.877586
              ],
              [
                108.91284,
                14.877565
              ],
              [
                108.912872,
                14.877558
              ],
              [
                108.912909,
                14.877575
              ],
              [
                108.91294,
                14.877628
              ],
              [
                108.912949,
                14.877676
              ],
              [
                108.912942,
                14.877726
              ],
              [
                108.912907,
                14.877795
              ],
              [
                108.912851,
                14.87791
              ],
              [
                108.91284,
                14.878022
              ],
              [
                108.912852,
                14.878196
              ],
              [
                108.91295,
                14.878191
              ],
              [
                108.912996,
                14.878191
              ],
              [
                108.913058,
                14.878207
              ],
              [
                108.913113,
                14.878249
              ],
              [
                108.913161,
                14.878339
              ],
              [
                108.91331,
                14.878635
              ],
              [
                108.913386,
                14.878772
              ],
              [
                108.913455,
                14.878852
              ],
              [
                108.913514,
                14.878885
              ],
              [
                108.913599,
                14.878889
              ],
              [
                108.913721,
                14.878833
              ],
              [
                108.914047,
                14.878685
              ],
              [
                108.914291,
                14.878576
              ],
              [
                108.914391,
                14.878559
              ],
              [
                108.914564,
                14.878589
              ],
              [
                108.914836,
                14.878631
              ],
              [
                108.91501,
                14.87864
              ],
              [
                108.915109,
                14.878637
              ],
              [
                108.915467,
                14.878573
              ],
              [
                108.915844,
                14.87854
              ],
              [
                108.915929,
                14.878548
              ],
              [
                108.915987,
                14.878584
              ],
              [
                108.91617,
                14.87878
              ],
              [
                108.916433,
                14.879051
              ],
              [
                108.916604,
                14.879257
              ],
              [
                108.916691,
                14.87943
              ],
              [
                108.916755,
                14.8797
              ],
              [
                108.916805,
                14.879818
              ],
              [
                108.91686,
                14.879887
              ],
              [
                108.916955,
                14.879938
              ],
              [
                108.917036,
                14.879942
              ],
              [
                108.917272,
                14.879941
              ],
              [
                108.917519,
                14.87994
              ],
              [
                108.917726,
                14.879959
              ],
              [
                108.91784,
                14.879975
              ],
              [
                108.918009,
                14.880027
              ],
              [
                108.918138,
                14.880067
              ],
              [
                108.918207,
                14.880079
              ],
              [
                108.918259,
                14.880068
              ],
              [
                108.918333,
                14.880033
              ],
              [
                108.9184,
                14.88003
              ],
              [
                108.918506,
                14.880049
              ],
              [
                108.918731,
                14.880126
              ],
              [
                108.919157,
                14.880249
              ],
              [
                108.919488,
                14.880323
              ],
              [
                108.919801,
                14.880358
              ],
              [
                108.920078,
                14.880379
              ],
              [
                108.920277,
                14.880409
              ],
              [
                108.920457,
                14.88049
              ],
              [
                108.920592,
                14.880599
              ],
              [
                108.920731,
                14.880679
              ],
              [
                108.92094,
                14.880785
              ],
              [
                108.921105,
                14.880905
              ],
              [
                108.921247,
                14.881074
              ],
              [
                108.921476,
                14.881421
              ],
              [
                108.921817,
                14.882102
              ],
              [
                108.921964,
                14.882447
              ],
              [
                108.922019,
                14.88257
              ],
              [
                108.922124,
                14.882718
              ],
              [
                108.922293,
                14.882838
              ],
              [
                108.922392,
                14.882867
              ],
              [
                108.922499,
                14.882879
              ],
              [
                108.922595,
                14.882858
              ],
              [
                108.922683,
                14.882852
              ],
              [
                108.922735,
                14.882874
              ],
              [
                108.922815,
                14.882986
              ],
              [
                108.923051,
                14.883332
              ],
              [
                108.923197,
                14.88352
              ],
              [
                108.92331,
                14.883586
              ],
              [
                108.923496,
                14.883653
              ],
              [
                108.923634,
                14.883696
              ],
              [
                108.923859,
                14.883727
              ],
              [
                108.924054,
                14.883714
              ],
              [
                108.924254,
                14.883673
              ],
              [
                108.924409,
                14.883674
              ],
              [
                108.924548,
                14.883701
              ],
              [
                108.924673,
                14.883748
              ],
              [
                108.924849,
                14.883901
              ],
              [
                108.924951,
                14.884034
              ],
              [
                108.925009,
                14.88415
              ],
              [
                108.925056,
                14.884254
              ],
              [
                108.925096,
                14.884279
              ],
              [
                108.925162,
                14.884277
              ],
              [
                108.925248,
                14.884227
              ],
              [
                108.925348,
                14.884192
              ],
              [
                108.925502,
                14.884197
              ],
              [
                108.925772,
                14.8842
              ],
              [
                108.925941,
                14.884172
              ],
              [
                108.926045,
                14.884155
              ],
              [
                108.926118,
                14.884164
              ],
              [
                108.926165,
                14.8842
              ],
              [
                108.926178,
                14.884252
              ],
              [
                108.926175,
                14.884356
              ],
              [
                108.926166,
                14.884489
              ],
              [
                108.926185,
                14.884593
              ],
              [
                108.926232,
                14.884811
              ],
              [
                108.926248,
                14.884972
              ],
              [
                108.926262,
                14.885175
              ],
              [
                108.9263,
                14.885315
              ],
              [
                108.926338,
                14.885399
              ],
              [
                108.926346,
                14.885451
              ],
              [
                108.926332,
                14.885503
              ],
              [
                108.926247,
                14.885655
              ],
              [
                108.926227,
                14.885731
              ],
              [
                108.926238,
                14.885798
              ],
              [
                108.926304,
                14.885866
              ],
              [
                108.926412,
                14.88592
              ],
              [
                108.926499,
                14.885931
              ],
              [
                108.926609,
                14.885924
              ],
              [
                108.926688,
                14.885902
              ],
              [
                108.926755,
                14.885849
              ],
              [
                108.927067,
                14.885563
              ],
              [
                108.927207,
                14.885499
              ],
              [
                108.927345,
                14.885483
              ],
              [
                108.92752,
                14.885492
              ],
              [
                108.927798,
                14.885539
              ],
              [
                108.9279,
                14.88558
              ],
              [
                108.927965,
                14.885642
              ],
              [
                108.927984,
                14.885686
              ],
              [
                108.928477,
                14.885692
              ],
              [
                108.928995,
                14.885766
              ],
              [
                108.929226,
                14.885773
              ],
              [
                108.929238,
                14.885541
              ],
              [
                108.929949,
                14.885521
              ],
              [
                108.930069,
                14.885988
              ],
              [
                108.930129,
                14.886198
              ],
              [
                108.93052,
                14.886208
              ],
              [
                108.931382,
                14.886058
              ],
              [
                108.931399,
                14.885738
              ],
              [
                108.932461,
                14.885775
              ],
              [
                108.932477,
                14.885613
              ],
              [
                108.93288,
                14.885597
              ],
              [
                108.932895,
                14.88555
              ],
              [
                108.934886,
                14.885474
              ],
              [
                108.935162,
                14.885193
              ],
              [
                108.93533,
                14.885066
              ],
              [
                108.935462,
                14.885008
              ],
              [
                108.935551,
                14.885005
              ],
              [
                108.935657,
                14.885019
              ],
              [
                108.935724,
                14.885022
              ],
              [
                108.935767,
                14.885005
              ],
              [
                108.935799,
                14.88495
              ],
              [
                108.935827,
                14.884728
              ],
              [
                108.935847,
                14.884663
              ],
              [
                108.935948,
                14.88459
              ],
              [
                108.936219,
                14.884466
              ],
              [
                108.936409,
                14.884339
              ],
              [
                108.936527,
                14.884283
              ],
              [
                108.936699,
                14.884241
              ],
              [
                108.936845,
                14.884165
              ],
              [
                108.936991,
                14.884126
              ],
              [
                108.937205,
                14.884125
              ],
              [
                108.937325,
                14.884131
              ],
              [
                108.937432,
                14.884137
              ],
              [
                108.937554,
                14.884121
              ],
              [
                108.937728,
                14.884058
              ],
              [
                108.937833,
                14.884023
              ],
              [
                108.937979,
                14.884007
              ],
              [
                108.938097,
                14.883994
              ],
              [
                108.938103,
                14.884015
              ],
              [
                108.938151,
                14.884198
              ],
              [
                108.938226,
                14.884372
              ],
              [
                108.939026,
                14.886661
              ],
              [
                108.939127,
                14.886949
              ],
              [
                108.939184,
                14.887112
              ],
              [
                108.939337,
                14.887644
              ],
              [
                108.939332,
                14.887939
              ],
              [
                108.93928,
                14.888211
              ],
              [
                108.939168,
                14.888716
              ],
              [
                108.939163,
                14.888733
              ],
              [
                108.939087,
                14.888996
              ],
              [
                108.938713,
                14.890276
              ],
              [
                108.938705,
                14.890302
              ],
              [
                108.938561,
                14.890811
              ],
              [
                108.938378,
                14.891452
              ],
              [
                108.938371,
                14.891478
              ],
              [
                108.938238,
                14.892004
              ],
              [
                108.938202,
                14.892195
              ],
              [
                108.9382,
                14.892419
              ],
              [
                108.938199,
                14.892449
              ],
              [
                108.938186,
                14.892547
              ],
              [
                108.938122,
                14.892637
              ],
              [
                108.938096,
                14.892674
              ],
              [
                108.938049,
                14.892776
              ],
              [
                108.938001,
                14.892952
              ],
              [
                108.937944,
                14.893161
              ],
              [
                108.937843,
                14.893457
              ],
              [
                108.937835,
                14.893479
              ],
              [
                108.937757,
                14.893765
              ],
              [
                108.937734,
                14.893846
              ],
              [
                108.937615,
                14.894177
              ],
              [
                108.937497,
                14.894501
              ],
              [
                108.937192,
                14.895279
              ],
              [
                108.936887,
                14.896059
              ],
              [
                108.936654,
                14.897301
              ],
              [
                108.93652,
                14.897755
              ],
              [
                108.936415,
                14.89796
              ],
              [
                108.935862,
                14.898634
              ],
              [
                108.935042,
                14.899611
              ],
              [
                108.934494,
                14.90029
              ],
              [
                108.933613,
                14.901463
              ],
              [
                108.932735,
                14.902722
              ],
              [
                108.931951,
                14.903784
              ],
              [
                108.931492,
                14.904469
              ],
              [
                108.930983,
                14.90521
              ],
              [
                108.930582,
                14.905778
              ],
              [
                108.930218,
                14.906334
              ],
              [
                108.930066,
                14.906744
              ],
              [
                108.929994,
                14.907059
              ],
              [
                108.929922,
                14.907696
              ],
              [
                108.929905,
                14.907964
              ],
              [
                108.929866,
                14.90837
              ],
              [
                108.929839,
                14.908681
              ],
              [
                108.929811,
                14.909025
              ],
              [
                108.929797,
                14.909417
              ],
              [
                108.929781,
                14.910076
              ],
              [
                108.929762,
                14.910535
              ],
              [
                108.929929,
                14.910588
              ],
              [
                108.929964,
                14.910599
              ],
              [
                108.935222,
                14.912323
              ],
              [
                108.936425,
                14.912731
              ],
              [
                108.936607,
                14.912832
              ],
              [
                108.936966,
                14.91284
              ],
              [
                108.937646,
                14.912932
              ],
              [
                108.938388,
                14.913055
              ],
              [
                108.93842,
                14.913025
              ],
              [
                108.938791,
                14.912655
              ],
              [
                108.93881,
                14.912501
              ],
              [
                108.939069,
                14.911867
              ],
              [
                108.939103,
                14.911784
              ],
              [
                108.939278,
                14.91143
              ],
              [
                108.939423,
                14.911034
              ],
              [
                108.939618,
                14.910593
              ],
              [
                108.939723,
                14.91042
              ],
              [
                108.939834,
                14.910445
              ],
              [
                108.939922,
                14.910477
              ],
              [
                108.940236,
                14.910591
              ],
              [
                108.940667,
                14.910742
              ],
              [
                108.941118,
                14.91089
              ],
              [
                108.941477,
                14.911013
              ],
              [
                108.941698,
                14.911051
              ],
              [
                108.942262,
                14.91101
              ],
              [
                108.942658,
                14.910984
              ],
              [
                108.942718,
                14.91098
              ],
              [
                108.943011,
                14.911011
              ],
              [
                108.943223,
                14.911066
              ],
              [
                108.943431,
                14.91112
              ],
              [
                108.943526,
                14.910954
              ],
              [
                108.943726,
                14.910662
              ],
              [
                108.944051,
                14.910856
              ],
              [
                108.944276,
                14.911035
              ],
              [
                108.944535,
                14.911171
              ],
              [
                108.944794,
                14.911374
              ],
              [
                108.945194,
                14.911689
              ],
              [
                108.945585,
                14.912005
              ],
              [
                108.945814,
                14.912054
              ],
              [
                108.94699,
                14.912533
              ],
              [
                108.947902,
                14.912823
              ],
              [
                108.948544,
                14.913054
              ],
              [
                108.948886,
                14.913267
              ],
              [
                108.94916,
                14.913418
              ],
              [
                108.949611,
                14.913575
              ],
              [
                108.950155,
                14.913795
              ],
              [
                108.949547,
                14.915053
              ],
              [
                108.955251,
                14.917728
              ],
              [
                108.955277,
                14.917739
              ],
              [
                108.955966,
                14.918029
              ],
              [
                108.956059,
                14.918068
              ],
              [
                108.956454,
                14.918235
              ],
              [
                108.956806,
                14.917449
              ],
              [
                108.9577,
                14.915291
              ],
              [
                108.959378,
                14.911408
              ],
              [
                108.959756,
                14.910504
              ],
              [
                108.960184,
                14.909647
              ],
              [
                108.96162,
                14.906338
              ],
              [
                108.962428,
                14.904683
              ],
              [
                108.962625,
                14.90381
              ],
              [
                108.962817,
                14.903434
              ],
              [
                108.963635,
                14.902126
              ],
              [
                108.963863,
                14.901712
              ],
              [
                108.964245,
                14.900849
              ],
              [
                108.964841,
                14.899573
              ],
              [
                108.964852,
                14.899549
              ],
              [
                108.965148,
                14.898873
              ],
              [
                108.965254,
                14.898573
              ],
              [
                108.96529,
                14.898473
              ],
              [
                108.965398,
                14.897976
              ],
              [
                108.965529,
                14.897605
              ],
              [
                108.965855,
                14.896904
              ],
              [
                108.966302,
                14.896068
              ],
              [
                108.966476,
                14.895743
              ],
              [
                108.966955,
                14.894978
              ],
              [
                108.967355,
                14.894259
              ],
              [
                108.967551,
                14.893859
              ],
              [
                108.967757,
                14.893302
              ],
              [
                108.967985,
                14.892668
              ],
              [
                108.968203,
                14.891957
              ],
              [
                108.968308,
                14.891748
              ],
              [
                108.968461,
                14.891463
              ],
              [
                108.968558,
                14.891281
              ],
              [
                108.968964,
                14.890505
              ],
              [
                108.969534,
                14.889502
              ],
              [
                108.96984,
                14.888844
              ],
              [
                108.97025,
                14.888126
              ],
              [
                108.970647,
                14.88713
              ],
              [
                108.970895,
                14.886453
              ],
              [
                108.97116,
                14.885977
              ],
              [
                108.971173,
                14.885954
              ],
              [
                108.971579,
                14.88525
              ],
              [
                108.971884,
                14.884537
              ],
              [
                108.971946,
                14.884392
              ],
              [
                108.972478,
                14.883321
              ],
              [
                108.972873,
                14.882617
              ],
              [
                108.972979,
                14.882288
              ],
              [
                108.973381,
                14.881407
              ],
              [
                108.973666,
                14.880807
              ],
              [
                108.974113,
                14.879854
              ],
              [
                108.97451,
                14.878887
              ],
              [
                108.974707,
                14.878396
              ],
              [
                108.975057,
                14.877759
              ],
              [
                108.975318,
                14.877192
              ],
              [
                108.975644,
                14.876458
              ],
              [
                108.976204,
                14.87545
              ],
              [
                108.976959,
                14.873978
              ],
              [
                108.976962,
                14.873973
              ],
              [
                108.976964,
                14.873967
              ],
              [
                108.976965,
                14.873965
              ],
              [
                108.977814,
                14.872147
              ],
              [
                108.978283,
                14.871141
              ],
              [
                108.980042,
                14.867866
              ],
              [
                108.980678,
                14.866568
              ],
              [
                108.982351,
                14.863149
              ],
              [
                108.983206,
                14.861267
              ],
              [
                108.983794,
                14.859995
              ],
              [
                108.98518,
                14.857166
              ],
              [
                108.985848,
                14.855979
              ],
              [
                108.987208,
                14.853704
              ],
              [
                108.988641,
                14.850921
              ],
              [
                108.989856,
                14.848534
              ],
              [
                108.990033,
                14.848144
              ],
              [
                108.990449,
                14.847359
              ],
              [
                108.991138,
                14.846075
              ],
              [
                108.992424,
                14.843929
              ],
              [
                108.993072,
                14.842625
              ],
              [
                108.993272,
                14.842034
              ],
              [
                108.993476,
                14.84171
              ],
              [
                108.994571,
                14.839947
              ],
              [
                108.994804,
                14.839356
              ],
              [
                108.994981,
                14.839019
              ],
              [
                108.995787,
                14.837397
              ],
              [
                108.99602,
                14.836793
              ],
              [
                108.996443,
                14.83593
              ],
              [
                108.997067,
                14.834424
              ],
              [
                108.997373,
                14.833892
              ],
              [
                108.997725,
                14.83351
              ],
              [
                108.998032,
                14.833174
              ],
              [
                108.996375,
                14.831709
              ],
              [
                108.99633,
                14.83167
              ],
              [
                108.996782,
                14.829085
              ],
              [
                108.996782,
                14.829085
              ]
            ]
          ]
        ]
      },
      "properties": {
        "code": "21451",
        "name": "Trà Câu",
        "nameEn": "Tra Cau",
        "fullName": "Phường Trà Câu",
        "fullNameEn": "Tra Cau Ward",
        "codeName": "tra_cau",
        "postalCode": "54322",
        "postalCodePrefix": "",
        "gisServerId": "diaphanhanhchinhcapxa_2025.1778",
        "areaKm2": 54.46
      }
    }
  ]
}