{
  "type": "FeatureCollection",
  "bbox": [
    105.676722,
    18.487498,
    105.765968,
    18.556214
  ],
  "features": [
    {
      "type": "Feature",
      "id": "18118",
      "bbox": [
        105.676722,
        18.487498,
        105.765968,
        18.556214
      ],
      "geometry": {
        "type": "MultiPolygon",
        "coordinates": [
          [
            [
              [
                105.752682,
                18.555574
              ],
              [
                105.752755,
                18.555122
              ],
              [
                105.752745,
                18.554462
              ],
              [
                105.752772,
                18.553781
              ],
              [
                105.752809,
                18.553522
              ],
              [
                105.753105,
                18.553254
              ],
              [
                105.753624,
                18.552822
              ],
              [
                105.754121,
                18.552479
              ],
              [
                105.754821,
                18.552787
              ],
              [
                105.755097,
                18.552953
              ],
              [
                105.755308,
                18.553162
              ],
              [
                105.755403,
                18.553251
              ],
              [
                105.755613,
                18.553331
              ],
              [
                105.755751,
                18.553384
              ],
              [
                105.755895,
                18.553416
              ],
              [
                105.756033,
                18.553446
              ],
              [
                105.756127,
                18.553481
              ],
              [
                105.756228,
                18.553585
              ],
              [
                105.756394,
                18.553787
              ],
              [
                105.756395,
                18.553789
              ],
              [
                105.756867,
                18.55354
              ],
              [
                105.757408,
                18.553395
              ],
              [
                105.757779,
                18.553403
              ],
              [
                105.75802,
                18.553488
              ],
              [
                105.758382,
                18.553754
              ],
              [
                105.758633,
                18.553868
              ],
              [
                105.758914,
                18.553876
              ],
              [
                105.759205,
                18.553837
              ],
              [
                105.759725,
                18.553586
              ],
              [
                105.760616,
                18.553085
              ],
              [
                105.76074,
                18.553034
              ],
              [
                105.761787,
                18.552602
              ],
              [
                105.762097,
                18.552419
              ],
              [
                105.762427,
                18.552294
              ],
              [
                105.762871,
                18.552249
              ],
              [
                105.762918,
                18.552244
              ],
              [
                105.763269,
                18.552223
              ],
              [
                105.763473,
                18.552167
              ],
              [
                105.76373,
                18.552097
              ],
              [
                105.7639,
                18.551982
              ],
              [
                105.763955,
                18.551903
              ],
              [
                105.764057,
                18.551758
              ],
              [
                105.764109,
                18.551684
              ],
              [
                105.764249,
                18.55154
              ],
              [
                105.764586,
                18.551401
              ],
              [
                105.764669,
                18.551366
              ],
              [
                105.764782,
                18.551314
              ],
              [
                105.76509,
                18.551173
              ],
              [
                105.765259,
                18.551073
              ],
              [
                105.76535,
                18.551019
              ],
              [
                105.765467,
                18.55088
              ],
              [
                105.765769,
                18.55052
              ],
              [
                105.765846,
                18.550446
              ],
              [
                105.765938,
                18.550357
              ],
              [
                105.765959,
                18.550209
              ],
              [
                105.765968,
                18.550146
              ],
              [
                105.765864,
                18.549525
              ],
              [
                105.765588,
                18.548331
              ],
              [
                105.765511,
                18.547925
              ],
              [
                105.765444,
                18.547518
              ],
              [
                105.765298,
                18.546901
              ],
              [
                105.761877,
                18.545954
              ],
              [
                105.759034,
                18.545093
              ],
              [
                105.756564,
                18.543423
              ],
              [
                105.754709,
                18.542157
              ],
              [
                105.75464,
                18.542038
              ],
              [
                105.754651,
                18.541781
              ],
              [
                105.754606,
                18.541607
              ],
              [
                105.754442,
                18.541243
              ],
              [
                105.754365,
                18.540879
              ],
              [
                105.754295,
                18.540652
              ],
              [
                105.754163,
                18.540515
              ],
              [
                105.753931,
                18.540427
              ],
              [
                105.753604,
                18.54035
              ],
              [
                105.753172,
                18.54028
              ],
              [
                105.752877,
                18.540174
              ],
              [
                105.75265,
                18.540013
              ],
              [
                105.752342,
                18.539656
              ],
              [
                105.751847,
                18.539044
              ],
              [
                105.750964,
                18.53806
              ],
              [
                105.748233,
                18.532667
              ],
              [
                105.747565,
                18.530795
              ],
              [
                105.746865,
                18.529539
              ],
              [
                105.747957,
                18.527463
              ],
              [
                105.748501,
                18.526263
              ],
              [
                105.74911,
                18.524783
              ],
              [
                105.749267,
                18.524313
              ],
              [
                105.749255,
                18.523762
              ],
              [
                105.749305,
                18.523548
              ],
              [
                105.749209,
                18.522939
              ],
              [
                105.748958,
                18.522383
              ],
              [
                105.748847,
                18.522064
              ],
              [
                105.748775,
                18.521707
              ],
              [
                105.748894,
                18.521502
              ],
              [
                105.749152,
                18.521313
              ],
              [
                105.749249,
                18.52116
              ],
              [
                105.749188,
                18.521102
              ],
              [
                105.749039,
                18.520867
              ],
              [
                105.748816,
                18.520598
              ],
              [
                105.74857,
                18.520411
              ],
              [
                105.74831,
                18.520166
              ],
              [
                105.748532,
                18.517381
              ],
              [
                105.748451,
                18.515679
              ],
              [
                105.748313,
                18.515245
              ],
              [
                105.748139,
                18.514846
              ],
              [
                105.748112,
                18.514224
              ],
              [
                105.748159,
                18.513813
              ],
              [
                105.748318,
                18.513483
              ],
              [
                105.748475,
                18.512837
              ],
              [
                105.748522,
                18.512355
              ],
              [
                105.748404,
                18.512038
              ],
              [
                105.748266,
                18.511522
              ],
              [
                105.748264,
                18.511288
              ],
              [
                105.748262,
                18.511027
              ],
              [
                105.748104,
                18.510799
              ],
              [
                105.747969,
                18.51066
              ],
              [
                105.747806,
                18.510393
              ],
              [
                105.747761,
                18.510237
              ],
              [
                105.747642,
                18.509535
              ],
              [
                105.747546,
                18.508854
              ],
              [
                105.747219,
                18.507915
              ],
              [
                105.746875,
                18.507057
              ],
              [
                105.746107,
                18.506136
              ],
              [
                105.745537,
                18.505361
              ],
              [
                105.74502,
                18.504642
              ],
              [
                105.744209,
                18.503299
              ],
              [
                105.743969,
                18.502706
              ],
              [
                105.743805,
                18.502468
              ],
              [
                105.743749,
                18.502363
              ],
              [
                105.743617,
                18.502117
              ],
              [
                105.743441,
                18.501789
              ],
              [
                105.743396,
                18.50171
              ],
              [
                105.743396,
                18.50171
              ],
              [
                105.74336,
                18.501648
              ],
              [
                105.743332,
                18.501558
              ],
              [
                105.743315,
                18.50146
              ],
              [
                105.743287,
                18.501298
              ],
              [
                105.74329,
                18.501135
              ],
              [
                105.743247,
                18.500881
              ],
              [
                105.743204,
                18.500764
              ],
              [
                105.743154,
                18.500673
              ],
              [
                105.743103,
                18.500598
              ],
              [
                105.74306,
                18.500436
              ],
              [
                105.742852,
                18.499897
              ],
              [
                105.742572,
                18.499035
              ],
              [
                105.742564,
                18.499008
              ],
              [
                105.742563,
                18.499006
              ],
              [
                105.742449,
                18.498691
              ],
              [
                105.739859,
                18.496119
              ],
              [
                105.739715,
                18.495976
              ],
              [
                105.738784,
                18.495166
              ],
              [
                105.7384,
                18.494832
              ],
              [
                105.738394,
                18.494827
              ],
              [
                105.738267,
                18.494955
              ],
              [
                105.738242,
                18.49498
              ],
              [
                105.738165,
                18.49487
              ],
              [
                105.738164,
                18.494869
              ],
              [
                105.738144,
                18.494849
              ],
              [
                105.73812,
                18.494825
              ],
              [
                105.738095,
                18.494802
              ],
              [
                105.738069,
                18.494772
              ],
              [
                105.738042,
                18.494741
              ],
              [
                105.738016,
                18.494701
              ],
              [
                105.738002,
                18.494683
              ],
              [
                105.737985,
                18.494661
              ],
              [
                105.737958,
                18.49463
              ],
              [
                105.737927,
                18.494602
              ],
              [
                105.737887,
                18.494576
              ],
              [
                105.737874,
                18.49457
              ],
              [
                105.737854,
                18.494561
              ],
              [
                105.737827,
                18.494551
              ],
              [
                105.737796,
                18.494549
              ],
              [
                105.737754,
                18.494549
              ],
              [
                105.737711,
                18.494558
              ],
              [
                105.737674,
                18.494568
              ],
              [
                105.737643,
                18.494574
              ],
              [
                105.737597,
                18.494567
              ],
              [
                105.73756,
                18.494554
              ],
              [
                105.737521,
                18.494533
              ],
              [
                105.737482,
                18.494502
              ],
              [
                105.73746,
                18.494483
              ],
              [
                105.737428,
                18.494454
              ],
              [
                105.737402,
                18.494422
              ],
              [
                105.737374,
                18.494382
              ],
              [
                105.737353,
                18.494342
              ],
              [
                105.737325,
                18.494302
              ],
              [
                105.737299,
                18.494262
              ],
              [
                105.737279,
                18.494229
              ],
              [
                105.737254,
                18.494195
              ],
              [
                105.737222,
                18.49416
              ],
              [
                105.737193,
                18.494132
              ],
              [
                105.737169,
                18.49411
              ],
              [
                105.737143,
                18.494093
              ],
              [
                105.737113,
                18.494088
              ],
              [
                105.737084,
                18.494086
              ],
              [
                105.737055,
                18.494096
              ],
              [
                105.73702,
                18.494117
              ],
              [
                105.736995,
                18.49413
              ],
              [
                105.736961,
                18.494148
              ],
              [
                105.736912,
                18.494169
              ],
              [
                105.736868,
                18.494183
              ],
              [
                105.736828,
                18.494189
              ],
              [
                105.736782,
                18.49419
              ],
              [
                105.736729,
                18.494187
              ],
              [
                105.736699,
                18.494184
              ],
              [
                105.736656,
                18.494178
              ],
              [
                105.736616,
                18.49417
              ],
              [
                105.736586,
                18.494163
              ],
              [
                105.736534,
                18.494144
              ],
              [
                105.736488,
                18.494132
              ],
              [
                105.736443,
                18.494122
              ],
              [
                105.73641,
                18.494115
              ],
              [
                105.736408,
                18.494114
              ],
              [
                105.736366,
                18.494111
              ],
              [
                105.736334,
                18.494109
              ],
              [
                105.736294,
                18.494115
              ],
              [
                105.736256,
                18.494124
              ],
              [
                105.736234,
                18.494131
              ],
              [
                105.736222,
                18.494132
              ],
              [
                105.736201,
                18.49414
              ],
              [
                105.736164,
                18.49415
              ],
              [
                105.736118,
                18.494168
              ],
              [
                105.736072,
                18.494188
              ],
              [
                105.736035,
                18.494207
              ],
              [
                105.736004,
                18.494229
              ],
              [
                105.735981,
                18.494246
              ],
              [
                105.735959,
                18.494263
              ],
              [
                105.73594,
                18.494278
              ],
              [
                105.735912,
                18.494307
              ],
              [
                105.735878,
                18.494344
              ],
              [
                105.735851,
                18.494384
              ],
              [
                105.735834,
                18.494416
              ],
              [
                105.735817,
                18.494448
              ],
              [
                105.735803,
                18.494479
              ],
              [
                105.735785,
                18.494521
              ],
              [
                105.735763,
                18.494565
              ],
              [
                105.735742,
                18.49459
              ],
              [
                105.735741,
                18.494591
              ],
              [
                105.735738,
                18.494594
              ],
              [
                105.735736,
                18.494597
              ],
              [
                105.735711,
                18.494624
              ],
              [
                105.735705,
                18.494626
              ],
              [
                105.735667,
                18.494652
              ],
              [
                105.735634,
                18.494664
              ],
              [
                105.735597,
                18.494672
              ],
              [
                105.735559,
                18.49468
              ],
              [
                105.735527,
                18.494684
              ],
              [
                105.735496,
                18.494691
              ],
              [
                105.735466,
                18.494701
              ],
              [
                105.735431,
                18.494718
              ],
              [
                105.735392,
                18.494732
              ],
              [
                105.735357,
                18.494742
              ],
              [
                105.735325,
                18.494732
              ],
              [
                105.735185,
                18.494629
              ],
              [
                105.735105,
                18.49457
              ],
              [
                105.735032,
                18.494531
              ],
              [
                105.735021,
                18.494524
              ],
              [
                105.73495,
                18.494506
              ],
              [
                105.734898,
                18.494513
              ],
              [
                105.734852,
                18.494548
              ],
              [
                105.734826,
                18.494606
              ],
              [
                105.734827,
                18.494659
              ],
              [
                105.734863,
                18.494734
              ],
              [
                105.734964,
                18.494851
              ],
              [
                105.73497,
                18.494857
              ],
              [
                105.735006,
                18.494924
              ],
              [
                105.735006,
                18.494985
              ],
              [
                105.734978,
                18.495052
              ],
              [
                105.734945,
                18.495112
              ],
              [
                105.734865,
                18.495196
              ],
              [
                105.734763,
                18.495251
              ],
              [
                105.734623,
                18.495287
              ],
              [
                105.734543,
                18.495288
              ],
              [
                105.734455,
                18.495262
              ],
              [
                105.734397,
                18.495204
              ],
              [
                105.734369,
                18.495164
              ],
              [
                105.734339,
                18.495135
              ],
              [
                105.734311,
                18.495135
              ],
              [
                105.734289,
                18.49514
              ],
              [
                105.734261,
                18.495171
              ],
              [
                105.734251,
                18.495203
              ],
              [
                105.734227,
                18.495248
              ],
              [
                105.734209,
                18.495282
              ],
              [
                105.734179,
                18.49533
              ],
              [
                105.734117,
                18.495368
              ],
              [
                105.73407,
                18.495393
              ],
              [
                105.734049,
                18.495404
              ],
              [
                105.734007,
                18.495436
              ],
              [
                105.733995,
                18.495455
              ],
              [
                105.73397,
                18.495495
              ],
              [
                105.733962,
                18.495519
              ],
              [
                105.733947,
                18.495567
              ],
              [
                105.733943,
                18.495646
              ],
              [
                105.733941,
                18.495677
              ],
              [
                105.73394,
                18.495696
              ],
              [
                105.73392,
                18.495735
              ],
              [
                105.733868,
                18.495778
              ],
              [
                105.73375,
                18.495814
              ],
              [
                105.7335,
                18.495875
              ],
              [
                105.733377,
                18.495914
              ],
              [
                105.733327,
                18.495936
              ],
              [
                105.733297,
                18.495969
              ],
              [
                105.73327,
                18.496039
              ],
              [
                105.733233,
                18.496156
              ],
              [
                105.733193,
                18.49619
              ],
              [
                105.733153,
                18.49619
              ],
              [
                105.733108,
                18.496176
              ],
              [
                105.733006,
                18.496112
              ],
              [
                105.732975,
                18.496092
              ],
              [
                105.732754,
                18.495976
              ],
              [
                105.732689,
                18.495956
              ],
              [
                105.732397,
                18.495863
              ],
              [
                105.732214,
                18.495782
              ],
              [
                105.732191,
                18.495766
              ],
              [
                105.732055,
                18.495674
              ],
              [
                105.732034,
                18.495653
              ],
              [
                105.732021,
                18.495621
              ],
              [
                105.732009,
                18.495584
              ],
              [
                105.732,
                18.495546
              ],
              [
                105.731991,
                18.495512
              ],
              [
                105.731985,
                18.495476
              ],
              [
                105.731979,
                18.495438
              ],
              [
                105.731972,
                18.495391
              ],
              [
                105.731968,
                18.49537
              ],
              [
                105.731962,
                18.495345
              ],
              [
                105.731952,
                18.495308
              ],
              [
                105.731942,
                18.495266
              ],
              [
                105.731942,
                18.495264
              ],
              [
                105.731933,
                18.495224
              ],
              [
                105.731925,
                18.495193
              ],
              [
                105.731913,
                18.495162
              ],
              [
                105.731905,
                18.495145
              ],
              [
                105.73189,
                18.495112
              ],
              [
                105.731876,
                18.495072
              ],
              [
                105.731866,
                18.495034
              ],
              [
                105.731856,
                18.494986
              ],
              [
                105.731845,
                18.494939
              ],
              [
                105.731837,
                18.494902
              ],
              [
                105.731829,
                18.494865
              ],
              [
                105.731821,
                18.494817
              ],
              [
                105.731817,
                18.494773
              ],
              [
                105.731812,
                18.494731
              ],
              [
                105.731808,
                18.494699
              ],
              [
                105.731811,
                18.494664
              ],
              [
                105.731818,
                18.494635
              ],
              [
                105.73183,
                18.494603
              ],
              [
                105.731846,
                18.494571
              ],
              [
                105.731861,
                18.494543
              ],
              [
                105.731881,
                18.494521
              ],
              [
                105.731916,
                18.494488
              ],
              [
                105.731954,
                18.494468
              ],
              [
                105.731955,
                18.494468
              ],
              [
                105.732098,
                18.4944
              ],
              [
                105.732223,
                18.494335
              ],
              [
                105.73228,
                18.494292
              ],
              [
                105.732313,
                18.494254
              ],
              [
                105.732337,
                18.494203
              ],
              [
                105.73234,
                18.494139
              ],
              [
                105.732327,
                18.494086
              ],
              [
                105.732232,
                18.493992
              ],
              [
                105.732232,
                18.493992
              ],
              [
                105.732201,
                18.493965
              ],
              [
                105.732195,
                18.493957
              ],
              [
                105.732178,
                18.493936
              ],
              [
                105.732171,
                18.493923
              ],
              [
                105.732162,
                18.493906
              ],
              [
                105.732154,
                18.493874
              ],
              [
                105.732158,
                18.493833
              ],
              [
                105.732166,
                18.493807
              ],
              [
                105.732169,
                18.493799
              ],
              [
                105.732183,
                18.493773
              ],
              [
                105.732206,
                18.493748
              ],
              [
                105.732243,
                18.493717
              ],
              [
                105.732268,
                18.493694
              ],
              [
                105.73229,
                18.493677
              ],
              [
                105.732313,
                18.493659
              ],
              [
                105.732341,
                18.493632
              ],
              [
                105.732375,
                18.4936
              ],
              [
                105.732403,
                18.493575
              ],
              [
                105.732429,
                18.493548
              ],
              [
                105.73246,
                18.493508
              ],
              [
                105.732474,
                18.493481
              ],
              [
                105.732484,
                18.493458
              ],
              [
                105.732487,
                18.49345
              ],
              [
                105.732498,
                18.493417
              ],
              [
                105.732504,
                18.493388
              ],
              [
                105.732507,
                18.493357
              ],
              [
                105.732505,
                18.493318
              ],
              [
                105.732507,
                18.493267
              ],
              [
                105.732504,
                18.49323
              ],
              [
                105.732495,
                18.49319
              ],
              [
                105.732488,
                18.493159
              ],
              [
                105.732483,
                18.493125
              ],
              [
                105.73248,
                18.493096
              ],
              [
                105.732481,
                18.493062
              ],
              [
                105.732487,
                18.493038
              ],
              [
                105.732565,
                18.49277
              ],
              [
                105.73259,
                18.492631
              ],
              [
                105.732572,
                18.492538
              ],
              [
                105.732529,
                18.492442
              ],
              [
                105.732438,
                18.492321
              ],
              [
                105.732312,
                18.492214
              ],
              [
                105.732121,
                18.492042
              ],
              [
                105.73196,
                18.491849
              ],
              [
                105.731688,
                18.491489
              ],
              [
                105.73147,
                18.491571
              ],
              [
                105.731157,
                18.491631
              ],
              [
                105.730493,
                18.491507
              ],
              [
                105.727117,
                18.489948
              ],
              [
                105.726916,
                18.489841
              ],
              [
                105.726883,
                18.489819
              ],
              [
                105.726366,
                18.490488
              ],
              [
                105.725846,
                18.49049
              ],
              [
                105.725071,
                18.491526
              ],
              [
                105.724625,
                18.49179
              ],
              [
                105.723612,
                18.491909
              ],
              [
                105.723555,
                18.491769
              ],
              [
                105.723448,
                18.491701
              ],
              [
                105.723341,
                18.491665
              ],
              [
                105.723219,
                18.491645
              ],
              [
                105.723072,
                18.491645
              ],
              [
                105.722727,
                18.491724
              ],
              [
                105.722471,
                18.491767
              ],
              [
                105.722358,
                18.491773
              ],
              [
                105.722298,
                18.491756
              ],
              [
                105.72227,
                18.491696
              ],
              [
                105.72227,
                18.491633
              ],
              [
                105.722281,
                18.49131
              ],
              [
                105.722274,
                18.491164
              ],
              [
                105.722252,
                18.491083
              ],
              [
                105.722189,
                18.491018
              ],
              [
                105.722048,
                18.491021
              ],
              [
                105.721866,
                18.491085
              ],
              [
                105.721582,
                18.49122
              ],
              [
                105.721472,
                18.491242
              ],
              [
                105.721375,
                18.491242
              ],
              [
                105.721278,
                18.491207
              ],
              [
                105.721023,
                18.49104
              ],
              [
                105.720932,
                18.49099
              ],
              [
                105.72087,
                18.490975
              ],
              [
                105.720785,
                18.491005
              ],
              [
                105.720585,
                18.491114
              ],
              [
                105.720313,
                18.491252
              ],
              [
                105.720085,
                18.491322
              ],
              [
                105.719725,
                18.491338
              ],
              [
                105.719663,
                18.491527
              ],
              [
                105.719638,
                18.491661
              ],
              [
                105.719592,
                18.491787
              ],
              [
                105.719501,
                18.491913
              ],
              [
                105.719345,
                18.492051
              ],
              [
                105.719017,
                18.492214
              ],
              [
                105.718635,
                18.49236
              ],
              [
                105.718213,
                18.492522
              ],
              [
                105.717669,
                18.492676
              ],
              [
                105.717428,
                18.492728
              ],
              [
                105.717168,
                18.492759
              ],
              [
                105.716933,
                18.492742
              ],
              [
                105.71655,
                18.492647
              ],
              [
                105.716023,
                18.492401
              ],
              [
                105.715583,
                18.492125
              ],
              [
                105.715081,
                18.491762
              ],
              [
                105.714731,
                18.491429
              ],
              [
                105.714394,
                18.491
              ],
              [
                105.714297,
                18.490901
              ],
              [
                105.714127,
                18.490827
              ],
              [
                105.71392,
                18.490783
              ],
              [
                105.713651,
                18.490769
              ],
              [
                105.71309,
                18.490822
              ],
              [
                105.712371,
                18.490998
              ],
              [
                105.711892,
                18.491105
              ],
              [
                105.71166,
                18.491198
              ],
              [
                105.711392,
                18.491364
              ],
              [
                105.711042,
                18.491625
              ],
              [
                105.710645,
                18.491976
              ],
              [
                105.710602,
                18.492021
              ],
              [
                105.710386,
                18.49224
              ],
              [
                105.710215,
                18.492471
              ],
              [
                105.709805,
                18.493292
              ],
              [
                105.709485,
                18.493888
              ],
              [
                105.709245,
                18.494247
              ],
              [
                105.708562,
                18.495093
              ],
              [
                105.70793,
                18.496001
              ],
              [
                105.707628,
                18.49636
              ],
              [
                105.707359,
                18.496565
              ],
              [
                105.707212,
                18.496613
              ],
              [
                105.70704,
                18.496638
              ],
              [
                105.706736,
                18.496633
              ],
              [
                105.70641,
                18.496568
              ],
              [
                105.706108,
                18.496455
              ],
              [
                105.704089,
                18.493606
              ],
              [
                105.701244,
                18.489425
              ],
              [
                105.701215,
                18.489401
              ],
              [
                105.700928,
                18.488998
              ],
              [
                105.700791,
                18.488805
              ],
              [
                105.700783,
                18.488777
              ],
              [
                105.70078,
                18.488773
              ],
              [
                105.700737,
                18.488708
              ],
              [
                105.700567,
                18.488367
              ],
              [
                105.700451,
                18.488111
              ],
              [
                105.700226,
                18.487879
              ],
              [
                105.698607,
                18.487861
              ],
              [
                105.698561,
                18.487845
              ],
              [
                105.698396,
                18.487822
              ],
              [
                105.69838,
                18.487821
              ],
              [
                105.698294,
                18.487821
              ],
              [
                105.698114,
                18.4879
              ],
              [
                105.698063,
                18.487916
              ],
              [
                105.697943,
                18.487498
              ],
              [
                105.697683,
                18.487591
              ],
              [
                105.697251,
                18.487758
              ],
              [
                105.697247,
                18.48776
              ],
              [
                105.696574,
                18.48802
              ],
              [
                105.696432,
                18.488074
              ],
              [
                105.695856,
                18.488293
              ],
              [
                105.695835,
                18.488301
              ],
              [
                105.695598,
                18.488392
              ],
              [
                105.695515,
                18.488423
              ],
              [
                105.694895,
                18.488651
              ],
              [
                105.694439,
                18.488819
              ],
              [
                105.694157,
                18.488923
              ],
              [
                105.693999,
                18.488981
              ],
              [
                105.693681,
                18.4891
              ],
              [
                105.693641,
                18.489115
              ],
              [
                105.693273,
                18.490152
              ],
              [
                105.692393,
                18.492369
              ],
              [
                105.69235,
                18.492408
              ],
              [
                105.69214,
                18.492744
              ],
              [
                105.691925,
                18.493235
              ],
              [
                105.691764,
                18.4936
              ],
              [
                105.691417,
                18.494393
              ],
              [
                105.691319,
                18.494614
              ],
              [
                105.69104,
                18.49525
              ],
              [
                105.690933,
                18.495493
              ],
              [
                105.690673,
                18.496086
              ],
              [
                105.690384,
                18.496741
              ],
              [
                105.690262,
                18.497019
              ],
              [
                105.690036,
                18.497139
              ],
              [
                105.68989,
                18.497217
              ],
              [
                105.689604,
                18.497355
              ],
              [
                105.689058,
                18.49762
              ],
              [
                105.688955,
                18.497693
              ],
              [
                105.688777,
                18.497819
              ],
              [
                105.688626,
                18.497972
              ],
              [
                105.688529,
                18.497779
              ],
              [
                105.688073,
                18.497963
              ],
              [
                105.688103,
                18.497772
              ],
              [
                105.6881,
                18.49759
              ],
              [
                105.688079,
                18.497369
              ],
              [
                105.688046,
                18.497246
              ],
              [
                105.687956,
                18.497105
              ],
              [
                105.687853,
                18.497017
              ],
              [
                105.687765,
                18.496974
              ],
              [
                105.687706,
                18.496978
              ],
              [
                105.68764,
                18.497014
              ],
              [
                105.687559,
                18.497093
              ],
              [
                105.687517,
                18.497177
              ],
              [
                105.687499,
                18.497262
              ],
              [
                105.687499,
                18.497353
              ],
              [
                105.687552,
                18.497524
              ],
              [
                105.687603,
                18.497632
              ],
              [
                105.687609,
                18.497692
              ],
              [
                105.687585,
                18.497784
              ],
              [
                105.687519,
                18.497858
              ],
              [
                105.687349,
                18.497968
              ],
              [
                105.687163,
                18.498038
              ],
              [
                105.686863,
                18.498102
              ],
              [
                105.686552,
                18.498181
              ],
              [
                105.686408,
                18.498199
              ],
              [
                105.686312,
                18.498192
              ],
              [
                105.686211,
                18.498164
              ],
              [
                105.686141,
                18.498124
              ],
              [
                105.686065,
                18.498065
              ],
              [
                105.686018,
                18.497981
              ],
              [
                105.686006,
                18.497866
              ],
              [
                105.686021,
                18.49773
              ],
              [
                105.686076,
                18.497512
              ],
              [
                105.686168,
                18.497297
              ],
              [
                105.686275,
                18.497077
              ],
              [
                105.686327,
                18.496941
              ],
              [
                105.686328,
                18.496845
              ],
              [
                105.686294,
                18.496774
              ],
              [
                105.68621,
                18.496715
              ],
              [
                105.686095,
                18.496691
              ],
              [
                105.685927,
                18.496701
              ],
              [
                105.685522,
                18.496741
              ],
              [
                105.685326,
                18.496755
              ],
              [
                105.685225,
                18.496742
              ],
              [
                105.685159,
                18.49671
              ],
              [
                105.685078,
                18.496637
              ],
              [
                105.685008,
                18.496467
              ],
              [
                105.684927,
                18.496353
              ],
              [
                105.68482,
                18.496284
              ],
              [
                105.684744,
                18.496258
              ],
              [
                105.684668,
                18.496262
              ],
              [
                105.684524,
                18.496314
              ],
              [
                105.684358,
                18.496424
              ],
              [
                105.684264,
                18.496462
              ],
              [
                105.684198,
                18.496474
              ],
              [
                105.684131,
                18.496472
              ],
              [
                105.684053,
                18.49644
              ],
              [
                105.68392,
                18.496337
              ],
              [
                105.683762,
                18.496246
              ],
              [
                105.683565,
                18.496189
              ],
              [
                105.68342,
                18.496163
              ],
              [
                105.683332,
                18.496165
              ],
              [
                105.683262,
                18.496183
              ],
              [
                105.683202,
                18.496204
              ],
              [
                105.68317,
                18.496244
              ],
              [
                105.683158,
                18.496302
              ],
              [
                105.683169,
                18.496462
              ],
              [
                105.683194,
                18.496788
              ],
              [
                105.683221,
                18.496912
              ],
              [
                105.683221,
                18.496979
              ],
              [
                105.683201,
                18.49703
              ],
              [
                105.683151,
                18.497098
              ],
              [
                105.683017,
                18.497184
              ],
              [
                105.682863,
                18.497215
              ],
              [
                105.682701,
                18.497199
              ],
              [
                105.682532,
                18.497163
              ],
              [
                105.682267,
                18.497059
              ],
              [
                105.682189,
                18.496969
              ],
              [
                105.68217,
                18.496875
              ],
              [
                105.682174,
                18.496795
              ],
              [
                105.682206,
                18.49672
              ],
              [
                105.682267,
                18.496611
              ],
              [
                105.682409,
                18.496467
              ],
              [
                105.682559,
                18.496359
              ],
              [
                105.682609,
                18.496296
              ],
              [
                105.682621,
                18.49625
              ],
              [
                105.682621,
                18.496183
              ],
              [
                105.682584,
                18.496093
              ],
              [
                105.68253,
                18.496038
              ],
              [
                105.682403,
                18.495995
              ],
              [
                105.682026,
                18.495842
              ],
              [
                105.681536,
                18.495557
              ],
              [
                105.681391,
                18.495429
              ],
              [
                105.681259,
                18.49528
              ],
              [
                105.681203,
                18.49525
              ],
              [
                105.68114,
                18.495259
              ],
              [
                105.681087,
                18.495289
              ],
              [
                105.681046,
                18.49534
              ],
              [
                105.681012,
                18.49543
              ],
              [
                105.680991,
                18.495598
              ],
              [
                105.68097,
                18.495804
              ],
              [
                105.680939,
                18.495921
              ],
              [
                105.680864,
                18.496038
              ],
              [
                105.680808,
                18.496092
              ],
              [
                105.680727,
                18.496116
              ],
              [
                105.680598,
                18.496077
              ],
              [
                105.680585,
                18.496119
              ],
              [
                105.680869,
                18.497057
              ],
              [
                105.681055,
                18.497696
              ],
              [
                105.68108,
                18.497782
              ],
              [
                105.681333,
                18.498651
              ],
              [
                105.681439,
                18.499014
              ],
              [
                105.68144,
                18.499016
              ],
              [
                105.681548,
                18.499389
              ],
              [
                105.682005,
                18.500872
              ],
              [
                105.682216,
                18.501567
              ],
              [
                105.682329,
                18.501961
              ],
              [
                105.681651,
                18.5028
              ],
              [
                105.681392,
                18.503332
              ],
              [
                105.681922,
                18.50379
              ],
              [
                105.682095,
                18.503954
              ],
              [
                105.682416,
                18.504668
              ],
              [
                105.682556,
                18.505254
              ],
              [
                105.682509,
                18.505491
              ],
              [
                105.682251,
                18.505587
              ],
              [
                105.680174,
                18.506077
              ],
              [
                105.67933,
                18.506269
              ],
              [
                105.679004,
                18.506449
              ],
              [
                105.678655,
                18.506852
              ],
              [
                105.678586,
                18.507164
              ],
              [
                105.678689,
                18.507448
              ],
              [
                105.679931,
                18.508719
              ],
              [
                105.679536,
                18.508863
              ],
              [
                105.679993,
                18.511626
              ],
              [
                105.676722,
                18.512136
              ],
              [
                105.676786,
                18.513805
              ],
              [
                105.676875,
                18.516126
              ],
              [
                105.677575,
                18.516148
              ],
              [
                105.677864,
                18.516157
              ],
              [
                105.677999,
                18.517184
              ],
              [
                105.678703,
                18.517494
              ],
              [
                105.679063,
                18.520285
              ],
              [
                105.679253,
                18.521753
              ],
              [
                105.679841,
                18.523011
              ],
              [
                105.687345,
                18.523872
              ],
              [
                105.687382,
                18.524198
              ],
              [
                105.687496,
                18.525514
              ],
              [
                105.687623,
                18.52676
              ],
              [
                105.687611,
                18.527005
              ],
              [
                105.687605,
                18.527126
              ],
              [
                105.687661,
                18.527152
              ],
              [
                105.68773,
                18.527184
              ],
              [
                105.687744,
                18.527194
              ],
              [
                105.687772,
                18.527215
              ],
              [
                105.687817,
                18.52727
              ],
              [
                105.687822,
                18.527285
              ],
              [
                105.687851,
                18.527372
              ],
              [
                105.687868,
                18.527482
              ],
              [
                105.687869,
                18.527739
              ],
              [
                105.687863,
                18.527963
              ],
              [
                105.687863,
                18.528166
              ],
              [
                105.687877,
                18.528288
              ],
              [
                105.687922,
                18.528506
              ],
              [
                105.687998,
                18.528693
              ],
              [
                105.688035,
                18.528814
              ],
              [
                105.688056,
                18.528882
              ],
              [
                105.68807,
                18.528974
              ],
              [
                105.688106,
                18.529137
              ],
              [
                105.688129,
                18.529255
              ],
              [
                105.688167,
                18.529342
              ],
              [
                105.688167,
                18.529343
              ],
              [
                105.688169,
                18.529346
              ],
              [
                105.688186,
                18.529368
              ],
              [
                105.688212,
                18.529403
              ],
              [
                105.688291,
                18.529423
              ],
              [
                105.688353,
                18.529426
              ],
              [
                105.688417,
                18.529417
              ],
              [
                105.688592,
                18.529359
              ],
              [
                105.688779,
                18.52929
              ],
              [
                105.689699,
                18.528855
              ],
              [
                105.689911,
                18.528736
              ],
              [
                105.690309,
                18.528513
              ],
              [
                105.690689,
                18.528363
              ],
              [
                105.690809,
                18.52833
              ],
              [
                105.690956,
                18.528289
              ],
              [
                105.69119,
                18.528263
              ],
              [
                105.691466,
                18.528269
              ],
              [
                105.691607,
                18.528287
              ],
              [
                105.691762,
                18.528308
              ],
              [
                105.69196,
                18.528305
              ],
              [
                105.692046,
                18.528288
              ],
              [
                105.69212,
                18.528257
              ],
              [
                105.692188,
                18.528215
              ],
              [
                105.692245,
                18.52816
              ],
              [
                105.692284,
                18.528064
              ],
              [
                105.692278,
                18.527956
              ],
              [
                105.692233,
                18.52783
              ],
              [
                105.69216,
                18.527703
              ],
              [
                105.692022,
                18.52756
              ],
              [
                105.691936,
                18.527486
              ],
              [
                105.693063,
                18.527534
              ],
              [
                105.695295,
                18.527789
              ],
              [
                105.696064,
                18.527865
              ],
              [
                105.697091,
                18.527969
              ],
              [
                105.6981,
                18.528071
              ],
              [
                105.698091,
                18.52833
              ],
              [
                105.698748,
                18.528411
              ],
              [
                105.69881,
                18.528398
              ],
              [
                105.699168,
                18.528454
              ],
              [
                105.699079,
                18.528887
              ],
              [
                105.698966,
                18.529643
              ],
              [
                105.699498,
                18.52966
              ],
              [
                105.699604,
                18.529664
              ],
              [
                105.699739,
                18.529667
              ],
              [
                105.699748,
                18.529668
              ],
              [
                105.700945,
                18.529703
              ],
              [
                105.702498,
                18.529739
              ],
              [
                105.703065,
                18.529754
              ],
              [
                105.704213,
                18.529786
              ],
              [
                105.705839,
                18.529833
              ],
              [
                105.705872,
                18.529836
              ],
              [
                105.706375,
                18.529881
              ],
              [
                105.706864,
                18.529986
              ],
              [
                105.707448,
                18.530158
              ],
              [
                105.708665,
                18.530505
              ],
              [
                105.708956,
                18.530596
              ],
              [
                105.709554,
                18.530782
              ],
              [
                105.709693,
                18.530921
              ],
              [
                105.709869,
                18.531089
              ],
              [
                105.710062,
                18.531246
              ],
              [
                105.71019,
                18.531351
              ],
              [
                105.710264,
                18.531411
              ],
              [
                105.710732,
                18.531798
              ],
              [
                105.711,
                18.532021
              ],
              [
                105.711385,
                18.532343
              ],
              [
                105.71139,
                18.532347
              ],
              [
                105.711489,
                18.53244
              ],
              [
                105.711681,
                18.532622
              ],
              [
                105.711687,
                18.532627
              ],
              [
                105.711976,
                18.533
              ],
              [
                105.711984,
                18.53305
              ],
              [
                105.711969,
                18.533104
              ],
              [
                105.711912,
                18.533188
              ],
              [
                105.711895,
                18.533261
              ],
              [
                105.711895,
                18.533341
              ],
              [
                105.71191,
                18.533404
              ],
              [
                105.711916,
                18.533424
              ],
              [
                105.711948,
                18.53348
              ],
              [
                105.711994,
                18.533528
              ],
              [
                105.711997,
                18.533529
              ],
              [
                105.712047,
                18.533556
              ],
              [
                105.712118,
                18.533565
              ],
              [
                105.712168,
                18.533563
              ],
              [
                105.712203,
                18.533561
              ],
              [
                105.712281,
                18.533547
              ],
              [
                105.712371,
                18.533502
              ],
              [
                105.712434,
                18.533454
              ],
              [
                105.71269,
                18.533261
              ],
              [
                105.713164,
                18.532909
              ],
              [
                105.713641,
                18.532595
              ],
              [
                105.713818,
                18.532519
              ],
              [
                105.713871,
                18.532504
              ],
              [
                105.713986,
                18.532461
              ],
              [
                105.714036,
                18.532442
              ],
              [
                105.714893,
                18.532114
              ],
              [
                105.716237,
                18.531833
              ],
              [
                105.717808,
                18.531669
              ],
              [
                105.718263,
                18.531667
              ],
              [
                105.71864,
                18.531717
              ],
              [
                105.718988,
                18.531797
              ],
              [
                105.719233,
                18.531881
              ],
              [
                105.719458,
                18.531911
              ],
              [
                105.719684,
                18.531897
              ],
              [
                105.719935,
                18.531829
              ],
              [
                105.719976,
                18.53208
              ],
              [
                105.720005,
                18.532452
              ],
              [
                105.720006,
                18.532627
              ],
              [
                105.719998,
                18.532932
              ],
              [
                105.719994,
                18.533075
              ],
              [
                105.720061,
                18.53329
              ],
              [
                105.72015,
                18.533461
              ],
              [
                105.720335,
                18.533594
              ],
              [
                105.720786,
                18.534234
              ],
              [
                105.720907,
                18.534505
              ],
              [
                105.720908,
                18.534776
              ],
              [
                105.720835,
                18.53519
              ],
              [
                105.720569,
                18.535975
              ],
              [
                105.720319,
                18.536718
              ],
              [
                105.720157,
                18.53746
              ],
              [
                105.720131,
                18.538402
              ],
              [
                105.72018,
                18.539186
              ],
              [
                105.720378,
                18.540098
              ],
              [
                105.720503,
                18.540681
              ],
              [
                105.720702,
                18.541326
              ],
              [
                105.720747,
                18.541529
              ],
              [
                105.720726,
                18.542025
              ],
              [
                105.720706,
                18.542282
              ],
              [
                105.72082,
                18.542458
              ],
              [
                105.721239,
                18.543105
              ],
              [
                105.721381,
                18.543513
              ],
              [
                105.721504,
                18.544099
              ],
              [
                105.721586,
                18.544707
              ],
              [
                105.721671,
                18.545394
              ],
              [
                105.721664,
                18.545826
              ],
              [
                105.722165,
                18.546317
              ],
              [
                105.722656,
                18.546455
              ],
              [
                105.723215,
                18.54642
              ],
              [
                105.723739,
                18.546268
              ],
              [
                105.724228,
                18.545975
              ],
              [
                105.724785,
                18.545531
              ],
              [
                105.725123,
                18.545271
              ],
              [
                105.725495,
                18.545048
              ],
              [
                105.726105,
                18.544848
              ],
              [
                105.727254,
                18.544774
              ],
              [
                105.728444,
                18.545124
              ],
              [
                105.728897,
                18.545257
              ],
              [
                105.729211,
                18.545211
              ],
              [
                105.729352,
                18.545201
              ],
              [
                105.729551,
                18.545172
              ],
              [
                105.729856,
                18.545096
              ],
              [
                105.730225,
                18.545012
              ],
              [
                105.730242,
                18.546202
              ],
              [
                105.730339,
                18.546931
              ],
              [
                105.730611,
                18.547805
              ],
              [
                105.730838,
                18.548031
              ],
              [
                105.731141,
                18.548198
              ],
              [
                105.733678,
                18.548089
              ],
              [
                105.733756,
                18.548057
              ],
              [
                105.734184,
                18.54788
              ],
              [
                105.734608,
                18.547631
              ],
              [
                105.734752,
                18.547473
              ],
              [
                105.73499,
                18.547402
              ],
              [
                105.735166,
                18.547471
              ],
              [
                105.735477,
                18.547499
              ],
              [
                105.735808,
                18.547528
              ],
              [
                105.736228,
                18.547614
              ],
              [
                105.736567,
                18.547765
              ],
              [
                105.737285,
                18.548425
              ],
              [
                105.737951,
                18.549155
              ],
              [
                105.738597,
                18.550026
              ],
              [
                105.738935,
                18.550356
              ],
              [
                105.739209,
                18.550495
              ],
              [
                105.739284,
                18.550654
              ],
              [
                105.739384,
                18.550878
              ],
              [
                105.73949,
                18.551079
              ],
              [
                105.739585,
                18.551173
              ],
              [
                105.739737,
                18.551268
              ],
              [
                105.739925,
                18.551289
              ],
              [
                105.740294,
                18.551237
              ],
              [
                105.740463,
                18.551213
              ],
              [
                105.741112,
                18.551142
              ],
              [
                105.742532,
                18.551094
              ],
              [
                105.74295,
                18.551192
              ],
              [
                105.743565,
                18.551532
              ],
              [
                105.743865,
                18.551987
              ],
              [
                105.74384,
                18.553014
              ],
              [
                105.743855,
                18.553216
              ],
              [
                105.743885,
                18.553423
              ],
              [
                105.743974,
                18.553568
              ],
              [
                105.744121,
                18.553702
              ],
              [
                105.744344,
                18.553813
              ],
              [
                105.744807,
                18.553929
              ],
              [
                105.745135,
                18.554
              ],
              [
                105.745645,
                18.55402
              ],
              [
                105.746365,
                18.55378
              ],
              [
                105.746732,
                18.55358
              ],
              [
                105.747051,
                18.553544
              ],
              [
                105.747381,
                18.553449
              ],
              [
                105.747662,
                18.55319
              ],
              [
                105.747881,
                18.552908
              ],
              [
                105.748126,
                18.552709
              ],
              [
                105.748456,
                18.552497
              ],
              [
                105.74864,
                18.552508
              ],
              [
                105.748813,
                18.552881
              ],
              [
                105.748827,
                18.553279
              ],
              [
                105.74881,
                18.55371
              ],
              [
                105.748787,
                18.55395
              ],
              [
                105.748749,
                18.554621
              ],
              [
                105.74875,
                18.554867
              ],
              [
                105.748679,
                18.555155
              ],
              [
                105.748691,
                18.555294
              ],
              [
                105.748768,
                18.555383
              ],
              [
                105.748885,
                18.555416
              ],
              [
                105.74919,
                18.555454
              ],
              [
                105.749611,
                18.55543
              ],
              [
                105.749676,
                18.555444
              ],
              [
                105.749859,
                18.555483
              ],
              [
                105.750284,
                18.555632
              ],
              [
                105.75051,
                18.555722
              ],
              [
                105.750716,
                18.555917
              ],
              [
                105.750936,
                18.556054
              ],
              [
                105.751016,
                18.556081
              ],
              [
                105.751395,
                18.556208
              ],
              [
                105.751847,
                18.556214
              ],
              [
                105.751847,
                18.556214
              ],
              [
                105.752063,
                18.556198
              ],
              [
                105.752271,
                18.556162
              ],
              [
                105.752421,
                18.556109
              ],
              [
                105.752491,
                18.556049
              ],
              [
                105.752593,
                18.555869
              ],
              [
                105.752682,
                18.555574
              ],
              [
                105.752682,
                18.555574
              ]
            ]
          ]
        ]
      },
      "properties": {
        "code": "18118",
        "name": "Nam Hồng Lĩnh",
        "nameEn": "Nam Hong Linh",
        "fullName": "Phường Nam Hồng Lĩnh",
        "fullNameEn": "Nam Hong Linh Ward",
        "codeName": "nam_hong_linh",
        "postalCode": "45613",
        "postalCodePrefix": "",
        "gisServerId": "diaphanhanhchinhcapxa_2025.2007",
        "areaKm2": 36.47
      }
    }
  ]
}