{
  "type": "FeatureCollection",
  "bbox": [
    106.047359,
    20.957482,
    106.138154,
    21.00703
  ],
  "features": [
    {
      "type": "Feature",
      "id": "11995",
      "bbox": [
        106.047359,
        20.957482,
        106.138154,
        21.00703
      ],
      "geometry": {
        "type": "MultiPolygon",
        "coordinates": [
          [
            [
              [
                106.051956,
                21.006236
              ],
              [
                106.052073,
                21.006126
              ],
              [
                106.052258,
                21.006213
              ],
              [
                106.052351,
                21.00617
              ],
              [
                106.052458,
                21.006098
              ],
              [
                106.052547,
                21.006048
              ],
              [
                106.052652,
                21.006008
              ],
              [
                106.052767,
                21.005993
              ],
              [
                106.052891,
                21.005987
              ],
              [
                106.052876,
                21.006155
              ],
              [
                106.052864,
                21.006266
              ],
              [
                106.052845,
                21.00638
              ],
              [
                106.052835,
                21.006473
              ],
              [
                106.05503,
                21.006832
              ],
              [
                106.055115,
                21.006789
              ],
              [
                106.055119,
                21.006757
              ],
              [
                106.055133,
                21.006607
              ],
              [
                106.055146,
                21.006447
              ],
              [
                106.055158,
                21.006288
              ],
              [
                106.05517,
                21.006149
              ],
              [
                106.055182,
                21.006037
              ],
              [
                106.055193,
                21.005939
              ],
              [
                106.055204,
                21.005848
              ],
              [
                106.055212,
                21.005776
              ],
              [
                106.055217,
                21.005735
              ],
              [
                106.05522,
                21.005707
              ],
              [
                106.055223,
                21.005676
              ],
              [
                106.055228,
                21.00564
              ],
              [
                106.055232,
                21.005605
              ],
              [
                106.055236,
                21.005604
              ],
              [
                106.055241,
                21.005552
              ],
              [
                106.055199,
                21.005335
              ],
              [
                106.05504,
                21.005131
              ],
              [
                106.054943,
                21.005046
              ],
              [
                106.054852,
                21.004983
              ],
              [
                106.054781,
                21.004934
              ],
              [
                106.054498,
                21.004768
              ],
              [
                106.054435,
                21.004699
              ],
              [
                106.054375,
                21.004604
              ],
              [
                106.054362,
                21.004516
              ],
              [
                106.054412,
                21.004435
              ],
              [
                106.054585,
                21.004224
              ],
              [
                106.054963,
                21.003922
              ],
              [
                106.055062,
                21.003848
              ],
              [
                106.05509,
                21.003824
              ],
              [
                106.055186,
                21.003773
              ],
              [
                106.055309,
                21.003731
              ],
              [
                106.055589,
                21.003678
              ],
              [
                106.055737,
                21.003629
              ],
              [
                106.055799,
                21.003595
              ],
              [
                106.055853,
                21.003544
              ],
              [
                106.055888,
                21.003472
              ],
              [
                106.055974,
                21.003209
              ],
              [
                106.056005,
                21.003156
              ],
              [
                106.05606,
                21.003096
              ],
              [
                106.056141,
                21.003045
              ],
              [
                106.05629,
                21.002977
              ],
              [
                106.056451,
                21.002873
              ],
              [
                106.056522,
                21.002793
              ],
              [
                106.056589,
                21.002657
              ],
              [
                106.056679,
                21.002396
              ],
              [
                106.05683,
                21.001942
              ],
              [
                106.056854,
                21.001822
              ],
              [
                106.056862,
                21.001746
              ],
              [
                106.056846,
                21.001652
              ],
              [
                106.056827,
                21.001547
              ],
              [
                106.056829,
                21.001471
              ],
              [
                106.056835,
                21.001408
              ],
              [
                106.056915,
                21.001262
              ],
              [
                106.05701,
                21.001088
              ],
              [
                106.057085,
                21.00102
              ],
              [
                106.057259,
                21.000906
              ],
              [
                106.057643,
                21.000724
              ],
              [
                106.057795,
                21.000639
              ],
              [
                106.057938,
                21.000528
              ],
              [
                106.058042,
                21.000444
              ],
              [
                106.058109,
                21.000416
              ],
              [
                106.058154,
                21.000401
              ],
              [
                106.058172,
                21.000395
              ],
              [
                106.058253,
                21.000387
              ],
              [
                106.058254,
                21.000387
              ],
              [
                106.058561,
                21.000389
              ],
              [
                106.058998,
                21.000348
              ],
              [
                106.059295,
                21.000292
              ],
              [
                106.059504,
                21.000269
              ],
              [
                106.05964,
                21.000266
              ],
              [
                106.059766,
                21.000289
              ],
              [
                106.060074,
                21.000352
              ],
              [
                106.060376,
                21.000386
              ],
              [
                106.060742,
                21.000415
              ],
              [
                106.061188,
                21.000469
              ],
              [
                106.061381,
                21.000489
              ],
              [
                106.061498,
                21.000488
              ],
              [
                106.061576,
                21.000477
              ],
              [
                106.061661,
                21.000458
              ],
              [
                106.061749,
                21.000436
              ],
              [
                106.061825,
                21.000423
              ],
              [
                106.061908,
                21.000414
              ],
              [
                106.062044,
                21.000413
              ],
              [
                106.062125,
                21.000413
              ],
              [
                106.062174,
                21.000423
              ],
              [
                106.062222,
                21.00044
              ],
              [
                106.062289,
                21.000471
              ],
              [
                106.06266,
                21.000668
              ],
              [
                106.062764,
                21.000687
              ],
              [
                106.062844,
                21.000693
              ],
              [
                106.062923,
                21.000688
              ],
              [
                106.063127,
                21.00067
              ],
              [
                106.063248,
                21.000673
              ],
              [
                106.063524,
                21.000703
              ],
              [
                106.064374,
                21.000786
              ],
              [
                106.064858,
                21.00088
              ],
              [
                106.065294,
                21.000993
              ],
              [
                106.06575,
                21.001066
              ],
              [
                106.065922,
                21.001073
              ],
              [
                106.066122,
                21.001057
              ],
              [
                106.066313,
                21.001024
              ],
              [
                106.066364,
                21.001016
              ],
              [
                106.06665,
                21.000932
              ],
              [
                106.066681,
                21.000921
              ],
              [
                106.066956,
                21.000827
              ],
              [
                106.067104,
                21.000807
              ],
              [
                106.067236,
                21.000806
              ],
              [
                106.067398,
                21.000832
              ],
              [
                106.067586,
                21.000886
              ],
              [
                106.067712,
                21.000934
              ],
              [
                106.067798,
                21.000933
              ],
              [
                106.067902,
                21.000836
              ],
              [
                106.067902,
                21.000836
              ],
              [
                106.067831,
                21.000804
              ],
              [
                106.067804,
                21.000791
              ],
              [
                106.067765,
                21.000773
              ],
              [
                106.067573,
                21.00069
              ],
              [
                106.067766,
                21.000412
              ],
              [
                106.06794,
                21.000362
              ],
              [
                106.06788,
                20.999808
              ],
              [
                106.068688,
                20.999463
              ],
              [
                106.069083,
                20.999296
              ],
              [
                106.068983,
                20.999062
              ],
              [
                106.068965,
                20.999021
              ],
              [
                106.068963,
                20.999016
              ],
              [
                106.068961,
                20.99901
              ],
              [
                106.0685,
                20.998014
              ],
              [
                106.068789,
                20.997894
              ],
              [
                106.070344,
                20.997257
              ],
              [
                106.073691,
                20.996028
              ],
              [
                106.073977,
                20.996806
              ],
              [
                106.074274,
                20.996721
              ],
              [
                106.074329,
                20.996914
              ],
              [
                106.074421,
                20.99688
              ],
              [
                106.0751,
                20.996632
              ],
              [
                106.075059,
                20.996454
              ],
              [
                106.075221,
                20.996401
              ],
              [
                106.075215,
                20.996384
              ],
              [
                106.074909,
                20.9955
              ],
              [
                106.075637,
                20.995268
              ],
              [
                106.075738,
                20.995234
              ],
              [
                106.075802,
                20.995212
              ],
              [
                106.075948,
                20.99517
              ],
              [
                106.076752,
                20.994921
              ],
              [
                106.077038,
                20.995496
              ],
              [
                106.077124,
                20.995625
              ],
              [
                106.077109,
                20.995634
              ],
              [
                106.077171,
                20.995763
              ],
              [
                106.077207,
                20.99575
              ],
              [
                106.077538,
                20.996248
              ],
              [
                106.077548,
                20.996265
              ],
              [
                106.077565,
                20.996304
              ],
              [
                106.077584,
                20.996296
              ],
              [
                106.077661,
                20.996284
              ],
              [
                106.077699,
                20.996278
              ],
              [
                106.077812,
                20.99628
              ],
              [
                106.077866,
                20.996282
              ],
              [
                106.078025,
                20.996298
              ],
              [
                106.078154,
                20.996311
              ],
              [
                106.078284,
                20.996311
              ],
              [
                106.078388,
                20.996292
              ],
              [
                106.078406,
                20.996288
              ],
              [
                106.078584,
                20.996205
              ],
              [
                106.078782,
                20.996101
              ],
              [
                106.078853,
                20.996072
              ],
              [
                106.078855,
                20.996071
              ],
              [
                106.078874,
                20.996066
              ],
              [
                106.078886,
                20.996065
              ],
              [
                106.078981,
                20.996062
              ],
              [
                106.079062,
                20.996066
              ],
              [
                106.079106,
                20.996069
              ],
              [
                106.0792,
                20.996068
              ],
              [
                106.079269,
                20.996055
              ],
              [
                106.07936,
                20.996037
              ],
              [
                106.079383,
                20.996025
              ],
              [
                106.079443,
                20.996006
              ],
              [
                106.079512,
                20.995963
              ],
              [
                106.079595,
                20.995889
              ],
              [
                106.07968,
                20.995827
              ],
              [
                106.07982,
                20.99572
              ],
              [
                106.079888,
                20.995685
              ],
              [
                106.079894,
                20.995682
              ],
              [
                106.07994,
                20.995772
              ],
              [
                106.07994,
                20.995772
              ],
              [
                106.080377,
                20.996632
              ],
              [
                106.080708,
                20.997333
              ],
              [
                106.080979,
                20.997859
              ],
              [
                106.0811,
                20.99811
              ],
              [
                106.081152,
                20.998154
              ],
              [
                106.081261,
                20.99822
              ],
              [
                106.081295,
                20.99824
              ],
              [
                106.081439,
                20.998262
              ],
              [
                106.081943,
                20.998339
              ],
              [
                106.082131,
                20.998364
              ],
              [
                106.082319,
                20.998389
              ],
              [
                106.082301,
                20.998542
              ],
              [
                106.082141,
                20.998576
              ],
              [
                106.081953,
                20.998617
              ],
              [
                106.081671,
                20.998721
              ],
              [
                106.0817,
                20.998784
              ],
              [
                106.081707,
                20.998808
              ],
              [
                106.081894,
                20.999017
              ],
              [
                106.081897,
                20.99902
              ],
              [
                106.081927,
                20.999069
              ],
              [
                106.08196,
                20.999122
              ],
              [
                106.081975,
                20.999146
              ],
              [
                106.081944,
                20.999166
              ],
              [
                106.081845,
                20.999232
              ],
              [
                106.081928,
                20.999318
              ],
              [
                106.081951,
                20.999342
              ],
              [
                106.082042,
                20.999519
              ],
              [
                106.08263,
                20.999229
              ],
              [
                106.082751,
                20.999451
              ],
              [
                106.082888,
                20.999437
              ],
              [
                106.08302,
                20.999423
              ],
              [
                106.08307,
                20.999501
              ],
              [
                106.082905,
                20.999559
              ],
              [
                106.082949,
                20.999616
              ],
              [
                106.082954,
                20.999622
              ],
              [
                106.08295,
                20.999628
              ],
              [
                106.082925,
                20.999667
              ],
              [
                106.082929,
                20.999675
              ],
              [
                106.082993,
                20.999796
              ],
              [
                106.082197,
                21.00003
              ],
              [
                106.082214,
                21.000085
              ],
              [
                106.082227,
                21.000128
              ],
              [
                106.082453,
                21.000855
              ],
              [
                106.082949,
                21.002527
              ],
              [
                106.083075,
                21.002951
              ],
              [
                106.08364,
                21.004652
              ],
              [
                106.083692,
                21.004634
              ],
              [
                106.083908,
                21.004557
              ],
              [
                106.083972,
                21.004534
              ],
              [
                106.084045,
                21.004639
              ],
              [
                106.084095,
                21.004712
              ],
              [
                106.084125,
                21.004687
              ],
              [
                106.084322,
                21.004523
              ],
              [
                106.084426,
                21.004621
              ],
              [
                106.084877,
                21.005051
              ],
              [
                106.085201,
                21.004906
              ],
              [
                106.085691,
                21.005612
              ],
              [
                106.08599,
                21.005439
              ],
              [
                106.087869,
                21.004346
              ],
              [
                106.087877,
                21.004341
              ],
              [
                106.088031,
                21.004558
              ],
              [
                106.088648,
                21.005427
              ],
              [
                106.089067,
                21.006044
              ],
              [
                106.089148,
                21.006166
              ],
              [
                106.089215,
                21.006125
              ],
              [
                106.089279,
                21.006086
              ],
              [
                106.089465,
                21.005972
              ],
              [
                106.089504,
                21.006021
              ],
              [
                106.089614,
                21.006157
              ],
              [
                106.089671,
                21.006122
              ],
              [
                106.089804,
                21.006041
              ],
              [
                106.089832,
                21.006051
              ],
              [
                106.08998,
                21.006104
              ],
              [
                106.090002,
                21.006115
              ],
              [
                106.090164,
                21.006191
              ],
              [
                106.090336,
                21.006309
              ],
              [
                106.090367,
                21.006285
              ],
              [
                106.090509,
                21.006174
              ],
              [
                106.090548,
                21.006191
              ],
              [
                106.090646,
                21.006233
              ],
              [
                106.090698,
                21.006255
              ],
              [
                106.091698,
                21.005309
              ],
              [
                106.091813,
                21.005209
              ],
              [
                106.092057,
                21.004996
              ],
              [
                106.092215,
                21.004887
              ],
              [
                106.092247,
                21.004884
              ],
              [
                106.09229,
                21.004885
              ],
              [
                106.092608,
                21.005053
              ],
              [
                106.093176,
                21.005388
              ],
              [
                106.093203,
                21.005397
              ],
              [
                106.093235,
                21.005396
              ],
              [
                106.093362,
                21.005207
              ],
              [
                106.093591,
                21.004867
              ],
              [
                106.093778,
                21.004665
              ],
              [
                106.093835,
                21.004606
              ],
              [
                106.094126,
                21.004364
              ],
              [
                106.094421,
                21.004125
              ],
              [
                106.09483,
                21.003793
              ],
              [
                106.095423,
                21.003325
              ],
              [
                106.095795,
                21.003031
              ],
              [
                106.096084,
                21.002833
              ],
              [
                106.096068,
                21.002797
              ],
              [
                106.095987,
                21.00264
              ],
              [
                106.0961,
                21.00253
              ],
              [
                106.096,
                21.00234
              ],
              [
                106.095878,
                21.002319
              ],
              [
                106.095832,
                21.001711
              ],
              [
                106.096034,
                21.001611
              ],
              [
                106.097083,
                21.001096
              ],
              [
                106.097437,
                21.001877
              ],
              [
                106.097786,
                21.001624
              ],
              [
                106.098059,
                21.001426
              ],
              [
                106.098772,
                21.000934
              ],
              [
                106.099181,
                21.000627
              ],
              [
                106.099827,
                20.999899
              ],
              [
                106.100548,
                20.999077
              ],
              [
                106.100601,
                20.999017
              ],
              [
                106.100602,
                20.999016
              ],
              [
                106.100817,
                20.998771
              ],
              [
                106.101718,
                20.997725
              ],
              [
                106.102157,
                20.997253
              ],
              [
                106.102206,
                20.997237
              ],
              [
                106.102283,
                20.997237
              ],
              [
                106.103157,
                20.997582
              ],
              [
                106.10444,
                20.998079
              ],
              [
                106.104695,
                20.998178
              ],
              [
                106.106216,
                20.998739
              ],
              [
                106.106898,
                20.999015
              ],
              [
                106.106898,
                20.999015
              ],
              [
                106.107057,
                20.99908
              ],
              [
                106.107315,
                20.999184
              ],
              [
                106.107504,
                20.999264
              ],
              [
                106.107578,
                20.999273
              ],
              [
                106.107644,
                20.999264
              ],
              [
                106.107976,
                20.999172
              ],
              [
                106.108144,
                20.999123
              ],
              [
                106.108207,
                20.999122
              ],
              [
                106.108295,
                20.999155
              ],
              [
                106.10902,
                20.999641
              ],
              [
                106.109266,
                20.999801
              ],
              [
                106.109326,
                20.99977
              ],
              [
                106.109439,
                20.999645
              ],
              [
                106.109455,
                20.999628
              ],
              [
                106.109664,
                20.999436
              ],
              [
                106.110068,
                20.999081
              ],
              [
                106.110143,
                20.999014
              ],
              [
                106.111118,
                20.997984
              ],
              [
                106.111178,
                20.997924
              ],
              [
                106.111383,
                20.997725
              ],
              [
                106.111814,
                20.997352
              ],
              [
                106.11213,
                20.997087
              ],
              [
                106.112401,
                20.996887
              ],
              [
                106.11262,
                20.996738
              ],
              [
                106.112795,
                20.996628
              ],
              [
                106.112994,
                20.996536
              ],
              [
                106.113035,
                20.996522
              ],
              [
                106.113465,
                20.996416
              ],
              [
                106.114742,
                20.996139
              ],
              [
                106.114877,
                20.996109
              ],
              [
                106.115694,
                20.995916
              ],
              [
                106.11569,
                20.995785
              ],
              [
                106.1157,
                20.993734
              ],
              [
                106.115705,
                20.993515
              ],
              [
                106.115734,
                20.992336
              ],
              [
                106.115782,
                20.990475
              ],
              [
                106.115809,
                20.99002
              ],
              [
                106.11581,
                20.989999
              ],
              [
                106.115831,
                20.989864
              ],
              [
                106.115832,
                20.989853
              ],
              [
                106.115855,
                20.989778
              ],
              [
                106.115828,
                20.989725
              ],
              [
                106.115713,
                20.989505
              ],
              [
                106.115598,
                20.989285
              ],
              [
                106.115331,
                20.988772
              ],
              [
                106.115035,
                20.988222
              ],
              [
                106.114994,
                20.988129
              ],
              [
                106.114643,
                20.987464
              ],
              [
                106.114797,
                20.985634
              ],
              [
                106.114894,
                20.983562
              ],
              [
                106.114887,
                20.983241
              ],
              [
                106.115101,
                20.983296
              ],
              [
                106.1153,
                20.983391
              ],
              [
                106.115587,
                20.983593
              ],
              [
                106.115726,
                20.983671
              ],
              [
                106.115876,
                20.983659
              ],
              [
                106.115916,
                20.983656
              ],
              [
                106.115917,
                20.983656
              ],
              [
                106.115933,
                20.983656
              ],
              [
                106.116141,
                20.983657
              ],
              [
                106.116277,
                20.983672
              ],
              [
                106.116441,
                20.983648
              ],
              [
                106.116535,
                20.983602
              ],
              [
                106.11661,
                20.983581
              ],
              [
                106.116667,
                20.983586
              ],
              [
                106.116764,
                20.983628
              ],
              [
                106.116872,
                20.983682
              ],
              [
                106.116941,
                20.983724
              ],
              [
                106.117044,
                20.983793
              ],
              [
                106.117167,
                20.983962
              ],
              [
                106.11778,
                20.983791
              ],
              [
                106.117978,
                20.984136
              ],
              [
                106.118697,
                20.983928
              ],
              [
                106.119163,
                20.984838
              ],
              [
                106.119727,
                20.984735
              ],
              [
                106.121582,
                20.984415
              ],
              [
                106.122808,
                20.984212
              ],
              [
                106.123874,
                20.983993
              ],
              [
                106.124988,
                20.983803
              ],
              [
                106.125021,
                20.983797
              ],
              [
                106.125186,
                20.983771
              ],
              [
                106.125342,
                20.983746
              ],
              [
                106.125414,
                20.983735
              ],
              [
                106.126412,
                20.983588
              ],
              [
                106.126874,
                20.983525
              ],
              [
                106.126876,
                20.983524
              ],
              [
                106.127154,
                20.983458
              ],
              [
                106.127166,
                20.983455
              ],
              [
                106.127171,
                20.983484
              ],
              [
                106.127174,
                20.983503
              ],
              [
                106.127197,
                20.9835
              ],
              [
                106.127416,
                20.983473
              ],
              [
                106.127422,
                20.983472
              ],
              [
                106.127711,
                20.983437
              ],
              [
                106.127713,
                20.983437
              ],
              [
                106.127735,
                20.983436
              ],
              [
                106.127864,
                20.983429
              ],
              [
                106.127903,
                20.983427
              ],
              [
                106.128029,
                20.98342
              ],
              [
                106.127908,
                20.982889
              ],
              [
                106.127893,
                20.982812
              ],
              [
                106.12788,
                20.982743
              ],
              [
                106.127883,
                20.982639
              ],
              [
                106.127888,
                20.982472
              ],
              [
                106.127891,
                20.982368
              ],
              [
                106.127892,
                20.98235
              ],
              [
                106.128154,
                20.98236
              ],
              [
                106.128186,
                20.981176
              ],
              [
                106.128227,
                20.980964
              ],
              [
                106.12823,
                20.980965
              ],
              [
                106.128352,
                20.980987
              ],
              [
                106.129404,
                20.981323
              ],
              [
                106.129429,
                20.981359
              ],
              [
                106.129674,
                20.981471
              ],
              [
                106.13029,
                20.981651
              ],
              [
                106.13035,
                20.981587
              ],
              [
                106.130376,
                20.981505
              ],
              [
                106.130369,
                20.981292
              ],
              [
                106.13036,
                20.981218
              ],
              [
                106.130631,
                20.98076
              ],
              [
                106.131062,
                20.979998
              ],
              [
                106.131286,
                20.980103
              ],
              [
                106.131677,
                20.980338
              ],
              [
                106.131895,
                20.979911
              ],
              [
                106.131996,
                20.9797
              ],
              [
                106.131818,
                20.979623
              ],
              [
                106.131712,
                20.979595
              ],
              [
                106.131625,
                20.97928
              ],
              [
                106.131739,
                20.978984
              ],
              [
                106.132018,
                20.979136
              ],
              [
                106.132136,
                20.978876
              ],
              [
                106.13216,
                20.978824
              ],
              [
                106.132242,
                20.978712
              ],
              [
                106.132576,
                20.978908
              ],
              [
                106.132952,
                20.979141
              ],
              [
                106.133096,
                20.97917
              ],
              [
                106.133367,
                20.979365
              ],
              [
                106.13375,
                20.978978
              ],
              [
                106.133868,
                20.978835
              ],
              [
                106.133874,
                20.978829
              ],
              [
                106.134167,
                20.978564
              ],
              [
                106.134322,
                20.978424
              ],
              [
                106.134416,
                20.97834
              ],
              [
                106.134499,
                20.978265
              ],
              [
                106.13453,
                20.978232
              ],
              [
                106.134766,
                20.977982
              ],
              [
                106.135069,
                20.977661
              ],
              [
                106.135395,
                20.977331
              ],
              [
                106.135551,
                20.977174
              ],
              [
                106.136089,
                20.976728
              ],
              [
                106.136616,
                20.97629
              ],
              [
                106.136818,
                20.976123
              ],
              [
                106.137037,
                20.975951
              ],
              [
                106.137202,
                20.975821
              ],
              [
                106.13731,
                20.975735
              ],
              [
                106.1374,
                20.975665
              ],
              [
                106.137407,
                20.975659
              ],
              [
                106.137457,
                20.975612
              ],
              [
                106.137694,
                20.975388
              ],
              [
                106.138056,
                20.9751
              ],
              [
                106.138154,
                20.975062
              ],
              [
                106.138143,
                20.975031
              ],
              [
                106.137955,
                20.974501
              ],
              [
                106.137561,
                20.973658
              ],
              [
                106.137437,
                20.973402
              ],
              [
                106.137334,
                20.973272
              ],
              [
                106.136553,
                20.972536
              ],
              [
                106.136231,
                20.972177
              ],
              [
                106.136145,
                20.972081
              ],
              [
                106.135744,
                20.971633
              ],
              [
                106.135036,
                20.970883
              ],
              [
                106.135026,
                20.970873
              ],
              [
                106.133859,
                20.969773
              ],
              [
                106.133623,
                20.969523
              ],
              [
                106.133666,
                20.969488
              ],
              [
                106.13389,
                20.969309
              ],
              [
                106.134067,
                20.968984
              ],
              [
                106.13384,
                20.967508
              ],
              [
                106.133831,
                20.967452
              ],
              [
                106.133761,
                20.966845
              ],
              [
                106.133801,
                20.966707
              ],
              [
                106.13383,
                20.966608
              ],
              [
                106.133848,
                20.966548
              ],
              [
                106.133859,
                20.966509
              ],
              [
                106.133861,
                20.966442
              ],
              [
                106.133873,
                20.966031
              ],
              [
                106.133887,
                20.96579
              ],
              [
                106.133016,
                20.965751
              ],
              [
                106.133022,
                20.965647
              ],
              [
                106.133037,
                20.965545
              ],
              [
                106.133062,
                20.965461
              ],
              [
                106.133105,
                20.965355
              ],
              [
                106.133156,
                20.965229
              ],
              [
                106.133194,
                20.965137
              ],
              [
                106.133325,
                20.964813
              ],
              [
                106.133391,
                20.964644
              ],
              [
                106.13354,
                20.964262
              ],
              [
                106.13386,
                20.963433
              ],
              [
                106.134126,
                20.962766
              ],
              [
                106.134368,
                20.962132
              ],
              [
                106.13462,
                20.961481
              ],
              [
                106.135087,
                20.960308
              ],
              [
                106.135109,
                20.960314
              ],
              [
                106.135124,
                20.960318
              ],
              [
                106.135128,
                20.960266
              ],
              [
                106.135132,
                20.960222
              ],
              [
                106.134744,
                20.960121
              ],
              [
                106.134297,
                20.960017
              ],
              [
                106.133107,
                20.959764
              ],
              [
                106.132987,
                20.959702
              ],
              [
                106.132902,
                20.959652
              ],
              [
                106.13184,
                20.959063
              ],
              [
                106.130987,
                20.95859
              ],
              [
                106.131049,
                20.958241
              ],
              [
                106.131033,
                20.958235
              ],
              [
                106.130991,
                20.958221
              ],
              [
                106.130169,
                20.957949
              ],
              [
                106.129521,
                20.957735
              ],
              [
                106.129503,
                20.957729
              ],
              [
                106.129489,
                20.957724
              ],
              [
                106.129465,
                20.957716
              ],
              [
                106.129384,
                20.957689
              ],
              [
                106.129355,
                20.957679
              ],
              [
                106.129273,
                20.957652
              ],
              [
                106.129063,
                20.957581
              ],
              [
                106.128889,
                20.957522
              ],
              [
                106.128821,
                20.957501
              ],
              [
                106.128695,
                20.957482
              ],
              [
                106.128386,
                20.959522
              ],
              [
                106.128345,
                20.959705
              ],
              [
                106.12822,
                20.959678
              ],
              [
                106.127522,
                20.959607
              ],
              [
                106.127036,
                20.959566
              ],
              [
                106.126876,
                20.959548
              ],
              [
                106.126874,
                20.959548
              ],
              [
                106.126332,
                20.959501
              ],
              [
                106.124318,
                20.959326
              ],
              [
                106.122233,
                20.95912
              ],
              [
                106.12212,
                20.959109
              ],
              [
                106.122115,
                20.959064
              ],
              [
                106.1221,
                20.958923
              ],
              [
                106.12199,
                20.958056
              ],
              [
                106.121974,
                20.958059
              ],
              [
                106.120172,
                20.957884
              ],
              [
                106.119998,
                20.957866
              ],
              [
                106.117663,
                20.95762
              ],
              [
                106.117456,
                20.957598
              ],
              [
                106.115648,
                20.957654
              ],
              [
                106.114761,
                20.957692
              ],
              [
                106.114598,
                20.957723
              ],
              [
                106.113706,
                20.958051
              ],
              [
                106.113018,
                20.958301
              ],
              [
                106.111447,
                20.958866
              ],
              [
                106.11098,
                20.958994
              ],
              [
                106.11013,
                20.959468
              ],
              [
                106.110096,
                20.959514
              ],
              [
                106.110088,
                20.95954
              ],
              [
                106.110001,
                20.961177
              ],
              [
                106.109178,
                20.961166
              ],
              [
                106.109122,
                20.961166
              ],
              [
                106.108391,
                20.961165
              ],
              [
                106.108229,
                20.961165
              ],
              [
                106.10788,
                20.961164
              ],
              [
                106.107822,
                20.961164
              ],
              [
                106.107558,
                20.96116
              ],
              [
                106.107099,
                20.961155
              ],
              [
                106.106694,
                20.961152
              ],
              [
                106.106681,
                20.962642
              ],
              [
                106.106654,
                20.962651
              ],
              [
                106.106238,
                20.962783
              ],
              [
                106.10614,
                20.962814
              ],
              [
                106.106125,
                20.962806
              ],
              [
                106.105834,
                20.96264
              ],
              [
                106.105268,
                20.962318
              ],
              [
                106.105231,
                20.962833
              ],
              [
                106.101844,
                20.963241
              ],
              [
                106.101812,
                20.963251
              ],
              [
                106.101984,
                20.964456
              ],
              [
                106.101982,
                20.964484
              ],
              [
                106.101992,
                20.964698
              ],
              [
                106.101956,
                20.964824
              ],
              [
                106.101769,
                20.964905
              ],
              [
                106.101692,
                20.964917
              ],
              [
                106.101689,
                20.964918
              ],
              [
                106.101671,
                20.964916
              ],
              [
                106.101138,
                20.964901
              ],
              [
                106.100789,
                20.964847
              ],
              [
                106.100549,
                20.964773
              ],
              [
                106.100305,
                20.96477
              ],
              [
                106.100026,
                20.964805
              ],
              [
                106.099847,
                20.964867
              ],
              [
                106.099712,
                20.964868
              ],
              [
                106.099622,
                20.964859
              ],
              [
                106.099482,
                20.964785
              ],
              [
                106.09853,
                20.964891
              ],
              [
                106.098418,
                20.964904
              ],
              [
                106.098261,
                20.964921
              ],
              [
                106.098181,
                20.96493
              ],
              [
                106.098148,
                20.964934
              ],
              [
                106.097255,
                20.96494
              ],
              [
                106.097194,
                20.96496
              ],
              [
                106.097161,
                20.964987
              ],
              [
                106.097151,
                20.965039
              ],
              [
                106.097168,
                20.965188
              ],
              [
                106.097183,
                20.965235
              ],
              [
                106.097129,
                20.965436
              ],
              [
                106.097372,
                20.967048
              ],
              [
                106.097383,
                20.96712
              ],
              [
                106.097409,
                20.967292
              ],
              [
                106.097493,
                20.967783
              ],
              [
                106.097524,
                20.967964
              ],
              [
                106.097549,
                20.968113
              ],
              [
                106.097462,
                20.968129
              ],
              [
                106.096342,
                20.968177
              ],
              [
                106.095174,
                20.968237
              ],
              [
                106.095287,
                20.968989
              ],
              [
                106.094299,
                20.969025
              ],
              [
                106.09377,
                20.969044
              ],
              [
                106.093927,
                20.969511
              ],
              [
                106.093963,
                20.969625
              ],
              [
                106.094141,
                20.970175
              ],
              [
                106.094452,
                20.971175
              ],
              [
                106.09444,
                20.97118
              ],
              [
                106.094367,
                20.971214
              ],
              [
                106.090843,
                20.972833
              ],
              [
                106.090889,
                20.972911
              ],
              [
                106.09042,
                20.97321
              ],
              [
                106.090361,
                20.973248
              ],
              [
                106.090373,
                20.973331
              ],
              [
                106.090395,
                20.973595
              ],
              [
                106.090412,
                20.973723
              ],
              [
                106.090435,
                20.973782
              ],
              [
                106.090453,
                20.973803
              ],
              [
                106.090502,
                20.973833
              ],
              [
                106.09065,
                20.973883
              ],
              [
                106.090922,
                20.973951
              ],
              [
                106.091079,
                20.97401
              ],
              [
                106.091135,
                20.974041
              ],
              [
                106.091176,
                20.974092
              ],
              [
                106.091192,
                20.974179
              ],
              [
                106.091198,
                20.97427
              ],
              [
                106.091184,
                20.974424
              ],
              [
                106.091149,
                20.974625
              ],
              [
                106.091036,
                20.974662
              ],
              [
                106.090695,
                20.974774
              ],
              [
                106.090307,
                20.974918
              ],
              [
                106.08967,
                20.975155
              ],
              [
                106.089342,
                20.974457
              ],
              [
                106.089325,
                20.974422
              ],
              [
                106.086613,
                20.975495
              ],
              [
                106.085695,
                20.97375
              ],
              [
                106.085682,
                20.973719
              ],
              [
                106.08445,
                20.970703
              ],
              [
                106.08405,
                20.970854
              ],
              [
                106.083828,
                20.970926
              ],
              [
                106.082697,
                20.971304
              ],
              [
                106.081267,
                20.971804
              ],
              [
                106.080433,
                20.972088
              ],
              [
                106.079701,
                20.972337
              ],
              [
                106.079154,
                20.972514
              ],
              [
                106.078847,
                20.972613
              ],
              [
                106.078375,
                20.972771
              ],
              [
                106.078251,
                20.972805
              ],
              [
                106.078353,
                20.973137
              ],
              [
                106.078427,
                20.973355
              ],
              [
                106.078745,
                20.974375
              ],
              [
                106.07867,
                20.97439
              ],
              [
                106.07863,
                20.974404
              ],
              [
                106.075736,
                20.975413
              ],
              [
                106.075706,
                20.975424
              ],
              [
                106.073801,
                20.976104
              ],
              [
                106.073534,
                20.976199
              ],
              [
                106.073182,
                20.976324
              ],
              [
                106.07272,
                20.976487
              ],
              [
                106.071336,
                20.976976
              ],
              [
                106.071083,
                20.977065
              ],
              [
                106.069466,
                20.977633
              ],
              [
                106.069119,
                20.977755
              ],
              [
                106.068813,
                20.977884
              ],
              [
                106.068797,
                20.977847
              ],
              [
                106.06848,
                20.977351
              ],
              [
                106.067451,
                20.975741
              ],
              [
                106.067414,
                20.975684
              ],
              [
                106.066191,
                20.974676
              ],
              [
                106.066169,
                20.974657
              ],
              [
                106.065875,
                20.97324
              ],
              [
                106.06583,
                20.973032
              ],
              [
                106.064886,
                20.973204
              ],
              [
                106.063949,
                20.973131
              ],
              [
                106.063099,
                20.973072
              ],
              [
                106.063051,
                20.973068
              ],
              [
                106.063046,
                20.973108
              ],
              [
                106.062952,
                20.973925
              ],
              [
                106.062884,
                20.97442
              ],
              [
                106.062837,
                20.974767
              ],
              [
                106.06265,
                20.976135
              ],
              [
                106.062583,
                20.976632
              ],
              [
                106.062556,
                20.976829
              ],
              [
                106.062434,
                20.977757
              ],
              [
                106.062372,
                20.978234
              ],
              [
                106.062277,
                20.978985
              ],
              [
                106.062253,
                20.97917
              ],
              [
                106.062235,
                20.979317
              ],
              [
                106.062053,
                20.980798
              ],
              [
                106.062023,
                20.981043
              ],
              [
                106.061911,
                20.981997
              ],
              [
                106.061911,
                20.981997
              ],
              [
                106.061911,
                20.981997
              ],
              [
                106.061802,
                20.982921
              ],
              [
                106.061791,
                20.983017
              ],
              [
                106.061791,
                20.983019
              ],
              [
                106.061789,
                20.983036
              ],
              [
                106.061541,
                20.985089
              ],
              [
                106.061537,
                20.985123
              ],
              [
                106.061459,
                20.985305
              ],
              [
                106.061438,
                20.985355
              ],
              [
                106.061363,
                20.985529
              ],
              [
                106.059853,
                20.990873
              ],
              [
                106.059834,
                20.990939
              ],
              [
                106.059813,
                20.991013
              ],
              [
                106.059617,
                20.991708
              ],
              [
                106.059608,
                20.991737
              ],
              [
                106.059593,
                20.991786
              ],
              [
                106.059465,
                20.991766
              ],
              [
                106.05914,
                20.991725
              ],
              [
                106.058834,
                20.991685
              ],
              [
                106.058445,
                20.991635
              ],
              [
                106.058271,
                20.99161
              ],
              [
                106.058149,
                20.991592
              ],
              [
                106.056804,
                20.991468
              ],
              [
                106.056223,
                20.991414
              ],
              [
                106.05624,
                20.991563
              ],
              [
                106.056259,
                20.992387
              ],
              [
                106.056278,
                20.993202
              ],
              [
                106.056734,
                20.993164
              ],
              [
                106.05682,
                20.993749
              ],
              [
                106.056824,
                20.99378
              ],
              [
                106.056549,
                20.993836
              ],
              [
                106.056292,
                20.993888
              ],
              [
                106.055716,
                20.993934
              ],
              [
                106.055299,
                20.993967
              ],
              [
                106.055213,
                20.993988
              ],
              [
                106.054987,
                20.994043
              ],
              [
                106.054963,
                20.993926
              ],
              [
                106.054936,
                20.993791
              ],
              [
                106.054928,
                20.993751
              ],
              [
                106.054856,
                20.993701
              ],
              [
                106.054795,
                20.993643
              ],
              [
                106.054738,
                20.99359
              ],
              [
                106.054756,
                20.993335
              ],
              [
                106.054711,
                20.993238
              ],
              [
                106.054388,
                20.993265
              ],
              [
                106.054222,
                20.993278
              ],
              [
                106.054218,
                20.9934
              ],
              [
                106.054214,
                20.993535
              ],
              [
                106.054072,
                20.993832
              ],
              [
                106.054069,
                20.993828
              ],
              [
                106.053959,
                20.993714
              ],
              [
                106.053709,
                20.994148
              ],
              [
                106.053373,
                20.994732
              ],
              [
                106.053358,
                20.994758
              ],
              [
                106.053808,
                20.995088
              ],
              [
                106.053859,
                20.995126
              ],
              [
                106.053722,
                20.995412
              ],
              [
                106.053589,
                20.995642
              ],
              [
                106.053383,
                20.99589
              ],
              [
                106.053342,
                20.995866
              ],
              [
                106.053251,
                20.995812
              ],
              [
                106.053229,
                20.995785
              ],
              [
                106.053059,
                20.995577
              ],
              [
                106.052868,
                20.995299
              ],
              [
                106.052712,
                20.994925
              ],
              [
                106.052683,
                20.994849
              ],
              [
                106.052644,
                20.994743
              ],
              [
                106.052646,
                20.99469
              ],
              [
                106.052586,
                20.994712
              ],
              [
                106.052406,
                20.994767
              ],
              [
                106.052223,
                20.994903
              ],
              [
                106.052122,
                20.994977
              ],
              [
                106.05159,
                20.995372
              ],
              [
                106.050269,
                20.996558
              ],
              [
                106.049792,
                20.996201
              ],
              [
                106.049092,
                20.996837
              ],
              [
                106.049018,
                20.997342
              ],
              [
                106.048735,
                20.997839
              ],
              [
                106.048734,
                20.997839
              ],
              [
                106.047734,
                20.997536
              ],
              [
                106.047359,
                20.998413
              ],
              [
                106.048039,
                20.998581
              ],
              [
                106.048688,
                20.998821
              ],
              [
                106.048654,
                20.999014
              ],
              [
                106.048653,
                20.999021
              ],
              [
                106.048781,
                20.999049
              ],
              [
                106.050757,
                20.999491
              ],
              [
                106.049955,
                21.003813
              ],
              [
                106.04994,
                21.003824
              ],
              [
                106.049828,
                21.003988
              ],
              [
                106.049532,
                21.004425
              ],
              [
                106.049531,
                21.004425
              ],
              [
                106.04945,
                21.004545
              ],
              [
                106.049103,
                21.005032
              ],
              [
                106.048934,
                21.005269
              ],
              [
                106.04917,
                21.005467
              ],
              [
                106.049716,
                21.005886
              ],
              [
                106.050503,
                21.006511
              ],
              [
                106.051167,
                21.00703
              ],
              [
                106.051217,
                21.006957
              ],
              [
                106.051312,
                21.006852
              ],
              [
                106.051708,
                21.00647
              ],
              [
                106.051956,
                21.006236
              ],
              [
                106.051956,
                21.006236
              ]
            ]
          ]
        ]
      },
      "properties": {
        "code": "11995",
        "name": "Đại Đồng",
        "nameEn": "Dai Dong",
        "fullName": "Xã Đại Đồng",
        "fullNameEn": "Dai Dong Commune",
        "codeName": "dai_dong",
        "postalCode": "17609",
        "postalCodePrefix": "",
        "gisServerId": "diaphanhanhchinhcapxa_2025.739",
        "areaKm2": 25.68
      }
    }
  ]
}