{
  "type": "FeatureCollection",
  "bbox": [
    106.073406,
    20.840307,
    106.147364,
    20.897748
  ],
  "features": [
    {
      "type": "Feature",
      "id": "12148",
      "bbox": [
        106.073406,
        20.840307,
        106.147364,
        20.897748
      ],
      "geometry": {
        "type": "MultiPolygon",
        "coordinates": [
          [
            [
              [
                106.13397,
                20.893128
              ],
              [
                106.134248,
                20.893049
              ],
              [
                106.134993,
                20.893061
              ],
              [
                106.135593,
                20.893097
              ],
              [
                106.136586,
                20.893082
              ],
              [
                106.137079,
                20.893096
              ],
              [
                106.137658,
                20.893161
              ],
              [
                106.138034,
                20.893297
              ],
              [
                106.138483,
                20.893553
              ],
              [
                106.138628,
                20.893706
              ],
              [
                106.138775,
                20.893861
              ],
              [
                106.138893,
                20.893748
              ],
              [
                106.138953,
                20.893681
              ],
              [
                106.139019,
                20.893608
              ],
              [
                106.139032,
                20.893588
              ],
              [
                106.139137,
                20.893465
              ],
              [
                106.139182,
                20.89341
              ],
              [
                106.139422,
                20.893116
              ],
              [
                106.139573,
                20.893003
              ],
              [
                106.139599,
                20.892983
              ],
              [
                106.139904,
                20.892904
              ],
              [
                106.140682,
                20.892818
              ],
              [
                106.140758,
                20.892806
              ],
              [
                106.141262,
                20.892757
              ],
              [
                106.14145,
                20.892739
              ],
              [
                106.141598,
                20.892703
              ],
              [
                106.141832,
                20.892625
              ],
              [
                106.141995,
                20.892543
              ],
              [
                106.142226,
                20.8924
              ],
              [
                106.142459,
                20.892229
              ],
              [
                106.14261,
                20.892143
              ],
              [
                106.142756,
                20.892118
              ],
              [
                106.142971,
                20.892118
              ],
              [
                106.143308,
                20.89217
              ],
              [
                106.143631,
                20.892217
              ],
              [
                106.143857,
                20.892205
              ],
              [
                106.143937,
                20.89218
              ],
              [
                106.144386,
                20.891935
              ],
              [
                106.144433,
                20.891902
              ],
              [
                106.144454,
                20.891887
              ],
              [
                106.144892,
                20.891579
              ],
              [
                106.145366,
                20.891242
              ],
              [
                106.145595,
                20.890908
              ],
              [
                106.145686,
                20.8907
              ],
              [
                106.145809,
                20.890469
              ],
              [
                106.146031,
                20.890143
              ],
              [
                106.14617,
                20.889957
              ],
              [
                106.14631,
                20.889775
              ],
              [
                106.146504,
                20.889589
              ],
              [
                106.146786,
                20.889473
              ],
              [
                106.14702,
                20.889357
              ],
              [
                106.147194,
                20.889079
              ],
              [
                106.1473,
                20.888689
              ],
              [
                106.147305,
                20.888672
              ],
              [
                106.147351,
                20.888141
              ],
              [
                106.147335,
                20.887786
              ],
              [
                106.147329,
                20.887651
              ],
              [
                106.147308,
                20.8872
              ],
              [
                106.147255,
                20.886598
              ],
              [
                106.147251,
                20.886265
              ],
              [
                106.147284,
                20.885974
              ],
              [
                106.147321,
                20.885532
              ],
              [
                106.147315,
                20.8854
              ],
              [
                106.147306,
                20.885158
              ],
              [
                106.147244,
                20.884742
              ],
              [
                106.147229,
                20.884576
              ],
              [
                106.147219,
                20.884454
              ],
              [
                106.147229,
                20.884186
              ],
              [
                106.147364,
                20.883744
              ],
              [
                106.147362,
                20.883001
              ],
              [
                106.147249,
                20.882426
              ],
              [
                106.14712,
                20.881932
              ],
              [
                106.146966,
                20.881456
              ],
              [
                106.146839,
                20.881072
              ],
              [
                106.146606,
                20.880682
              ],
              [
                106.146391,
                20.880449
              ],
              [
                106.146177,
                20.880236
              ],
              [
                106.145691,
                20.879785
              ],
              [
                106.145241,
                20.879362
              ],
              [
                106.14479,
                20.879006
              ],
              [
                106.144668,
                20.87891
              ],
              [
                106.144174,
                20.878491
              ],
              [
                106.143851,
                20.878158
              ],
              [
                106.143738,
                20.877871
              ],
              [
                106.143663,
                20.877498
              ],
              [
                106.143645,
                20.877068
              ],
              [
                106.143663,
                20.876807
              ],
              [
                106.143684,
                20.876518
              ],
              [
                106.143688,
                20.876465
              ],
              [
                106.143713,
                20.87632
              ],
              [
                106.143788,
                20.875901
              ],
              [
                106.143791,
                20.875884
              ],
              [
                106.143916,
                20.875338
              ],
              [
                106.143959,
                20.874851
              ],
              [
                106.143942,
                20.874637
              ],
              [
                106.14392,
                20.874374
              ],
              [
                106.143854,
                20.874151
              ],
              [
                106.143806,
                20.874015
              ],
              [
                106.143806,
                20.874014
              ],
              [
                106.14332,
                20.873277
              ],
              [
                106.143223,
                20.87302
              ],
              [
                106.143195,
                20.872787
              ],
              [
                106.143205,
                20.872611
              ],
              [
                106.143279,
                20.872374
              ],
              [
                106.143562,
                20.871754
              ],
              [
                106.143635,
                20.871529
              ],
              [
                106.14368,
                20.871342
              ],
              [
                106.143651,
                20.871145
              ],
              [
                106.143608,
                20.870991
              ],
              [
                106.143442,
                20.87072
              ],
              [
                106.143254,
                20.870506
              ],
              [
                106.142839,
                20.870175
              ],
              [
                106.14254,
                20.869955
              ],
              [
                106.142386,
                20.869802
              ],
              [
                106.142297,
                20.869612
              ],
              [
                106.142242,
                20.869405
              ],
              [
                106.142221,
                20.869118
              ],
              [
                106.14222,
                20.868823
              ],
              [
                106.142239,
                20.868205
              ],
              [
                106.142193,
                20.867514
              ],
              [
                106.142167,
                20.866614
              ],
              [
                106.142137,
                20.865437
              ],
              [
                106.142145,
                20.86525
              ],
              [
                106.142194,
                20.863672
              ],
              [
                106.142158,
                20.862129
              ],
              [
                106.142183,
                20.861123
              ],
              [
                106.142173,
                20.860262
              ],
              [
                106.142126,
                20.859506
              ],
              [
                106.142117,
                20.859355
              ],
              [
                106.14206,
                20.858918
              ],
              [
                106.141937,
                20.858371
              ],
              [
                106.141836,
                20.858102
              ],
              [
                106.141616,
                20.857681
              ],
              [
                106.141434,
                20.857406
              ],
              [
                106.141191,
                20.857063
              ],
              [
                106.140552,
                20.856289
              ],
              [
                106.139189,
                20.854552
              ],
              [
                106.138064,
                20.853147
              ],
              [
                106.137868,
                20.852872
              ],
              [
                106.137682,
                20.85249
              ],
              [
                106.137478,
                20.851994
              ],
              [
                106.137278,
                20.851506
              ],
              [
                106.136839,
                20.850263
              ],
              [
                106.136504,
                20.850287
              ],
              [
                106.132979,
                20.850538
              ],
              [
                106.13283,
                20.850528
              ],
              [
                106.132519,
                20.850448
              ],
              [
                106.130829,
                20.849975
              ],
              [
                106.130267,
                20.84981
              ],
              [
                106.130083,
                20.849756
              ],
              [
                106.12901,
                20.849442
              ],
              [
                106.128817,
                20.849381
              ],
              [
                106.128708,
                20.849347
              ],
              [
                106.128512,
                20.849216
              ],
              [
                106.128218,
                20.848944
              ],
              [
                106.127683,
                20.84845
              ],
              [
                106.127614,
                20.848408
              ],
              [
                106.127575,
                20.848386
              ],
              [
                106.12748,
                20.848383
              ],
              [
                106.127396,
                20.848362
              ],
              [
                106.126873,
                20.848142
              ],
              [
                106.126093,
                20.847829
              ],
              [
                106.126873,
                20.847273
              ],
              [
                106.127821,
                20.846532
              ],
              [
                106.128458,
                20.846035
              ],
              [
                106.128902,
                20.845687
              ],
              [
                106.129114,
                20.845507
              ],
              [
                106.129136,
                20.845473
              ],
              [
                106.129158,
                20.845441
              ],
              [
                106.129176,
                20.845354
              ],
              [
                106.129289,
                20.844254
              ],
              [
                106.129297,
                20.844173
              ],
              [
                106.129338,
                20.843797
              ],
              [
                106.129492,
                20.842353
              ],
              [
                106.129418,
                20.842265
              ],
              [
                106.12932,
                20.842149
              ],
              [
                106.129265,
                20.842118
              ],
              [
                106.129021,
                20.842048
              ],
              [
                106.128825,
                20.842008
              ],
              [
                106.128622,
                20.841966
              ],
              [
                106.128103,
                20.841826
              ],
              [
                106.128068,
                20.841817
              ],
              [
                106.128046,
                20.842961
              ],
              [
                106.128016,
                20.843047
              ],
              [
                106.126873,
                20.844062
              ],
              [
                106.126375,
                20.844518
              ],
              [
                106.12632,
                20.844569
              ],
              [
                106.125915,
                20.844932
              ],
              [
                106.125373,
                20.845418
              ],
              [
                106.124882,
                20.845858
              ],
              [
                106.124517,
                20.846185
              ],
              [
                106.124249,
                20.846424
              ],
              [
                106.12391,
                20.846728
              ],
              [
                106.123522,
                20.847086
              ],
              [
                106.123496,
                20.847116
              ],
              [
                106.12348,
                20.847136
              ],
              [
                106.123435,
                20.847192
              ],
              [
                106.124032,
                20.847712
              ],
              [
                106.124809,
                20.848378
              ],
              [
                106.125411,
                20.848872
              ],
              [
                106.125801,
                20.849255
              ],
              [
                106.126026,
                20.849507
              ],
              [
                106.126092,
                20.84958
              ],
              [
                106.126107,
                20.849605
              ],
              [
                106.126049,
                20.849654
              ],
              [
                106.125431,
                20.850178
              ],
              [
                106.125059,
                20.850438
              ],
              [
                106.124778,
                20.850658
              ],
              [
                106.124566,
                20.850828
              ],
              [
                106.124509,
                20.850906
              ],
              [
                106.124372,
                20.851003
              ],
              [
                106.12419,
                20.851132
              ],
              [
                106.124089,
                20.8512
              ],
              [
                106.124041,
                20.851231
              ],
              [
                106.124013,
                20.851242
              ],
              [
                106.123966,
                20.851225
              ],
              [
                106.123891,
                20.851164
              ],
              [
                106.123812,
                20.851149
              ],
              [
                106.123663,
                20.85121
              ],
              [
                106.12361,
                20.851242
              ],
              [
                106.123232,
                20.851467
              ],
              [
                106.123062,
                20.851603
              ],
              [
                106.123058,
                20.851605
              ],
              [
                106.122987,
                20.851672
              ],
              [
                106.122325,
                20.851045
              ],
              [
                106.121549,
                20.850227
              ],
              [
                106.120122,
                20.850565
              ],
              [
                106.119211,
                20.850826
              ],
              [
                106.118386,
                20.851029
              ],
              [
                106.118145,
                20.851062
              ],
              [
                106.117587,
                20.851233
              ],
              [
                106.114532,
                20.852084
              ],
              [
                106.112975,
                20.852621
              ],
              [
                106.112783,
                20.852682
              ],
              [
                106.112868,
                20.852787
              ],
              [
                106.113102,
                20.853061
              ],
              [
                106.112858,
                20.853245
              ],
              [
                106.112267,
                20.853326
              ],
              [
                106.112388,
                20.853572
              ],
              [
                106.112182,
                20.853742
              ],
              [
                106.111829,
                20.853533
              ],
              [
                106.111761,
                20.853614
              ],
              [
                106.111649,
                20.85363
              ],
              [
                106.111297,
                20.854003
              ],
              [
                106.110818,
                20.854266
              ],
              [
                106.110786,
                20.854289
              ],
              [
                106.110591,
                20.854105
              ],
              [
                106.110606,
                20.854666
              ],
              [
                106.108183,
                20.854953
              ],
              [
                106.108134,
                20.855004
              ],
              [
                106.108094,
                20.855014
              ],
              [
                106.10805,
                20.855015
              ],
              [
                106.107974,
                20.855015
              ],
              [
                106.107389,
                20.854874
              ],
              [
                106.106728,
                20.854713
              ],
              [
                106.106789,
                20.854505
              ],
              [
                106.10652,
                20.854376
              ],
              [
                106.106443,
                20.854354
              ],
              [
                106.106397,
                20.854354
              ],
              [
                106.106366,
                20.854366
              ],
              [
                106.106181,
                20.854353
              ],
              [
                106.106124,
                20.854341
              ],
              [
                106.106141,
                20.854129
              ],
              [
                106.106146,
                20.854047
              ],
              [
                106.10616,
                20.853767
              ],
              [
                106.106157,
                20.853682
              ],
              [
                106.106149,
                20.853479
              ],
              [
                106.106086,
                20.852996
              ],
              [
                106.10539,
                20.852889
              ],
              [
                106.104784,
                20.852882
              ],
              [
                106.104502,
                20.852907
              ],
              [
                106.103488,
                20.852856
              ],
              [
                106.103465,
                20.852897
              ],
              [
                106.10306,
                20.853596
              ],
              [
                106.102869,
                20.853499
              ],
              [
                106.102132,
                20.853138
              ],
              [
                106.101985,
                20.853066
              ],
              [
                106.102025,
                20.8529
              ],
              [
                106.102032,
                20.85275
              ],
              [
                106.101981,
                20.85238
              ],
              [
                106.101975,
                20.852298
              ],
              [
                106.101956,
                20.852068
              ],
              [
                106.101877,
                20.851735
              ],
              [
                106.101774,
                20.851395
              ],
              [
                106.101722,
                20.851185
              ],
              [
                106.101678,
                20.850907
              ],
              [
                106.101662,
                20.850774
              ],
              [
                106.101646,
                20.850225
              ],
              [
                106.101645,
                20.850195
              ],
              [
                106.101604,
                20.849368
              ],
              [
                106.101595,
                20.848694
              ],
              [
                106.101584,
                20.848339
              ],
              [
                106.101572,
                20.847883
              ],
              [
                106.101566,
                20.847678
              ],
              [
                106.10154,
                20.847225
              ],
              [
                106.101514,
                20.846983
              ],
              [
                106.101422,
                20.846261
              ],
              [
                106.101366,
                20.845726
              ],
              [
                106.101343,
                20.845174
              ],
              [
                106.101298,
                20.844684
              ],
              [
                106.101252,
                20.844362
              ],
              [
                106.101167,
                20.843923
              ],
              [
                106.101004,
                20.843291
              ],
              [
                106.100874,
                20.842905
              ],
              [
                106.100614,
                20.842323
              ],
              [
                106.100397,
                20.841958
              ],
              [
                106.100193,
                20.841659
              ],
              [
                106.100015,
                20.841467
              ],
              [
                106.099776,
                20.841289
              ],
              [
                106.099635,
                20.841219
              ],
              [
                106.099507,
                20.841156
              ],
              [
                106.099007,
                20.840881
              ],
              [
                106.098471,
                20.840557
              ],
              [
                106.098329,
                20.840491
              ],
              [
                106.097737,
                20.840356
              ],
              [
                106.097674,
                20.840338
              ],
              [
                106.097573,
                20.840323
              ],
              [
                106.09737,
                20.840307
              ],
              [
                106.097204,
                20.840309
              ],
              [
                106.097081,
                20.840331
              ],
              [
                106.096968,
                20.840364
              ],
              [
                106.096795,
                20.840441
              ],
              [
                106.096471,
                20.840652
              ],
              [
                106.096177,
                20.840818
              ],
              [
                106.09548,
                20.841112
              ],
              [
                106.094966,
                20.841277
              ],
              [
                106.094684,
                20.841338
              ],
              [
                106.094471,
                20.841345
              ],
              [
                106.094315,
                20.841346
              ],
              [
                106.094159,
                20.841306
              ],
              [
                106.094,
                20.841229
              ],
              [
                106.093824,
                20.841054
              ],
              [
                106.093605,
                20.840691
              ],
              [
                106.093579,
                20.840571
              ],
              [
                106.093507,
                20.840357
              ],
              [
                106.09325,
                20.840517
              ],
              [
                106.092787,
                20.840852
              ],
              [
                106.092641,
                20.840977
              ],
              [
                106.092369,
                20.841174
              ],
              [
                106.092285,
                20.841234
              ],
              [
                106.091825,
                20.841561
              ],
              [
                106.091153,
                20.84204
              ],
              [
                106.090828,
                20.842292
              ],
              [
                106.090447,
                20.842592
              ],
              [
                106.090223,
                20.842762
              ],
              [
                106.089745,
                20.843137
              ],
              [
                106.089609,
                20.843264
              ],
              [
                106.089604,
                20.843329
              ],
              [
                106.089572,
                20.843773
              ],
              [
                106.089553,
                20.844033
              ],
              [
                106.089539,
                20.844319
              ],
              [
                106.089537,
                20.844343
              ],
              [
                106.089307,
                20.844289
              ],
              [
                106.089273,
                20.844521
              ],
              [
                106.08923,
                20.844516
              ],
              [
                106.0892,
                20.844802
              ],
              [
                106.089111,
                20.844911
              ],
              [
                106.089019,
                20.844963
              ],
              [
                106.088914,
                20.845004
              ],
              [
                106.088851,
                20.845015
              ],
              [
                106.088667,
                20.844991
              ],
              [
                106.088563,
                20.844996
              ],
              [
                106.088405,
                20.845035
              ],
              [
                106.088326,
                20.845043
              ],
              [
                106.087994,
                20.844993
              ],
              [
                106.087788,
                20.844894
              ],
              [
                106.087627,
                20.844768
              ],
              [
                106.087243,
                20.844347
              ],
              [
                106.087109,
                20.844248
              ],
              [
                106.086646,
                20.843846
              ],
              [
                106.08543,
                20.843642
              ],
              [
                106.084186,
                20.843434
              ],
              [
                106.08381,
                20.843371
              ],
              [
                106.083824,
                20.843271
              ],
              [
                106.08307,
                20.843043
              ],
              [
                106.082883,
                20.842986
              ],
              [
                106.082594,
                20.842899
              ],
              [
                106.081533,
                20.842556
              ],
              [
                106.081502,
                20.842643
              ],
              [
                106.081141,
                20.843662
              ],
              [
                106.080988,
                20.844121
              ],
              [
                106.080899,
                20.844391
              ],
              [
                106.080777,
                20.844744
              ],
              [
                106.080709,
                20.844941
              ],
              [
                106.080679,
                20.845051
              ],
              [
                106.080647,
                20.84517
              ],
              [
                106.081139,
                20.845381
              ],
              [
                106.082197,
                20.845863
              ],
              [
                106.082541,
                20.84602
              ],
              [
                106.08316,
                20.84629
              ],
              [
                106.083203,
                20.84631
              ],
              [
                106.083193,
                20.846325
              ],
              [
                106.08307,
                20.846511
              ],
              [
                106.083029,
                20.846573
              ],
              [
                106.082955,
                20.846758
              ],
              [
                106.082952,
                20.846786
              ],
              [
                106.082895,
                20.846892
              ],
              [
                106.08289,
                20.846903
              ],
              [
                106.082829,
                20.846973
              ],
              [
                106.082671,
                20.847238
              ],
              [
                106.082658,
                20.847308
              ],
              [
                106.082556,
                20.848733
              ],
              [
                106.082359,
                20.848745
              ],
              [
                106.0824,
                20.849227
              ],
              [
                106.082259,
                20.849258
              ],
              [
                106.082116,
                20.849856
              ],
              [
                106.082236,
                20.849881
              ],
              [
                106.081755,
                20.850889
              ],
              [
                106.081699,
                20.851011
              ],
              [
                106.081522,
                20.851009
              ],
              [
                106.081243,
                20.851043
              ],
              [
                106.08108,
                20.851076
              ],
              [
                106.080982,
                20.851096
              ],
              [
                106.080589,
                20.851223
              ],
              [
                106.08051,
                20.851267
              ],
              [
                106.080341,
                20.851384
              ],
              [
                106.080293,
                20.851425
              ],
              [
                106.0802,
                20.851525
              ],
              [
                106.080081,
                20.851681
              ],
              [
                106.079881,
                20.852021
              ],
              [
                106.079758,
                20.85228
              ],
              [
                106.079706,
                20.852495
              ],
              [
                106.079647,
                20.853177
              ],
              [
                106.0796,
                20.85372
              ],
              [
                106.079586,
                20.854222
              ],
              [
                106.0796,
                20.854348
              ],
              [
                106.079618,
                20.854449
              ],
              [
                106.07968,
                20.854572
              ],
              [
                106.079793,
                20.854665
              ],
              [
                106.080027,
                20.854769
              ],
              [
                106.080439,
                20.854862
              ],
              [
                106.080721,
                20.854933
              ],
              [
                106.080865,
                20.85497
              ],
              [
                106.080963,
                20.855023
              ],
              [
                106.080978,
                20.855042
              ],
              [
                106.081009,
                20.855088
              ],
              [
                106.081014,
                20.855145
              ],
              [
                106.080997,
                20.855214
              ],
              [
                106.080924,
                20.855361
              ],
              [
                106.080881,
                20.855428
              ],
              [
                106.080882,
                20.855473
              ],
              [
                106.0809,
                20.855521
              ],
              [
                106.08097,
                20.855611
              ],
              [
                106.08124,
                20.855785
              ],
              [
                106.081449,
                20.855916
              ],
              [
                106.081224,
                20.856252
              ],
              [
                106.081047,
                20.856438
              ],
              [
                106.080924,
                20.856601
              ],
              [
                106.080872,
                20.856699
              ],
              [
                106.080479,
                20.856526
              ],
              [
                106.080365,
                20.856784
              ],
              [
                106.080353,
                20.856778
              ],
              [
                106.080033,
                20.856656
              ],
              [
                106.079763,
                20.856587
              ],
              [
                106.079611,
                20.856555
              ],
              [
                106.079557,
                20.856549
              ],
              [
                106.079323,
                20.856544
              ],
              [
                106.079095,
                20.85657
              ],
              [
                106.078612,
                20.856628
              ],
              [
                106.078173,
                20.856658
              ],
              [
                106.07786,
                20.856666
              ],
              [
                106.077638,
                20.856689
              ],
              [
                106.07735,
                20.856755
              ],
              [
                106.077216,
                20.856808
              ],
              [
                106.076959,
                20.856932
              ],
              [
                106.076547,
                20.857217
              ],
              [
                106.076448,
                20.857295
              ],
              [
                106.076311,
                20.857422
              ],
              [
                106.076082,
                20.857658
              ],
              [
                106.07571,
                20.858133
              ],
              [
                106.075542,
                20.858381
              ],
              [
                106.075395,
                20.858576
              ],
              [
                106.075136,
                20.859031
              ],
              [
                106.074957,
                20.859363
              ],
              [
                106.074832,
                20.859665
              ],
              [
                106.074575,
                20.860306
              ],
              [
                106.074449,
                20.860675
              ],
              [
                106.074214,
                20.861497
              ],
              [
                106.074131,
                20.861974
              ],
              [
                106.074135,
                20.86233
              ],
              [
                106.074251,
                20.86266
              ],
              [
                106.074523,
                20.863136
              ],
              [
                106.074581,
                20.863264
              ],
              [
                106.074593,
                20.863363
              ],
              [
                106.074598,
                20.863434
              ],
              [
                106.074572,
                20.863566
              ],
              [
                106.074491,
                20.86388
              ],
              [
                106.074159,
                20.864589
              ],
              [
                106.074034,
                20.864899
              ],
              [
                106.073744,
                20.865968
              ],
              [
                106.073463,
                20.866921
              ],
              [
                106.073416,
                20.867181
              ],
              [
                106.073406,
                20.86737
              ],
              [
                106.073411,
                20.867562
              ],
              [
                106.073488,
                20.867839
              ],
              [
                106.073559,
                20.868131
              ],
              [
                106.073709,
                20.868486
              ],
              [
                106.073996,
                20.868944
              ],
              [
                106.074114,
                20.86911
              ],
              [
                106.07465,
                20.869816
              ],
              [
                106.075078,
                20.870237
              ],
              [
                106.075589,
                20.870718
              ],
              [
                106.075875,
                20.871001
              ],
              [
                106.076013,
                20.871185
              ],
              [
                106.076071,
                20.871316
              ],
              [
                106.076086,
                20.871413
              ],
              [
                106.076087,
                20.871519
              ],
              [
                106.076058,
                20.871719
              ],
              [
                106.075906,
                20.872211
              ],
              [
                106.075777,
                20.872654
              ],
              [
                106.075756,
                20.872839
              ],
              [
                106.075753,
                20.872946
              ],
              [
                106.075753,
                20.873056
              ],
              [
                106.075758,
                20.873218
              ],
              [
                106.075809,
                20.873272
              ],
              [
                106.07585,
                20.873365
              ],
              [
                106.075851,
                20.87344
              ],
              [
                106.075814,
                20.87355
              ],
              [
                106.07575,
                20.873674
              ],
              [
                106.075494,
                20.87402
              ],
              [
                106.075391,
                20.874159
              ],
              [
                106.075388,
                20.874164
              ],
              [
                106.075773,
                20.874234
              ],
              [
                106.075973,
                20.874256
              ],
              [
                106.076386,
                20.874322
              ],
              [
                106.075668,
                20.87584
              ],
              [
                106.075668,
                20.87584
              ],
              [
                106.075301,
                20.875647
              ],
              [
                106.075289,
                20.875692
              ],
              [
                106.075288,
                20.875694
              ],
              [
                106.075105,
                20.87619
              ],
              [
                106.075025,
                20.876384
              ],
              [
                106.07497,
                20.876607
              ],
              [
                106.075241,
                20.876743
              ],
              [
                106.075436,
                20.876842
              ],
              [
                106.076074,
                20.877163
              ],
              [
                106.076826,
                20.877541
              ],
              [
                106.077144,
                20.877701
              ],
              [
                106.077434,
                20.877849
              ],
              [
                106.077688,
                20.877978
              ],
              [
                106.07791,
                20.878091
              ],
              [
                106.078176,
                20.878226
              ],
              [
                106.078199,
                20.878262
              ],
              [
                106.078195,
                20.878317
              ],
              [
                106.078271,
                20.878354
              ],
              [
                106.078887,
                20.878568
              ],
              [
                106.078897,
                20.878542
              ],
              [
                106.078954,
                20.878564
              ],
              [
                106.080093,
                20.878993
              ],
              [
                106.080671,
                20.879437
              ],
              [
                106.080803,
                20.879548
              ],
              [
                106.082274,
                20.880798
              ],
              [
                106.082296,
                20.880751
              ],
              [
                106.082426,
                20.880473
              ],
              [
                106.0832,
                20.880871
              ],
              [
                106.084536,
                20.881551
              ],
              [
                106.085173,
                20.881877
              ],
              [
                106.085153,
                20.881914
              ],
              [
                106.085152,
                20.881916
              ],
              [
                106.085119,
                20.881975
              ],
              [
                106.085144,
                20.882017
              ],
              [
                106.08538,
                20.882285
              ],
              [
                106.085597,
                20.882634
              ],
              [
                106.08567,
                20.882751
              ],
              [
                106.086912,
                20.883372
              ],
              [
                106.086959,
                20.883397
              ],
              [
                106.087014,
                20.883426
              ],
              [
                106.087295,
                20.882862
              ],
              [
                106.08811,
                20.88139
              ],
              [
                106.088241,
                20.881153
              ],
              [
                106.088287,
                20.881067
              ],
              [
                106.088625,
                20.880441
              ],
              [
                106.088771,
                20.880132
              ],
              [
                106.088791,
                20.880072
              ],
              [
                106.088869,
                20.879828
              ],
              [
                106.088887,
                20.879772
              ],
              [
                106.088924,
                20.879571
              ],
              [
                106.08891,
                20.879438
              ],
              [
                106.088899,
                20.879335
              ],
              [
                106.088899,
                20.879326
              ],
              [
                106.088966,
                20.879286
              ],
              [
                106.089554,
                20.878939
              ],
              [
                106.090375,
                20.878349
              ],
              [
                106.091955,
                20.877212
              ],
              [
                106.091986,
                20.877095
              ],
              [
                106.09205,
                20.876854
              ],
              [
                106.092384,
                20.875597
              ],
              [
                106.092357,
                20.875502
              ],
              [
                106.092317,
                20.875365
              ],
              [
                106.092251,
                20.87514
              ],
              [
                106.092249,
                20.875114
              ],
              [
                106.092222,
                20.87486
              ],
              [
                106.09246,
                20.874116
              ],
              [
                106.092517,
                20.874036
              ],
              [
                106.09253,
                20.874018
              ],
              [
                106.092957,
                20.873469
              ],
              [
                106.094261,
                20.874018
              ],
              [
                106.094266,
                20.87402
              ],
              [
                106.094828,
                20.87437
              ],
              [
                106.095444,
                20.874817
              ],
              [
                106.095888,
                20.875204
              ],
              [
                106.09643,
                20.875746
              ],
              [
                106.096457,
                20.875772
              ],
              [
                106.09678,
                20.876074
              ],
              [
                106.096791,
                20.876084
              ],
              [
                106.09709,
                20.876333
              ],
              [
                106.097665,
                20.876731
              ],
              [
                106.097706,
                20.876756
              ],
              [
                106.098378,
                20.877175
              ],
              [
                106.09882,
                20.877455
              ],
              [
                106.099022,
                20.877583
              ],
              [
                106.099268,
                20.877782
              ],
              [
                106.099958,
                20.878341
              ],
              [
                106.101786,
                20.879874
              ],
              [
                106.103275,
                20.881069
              ],
              [
                106.103474,
                20.881229
              ],
              [
                106.105377,
                20.882673
              ],
              [
                106.105853,
                20.883129
              ],
              [
                106.106203,
                20.883388
              ],
              [
                106.106367,
                20.883499
              ],
              [
                106.10653,
                20.88361
              ],
              [
                106.107222,
                20.884027
              ],
              [
                106.108622,
                20.885065
              ],
              [
                106.109878,
                20.885973
              ],
              [
                106.109903,
                20.885991
              ],
              [
                106.110348,
                20.886324
              ],
              [
                106.110368,
                20.886339
              ],
              [
                106.110638,
                20.886547
              ],
              [
                106.112158,
                20.887723
              ],
              [
                106.113926,
                20.889068
              ],
              [
                106.115715,
                20.890413
              ],
              [
                106.117526,
                20.891797
              ],
              [
                106.118469,
                20.892516
              ],
              [
                106.119412,
                20.893235
              ],
              [
                106.121191,
                20.894597
              ],
              [
                106.121472,
                20.894815
              ],
              [
                106.122881,
                20.895994
              ],
              [
                106.123532,
                20.896479
              ],
              [
                106.124023,
                20.896798
              ],
              [
                106.124025,
                20.896799
              ],
              [
                106.124634,
                20.897092
              ],
              [
                106.12569,
                20.89746
              ],
              [
                106.126608,
                20.897695
              ],
              [
                106.126721,
                20.897724
              ],
              [
                106.126873,
                20.897748
              ],
              [
                106.126875,
                20.897748
              ],
              [
                106.127062,
                20.897745
              ],
              [
                106.127298,
                20.897706
              ],
              [
                106.127554,
                20.897641
              ],
              [
                106.127792,
                20.897525
              ],
              [
                106.128027,
                20.897383
              ],
              [
                106.128457,
                20.896995
              ],
              [
                106.128772,
                20.896551
              ],
              [
                106.129288,
                20.895807
              ],
              [
                106.129679,
                20.895422
              ],
              [
                106.130414,
                20.894987
              ],
              [
                106.130507,
                20.894939
              ],
              [
                106.132711,
                20.893819
              ],
              [
                106.133371,
                20.893433
              ],
              [
                106.13397,
                20.893128
              ],
              [
                106.13397,
                20.893128
              ]
            ]
          ]
        ]
      },
      "properties": {
        "code": "12148",
        "name": "Phạm Ngũ Lão",
        "nameEn": "Pham Ngu Lao",
        "fullName": "Xã Phạm Ngũ Lão",
        "fullNameEn": "Pham Ngu Lao Commune",
        "codeName": "pham_ngu_lao",
        "postalCode": "17427",
        "postalCodePrefix": "",
        "gisServerId": "diaphanhanhchinhcapxa_2025.715",
        "areaKm2": 29.32
      }
    }
  ]
}