{
  "type": "FeatureCollection",
  "bbox": [
    106.177287,
    20.512088,
    106.250857,
    20.559141
  ],
  "features": [
    {
      "type": "Feature",
      "id": "12685",
      "bbox": [
        106.177287,
        20.512088,
        106.250857,
        20.559141
      ],
      "geometry": {
        "type": "MultiPolygon",
        "coordinates": [
          [
            [
              [
                106.206846,
                20.553885
              ],
              [
                106.206698,
                20.55376
              ],
              [
                106.206689,
                20.553752
              ],
              [
                106.206677,
                20.553725
              ],
              [
                106.206677,
                20.553681
              ],
              [
                106.206705,
                20.553565
              ],
              [
                106.206908,
                20.553271
              ],
              [
                106.207372,
                20.552717
              ],
              [
                106.208359,
                20.551712
              ],
              [
                106.208408,
                20.551666
              ],
              [
                106.208651,
                20.551443
              ],
              [
                106.208825,
                20.551358
              ],
              [
                106.208951,
                20.551331
              ],
              [
                106.209122,
                20.551293
              ],
              [
                106.209249,
                20.551283
              ],
              [
                106.209274,
                20.551285
              ],
              [
                106.209332,
                20.551289
              ],
              [
                106.209446,
                20.551339
              ],
              [
                106.209464,
                20.551358
              ],
              [
                106.209512,
                20.551412
              ],
              [
                106.209546,
                20.551461
              ],
              [
                106.21005,
                20.551011
              ],
              [
                106.210141,
                20.55095
              ],
              [
                106.210201,
                20.550909
              ],
              [
                106.210248,
                20.550878
              ],
              [
                106.210517,
                20.550823
              ],
              [
                106.210567,
                20.550812
              ],
              [
                106.210745,
                20.550774
              ],
              [
                106.210978,
                20.550715
              ],
              [
                106.211029,
                20.550694
              ],
              [
                106.211109,
                20.550663
              ],
              [
                106.211261,
                20.550603
              ],
              [
                106.211448,
                20.550558
              ],
              [
                106.211478,
                20.550554
              ],
              [
                106.211616,
                20.550533
              ],
              [
                106.212031,
                20.550535
              ],
              [
                106.212088,
                20.550535
              ],
              [
                106.212192,
                20.550536
              ],
              [
                106.212514,
                20.550541
              ],
              [
                106.212756,
                20.550575
              ],
              [
                106.212936,
                20.550601
              ],
              [
                106.213266,
                20.55067
              ],
              [
                106.213294,
                20.550679
              ],
              [
                106.213686,
                20.550801
              ],
              [
                106.21376,
                20.550824
              ],
              [
                106.213944,
                20.550888
              ],
              [
                106.214406,
                20.551049
              ],
              [
                106.214658,
                20.551148
              ],
              [
                106.215133,
                20.551334
              ],
              [
                106.215255,
                20.551382
              ],
              [
                106.215467,
                20.551465
              ],
              [
                106.216123,
                20.551686
              ],
              [
                106.216196,
                20.551699
              ],
              [
                106.216324,
                20.551723
              ],
              [
                106.216371,
                20.551731
              ],
              [
                106.216607,
                20.551755
              ],
              [
                106.216733,
                20.551768
              ],
              [
                106.217046,
                20.551837
              ],
              [
                106.217403,
                20.551952
              ],
              [
                106.217515,
                20.551988
              ],
              [
                106.217756,
                20.55208
              ],
              [
                106.218218,
                20.552256
              ],
              [
                106.218786,
                20.552503
              ],
              [
                106.219234,
                20.552697
              ],
              [
                106.219491,
                20.552783
              ],
              [
                106.219631,
                20.552829
              ],
              [
                106.219952,
                20.552741
              ],
              [
                106.220329,
                20.552647
              ],
              [
                106.22039,
                20.552613
              ],
              [
                106.220782,
                20.552391
              ],
              [
                106.220803,
                20.552379
              ],
              [
                106.220838,
                20.552344
              ],
              [
                106.221052,
                20.552127
              ],
              [
                106.22127,
                20.551829
              ],
              [
                106.221694,
                20.551047
              ],
              [
                106.221939,
                20.550749
              ],
              [
                106.222121,
                20.550617
              ],
              [
                106.222237,
                20.550532
              ],
              [
                106.222845,
                20.550203
              ],
              [
                106.223498,
                20.550012
              ],
              [
                106.223657,
                20.549927
              ],
              [
                106.223701,
                20.550116
              ],
              [
                106.223707,
                20.55017
              ],
              [
                106.223717,
                20.550257
              ],
              [
                106.223707,
                20.55043
              ],
              [
                106.223664,
                20.550606
              ],
              [
                106.223657,
                20.550635
              ],
              [
                106.223564,
                20.550812
              ],
              [
                106.223323,
                20.551106
              ],
              [
                106.223157,
                20.551382
              ],
              [
                106.222973,
                20.551754
              ],
              [
                106.222827,
                20.552217
              ],
              [
                106.22278,
                20.552414
              ],
              [
                106.222774,
                20.552693
              ],
              [
                106.222775,
                20.553389
              ],
              [
                106.224461,
                20.553666
              ],
              [
                106.224135,
                20.554444
              ],
              [
                106.224566,
                20.55459
              ],
              [
                106.224526,
                20.55502
              ],
              [
                106.224656,
                20.555064
              ],
              [
                106.224767,
                20.555648
              ],
              [
                106.224797,
                20.55578
              ],
              [
                106.224831,
                20.555757
              ],
              [
                106.224964,
                20.555667
              ],
              [
                106.225504,
                20.555307
              ],
              [
                106.225708,
                20.555171
              ],
              [
                106.226062,
                20.55498
              ],
              [
                106.226187,
                20.554912
              ],
              [
                106.226298,
                20.554879
              ],
              [
                106.226532,
                20.554807
              ],
              [
                106.226589,
                20.554795
              ],
              [
                106.226658,
                20.554781
              ],
              [
                106.226781,
                20.554785
              ],
              [
                106.226838,
                20.554805
              ],
              [
                106.226961,
                20.554907
              ],
              [
                106.227222,
                20.555218
              ],
              [
                106.227491,
                20.555468
              ],
              [
                106.227579,
                20.555578
              ],
              [
                106.227646,
                20.555718
              ],
              [
                106.227656,
                20.555757
              ],
              [
                106.227666,
                20.555792
              ],
              [
                106.227721,
                20.555784
              ],
              [
                106.228899,
                20.555728
              ],
              [
                106.229,
                20.555727
              ],
              [
                106.228975,
                20.555676
              ],
              [
                106.228892,
                20.555604
              ],
              [
                106.228796,
                20.55552
              ],
              [
                106.228707,
                20.555443
              ],
              [
                106.228253,
                20.5551
              ],
              [
                106.228068,
                20.554891
              ],
              [
                106.22793,
                20.554669
              ],
              [
                106.227868,
                20.554472
              ],
              [
                106.227845,
                20.554277
              ],
              [
                106.227843,
                20.554261
              ],
              [
                106.228243,
                20.554334
              ],
              [
                106.228929,
                20.554461
              ],
              [
                106.229753,
                20.554606
              ],
              [
                106.230808,
                20.554792
              ],
              [
                106.231071,
                20.554822
              ],
              [
                106.23095,
                20.554523
              ],
              [
                106.230911,
                20.554383
              ],
              [
                106.230894,
                20.554258
              ],
              [
                106.230912,
                20.554096
              ],
              [
                106.230941,
                20.553953
              ],
              [
                106.230967,
                20.55371
              ],
              [
                106.231011,
                20.553716
              ],
              [
                106.231027,
                20.553709
              ],
              [
                106.23112,
                20.553666
              ],
              [
                106.231286,
                20.55357
              ],
              [
                106.231332,
                20.553554
              ],
              [
                106.23138,
                20.553556
              ],
              [
                106.231421,
                20.553567
              ],
              [
                106.231433,
                20.55357
              ],
              [
                106.231439,
                20.553576
              ],
              [
                106.231469,
                20.553603
              ],
              [
                106.23152,
                20.553665
              ],
              [
                106.23177,
                20.554081
              ],
              [
                106.231772,
                20.554083
              ],
              [
                106.231868,
                20.554216
              ],
              [
                106.232044,
                20.554383
              ],
              [
                106.232129,
                20.554444
              ],
              [
                106.232217,
                20.554471
              ],
              [
                106.232281,
                20.554476
              ],
              [
                106.232382,
                20.554463
              ],
              [
                106.232701,
                20.554421
              ],
              [
                106.232868,
                20.554404
              ],
              [
                106.232875,
                20.554403
              ],
              [
                106.232883,
                20.554401
              ],
              [
                106.232887,
                20.554399
              ],
              [
                106.232956,
                20.554371
              ],
              [
                106.233023,
                20.554301
              ],
              [
                106.233098,
                20.554197
              ],
              [
                106.233154,
                20.554111
              ],
              [
                106.233165,
                20.554083
              ],
              [
                106.233161,
                20.554031
              ],
              [
                106.233132,
                20.553966
              ],
              [
                106.233084,
                20.553903
              ],
              [
                106.233083,
                20.553902
              ],
              [
                106.233078,
                20.553898
              ],
              [
                106.232934,
                20.553787
              ],
              [
                106.232761,
                20.553672
              ],
              [
                106.232601,
                20.553553
              ],
              [
                106.232496,
                20.553475
              ],
              [
                106.232281,
                20.55326
              ],
              [
                106.232205,
                20.553201
              ],
              [
                106.232144,
                20.553172
              ],
              [
                106.232127,
                20.553164
              ],
              [
                106.232053,
                20.553129
              ],
              [
                106.231966,
                20.553074
              ],
              [
                106.23192,
                20.553029
              ],
              [
                106.231856,
                20.552966
              ],
              [
                106.231761,
                20.552842
              ],
              [
                106.231714,
                20.552741
              ],
              [
                106.23171,
                20.552735
              ],
              [
                106.231709,
                20.552732
              ],
              [
                106.23165,
                20.552547
              ],
              [
                106.231592,
                20.552366
              ],
              [
                106.231569,
                20.552234
              ],
              [
                106.231569,
                20.552176
              ],
              [
                106.231572,
                20.552164
              ],
              [
                106.231606,
                20.552105
              ],
              [
                106.231634,
                20.552072
              ],
              [
                106.231689,
                20.552021
              ],
              [
                106.231711,
                20.552
              ],
              [
                106.23172,
                20.551997
              ],
              [
                106.231814,
                20.551962
              ],
              [
                106.231869,
                20.551954
              ],
              [
                106.231951,
                20.551959
              ],
              [
                106.231955,
                20.551959
              ],
              [
                106.231956,
                20.55196
              ],
              [
                106.231993,
                20.551974
              ],
              [
                106.232073,
                20.552006
              ],
              [
                106.232171,
                20.552082
              ],
              [
                106.232205,
                20.552126
              ],
              [
                106.232361,
                20.552326
              ],
              [
                106.232475,
                20.552482
              ],
              [
                106.232671,
                20.552226
              ],
              [
                106.232634,
                20.551916
              ],
              [
                106.23273,
                20.551893
              ],
              [
                106.232752,
                20.551761
              ],
              [
                106.232947,
                20.551816
              ],
              [
                106.233144,
                20.551822
              ],
              [
                106.233323,
                20.551768
              ],
              [
                106.233335,
                20.55196
              ],
              [
                106.233322,
                20.552513
              ],
              [
                106.233616,
                20.55252
              ],
              [
                106.233616,
                20.552463
              ],
              [
                106.233808,
                20.552396
              ],
              [
                106.233809,
                20.55218
              ],
              [
                106.234161,
                20.552144
              ],
              [
                106.23416,
                20.552054
              ],
              [
                106.234189,
                20.551925
              ],
              [
                106.234219,
                20.55179
              ],
              [
                106.234217,
                20.551709
              ],
              [
                106.234664,
                20.551669
              ],
              [
                106.234742,
                20.552122
              ],
              [
                106.234909,
                20.553022
              ],
              [
                106.235077,
                20.554049
              ],
              [
                106.235092,
                20.554123
              ],
              [
                106.235116,
                20.55424
              ],
              [
                106.235238,
                20.554221
              ],
              [
                106.237282,
                20.553912
              ],
              [
                106.237295,
                20.55391
              ],
              [
                106.237296,
                20.553952
              ],
              [
                106.237305,
                20.5544
              ],
              [
                106.237315,
                20.554538
              ],
              [
                106.237332,
                20.554769
              ],
              [
                106.237341,
                20.554796
              ],
              [
                106.237375,
                20.554876
              ],
              [
                106.237494,
                20.55499
              ],
              [
                106.237554,
                20.555073
              ],
              [
                106.237627,
                20.555156
              ],
              [
                106.237741,
                20.555251
              ],
              [
                106.237834,
                20.55542
              ],
              [
                106.237866,
                20.555477
              ],
              [
                106.238034,
                20.555945
              ],
              [
                106.238047,
                20.556038
              ],
              [
                106.237889,
                20.556297
              ],
              [
                106.237888,
                20.556298
              ],
              [
                106.238057,
                20.556439
              ],
              [
                106.238112,
                20.556486
              ],
              [
                106.238322,
                20.55661
              ],
              [
                106.238567,
                20.556726
              ],
              [
                106.238743,
                20.556797
              ],
              [
                106.238876,
                20.556832
              ],
              [
                106.239079,
                20.556834
              ],
              [
                106.239089,
                20.556835
              ],
              [
                106.239215,
                20.556836
              ],
              [
                106.239375,
                20.556871
              ],
              [
                106.239448,
                20.556896
              ],
              [
                106.239499,
                20.556928
              ],
              [
                106.239578,
                20.556977
              ],
              [
                106.24022,
                20.556518
              ],
              [
                106.240876,
                20.556049
              ],
              [
                106.241019,
                20.5561
              ],
              [
                106.241463,
                20.556256
              ],
              [
                106.241778,
                20.556362
              ],
              [
                106.24216,
                20.556427
              ],
              [
                106.242223,
                20.556441
              ],
              [
                106.242229,
                20.556442
              ],
              [
                106.242241,
                20.556445
              ],
              [
                106.242663,
                20.556538
              ],
              [
                106.243329,
                20.556752
              ],
              [
                106.243635,
                20.55689
              ],
              [
                106.244168,
                20.557306
              ],
              [
                106.244468,
                20.557614
              ],
              [
                106.24504,
                20.558157
              ],
              [
                106.245076,
                20.55819
              ],
              [
                106.245309,
                20.558365
              ],
              [
                106.245423,
                20.558437
              ],
              [
                106.245516,
                20.558322
              ],
              [
                106.247587,
                20.555762
              ],
              [
                106.247599,
                20.55576
              ],
              [
                106.247845,
                20.555476
              ],
              [
                106.247944,
                20.555372
              ],
              [
                106.248016,
                20.555304
              ],
              [
                106.248132,
                20.555128
              ],
              [
                106.248237,
                20.555
              ],
              [
                106.248573,
                20.554648
              ],
              [
                106.248684,
                20.554548
              ],
              [
                106.24881,
                20.554463
              ],
              [
                106.248922,
                20.554403
              ],
              [
                106.248947,
                20.554378
              ],
              [
                106.248956,
                20.55434
              ],
              [
                106.248953,
                20.554316
              ],
              [
                106.248942,
                20.554293
              ],
              [
                106.248941,
                20.554291
              ],
              [
                106.248854,
                20.554227
              ],
              [
                106.24884,
                20.554206
              ],
              [
                106.248848,
                20.554189
              ],
              [
                106.248912,
                20.554159
              ],
              [
                106.248917,
                20.554156
              ],
              [
                106.249071,
                20.554069
              ],
              [
                106.249093,
                20.55404
              ],
              [
                106.249117,
                20.554009
              ],
              [
                106.249136,
                20.553933
              ],
              [
                106.249164,
                20.553849
              ],
              [
                106.249204,
                20.553778
              ],
              [
                106.249218,
                20.553752
              ],
              [
                106.249191,
                20.553734
              ],
              [
                106.249154,
                20.553707
              ],
              [
                106.249,
                20.553618
              ],
              [
                106.248476,
                20.553525
              ],
              [
                106.247765,
                20.553463
              ],
              [
                106.247412,
                20.553419
              ],
              [
                106.247037,
                20.553464
              ],
              [
                106.246841,
                20.553446
              ],
              [
                106.246831,
                20.553445
              ],
              [
                106.246692,
                20.553387
              ],
              [
                106.246554,
                20.553306
              ],
              [
                106.246525,
                20.553276
              ],
              [
                106.246467,
                20.553161
              ],
              [
                106.246389,
                20.55285
              ],
              [
                106.246341,
                20.552488
              ],
              [
                106.24633,
                20.55246
              ],
              [
                106.246265,
                20.552288
              ],
              [
                106.246236,
                20.552212
              ],
              [
                106.246129,
                20.551946
              ],
              [
                106.246119,
                20.55193
              ],
              [
                106.246004,
                20.55174
              ],
              [
                106.24593,
                20.551681
              ],
              [
                106.245817,
                20.55162
              ],
              [
                106.245749,
                20.551597
              ],
              [
                106.24572,
                20.551594
              ],
              [
                106.245603,
                20.551584
              ],
              [
                106.245452,
                20.551604
              ],
              [
                106.245364,
                20.551614
              ],
              [
                106.245324,
                20.551605
              ],
              [
                106.245309,
                20.551581
              ],
              [
                106.245296,
                20.55156
              ],
              [
                106.245275,
                20.551465
              ],
              [
                106.245279,
                20.551335
              ],
              [
                106.245352,
                20.551091
              ],
              [
                106.245384,
                20.550965
              ],
              [
                106.245355,
                20.550776
              ],
              [
                106.245299,
                20.550691
              ],
              [
                106.24528,
                20.550668
              ],
              [
                106.245279,
                20.550665
              ],
              [
                106.24527,
                20.550655
              ],
              [
                106.245237,
                20.55062
              ],
              [
                106.245145,
                20.550571
              ],
              [
                106.244988,
                20.550509
              ],
              [
                106.244837,
                20.55045
              ],
              [
                106.244678,
                20.550364
              ],
              [
                106.24459,
                20.55027
              ],
              [
                106.244588,
                20.550267
              ],
              [
                106.244576,
                20.550225
              ],
              [
                106.244583,
                20.550165
              ],
              [
                106.244648,
                20.550073
              ],
              [
                106.244685,
                20.550044
              ],
              [
                106.244738,
                20.550027
              ],
              [
                106.244788,
                20.550001
              ],
              [
                106.244839,
                20.549914
              ],
              [
                106.245202,
                20.549202
              ],
              [
                106.245272,
                20.549151
              ],
              [
                106.245308,
                20.549137
              ],
              [
                106.245161,
                20.54901
              ],
              [
                106.245165,
                20.548987
              ],
              [
                106.245341,
                20.548813
              ],
              [
                106.245406,
                20.548693
              ],
              [
                106.245396,
                20.548674
              ],
              [
                106.245091,
                20.548588
              ],
              [
                106.244893,
                20.548606
              ],
              [
                106.244476,
                20.546599
              ],
              [
                106.244251,
                20.545494
              ],
              [
                106.244154,
                20.545362
              ],
              [
                106.243962,
                20.545433
              ],
              [
                106.243962,
                20.545433
              ],
              [
                106.243281,
                20.545683
              ],
              [
                106.242888,
                20.543805
              ],
              [
                106.243206,
                20.543681
              ],
              [
                106.243784,
                20.543456
              ],
              [
                106.243585,
                20.542625
              ],
              [
                106.243609,
                20.542597
              ],
              [
                106.243628,
                20.542576
              ],
              [
                106.245636,
                20.542201
              ],
              [
                106.245594,
                20.541994
              ],
              [
                106.245498,
                20.541415
              ],
              [
                106.245458,
                20.541225
              ],
              [
                106.246183,
                20.541143
              ],
              [
                106.246258,
                20.541036
              ],
              [
                106.246449,
                20.540825
              ],
              [
                106.246661,
                20.540567
              ],
              [
                106.246673,
                20.540553
              ],
              [
                106.246759,
                20.540605
              ],
              [
                106.246905,
                20.540704
              ],
              [
                106.246978,
                20.540731
              ],
              [
                106.247014,
                20.540744
              ],
              [
                106.247141,
                20.54075
              ],
              [
                106.247307,
                20.540739
              ],
              [
                106.247368,
                20.540736
              ],
              [
                106.247349,
                20.540642
              ],
              [
                106.247336,
                20.540587
              ],
              [
                106.247333,
                20.540575
              ],
              [
                106.247341,
                20.540536
              ],
              [
                106.247385,
                20.540497
              ],
              [
                106.247426,
                20.540436
              ],
              [
                106.247443,
                20.540384
              ],
              [
                106.247452,
                20.540354
              ],
              [
                106.247455,
                20.540294
              ],
              [
                106.24747,
                20.540273
              ],
              [
                106.247583,
                20.54029
              ],
              [
                106.247616,
                20.540311
              ],
              [
                106.247748,
                20.540396
              ],
              [
                106.247867,
                20.540472
              ],
              [
                106.247961,
                20.540514
              ],
              [
                106.248002,
                20.540521
              ],
              [
                106.248021,
                20.54052
              ],
              [
                106.248032,
                20.54052
              ],
              [
                106.248197,
                20.540395
              ],
              [
                106.248233,
                20.540346
              ],
              [
                106.248368,
                20.540164
              ],
              [
                106.248394,
                20.540103
              ],
              [
                106.248404,
                20.540001
              ],
              [
                106.248404,
                20.539951
              ],
              [
                106.248453,
                20.539885
              ],
              [
                106.248478,
                20.539851
              ],
              [
                106.24856,
                20.539741
              ],
              [
                106.248612,
                20.539638
              ],
              [
                106.248615,
                20.539591
              ],
              [
                106.248615,
                20.539588
              ],
              [
                106.248607,
                20.539514
              ],
              [
                106.248603,
                20.539467
              ],
              [
                106.248599,
                20.539408
              ],
              [
                106.248624,
                20.539347
              ],
              [
                106.248684,
                20.539329
              ],
              [
                106.248706,
                20.539335
              ],
              [
                106.248728,
                20.539336
              ],
              [
                106.24878,
                20.539353
              ],
              [
                106.248952,
                20.539395
              ],
              [
                106.249046,
                20.539415
              ],
              [
                106.249136,
                20.5394
              ],
              [
                106.249181,
                20.539361
              ],
              [
                106.24921,
                20.53929
              ],
              [
                106.24921,
                20.539223
              ],
              [
                106.249157,
                20.539125
              ],
              [
                106.249156,
                20.539124
              ],
              [
                106.249113,
                20.53905
              ],
              [
                106.249107,
                20.539039
              ],
              [
                106.249099,
                20.539004
              ],
              [
                106.249101,
                20.538996
              ],
              [
                106.24911,
                20.538961
              ],
              [
                106.249195,
                20.538801
              ],
              [
                106.24921,
                20.538737
              ],
              [
                106.249198,
                20.538674
              ],
              [
                106.24916,
                20.53861
              ],
              [
                106.24903,
                20.538555
              ],
              [
                106.248998,
                20.538541
              ],
              [
                106.248915,
                20.538499
              ],
              [
                106.248914,
                20.538446
              ],
              [
                106.248936,
                20.538421
              ],
              [
                106.248996,
                20.538401
              ],
              [
                106.249131,
                20.538356
              ],
              [
                106.24924,
                20.538309
              ],
              [
                106.249288,
                20.53822
              ],
              [
                106.24931,
                20.538149
              ],
              [
                106.249366,
                20.538124
              ],
              [
                106.249464,
                20.53813
              ],
              [
                106.249603,
                20.538162
              ],
              [
                106.249717,
                20.538188
              ],
              [
                106.249826,
                20.538223
              ],
              [
                106.249979,
                20.538271
              ],
              [
                106.250067,
                20.538299
              ],
              [
                106.25021,
                20.538295
              ],
              [
                106.250274,
                20.53828
              ],
              [
                106.250352,
                20.538248
              ],
              [
                106.250438,
                20.538173
              ],
              [
                106.250452,
                20.538158
              ],
              [
                106.250565,
                20.538034
              ],
              [
                106.250696,
                20.537951
              ],
              [
                106.250754,
                20.537918
              ],
              [
                106.250816,
                20.537883
              ],
              [
                106.250857,
                20.53783
              ],
              [
                106.250856,
                20.537773
              ],
              [
                106.250822,
                20.537702
              ],
              [
                106.250621,
                20.537495
              ],
              [
                106.250503,
                20.537304
              ],
              [
                106.250472,
                20.537195
              ],
              [
                106.250447,
                20.536975
              ],
              [
                106.250413,
                20.536887
              ],
              [
                106.250345,
                20.536813
              ],
              [
                106.250341,
                20.536811
              ],
              [
                106.250141,
                20.536687
              ],
              [
                106.249944,
                20.536597
              ],
              [
                106.249857,
                20.536541
              ],
              [
                106.249823,
                20.536495
              ],
              [
                106.249808,
                20.536428
              ],
              [
                106.249815,
                20.536378
              ],
              [
                106.249837,
                20.536325
              ],
              [
                106.249874,
                20.536293
              ],
              [
                106.250032,
                20.536261
              ],
              [
                106.250073,
                20.536252
              ],
              [
                106.250249,
                20.536208
              ],
              [
                106.250305,
                20.536169
              ],
              [
                106.250316,
                20.536066
              ],
              [
                106.25031,
                20.536037
              ],
              [
                106.250296,
                20.535964
              ],
              [
                106.250209,
                20.535865
              ],
              [
                106.25007,
                20.535817
              ],
              [
                106.249843,
                20.535737
              ],
              [
                106.249828,
                20.535725
              ],
              [
                106.249733,
                20.53565
              ],
              [
                106.249696,
                20.535621
              ],
              [
                106.249604,
                20.535459
              ],
              [
                106.249604,
                20.535402
              ],
              [
                106.249611,
                20.535356
              ],
              [
                106.249671,
                20.53531
              ],
              [
                106.24979,
                20.535241
              ],
              [
                106.249631,
                20.534796
              ],
              [
                106.249601,
                20.534712
              ],
              [
                106.249936,
                20.534602
              ],
              [
                106.250406,
                20.534449
              ],
              [
                106.250374,
                20.534303
              ],
              [
                106.250383,
                20.534185
              ],
              [
                106.250412,
                20.533988
              ],
              [
                106.25042,
                20.533816
              ],
              [
                106.250409,
                20.533642
              ],
              [
                106.250378,
                20.533552
              ],
              [
                106.250352,
                20.533501
              ],
              [
                106.250281,
                20.533362
              ],
              [
                106.250221,
                20.533167
              ],
              [
                106.250199,
                20.533094
              ],
              [
                106.250131,
                20.532908
              ],
              [
                106.250088,
                20.532827
              ],
              [
                106.249988,
                20.532756
              ],
              [
                106.249967,
                20.532749
              ],
              [
                106.249898,
                20.532728
              ],
              [
                106.249875,
                20.532729
              ],
              [
                106.249855,
                20.532729
              ],
              [
                106.24985,
                20.532731
              ],
              [
                106.249799,
                20.532754
              ],
              [
                106.249611,
                20.532896
              ],
              [
                106.249509,
                20.532953
              ],
              [
                106.249506,
                20.532954
              ],
              [
                106.249413,
                20.532985
              ],
              [
                106.249341,
                20.533001
              ],
              [
                106.249298,
                20.533001
              ],
              [
                106.249243,
                20.533
              ],
              [
                106.249023,
                20.533
              ],
              [
                106.248882,
                20.533009
              ],
              [
                106.248601,
                20.533027
              ],
              [
                106.248473,
                20.533035
              ],
              [
                106.248342,
                20.533053
              ],
              [
                106.248261,
                20.533065
              ],
              [
                106.248179,
                20.533046
              ],
              [
                106.248109,
                20.533034
              ],
              [
                106.248076,
                20.533013
              ],
              [
                106.248062,
                20.532972
              ],
              [
                106.248065,
                20.532913
              ],
              [
                106.248143,
                20.532769
              ],
              [
                106.248264,
                20.532512
              ],
              [
                106.248272,
                20.532493
              ],
              [
                106.24842,
                20.532137
              ],
              [
                106.248436,
                20.532062
              ],
              [
                106.248442,
                20.532034
              ],
              [
                106.248421,
                20.531965
              ],
              [
                106.248358,
                20.531925
              ],
              [
                106.248252,
                20.531914
              ],
              [
                106.24815,
                20.53193
              ],
              [
                106.247988,
                20.531987
              ],
              [
                106.247941,
                20.532016
              ],
              [
                106.247767,
                20.532126
              ],
              [
                106.247566,
                20.532305
              ],
              [
                106.247461,
                20.532387
              ],
              [
                106.247375,
                20.53241
              ],
              [
                106.247266,
                20.532426
              ],
              [
                106.247108,
                20.532441
              ],
              [
                106.247087,
                20.532443
              ],
              [
                106.247061,
                20.532467
              ],
              [
                106.24704,
                20.532486
              ],
              [
                106.247037,
                20.532489
              ],
              [
                106.246996,
                20.532556
              ],
              [
                106.246931,
                20.532762
              ],
              [
                106.246872,
                20.532825
              ],
              [
                106.246783,
                20.532851
              ],
              [
                106.246723,
                20.532854
              ],
              [
                106.246627,
                20.532805
              ],
              [
                106.246556,
                20.532706
              ],
              [
                106.246499,
                20.532601
              ],
              [
                106.246392,
                20.532407
              ],
              [
                106.246345,
                20.532327
              ],
              [
                106.246324,
                20.532317
              ],
              [
                106.246265,
                20.53229
              ],
              [
                106.246249,
                20.532288
              ],
              [
                106.246241,
                20.532153
              ],
              [
                106.24624,
                20.532084
              ],
              [
                106.246249,
                20.531993
              ],
              [
                106.246282,
                20.531913
              ],
              [
                106.24636,
                20.531721
              ],
              [
                106.2464,
                20.531612
              ],
              [
                106.246441,
                20.531502
              ],
              [
                106.246453,
                20.53139
              ],
              [
                106.246436,
                20.531287
              ],
              [
                106.24643,
                20.531281
              ],
              [
                106.246379,
                20.531222
              ],
              [
                106.246243,
                20.53117
              ],
              [
                106.246065,
                20.531127
              ],
              [
                106.245957,
                20.5311
              ],
              [
                106.245785,
                20.531057
              ],
              [
                106.245765,
                20.531052
              ],
              [
                106.245665,
                20.531003
              ],
              [
                106.245611,
                20.530925
              ],
              [
                106.245537,
                20.530713
              ],
              [
                106.245476,
                20.530539
              ],
              [
                106.245472,
                20.530531
              ],
              [
                106.245462,
                20.530512
              ],
              [
                106.245385,
                20.530421
              ],
              [
                106.245292,
                20.530356
              ],
              [
                106.245203,
                20.530357
              ],
              [
                106.245175,
                20.530365
              ],
              [
                106.245171,
                20.530367
              ],
              [
                106.245127,
                20.530395
              ],
              [
                106.245002,
                20.530465
              ],
              [
                106.245,
                20.530465
              ],
              [
                106.244809,
                20.530523
              ],
              [
                106.244804,
                20.530525
              ],
              [
                106.244684,
                20.530548
              ],
              [
                106.244565,
                20.530539
              ],
              [
                106.244326,
                20.530468
              ],
              [
                106.24431,
                20.530463
              ],
              [
                106.24422,
                20.530451
              ],
              [
                106.244157,
                20.530471
              ],
              [
                106.244125,
                20.530501
              ],
              [
                106.244118,
                20.530508
              ],
              [
                106.244082,
                20.53058
              ],
              [
                106.244037,
                20.530721
              ],
              [
                106.244044,
                20.530855
              ],
              [
                106.244045,
                20.530868
              ],
              [
                106.244088,
                20.53097
              ],
              [
                106.244182,
                20.531016
              ],
              [
                106.244284,
                20.531045
              ],
              [
                106.244344,
                20.531062
              ],
              [
                106.244391,
                20.531102
              ],
              [
                106.244395,
                20.53114
              ],
              [
                106.244388,
                20.53118
              ],
              [
                106.244352,
                20.531221
              ],
              [
                106.24427,
                20.531319
              ],
              [
                106.244258,
                20.531336
              ],
              [
                106.244228,
                20.5314
              ],
              [
                106.244218,
                20.531459
              ],
              [
                106.244231,
                20.531479
              ],
              [
                106.244233,
                20.531481
              ],
              [
                106.24431,
                20.531489
              ],
              [
                106.244316,
                20.531489
              ],
              [
                106.244318,
                20.531488
              ],
              [
                106.244484,
                20.531427
              ],
              [
                106.244618,
                20.531378
              ],
              [
                106.244674,
                20.531359
              ],
              [
                106.244724,
                20.531368
              ],
              [
                106.244794,
                20.531452
              ],
              [
                106.244862,
                20.531581
              ],
              [
                106.244899,
                20.531651
              ],
              [
                106.244906,
                20.53171
              ],
              [
                106.244903,
                20.531775
              ],
              [
                106.244877,
                20.531844
              ],
              [
                106.244837,
                20.531921
              ],
              [
                106.244812,
                20.531969
              ],
              [
                106.2448,
                20.532011
              ],
              [
                106.244776,
                20.532091
              ],
              [
                106.244754,
                20.532185
              ],
              [
                106.244758,
                20.532322
              ],
              [
                106.244801,
                20.53246
              ],
              [
                106.244828,
                20.532487
              ],
              [
                106.244867,
                20.532526
              ],
              [
                106.245022,
                20.532622
              ],
              [
                106.245093,
                20.53267
              ],
              [
                106.245135,
                20.53274
              ],
              [
                106.245146,
                20.532832
              ],
              [
                106.245085,
                20.533032
              ],
              [
                106.245077,
                20.533057
              ],
              [
                106.245017,
                20.533137
              ],
              [
                106.244942,
                20.533177
              ],
              [
                106.244844,
                20.533196
              ],
              [
                106.244676,
                20.533162
              ],
              [
                106.244603,
                20.533154
              ],
              [
                106.244598,
                20.533155
              ],
              [
                106.244562,
                20.533179
              ],
              [
                106.24454,
                20.533193
              ],
              [
                106.244531,
                20.53322
              ],
              [
                106.244536,
                20.533268
              ],
              [
                106.244607,
                20.533378
              ],
              [
                106.244622,
                20.533431
              ],
              [
                106.244622,
                20.533481
              ],
              [
                106.244619,
                20.533488
              ],
              [
                106.244598,
                20.533515
              ],
              [
                106.244553,
                20.533571
              ],
              [
                106.244508,
                20.533619
              ],
              [
                106.244451,
                20.533656
              ],
              [
                106.244448,
                20.533657
              ],
              [
                106.244348,
                20.533724
              ],
              [
                106.244297,
                20.533728
              ],
              [
                106.244245,
                20.533689
              ],
              [
                106.244204,
                20.533631
              ],
              [
                106.244165,
                20.533575
              ],
              [
                106.244089,
                20.533483
              ],
              [
                106.244,
                20.53344
              ],
              [
                106.243956,
                20.533427
              ],
              [
                106.243779,
                20.533377
              ],
              [
                106.243903,
                20.533156
              ],
              [
                106.243973,
                20.533023
              ],
              [
                106.243977,
                20.532945
              ],
              [
                106.24396,
                20.532825
              ],
              [
                106.243823,
                20.53263
              ],
              [
                106.243605,
                20.532398
              ],
              [
                106.243484,
                20.532218
              ],
              [
                106.243435,
                20.532128
              ],
              [
                106.243402,
                20.532038
              ],
              [
                106.243393,
                20.53191
              ],
              [
                106.243352,
                20.531707
              ],
              [
                106.243311,
                20.53161
              ],
              [
                106.243214,
                20.531452
              ],
              [
                106.243088,
                20.531204
              ],
              [
                106.242755,
                20.53029
              ],
              [
                106.242247,
                20.530371
              ],
              [
                106.23922,
                20.530784
              ],
              [
                106.2387,
                20.530807
              ],
              [
                106.238218,
                20.529529
              ],
              [
                106.237866,
                20.5286
              ],
              [
                106.237463,
                20.527538
              ],
              [
                106.23695,
                20.526166
              ],
              [
                106.236845,
                20.525871
              ],
              [
                106.236807,
                20.525771
              ],
              [
                106.236638,
                20.52533
              ],
              [
                106.236579,
                20.525162
              ],
              [
                106.236571,
                20.52514
              ],
              [
                106.236569,
                20.525132
              ],
              [
                106.236545,
                20.525058
              ],
              [
                106.236537,
                20.525045
              ],
              [
                106.236413,
                20.524723
              ],
              [
                106.236156,
                20.524035
              ],
              [
                106.235857,
                20.523256
              ],
              [
                106.235604,
                20.522599
              ],
              [
                106.235459,
                20.52215
              ],
              [
                106.235311,
                20.521794
              ],
              [
                106.235272,
                20.521701
              ],
              [
                106.235078,
                20.521174
              ],
              [
                106.234995,
                20.520966
              ],
              [
                106.234954,
                20.520821
              ],
              [
                106.234915,
                20.520678
              ],
              [
                106.234877,
                20.520535
              ],
              [
                106.234749,
                20.520223
              ],
              [
                106.23464,
                20.520036
              ],
              [
                106.234636,
                20.520031
              ],
              [
                106.23468,
                20.520006
              ],
              [
                106.234751,
                20.519967
              ],
              [
                106.234907,
                20.519891
              ],
              [
                106.234947,
                20.519872
              ],
              [
                106.234938,
                20.519852
              ],
              [
                106.234881,
                20.519723
              ],
              [
                106.234706,
                20.519308
              ],
              [
                106.234639,
                20.519152
              ],
              [
                106.234616,
                20.519048
              ],
              [
                106.234615,
                20.518985
              ],
              [
                106.234637,
                20.518943
              ],
              [
                106.234721,
                20.51888
              ],
              [
                106.234905,
                20.518783
              ],
              [
                106.234959,
                20.518761
              ],
              [
                106.235437,
                20.518564
              ],
              [
                106.235694,
                20.518457
              ],
              [
                106.23578,
                20.518399
              ],
              [
                106.235866,
                20.518322
              ],
              [
                106.235943,
                20.518229
              ],
              [
                106.23601,
                20.518117
              ],
              [
                106.236025,
                20.518092
              ],
              [
                106.236126,
                20.517974
              ],
              [
                106.2365,
                20.516978
              ],
              [
                106.236505,
                20.516966
              ],
              [
                106.236332,
                20.516935
              ],
              [
                106.235209,
                20.516619
              ],
              [
                106.233516,
                20.516019
              ],
              [
                106.232227,
                20.515458
              ],
              [
                106.231319,
                20.515058
              ],
              [
                106.230624,
                20.514706
              ],
              [
                106.229939,
                20.514313
              ],
              [
                106.229041,
                20.513857
              ],
              [
                106.229004,
                20.513841
              ],
              [
                106.228741,
                20.51373
              ],
              [
                106.228184,
                20.513522
              ],
              [
                106.227893,
                20.513432
              ],
              [
                106.226149,
                20.512981
              ],
              [
                106.224727,
                20.512668
              ],
              [
                106.223328,
                20.512438
              ],
              [
                106.221631,
                20.512225
              ],
              [
                106.220211,
                20.512136
              ],
              [
                106.219097,
                20.512088
              ],
              [
                106.218455,
                20.512163
              ],
              [
                106.217844,
                20.512371
              ],
              [
                106.217174,
                20.51265
              ],
              [
                106.215798,
                20.513364
              ],
              [
                106.214304,
                20.51431
              ],
              [
                106.214012,
                20.514499
              ],
              [
                106.213642,
                20.514737
              ],
              [
                106.212735,
                20.515307
              ],
              [
                106.212267,
                20.515591
              ],
              [
                106.211791,
                20.515806
              ],
              [
                106.210427,
                20.516252
              ],
              [
                106.209935,
                20.51641
              ],
              [
                106.209331,
                20.516541
              ],
              [
                106.208734,
                20.51663
              ],
              [
                106.208025,
                20.516663
              ],
              [
                106.20603,
                20.516585
              ],
              [
                106.204153,
                20.516436
              ],
              [
                106.202965,
                20.51636
              ],
              [
                106.201927,
                20.516409
              ],
              [
                106.201322,
                20.516456
              ],
              [
                106.20077,
                20.516607
              ],
              [
                106.200241,
                20.516787
              ],
              [
                106.199706,
                20.51703
              ],
              [
                106.199274,
                20.517322
              ],
              [
                106.198778,
                20.517735
              ],
              [
                106.198532,
                20.517939
              ],
              [
                106.197457,
                20.518925
              ],
              [
                106.196781,
                20.519521
              ],
              [
                106.196239,
                20.519947
              ],
              [
                106.195325,
                20.520502
              ],
              [
                106.194529,
                20.520909
              ],
              [
                106.193359,
                20.521346
              ],
              [
                106.192487,
                20.521612
              ],
              [
                106.191681,
                20.521766
              ],
              [
                106.190994,
                20.52177
              ],
              [
                106.190191,
                20.52169
              ],
              [
                106.189139,
                20.521466
              ],
              [
                106.188607,
                20.521266
              ],
              [
                106.188225,
                20.521114
              ],
              [
                106.18791,
                20.520947
              ],
              [
                106.187519,
                20.520668
              ],
              [
                106.186631,
                20.519752
              ],
              [
                106.185832,
                20.51885
              ],
              [
                106.185562,
                20.518683
              ],
              [
                106.185292,
                20.518558
              ],
              [
                106.185015,
                20.518503
              ],
              [
                106.184686,
                20.518463
              ],
              [
                106.184372,
                20.51848
              ],
              [
                106.184148,
                20.518495
              ],
              [
                106.183738,
                20.518618
              ],
              [
                106.183157,
                20.518847
              ],
              [
                106.182711,
                20.519033
              ],
              [
                106.182226,
                20.519212
              ],
              [
                106.181704,
                20.519342
              ],
              [
                106.180683,
                20.519589
              ],
              [
                106.179485,
                20.519829
              ],
              [
                106.17931,
                20.521361
              ],
              [
                106.178181,
                20.526602
              ],
              [
                106.177395,
                20.530075
              ],
              [
                106.177287,
                20.530429
              ],
              [
                106.177437,
                20.530431
              ],
              [
                106.17772,
                20.530436
              ],
              [
                106.179627,
                20.530442
              ],
              [
                106.179582,
                20.531113
              ],
              [
                106.180089,
                20.531181
              ],
              [
                106.18017,
                20.53118
              ],
              [
                106.180267,
                20.531179
              ],
              [
                106.180203,
                20.532745
              ],
              [
                106.181842,
                20.532502
              ],
              [
                106.181519,
                20.533044
              ],
              [
                106.18195,
                20.533172
              ],
              [
                106.181485,
                20.534563
              ],
              [
                106.181194,
                20.534509
              ],
              [
                106.180988,
                20.535151
              ],
              [
                106.181003,
                20.535169
              ],
              [
                106.181162,
                20.535354
              ],
              [
                106.181569,
                20.535519
              ],
              [
                106.182051,
                20.535635
              ],
              [
                106.182204,
                20.53573
              ],
              [
                106.183449,
                20.53596
              ],
              [
                106.183352,
                20.536486
              ],
              [
                106.18386,
                20.536578
              ],
              [
                106.183984,
                20.536219
              ],
              [
                106.184131,
                20.535549
              ],
              [
                106.184206,
                20.535381
              ],
              [
                106.184251,
                20.535339
              ],
              [
                106.184306,
                20.535285
              ],
              [
                106.184789,
                20.535329
              ],
              [
                106.185093,
                20.535327
              ],
              [
                106.185326,
                20.535299
              ],
              [
                106.185537,
                20.535283
              ],
              [
                106.185617,
                20.53527
              ],
              [
                106.185747,
                20.535247
              ],
              [
                106.185756,
                20.535282
              ],
              [
                106.185768,
                20.535327
              ],
              [
                106.185756,
                20.535408
              ],
              [
                106.185693,
                20.535599
              ],
              [
                106.185628,
                20.535803
              ],
              [
                106.185623,
                20.535869
              ],
              [
                106.185656,
                20.536063
              ],
              [
                106.185653,
                20.536171
              ],
              [
                106.185622,
                20.53634
              ],
              [
                106.185602,
                20.536447
              ],
              [
                106.18561,
                20.536689
              ],
              [
                106.185655,
                20.536865
              ],
              [
                106.185711,
                20.537086
              ],
              [
                106.185802,
                20.537325
              ],
              [
                106.186001,
                20.537607
              ],
              [
                106.18613,
                20.537763
              ],
              [
                106.186248,
                20.537905
              ],
              [
                106.186358,
                20.538128
              ],
              [
                106.186402,
                20.538311
              ],
              [
                106.186404,
                20.538319
              ],
              [
                106.186446,
                20.538537
              ],
              [
                106.186514,
                20.538684
              ],
              [
                106.186643,
                20.538865
              ],
              [
                106.186773,
                20.539008
              ],
              [
                106.1868,
                20.539038
              ],
              [
                106.18688,
                20.539087
              ],
              [
                106.186886,
                20.539091
              ],
              [
                106.187007,
                20.539126
              ],
              [
                106.187188,
                20.539146
              ],
              [
                106.187334,
                20.539177
              ],
              [
                106.187494,
                20.539269
              ],
              [
                106.187934,
                20.539589
              ],
              [
                106.188138,
                20.539698
              ],
              [
                106.188358,
                20.539775
              ],
              [
                106.188609,
                20.53983
              ],
              [
                106.188613,
                20.53983
              ],
              [
                106.18887,
                20.53987
              ],
              [
                106.189048,
                20.539928
              ],
              [
                106.189223,
                20.539993
              ],
              [
                106.189224,
                20.539993
              ],
              [
                106.189396,
                20.540088
              ],
              [
                106.189559,
                20.540203
              ],
              [
                106.189635,
                20.540245
              ],
              [
                106.189702,
                20.540262
              ],
              [
                106.189765,
                20.540262
              ],
              [
                106.189819,
                20.540246
              ],
              [
                106.18982,
                20.540246
              ],
              [
                106.189898,
                20.540198
              ],
              [
                106.190006,
                20.54011
              ],
              [
                106.1901,
                20.540056
              ],
              [
                106.190151,
                20.54005
              ],
              [
                106.190231,
                20.540064
              ],
              [
                106.190288,
                20.540093
              ],
              [
                106.19033,
                20.540123
              ],
              [
                106.190383,
                20.540159
              ],
              [
                106.190489,
                20.54004
              ],
              [
                106.190646,
                20.539867
              ],
              [
                106.191228,
                20.539229
              ],
              [
                106.191653,
                20.538811
              ],
              [
                106.19192,
                20.538506
              ],
              [
                106.192078,
                20.538331
              ],
              [
                106.192641,
                20.53798
              ],
              [
                106.192797,
                20.538153
              ],
              [
                106.193232,
                20.537986
              ],
              [
                106.193473,
                20.537817
              ],
              [
                106.193695,
                20.537232
              ],
              [
                106.193721,
                20.537184
              ],
              [
                106.193736,
                20.537155
              ],
              [
                106.19386,
                20.537302
              ],
              [
                106.193919,
                20.537292
              ],
              [
                106.194349,
                20.537216
              ],
              [
                106.19476,
                20.537121
              ],
              [
                106.194995,
                20.537073
              ],
              [
                106.195328,
                20.537098
              ],
              [
                106.19556,
                20.537174
              ],
              [
                106.196303,
                20.536676
              ],
              [
                106.196401,
                20.53662
              ],
              [
                106.19657,
                20.536523
              ],
              [
                106.196617,
                20.536483
              ],
              [
                106.197099,
                20.537153
              ],
              [
                106.197508,
                20.537828
              ],
              [
                106.197707,
                20.538079
              ],
              [
                106.199032,
                20.537289
              ],
              [
                106.19935,
                20.537099
              ],
              [
                106.199396,
                20.53718
              ],
              [
                106.199612,
                20.537558
              ],
              [
                106.19986,
                20.537925
              ],
              [
                106.199909,
                20.537925
              ],
              [
                106.200475,
                20.537626
              ],
              [
                106.200901,
                20.537462
              ],
              [
                106.201061,
                20.5374
              ],
              [
                106.201167,
                20.537354
              ],
              [
                106.201534,
                20.537915
              ],
              [
                106.202356,
                20.53934
              ],
              [
                106.201441,
                20.539819
              ],
              [
                106.201484,
                20.539879
              ],
              [
                106.201889,
                20.540549
              ],
              [
                106.202438,
                20.541498
              ],
              [
                106.202879,
                20.542247
              ],
              [
                106.202943,
                20.542356
              ],
              [
                106.202944,
                20.542357
              ],
              [
                106.202904,
                20.542387
              ],
              [
                106.202771,
                20.54249
              ],
              [
                106.201938,
                20.543124
              ],
              [
                106.201642,
                20.543338
              ],
              [
                106.201433,
                20.543496
              ],
              [
                106.200951,
                20.543861
              ],
              [
                106.200926,
                20.54388
              ],
              [
                106.200792,
                20.543982
              ],
              [
                106.200793,
                20.544025
              ],
              [
                106.200774,
                20.544641
              ],
              [
                106.200713,
                20.544951
              ],
              [
                106.20052,
                20.546
              ],
              [
                106.200417,
                20.546583
              ],
              [
                106.20035,
                20.546997
              ],
              [
                106.200289,
                20.547277
              ],
              [
                106.200046,
                20.547254
              ],
              [
                106.199974,
                20.547462
              ],
              [
                106.199881,
                20.54767
              ],
              [
                106.199807,
                20.547792
              ],
              [
                106.19973,
                20.548269
              ],
              [
                106.199769,
                20.548289
              ],
              [
                106.20008,
                20.548527
              ],
              [
                106.200165,
                20.548713
              ],
              [
                106.200218,
                20.54889
              ],
              [
                106.200206,
                20.548966
              ],
              [
                106.200177,
                20.548996
              ],
              [
                106.200118,
                20.549008
              ],
              [
                106.200039,
                20.549004
              ],
              [
                106.199948,
                20.548988
              ],
              [
                106.200009,
                20.549094
              ],
              [
                106.200065,
                20.549179
              ],
              [
                106.201004,
                20.550545
              ],
              [
                106.20102,
                20.55057
              ],
              [
                106.201024,
                20.550574
              ],
              [
                106.201145,
                20.550748
              ],
              [
                106.201156,
                20.550763
              ],
              [
                106.201447,
                20.551177
              ],
              [
                106.201572,
                20.551341
              ],
              [
                106.201632,
                20.55142
              ],
              [
                106.201877,
                20.551648
              ],
              [
                106.201942,
                20.551708
              ],
              [
                106.201992,
                20.55179
              ],
              [
                106.202016,
                20.551862
              ],
              [
                106.202017,
                20.551987
              ],
              [
                106.202006,
                20.552131
              ],
              [
                106.201932,
                20.552357
              ],
              [
                106.201933,
                20.552504
              ],
              [
                106.202061,
                20.552722
              ],
              [
                106.202142,
                20.552897
              ],
              [
                106.202173,
                20.553022
              ],
              [
                106.202159,
                20.553173
              ],
              [
                106.202041,
                20.553572
              ],
              [
                106.202038,
                20.553697
              ],
              [
                106.202038,
                20.553708
              ],
              [
                106.202058,
                20.553798
              ],
              [
                106.202146,
                20.553908
              ],
              [
                106.202294,
                20.55402
              ],
              [
                106.202519,
                20.553921
              ],
              [
                106.202661,
                20.55388
              ],
              [
                106.202767,
                20.55387
              ],
              [
                106.202853,
                20.553875
              ],
              [
                106.202886,
                20.553882
              ],
              [
                106.202913,
                20.553887
              ],
              [
                106.202982,
                20.553924
              ],
              [
                106.203046,
                20.554014
              ],
              [
                106.203123,
                20.554216
              ],
              [
                106.203135,
                20.554369
              ],
              [
                106.203119,
                20.554487
              ],
              [
                106.203051,
                20.554628
              ],
              [
                106.202926,
                20.554775
              ],
              [
                106.202909,
                20.554789
              ],
              [
                106.202751,
                20.554918
              ],
              [
                106.202837,
                20.555148
              ],
              [
                106.202791,
                20.555155
              ],
              [
                106.203055,
                20.555982
              ],
              [
                106.203113,
                20.556171
              ],
              [
                106.202602,
                20.556303
              ],
              [
                106.202867,
                20.557077
              ],
              [
                106.202259,
                20.557473
              ],
              [
                106.202378,
                20.557756
              ],
              [
                106.20364,
                20.559141
              ],
              [
                106.20382,
                20.559033
              ],
              [
                106.204281,
                20.55883
              ],
              [
                106.204655,
                20.558686
              ],
              [
                106.204918,
                20.558546
              ],
              [
                106.205122,
                20.558401
              ],
              [
                106.205256,
                20.558277
              ],
              [
                106.205297,
                20.55824
              ],
              [
                106.205514,
                20.557993
              ],
              [
                106.205742,
                20.55769
              ],
              [
                106.205842,
                20.557558
              ],
              [
                106.20604,
                20.557295
              ],
              [
                106.206294,
                20.556928
              ],
              [
                106.206401,
                20.556749
              ],
              [
                106.206491,
                20.556598
              ],
              [
                106.206538,
                20.556495
              ],
              [
                106.206579,
                20.556407
              ],
              [
                106.206609,
                20.556342
              ],
              [
                106.206692,
                20.55609
              ],
              [
                106.206719,
                20.555841
              ],
              [
                106.206709,
                20.555396
              ],
              [
                106.206661,
                20.555111
              ],
              [
                106.206608,
                20.554902
              ],
              [
                106.206584,
                20.554779
              ],
              [
                106.206593,
                20.554689
              ],
              [
                106.206605,
                20.554567
              ],
              [
                106.206611,
                20.554445
              ],
              [
                106.206593,
                20.55434
              ],
              [
                106.206576,
                20.554227
              ],
              [
                106.206585,
                20.55415
              ],
              [
                106.206608,
                20.554095
              ],
              [
                106.20676,
                20.553961
              ],
              [
                106.206846,
                20.553885
              ],
              [
                106.206846,
                20.553885
              ]
            ]
          ]
        ]
      },
      "properties": {
        "code": "12685",
        "name": "Hồng Minh",
        "nameEn": "Hong Minh",
        "fullName": "Xã Hồng Minh",
        "fullNameEn": "Hong Minh Commune",
        "codeName": "hong_minh",
        "postalCode": "06738",
        "postalCodePrefix": "",
        "gisServerId": "diaphanhanhchinhcapxa_2025.644",
        "areaKm2": 23.32
      }
    }
  ]
}