{
  "type": "FeatureCollection",
  "bbox": [
    106.50742,
    20.31939,
    106.619218,
    20.390713
  ],
  "features": [
    {
      "type": "Feature",
      "id": "13057",
      "bbox": [
        106.50742,
        20.31939,
        106.619218,
        20.390713
      ],
      "geometry": {
        "type": "MultiPolygon",
        "coordinates": [
          [
            [
              [
                106.588852,
                20.319406
              ],
              [
                106.588773,
                20.319423
              ],
              [
                106.588657,
                20.319448
              ],
              [
                106.588505,
                20.319478
              ],
              [
                106.588402,
                20.319496
              ],
              [
                106.588323,
                20.319516
              ],
              [
                106.58823,
                20.319533
              ],
              [
                106.588032,
                20.319561
              ],
              [
                106.587933,
                20.319581
              ],
              [
                106.587833,
                20.319601
              ],
              [
                106.587686,
                20.319622
              ],
              [
                106.5876,
                20.319642
              ],
              [
                106.58755,
                20.319659
              ],
              [
                106.587486,
                20.319671
              ],
              [
                106.58741,
                20.319672
              ],
              [
                106.587355,
                20.319682
              ],
              [
                106.587307,
                20.31969
              ],
              [
                106.587243,
                20.319705
              ],
              [
                106.587193,
                20.319712
              ],
              [
                106.587123,
                20.319708
              ],
              [
                106.587031,
                20.319721
              ],
              [
                106.587028,
                20.319719
              ],
              [
                106.587013,
                20.319703
              ],
              [
                106.586597,
                20.319693
              ],
              [
                106.586328,
                20.319687
              ],
              [
                106.580599,
                20.321573
              ],
              [
                106.575385,
                20.323171
              ],
              [
                106.575254,
                20.322971
              ],
              [
                106.574972,
                20.322587
              ],
              [
                106.574971,
                20.322586
              ],
              [
                106.574432,
                20.323013
              ],
              [
                106.573526,
                20.32373
              ],
              [
                106.573218,
                20.323983
              ],
              [
                106.571515,
                20.325381
              ],
              [
                106.571706,
                20.325577
              ],
              [
                106.572212,
                20.326092
              ],
              [
                106.57252,
                20.326414
              ],
              [
                106.572609,
                20.326507
              ],
              [
                106.57237,
                20.326694
              ],
              [
                106.571996,
                20.327021
              ],
              [
                106.571449,
                20.327581
              ],
              [
                106.571308,
                20.327687
              ],
              [
                106.571154,
                20.327802
              ],
              [
                106.571209,
                20.327928
              ],
              [
                106.570763,
                20.328352
              ],
              [
                106.570636,
                20.328541
              ],
              [
                106.570206,
                20.329058
              ],
              [
                106.569752,
                20.329501
              ],
              [
                106.569557,
                20.329691
              ],
              [
                106.569327,
                20.329916
              ],
              [
                106.568986,
                20.330259
              ],
              [
                106.568623,
                20.33065
              ],
              [
                106.567935,
                20.331349
              ],
              [
                106.567861,
                20.33148
              ],
              [
                106.567665,
                20.331676
              ],
              [
                106.567334,
                20.332008
              ],
              [
                106.567193,
                20.332154
              ],
              [
                106.566913,
                20.332442
              ],
              [
                106.566394,
                20.333014
              ],
              [
                106.566142,
                20.333256
              ],
              [
                106.56589,
                20.333498
              ],
              [
                106.565227,
                20.334164
              ],
              [
                106.56392,
                20.335624
              ],
              [
                106.563471,
                20.335972
              ],
              [
                106.562172,
                20.335232
              ],
              [
                106.561267,
                20.334674
              ],
              [
                106.560311,
                20.334129
              ],
              [
                106.559914,
                20.333926
              ],
              [
                106.559053,
                20.333496
              ],
              [
                106.558951,
                20.333434
              ],
              [
                106.558912,
                20.333513
              ],
              [
                106.558706,
                20.333934
              ],
              [
                106.558683,
                20.333924
              ],
              [
                106.558668,
                20.333916
              ],
              [
                106.558309,
                20.333748
              ],
              [
                106.558029,
                20.333617
              ],
              [
                106.557247,
                20.333253
              ],
              [
                106.556972,
                20.333126
              ],
              [
                106.555836,
                20.332605
              ],
              [
                106.555283,
                20.332352
              ],
              [
                106.554507,
                20.331996
              ],
              [
                106.553937,
                20.331724
              ],
              [
                106.553077,
                20.331334
              ],
              [
                106.552532,
                20.331129
              ],
              [
                106.552477,
                20.331113
              ],
              [
                106.552422,
                20.331096
              ],
              [
                106.552329,
                20.331063
              ],
              [
                106.55228,
                20.33118
              ],
              [
                106.551588,
                20.33221
              ],
              [
                106.551566,
                20.33231
              ],
              [
                106.551602,
                20.332472
              ],
              [
                106.55163,
                20.332597
              ],
              [
                106.551634,
                20.332614
              ],
              [
                106.551268,
                20.333366
              ],
              [
                106.551157,
                20.333604
              ],
              [
                106.550876,
                20.334226
              ],
              [
                106.550348,
                20.335343
              ],
              [
                106.549439,
                20.337147
              ],
              [
                106.548595,
                20.338866
              ],
              [
                106.54791,
                20.340325
              ],
              [
                106.547374,
                20.341515
              ],
              [
                106.547099,
                20.342245
              ],
              [
                106.547064,
                20.342327
              ],
              [
                106.546844,
                20.342756
              ],
              [
                106.546828,
                20.342789
              ],
              [
                106.546745,
                20.342951
              ],
              [
                106.546244,
                20.343984
              ],
              [
                106.545951,
                20.344585
              ],
              [
                106.545949,
                20.344588
              ],
              [
                106.545544,
                20.34548
              ],
              [
                106.545511,
                20.34555
              ],
              [
                106.545342,
                20.345909
              ],
              [
                106.54534,
                20.345913
              ],
              [
                106.545146,
                20.346281
              ],
              [
                106.545124,
                20.34632
              ],
              [
                106.544829,
                20.346874
              ],
              [
                106.54455,
                20.347335
              ],
              [
                106.544436,
                20.347524
              ],
              [
                106.543857,
                20.348548
              ],
              [
                106.543703,
                20.348855
              ],
              [
                106.543651,
                20.348948
              ],
              [
                106.543592,
                20.349036
              ],
              [
                106.543461,
                20.349311
              ],
              [
                106.54342,
                20.349419
              ],
              [
                106.543344,
                20.349622
              ],
              [
                106.543293,
                20.349735
              ],
              [
                106.543287,
                20.34975
              ],
              [
                106.543215,
                20.349907
              ],
              [
                106.543214,
                20.34991
              ],
              [
                106.543211,
                20.349915
              ],
              [
                106.542944,
                20.350355
              ],
              [
                106.54264,
                20.350851
              ],
              [
                106.542551,
                20.350998
              ],
              [
                106.542533,
                20.351038
              ],
              [
                106.542492,
                20.350996
              ],
              [
                106.542352,
                20.350884
              ],
              [
                106.542296,
                20.350836
              ],
              [
                106.540607,
                20.349993
              ],
              [
                106.54039,
                20.34988
              ],
              [
                106.539554,
                20.349456
              ],
              [
                106.538753,
                20.349104
              ],
              [
                106.538769,
                20.349064
              ],
              [
                106.538796,
                20.349013
              ],
              [
                106.538376,
                20.348786
              ],
              [
                106.538335,
                20.348792
              ],
              [
                106.538042,
                20.34869
              ],
              [
                106.537952,
                20.348645
              ],
              [
                106.536883,
                20.348119
              ],
              [
                106.535339,
                20.347371
              ],
              [
                106.533563,
                20.346519
              ],
              [
                106.533137,
                20.346365
              ],
              [
                106.532928,
                20.346318
              ],
              [
                106.532725,
                20.346276
              ],
              [
                106.532344,
                20.346189
              ],
              [
                106.532085,
                20.346139
              ],
              [
                106.53175,
                20.34607
              ],
              [
                106.531166,
                20.345922
              ],
              [
                106.530637,
                20.345793
              ],
              [
                106.5306,
                20.345782
              ],
              [
                106.530096,
                20.345636
              ],
              [
                106.528914,
                20.345322
              ],
              [
                106.528508,
                20.345214
              ],
              [
                106.527486,
                20.344926
              ],
              [
                106.525896,
                20.344524
              ],
              [
                106.524778,
                20.344223
              ],
              [
                106.524132,
                20.344043
              ],
              [
                106.523756,
                20.343941
              ],
              [
                106.523034,
                20.343722
              ],
              [
                106.522049,
                20.343454
              ],
              [
                106.521241,
                20.343231
              ],
              [
                106.519915,
                20.342397
              ],
              [
                106.518803,
                20.341694
              ],
              [
                106.518561,
                20.341535
              ],
              [
                106.518506,
                20.341482
              ],
              [
                106.518427,
                20.341572
              ],
              [
                106.518335,
                20.341673
              ],
              [
                106.518241,
                20.341778
              ],
              [
                106.518147,
                20.341883
              ],
              [
                106.518058,
                20.341983
              ],
              [
                106.517982,
                20.342068
              ],
              [
                106.517922,
                20.342137
              ],
              [
                106.517865,
                20.342203
              ],
              [
                106.517804,
                20.342274
              ],
              [
                106.517737,
                20.342352
              ],
              [
                106.517663,
                20.342438
              ],
              [
                106.517579,
                20.342536
              ],
              [
                106.517485,
                20.342646
              ],
              [
                106.517384,
                20.342765
              ],
              [
                106.517279,
                20.342889
              ],
              [
                106.517176,
                20.343013
              ],
              [
                106.517084,
                20.343124
              ],
              [
                106.517082,
                20.343126
              ],
              [
                106.517005,
                20.343222
              ],
              [
                106.516936,
                20.343308
              ],
              [
                106.516889,
                20.343365
              ],
              [
                106.516886,
                20.343371
              ],
              [
                106.516824,
                20.343448
              ],
              [
                106.516549,
                20.343809
              ],
              [
                106.516188,
                20.344269
              ],
              [
                106.516082,
                20.344366
              ],
              [
                106.515864,
                20.344519
              ],
              [
                106.51569,
                20.34469
              ],
              [
                106.515195,
                20.34516
              ],
              [
                106.515022,
                20.345322
              ],
              [
                106.514831,
                20.345496
              ],
              [
                106.514781,
                20.345551
              ],
              [
                106.514643,
                20.345708
              ],
              [
                106.51449,
                20.345912
              ],
              [
                106.514094,
                20.346444
              ],
              [
                106.51392,
                20.346711
              ],
              [
                106.513867,
                20.346783
              ],
              [
                106.513573,
                20.347234
              ],
              [
                106.513268,
                20.347756
              ],
              [
                106.513028,
                20.348171
              ],
              [
                106.512788,
                20.348603
              ],
              [
                106.51271,
                20.348711
              ],
              [
                106.512509,
                20.348931
              ],
              [
                106.512431,
                20.349037
              ],
              [
                106.512329,
                20.349226
              ],
              [
                106.512189,
                20.349553
              ],
              [
                106.512077,
                20.349757
              ],
              [
                106.51198,
                20.349904
              ],
              [
                106.511777,
                20.35013
              ],
              [
                106.511507,
                20.35044
              ],
              [
                106.511404,
                20.350533
              ],
              [
                106.511231,
                20.350702
              ],
              [
                106.511092,
                20.350866
              ],
              [
                106.510881,
                20.351195
              ],
              [
                106.510778,
                20.35139
              ],
              [
                106.510698,
                20.351612
              ],
              [
                106.510646,
                20.351813
              ],
              [
                106.510635,
                20.351986
              ],
              [
                106.510624,
                20.352148
              ],
              [
                106.510599,
                20.352464
              ],
              [
                106.510544,
                20.352719
              ],
              [
                106.510464,
                20.352983
              ],
              [
                106.510312,
                20.35328
              ],
              [
                106.510059,
                20.353703
              ],
              [
                106.510058,
                20.353705
              ],
              [
                106.50976,
                20.354166
              ],
              [
                106.509601,
                20.354493
              ],
              [
                106.509594,
                20.35451
              ],
              [
                106.509549,
                20.354619
              ],
              [
                106.509469,
                20.354867
              ],
              [
                106.509409,
                20.355224
              ],
              [
                106.509348,
                20.355478
              ],
              [
                106.509347,
                20.355481
              ],
              [
                106.509305,
                20.35558
              ],
              [
                106.509211,
                20.355733
              ],
              [
                106.509073,
                20.355872
              ],
              [
                106.508731,
                20.356153
              ],
              [
                106.507871,
                20.356758
              ],
              [
                106.507718,
                20.356848
              ],
              [
                106.507675,
                20.356877
              ],
              [
                106.50743,
                20.357043
              ],
              [
                106.50742,
                20.35705
              ],
              [
                106.507433,
                20.357078
              ],
              [
                106.507461,
                20.357137
              ],
              [
                106.507496,
                20.35719
              ],
              [
                106.50753,
                20.357236
              ],
              [
                106.507567,
                20.357283
              ],
              [
                106.507612,
                20.357335
              ],
              [
                106.50766,
                20.357389
              ],
              [
                106.507709,
                20.357445
              ],
              [
                106.507763,
                20.357503
              ],
              [
                106.508301,
                20.358097
              ],
              [
                106.508703,
                20.358542
              ],
              [
                106.509225,
                20.359054
              ],
              [
                106.509863,
                20.359639
              ],
              [
                106.51018,
                20.359862
              ],
              [
                106.510843,
                20.360335
              ],
              [
                106.511634,
                20.360845
              ],
              [
                106.51233,
                20.361201
              ],
              [
                106.513121,
                20.361556
              ],
              [
                106.514616,
                20.36216
              ],
              [
                106.516157,
                20.362777
              ],
              [
                106.516964,
                20.363101
              ],
              [
                106.51785,
                20.363482
              ],
              [
                106.518451,
                20.363702
              ],
              [
                106.519701,
                20.364062
              ],
              [
                106.520527,
                20.364265
              ],
              [
                106.521061,
                20.364362
              ],
              [
                106.521979,
                20.364541
              ],
              [
                106.52236,
                20.364601
              ],
              [
                106.522985,
                20.364676
              ],
              [
                106.523821,
                20.364728
              ],
              [
                106.525039,
                20.364776
              ],
              [
                106.525997,
                20.364817
              ],
              [
                106.527025,
                20.364834
              ],
              [
                106.527815,
                20.364837
              ],
              [
                106.528175,
                20.364871
              ],
              [
                106.528623,
                20.364919
              ],
              [
                106.529273,
                20.364928
              ],
              [
                106.530806,
                20.364956
              ],
              [
                106.531591,
                20.365016
              ],
              [
                106.532184,
                20.365067
              ],
              [
                106.53285,
                20.365124
              ],
              [
                106.533427,
                20.365267
              ],
              [
                106.533632,
                20.365318
              ],
              [
                106.536542,
                20.366014
              ],
              [
                106.53658,
                20.366023
              ],
              [
                106.536637,
                20.366037
              ],
              [
                106.536731,
                20.366065
              ],
              [
                106.53677,
                20.366077
              ],
              [
                106.537512,
                20.366287
              ],
              [
                106.538398,
                20.366495
              ],
              [
                106.539236,
                20.366697
              ],
              [
                106.540263,
                20.366951
              ],
              [
                106.541551,
                20.36728
              ],
              [
                106.542348,
                20.36755
              ],
              [
                106.542676,
                20.367619
              ],
              [
                106.54283,
                20.367654
              ],
              [
                106.543137,
                20.367774
              ],
              [
                106.543746,
                20.368066
              ],
              [
                106.544531,
                20.368543
              ],
              [
                106.545366,
                20.369133
              ],
              [
                106.546727,
                20.370136
              ],
              [
                106.547237,
                20.37051
              ],
              [
                106.547899,
                20.371063
              ],
              [
                106.548621,
                20.37164
              ],
              [
                106.548644,
                20.371659
              ],
              [
                106.54987,
                20.372877
              ],
              [
                106.550625,
                20.373575
              ],
              [
                106.551086,
                20.374013
              ],
              [
                106.551773,
                20.374686
              ],
              [
                106.552328,
                20.375436
              ],
              [
                106.553037,
                20.376338
              ],
              [
                106.553379,
                20.377071
              ],
              [
                106.553507,
                20.377634
              ],
              [
                106.553516,
                20.378003
              ],
              [
                106.553512,
                20.378362
              ],
              [
                106.553391,
                20.379327
              ],
              [
                106.55338,
                20.380031
              ],
              [
                106.553399,
                20.380597
              ],
              [
                106.553425,
                20.380745
              ],
              [
                106.553573,
                20.381006
              ],
              [
                106.553808,
                20.381265
              ],
              [
                106.554246,
                20.381724
              ],
              [
                106.554487,
                20.381945
              ],
              [
                106.555478,
                20.382758
              ],
              [
                106.556282,
                20.383399
              ],
              [
                106.55652,
                20.383561
              ],
              [
                106.557123,
                20.383858
              ],
              [
                106.557568,
                20.383997
              ],
              [
                106.558279,
                20.38417
              ],
              [
                106.55885,
                20.384237
              ],
              [
                106.558903,
                20.384241
              ],
              [
                106.559611,
                20.384254
              ],
              [
                106.560358,
                20.384194
              ],
              [
                106.561288,
                20.384012
              ],
              [
                106.561679,
                20.383847
              ],
              [
                106.562306,
                20.384027
              ],
              [
                106.562375,
                20.384046
              ],
              [
                106.562933,
                20.384107
              ],
              [
                106.563427,
                20.384115
              ],
              [
                106.564289,
                20.38408
              ],
              [
                106.564905,
                20.384054
              ],
              [
                106.56642,
                20.384079
              ],
              [
                106.566852,
                20.384051
              ],
              [
                106.566895,
                20.384076
              ],
              [
                106.567137,
                20.384214
              ],
              [
                106.567158,
                20.384225
              ],
              [
                106.567238,
                20.384222
              ],
              [
                106.567898,
                20.38419
              ],
              [
                106.56803,
                20.384233
              ],
              [
                106.568238,
                20.383723
              ],
              [
                106.568281,
                20.383752
              ],
              [
                106.568426,
                20.383739
              ],
              [
                106.568781,
                20.383709
              ],
              [
                106.569909,
                20.383623
              ],
              [
                106.569935,
                20.383625
              ],
              [
                106.570216,
                20.383643
              ],
              [
                106.570339,
                20.383652
              ],
              [
                106.570341,
                20.383453
              ],
              [
                106.570417,
                20.38295
              ],
              [
                106.570414,
                20.382639
              ],
              [
                106.570283,
                20.382239
              ],
              [
                106.569969,
                20.381644
              ],
              [
                106.569703,
                20.381007
              ],
              [
                106.569592,
                20.380686
              ],
              [
                106.569408,
                20.380036
              ],
              [
                106.568991,
                20.378881
              ],
              [
                106.568759,
                20.377843
              ],
              [
                106.568656,
                20.377115
              ],
              [
                106.568617,
                20.376428
              ],
              [
                106.568629,
                20.375663
              ],
              [
                106.568762,
                20.374617
              ],
              [
                106.568819,
                20.374486
              ],
              [
                106.568881,
                20.374344
              ],
              [
                106.568948,
                20.374191
              ],
              [
                106.569096,
                20.374013
              ],
              [
                106.5694,
                20.373369
              ],
              [
                106.570101,
                20.372855
              ],
              [
                106.570613,
                20.372469
              ],
              [
                106.570861,
                20.372158
              ],
              [
                106.571052,
                20.371757
              ],
              [
                106.571106,
                20.371644
              ],
              [
                106.571053,
                20.371346
              ],
              [
                106.570224,
                20.369633
              ],
              [
                106.570028,
                20.369013
              ],
              [
                106.569973,
                20.368619
              ],
              [
                106.570034,
                20.368379
              ],
              [
                106.570258,
                20.367983
              ],
              [
                106.570748,
                20.367524
              ],
              [
                106.571437,
                20.36714
              ],
              [
                106.571683,
                20.367002
              ],
              [
                106.571878,
                20.366881
              ],
              [
                106.571971,
                20.366852
              ],
              [
                106.572459,
                20.366705
              ],
              [
                106.573195,
                20.366594
              ],
              [
                106.574049,
                20.366647
              ],
              [
                106.574293,
                20.366662
              ],
              [
                106.575557,
                20.366775
              ],
              [
                106.575787,
                20.366822
              ],
              [
                106.577044,
                20.366941
              ],
              [
                106.580184,
                20.368009
              ],
              [
                106.580336,
                20.368061
              ],
              [
                106.587779,
                20.370211
              ],
              [
                106.590692,
                20.371466
              ],
              [
                106.592201,
                20.372332
              ],
              [
                106.593252,
                20.37401
              ],
              [
                106.594317,
                20.378088
              ],
              [
                106.595392,
                20.384054
              ],
              [
                106.596201,
                20.386317
              ],
              [
                106.598321,
                20.390713
              ],
              [
                106.600256,
                20.38948
              ],
              [
                106.600564,
                20.389871
              ],
              [
                106.601518,
                20.390185
              ],
              [
                106.602699,
                20.390354
              ],
              [
                106.604104,
                20.390233
              ],
              [
                106.605431,
                20.389862
              ],
              [
                106.607622,
                20.38848
              ],
              [
                106.608315,
                20.387663
              ],
              [
                106.609657,
                20.386079
              ],
              [
                106.610119,
                20.385535
              ],
              [
                106.610177,
                20.385466
              ],
              [
                106.610496,
                20.38509
              ],
              [
                106.611245,
                20.384206
              ],
              [
                106.611604,
                20.383782
              ],
              [
                106.613378,
                20.380647
              ],
              [
                106.615526,
                20.374005
              ],
              [
                106.615881,
                20.371535
              ],
              [
                106.616236,
                20.369456
              ],
              [
                106.616347,
                20.368806
              ],
              [
                106.617152,
                20.365787
              ],
              [
                106.617775,
                20.363595
              ],
              [
                106.618206,
                20.361153
              ],
              [
                106.618646,
                20.357826
              ],
              [
                106.618597,
                20.356094
              ],
              [
                106.618432,
                20.355468
              ],
              [
                106.618046,
                20.354964
              ],
              [
                106.617217,
                20.354374
              ],
              [
                106.616165,
                20.353786
              ],
              [
                106.615145,
                20.353327
              ],
              [
                106.613907,
                20.352693
              ],
              [
                106.6136,
                20.352395
              ],
              [
                106.61349,
                20.35208
              ],
              [
                106.613289,
                20.351709
              ],
              [
                106.613074,
                20.35151
              ],
              [
                106.612677,
                20.351371
              ],
              [
                106.612235,
                20.351332
              ],
              [
                106.611583,
                20.351438
              ],
              [
                106.611157,
                20.351485
              ],
              [
                106.610746,
                20.351432
              ],
              [
                106.610365,
                20.351277
              ],
              [
                106.609907,
                20.351138
              ],
              [
                106.608886,
                20.350918
              ],
              [
                106.607538,
                20.350617
              ],
              [
                106.607532,
                20.350109
              ],
              [
                106.608103,
                20.350237
              ],
              [
                106.608455,
                20.350406
              ],
              [
                106.608882,
                20.350588
              ],
              [
                106.609675,
                20.350782
              ],
              [
                106.610574,
                20.350974
              ],
              [
                106.611092,
                20.351027
              ],
              [
                106.611411,
                20.350967
              ],
              [
                106.611804,
                20.350748
              ],
              [
                106.612273,
                20.350586
              ],
              [
                106.612684,
                20.350596
              ],
              [
                106.612989,
                20.350708
              ],
              [
                106.613909,
                20.351445
              ],
              [
                106.615243,
                20.352466
              ],
              [
                106.616759,
                20.35347
              ],
              [
                106.61806,
                20.354333
              ],
              [
                106.618305,
                20.354459
              ],
              [
                106.618533,
                20.354457
              ],
              [
                106.618667,
                20.354241
              ],
              [
                106.61871,
                20.353954
              ],
              [
                106.61852,
                20.353267
              ],
              [
                106.618544,
                20.35265
              ],
              [
                106.618691,
                20.352118
              ],
              [
                106.618925,
                20.351213
              ],
              [
                106.619105,
                20.349576
              ],
              [
                106.619218,
                20.347223
              ],
              [
                106.619063,
                20.344098
              ],
              [
                106.618898,
                20.34236
              ],
              [
                106.618232,
                20.340702
              ],
              [
                106.617941,
                20.339997
              ],
              [
                106.617912,
                20.339195
              ],
              [
                106.617902,
                20.338162
              ],
              [
                106.617712,
                20.337437
              ],
              [
                106.617567,
                20.337171
              ],
              [
                106.617221,
                20.337002
              ],
              [
                106.616755,
                20.337083
              ],
              [
                106.61609,
                20.337414
              ],
              [
                106.615445,
                20.337841
              ],
              [
                106.615328,
                20.338243
              ],
              [
                106.615315,
                20.338996
              ],
              [
                106.614983,
                20.337236
              ],
              [
                106.614764,
                20.336076
              ],
              [
                106.615159,
                20.336079
              ],
              [
                106.615624,
                20.336018
              ],
              [
                106.616169,
                20.335783
              ],
              [
                106.617074,
                20.335106
              ],
              [
                106.617639,
                20.334814
              ],
              [
                106.618144,
                20.334656
              ],
              [
                106.618547,
                20.334404
              ],
              [
                106.618767,
                20.334115
              ],
              [
                106.618846,
                20.333923
              ],
              [
                106.618842,
                20.333902
              ],
              [
                106.618803,
                20.333694
              ],
              [
                106.618495,
                20.333333
              ],
              [
                106.618369,
                20.332857
              ],
              [
                106.618297,
                20.331806
              ],
              [
                106.618197,
                20.32999
              ],
              [
                106.618191,
                20.329416
              ],
              [
                106.618087,
                20.329169
              ],
              [
                106.617926,
                20.329063
              ],
              [
                106.617878,
                20.329032
              ],
              [
                106.617452,
                20.328993
              ],
              [
                106.617223,
                20.328981
              ],
              [
                106.616902,
                20.328797
              ],
              [
                106.616704,
                20.328699
              ],
              [
                106.616352,
                20.328559
              ],
              [
                106.616017,
                20.32849
              ],
              [
                106.615574,
                20.328279
              ],
              [
                106.615283,
                20.328024
              ],
              [
                106.61487,
                20.327827
              ],
              [
                106.614246,
                20.327789
              ],
              [
                106.613637,
                20.32768
              ],
              [
                106.612936,
                20.327442
              ],
              [
                106.61252,
                20.327028
              ],
              [
                106.612484,
                20.32661
              ],
              [
                106.612575,
                20.326251
              ],
              [
                106.612879,
                20.326368
              ],
              [
                106.61314,
                20.326624
              ],
              [
                106.613294,
                20.32688
              ],
              [
                106.613524,
                20.327007
              ],
              [
                106.61389,
                20.327104
              ],
              [
                106.614392,
                20.327186
              ],
              [
                106.614834,
                20.327296
              ],
              [
                106.615384,
                20.327521
              ],
              [
                106.615859,
                20.327918
              ],
              [
                106.616593,
                20.328298
              ],
              [
                106.616915,
                20.328525
              ],
              [
                106.617219,
                20.328594
              ],
              [
                106.617538,
                20.328548
              ],
              [
                106.617734,
                20.328359
              ],
              [
                106.617791,
                20.327986
              ],
              [
                106.617603,
                20.327457
              ],
              [
                106.617338,
                20.326872
              ],
              [
                106.617197,
                20.326471
              ],
              [
                106.617145,
                20.325855
              ],
              [
                106.617235,
                20.325011
              ],
              [
                106.617311,
                20.32429
              ],
              [
                106.617225,
                20.323287
              ],
              [
                106.616946,
                20.321311
              ],
              [
                106.616636,
                20.320318
              ],
              [
                106.600196,
                20.321693
              ],
              [
                106.594028,
                20.320891
              ],
              [
                106.588902,
                20.31939
              ],
              [
                106.588852,
                20.319406
              ],
              [
                106.588852,
                20.319406
              ]
            ]
          ]
        ]
      },
      "properties": {
        "code": "13057",
        "name": "Nam Cường",
        "nameEn": "Nam Cuong",
        "fullName": "Xã Nam Cường",
        "fullNameEn": "Nam Cuong Commune",
        "codeName": "nam_cuong",
        "postalCode": "06338",
        "postalCodePrefix": "",
        "gisServerId": "diaphanhanhchinhcapxa_2025.674",
        "areaKm2": 28.77
      }
    }
  ]
}