{
  "type": "FeatureCollection",
  "bbox": [
    106.398342,
    20.295701,
    106.458513,
    20.368816
  ],
  "features": [
    {
      "type": "Feature",
      "id": "13183",
      "bbox": [
        106.398342,
        20.295701,
        106.458513,
        20.368816
      ],
      "geometry": {
        "type": "MultiPolygon",
        "coordinates": [
          [
            [
              [
                106.425081,
                20.366866
              ],
              [
                106.425188,
                20.366866
              ],
              [
                106.425436,
                20.366879
              ],
              [
                106.425862,
                20.366927
              ],
              [
                106.425923,
                20.366936
              ],
              [
                106.426098,
                20.36695
              ],
              [
                106.426134,
                20.366948
              ],
              [
                106.426221,
                20.366955
              ],
              [
                106.426517,
                20.366945
              ],
              [
                106.426798,
                20.366879
              ],
              [
                106.426927,
                20.366856
              ],
              [
                106.427277,
                20.366895
              ],
              [
                106.427275,
                20.366825
              ],
              [
                106.42726,
                20.366754
              ],
              [
                106.42725,
                20.366704
              ],
              [
                106.427239,
                20.366663
              ],
              [
                106.42719,
                20.366554
              ],
              [
                106.427175,
                20.366503
              ],
              [
                106.427174,
                20.366461
              ],
              [
                106.427211,
                20.366355
              ],
              [
                106.427273,
                20.366245
              ],
              [
                106.4273,
                20.366206
              ],
              [
                106.427351,
                20.366125
              ],
              [
                106.427384,
                20.366076
              ],
              [
                106.427593,
                20.365782
              ],
              [
                106.427716,
                20.365601
              ],
              [
                106.428197,
                20.364918
              ],
              [
                106.428531,
                20.364451
              ],
              [
                106.42875,
                20.364138
              ],
              [
                106.428859,
                20.363976
              ],
              [
                106.428931,
                20.363894
              ],
              [
                106.428982,
                20.363839
              ],
              [
                106.429058,
                20.363773
              ],
              [
                106.429111,
                20.363738
              ],
              [
                106.429172,
                20.363705
              ],
              [
                106.429256,
                20.363674
              ],
              [
                106.429331,
                20.363654
              ],
              [
                106.429414,
                20.363645
              ],
              [
                106.429473,
                20.363642
              ],
              [
                106.429503,
                20.363641
              ],
              [
                106.429688,
                20.36364
              ],
              [
                106.430361,
                20.363673
              ],
              [
                106.431007,
                20.363693
              ],
              [
                106.431976,
                20.363716
              ],
              [
                106.432912,
                20.363736
              ],
              [
                106.433992,
                20.363752
              ],
              [
                106.434232,
                20.363757
              ],
              [
                106.434339,
                20.363732
              ],
              [
                106.434394,
                20.363814
              ],
              [
                106.434446,
                20.363892
              ],
              [
                106.434467,
                20.363914
              ],
              [
                106.435,
                20.364052
              ],
              [
                106.435667,
                20.364253
              ],
              [
                106.43582,
                20.364496
              ],
              [
                106.436323,
                20.364605
              ],
              [
                106.436364,
                20.364385
              ],
              [
                106.436973,
                20.364527
              ],
              [
                106.437026,
                20.364225
              ],
              [
                106.437036,
                20.364169
              ],
              [
                106.436817,
                20.364006
              ],
              [
                106.436743,
                20.363917
              ],
              [
                106.436638,
                20.36375
              ],
              [
                106.436412,
                20.363208
              ],
              [
                106.436314,
                20.362957
              ],
              [
                106.436305,
                20.362802
              ],
              [
                106.436326,
                20.362765
              ],
              [
                106.436405,
                20.362722
              ],
              [
                106.437092,
                20.362414
              ],
              [
                106.437404,
                20.362286
              ],
              [
                106.437678,
                20.362154
              ],
              [
                106.437843,
                20.362082
              ],
              [
                106.438013,
                20.362017
              ],
              [
                106.438524,
                20.361796
              ],
              [
                106.438908,
                20.361621
              ],
              [
                106.439318,
                20.361447
              ],
              [
                106.439869,
                20.36121
              ],
              [
                106.440185,
                20.36108
              ],
              [
                106.440463,
                20.360955
              ],
              [
                106.440698,
                20.360855
              ],
              [
                106.440832,
                20.360857
              ],
              [
                106.443813,
                20.361967
              ],
              [
                106.446175,
                20.362848
              ],
              [
                106.446197,
                20.362856
              ],
              [
                106.448167,
                20.363587
              ],
              [
                106.448882,
                20.363853
              ],
              [
                106.449733,
                20.364169
              ],
              [
                106.449758,
                20.364178
              ],
              [
                106.450281,
                20.362521
              ],
              [
                106.449929,
                20.362243
              ],
              [
                106.45141,
                20.360356
              ],
              [
                106.45183,
                20.360705
              ],
              [
                106.451872,
                20.36074
              ],
              [
                106.452105,
                20.360695
              ],
              [
                106.452763,
                20.360569
              ],
              [
                106.453786,
                20.360329
              ],
              [
                106.454147,
                20.360244
              ],
              [
                106.45533,
                20.359966
              ],
              [
                106.456301,
                20.359738
              ],
              [
                106.456302,
                20.359738
              ],
              [
                106.455984,
                20.35833
              ],
              [
                106.455976,
                20.358309
              ],
              [
                106.456072,
                20.358273
              ],
              [
                106.458402,
                20.3577
              ],
              [
                106.458513,
                20.35767
              ],
              [
                106.458461,
                20.357563
              ],
              [
                106.458393,
                20.357378
              ],
              [
                106.458328,
                20.35714
              ],
              [
                106.458255,
                20.356836
              ],
              [
                106.45814,
                20.356394
              ],
              [
                106.458062,
                20.35624
              ],
              [
                106.457925,
                20.356073
              ],
              [
                106.457724,
                20.355923
              ],
              [
                106.457371,
                20.355764
              ],
              [
                106.45678,
                20.355581
              ],
              [
                106.45571,
                20.355351
              ],
              [
                106.454977,
                20.355208
              ],
              [
                106.45466,
                20.355201
              ],
              [
                106.454109,
                20.355241
              ],
              [
                106.454072,
                20.355165
              ],
              [
                106.453938,
                20.354819
              ],
              [
                106.454715,
                20.354613
              ],
              [
                106.454667,
                20.354494
              ],
              [
                106.454634,
                20.354378
              ],
              [
                106.454554,
                20.354075
              ],
              [
                106.454547,
                20.353998
              ],
              [
                106.454451,
                20.353547
              ],
              [
                106.454254,
                20.353144
              ],
              [
                106.454186,
                20.352976
              ],
              [
                106.454091,
                20.352822
              ],
              [
                106.454056,
                20.352704
              ],
              [
                106.453996,
                20.3524
              ],
              [
                106.453962,
                20.352304
              ],
              [
                106.453961,
                20.352297
              ],
              [
                106.453976,
                20.352276
              ],
              [
                106.454279,
                20.352163
              ],
              [
                106.455472,
                20.351723
              ],
              [
                106.455509,
                20.351703
              ],
              [
                106.455262,
                20.350891
              ],
              [
                106.455108,
                20.350374
              ],
              [
                106.453893,
                20.350493
              ],
              [
                106.453795,
                20.350486
              ],
              [
                106.453906,
                20.350033
              ],
              [
                106.453937,
                20.349917
              ],
              [
                106.453995,
                20.349699
              ],
              [
                106.454037,
                20.349544
              ],
              [
                106.454106,
                20.349286
              ],
              [
                106.454152,
                20.349113
              ],
              [
                106.454161,
                20.349081
              ],
              [
                106.454185,
                20.348991
              ],
              [
                106.45422,
                20.348858
              ],
              [
                106.454267,
                20.348685
              ],
              [
                106.454278,
                20.34864
              ],
              [
                106.454299,
                20.348564
              ],
              [
                106.454333,
                20.348435
              ],
              [
                106.454338,
                20.348416
              ],
              [
                106.454378,
                20.348268
              ],
              [
                106.454446,
                20.348015
              ],
              [
                106.452818,
                20.348415
              ],
              [
                106.452799,
                20.348393
              ],
              [
                106.451973,
                20.346352
              ],
              [
                106.451856,
                20.346453
              ],
              [
                106.451804,
                20.346498
              ],
              [
                106.451589,
                20.34663
              ],
              [
                106.451466,
                20.346684
              ],
              [
                106.451328,
                20.346745
              ],
              [
                106.451146,
                20.3468
              ],
              [
                106.45109,
                20.346807
              ],
              [
                106.45089,
                20.346832
              ],
              [
                106.450705,
                20.346862
              ],
              [
                106.450683,
                20.346875
              ],
              [
                106.450668,
                20.346884
              ],
              [
                106.450569,
                20.346942
              ],
              [
                106.450349,
                20.34719
              ],
              [
                106.450346,
                20.347193
              ],
              [
                106.450178,
                20.347385
              ],
              [
                106.450058,
                20.347445
              ],
              [
                106.449978,
                20.34745
              ],
              [
                106.44995,
                20.347452
              ],
              [
                106.449698,
                20.347434
              ],
              [
                106.449636,
                20.34743
              ],
              [
                106.449509,
                20.347363
              ],
              [
                106.449449,
                20.347296
              ],
              [
                106.449461,
                20.347229
              ],
              [
                106.449488,
                20.347093
              ],
              [
                106.449496,
                20.347055
              ],
              [
                106.449512,
                20.346863
              ],
              [
                106.449509,
                20.346699
              ],
              [
                106.449487,
                20.346541
              ],
              [
                106.44943,
                20.34638
              ],
              [
                106.449342,
                20.346219
              ],
              [
                106.449202,
                20.346071
              ],
              [
                106.448859,
                20.34585
              ],
              [
                106.448527,
                20.345683
              ],
              [
                106.448326,
                20.345627
              ],
              [
                106.447444,
                20.345479
              ],
              [
                106.447022,
                20.34545
              ],
              [
                106.446702,
                20.345082
              ],
              [
                106.446561,
                20.344979
              ],
              [
                106.446307,
                20.344868
              ],
              [
                106.445996,
                20.344802
              ],
              [
                106.445848,
                20.344775
              ],
              [
                106.445635,
                20.344755
              ],
              [
                106.445438,
                20.344756
              ],
              [
                106.445221,
                20.344808
              ],
              [
                106.444903,
                20.344929
              ],
              [
                106.444722,
                20.345052
              ],
              [
                106.444605,
                20.345161
              ],
              [
                106.444515,
                20.345258
              ],
              [
                106.444398,
                20.34542
              ],
              [
                106.444102,
                20.345828
              ],
              [
                106.443869,
                20.346138
              ],
              [
                106.443635,
                20.346385
              ],
              [
                106.443367,
                20.346624
              ],
              [
                106.443091,
                20.34678
              ],
              [
                106.442917,
                20.34685
              ],
              [
                106.442724,
                20.346898
              ],
              [
                106.442583,
                20.34691
              ],
              [
                106.442454,
                20.3469
              ],
              [
                106.442282,
                20.346859
              ],
              [
                106.442099,
                20.346778
              ],
              [
                106.441965,
                20.346696
              ],
              [
                106.441842,
                20.34659
              ],
              [
                106.441738,
                20.346429
              ],
              [
                106.441633,
                20.346137
              ],
              [
                106.441616,
                20.345919
              ],
              [
                106.441645,
                20.345713
              ],
              [
                106.441729,
                20.345507
              ],
              [
                106.44179,
                20.345374
              ],
              [
                106.442363,
                20.344467
              ],
              [
                106.442395,
                20.344316
              ],
              [
                106.44239,
                20.344176
              ],
              [
                106.442313,
                20.343912
              ],
              [
                106.442159,
                20.343674
              ],
              [
                106.442076,
                20.343621
              ],
              [
                106.441955,
                20.343601
              ],
              [
                106.441186,
                20.343632
              ],
              [
                106.440873,
                20.343642
              ],
              [
                106.43982,
                20.343717
              ],
              [
                106.43947,
                20.343723
              ],
              [
                106.439314,
                20.343717
              ],
              [
                106.439129,
                20.343678
              ],
              [
                106.43877,
                20.343603
              ],
              [
                106.438476,
                20.343509
              ],
              [
                106.438388,
                20.34347
              ],
              [
                106.43827,
                20.343378
              ],
              [
                106.438139,
                20.343264
              ],
              [
                106.438043,
                20.343125
              ],
              [
                106.437892,
                20.342861
              ],
              [
                106.437857,
                20.342729
              ],
              [
                106.437848,
                20.34252
              ],
              [
                106.437854,
                20.342308
              ],
              [
                106.437849,
                20.342055
              ],
              [
                106.438198,
                20.341591
              ],
              [
                106.438668,
                20.341043
              ],
              [
                106.438931,
                20.340665
              ],
              [
                106.439127,
                20.340363
              ],
              [
                106.439151,
                20.340214
              ],
              [
                106.439117,
                20.340023
              ],
              [
                106.439007,
                20.339743
              ],
              [
                106.438981,
                20.339714
              ],
              [
                106.438942,
                20.339627
              ],
              [
                106.438623,
                20.339314
              ],
              [
                106.438183,
                20.338924
              ],
              [
                106.437744,
                20.338616
              ],
              [
                106.43735,
                20.338334
              ],
              [
                106.436108,
                20.337562
              ],
              [
                106.43552,
                20.337278
              ],
              [
                106.434754,
                20.33689
              ],
              [
                106.434197,
                20.336651
              ],
              [
                106.433941,
                20.336567
              ],
              [
                106.433722,
                20.336523
              ],
              [
                106.432842,
                20.336199
              ],
              [
                106.432872,
                20.33616
              ],
              [
                106.433017,
                20.335973
              ],
              [
                106.433194,
                20.335846
              ],
              [
                106.434758,
                20.335075
              ],
              [
                106.43624,
                20.334375
              ],
              [
                106.436713,
                20.33412
              ],
              [
                106.437142,
                20.333908
              ],
              [
                106.437828,
                20.33349
              ],
              [
                106.438345,
                20.333181
              ],
              [
                106.438578,
                20.333005
              ],
              [
                106.438816,
                20.332776
              ],
              [
                106.439255,
                20.332235
              ],
              [
                106.439694,
                20.331649
              ],
              [
                106.439725,
                20.331601
              ],
              [
                106.439692,
                20.331587
              ],
              [
                106.43939,
                20.331458
              ],
              [
                106.43924,
                20.331361
              ],
              [
                106.439102,
                20.331212
              ],
              [
                106.438966,
                20.330972
              ],
              [
                106.438854,
                20.330708
              ],
              [
                106.438615,
                20.329906
              ],
              [
                106.438534,
                20.329632
              ],
              [
                106.43846,
                20.329501
              ],
              [
                106.438364,
                20.329421
              ],
              [
                106.437998,
                20.32923
              ],
              [
                106.437695,
                20.32907
              ],
              [
                106.437552,
                20.328975
              ],
              [
                106.43751,
                20.328925
              ],
              [
                106.437497,
                20.328889
              ],
              [
                106.437496,
                20.328826
              ],
              [
                106.437534,
                20.328751
              ],
              [
                106.4377,
                20.328538
              ],
              [
                106.437859,
                20.328357
              ],
              [
                106.438038,
                20.328237
              ],
              [
                106.43813,
                20.328203
              ],
              [
                106.438286,
                20.328164
              ],
              [
                106.438502,
                20.328123
              ],
              [
                106.438717,
                20.328094
              ],
              [
                106.439225,
                20.328019
              ],
              [
                106.439583,
                20.327977
              ],
              [
                106.439757,
                20.32799
              ],
              [
                106.440534,
                20.328126
              ],
              [
                106.44062,
                20.327767
              ],
              [
                106.440638,
                20.327659
              ],
              [
                106.441637,
                20.327781
              ],
              [
                106.441735,
                20.327793
              ],
              [
                106.44218,
                20.325721
              ],
              [
                106.442691,
                20.323619
              ],
              [
                106.443748,
                20.323739
              ],
              [
                106.443729,
                20.323556
              ],
              [
                106.443729,
                20.323463
              ],
              [
                106.443765,
                20.323326
              ],
              [
                106.443778,
                20.323309
              ],
              [
                106.443929,
                20.323087
              ],
              [
                106.443983,
                20.323033
              ],
              [
                106.444124,
                20.32289
              ],
              [
                106.444248,
                20.32278
              ],
              [
                106.444371,
                20.322711
              ],
              [
                106.444427,
                20.32269
              ],
              [
                106.443916,
                20.321226
              ],
              [
                106.443768,
                20.320802
              ],
              [
                106.443343,
                20.319867
              ],
              [
                106.443012,
                20.319513
              ],
              [
                106.442907,
                20.31918
              ],
              [
                106.442638,
                20.318611
              ],
              [
                106.442491,
                20.318347
              ],
              [
                106.442266,
                20.317938
              ],
              [
                106.441793,
                20.317137
              ],
              [
                106.441506,
                20.316618
              ],
              [
                106.441398,
                20.316362
              ],
              [
                106.440718,
                20.31479
              ],
              [
                106.440423,
                20.314108
              ],
              [
                106.440286,
                20.313679
              ],
              [
                106.440226,
                20.313371
              ],
              [
                106.440226,
                20.312955
              ],
              [
                106.440339,
                20.312406
              ],
              [
                106.440517,
                20.311934
              ],
              [
                106.440867,
                20.311207
              ],
              [
                106.441619,
                20.309943
              ],
              [
                106.442324,
                20.308888
              ],
              [
                106.441531,
                20.308751
              ],
              [
                106.441563,
                20.308521
              ],
              [
                106.43993,
                20.308276
              ],
              [
                106.438911,
                20.308199
              ],
              [
                106.438733,
                20.308766
              ],
              [
                106.435613,
                20.309144
              ],
              [
                106.4355,
                20.308392
              ],
              [
                106.435086,
                20.308026
              ],
              [
                106.435028,
                20.30751
              ],
              [
                106.43436,
                20.307587
              ],
              [
                106.434105,
                20.307186
              ],
              [
                106.433936,
                20.307365
              ],
              [
                106.434136,
                20.307921
              ],
              [
                106.433315,
                20.308033
              ],
              [
                106.433332,
                20.307922
              ],
              [
                106.433515,
                20.307577
              ],
              [
                106.433774,
                20.307234
              ],
              [
                106.434192,
                20.306821
              ],
              [
                106.434479,
                20.306537
              ],
              [
                106.434911,
                20.306045
              ],
              [
                106.435196,
                20.305648
              ],
              [
                106.435409,
                20.305281
              ],
              [
                106.435642,
                20.30483
              ],
              [
                106.435866,
                20.304459
              ],
              [
                106.436042,
                20.304171
              ],
              [
                106.436287,
                20.303871
              ],
              [
                106.436343,
                20.303767
              ],
              [
                106.43639,
                20.303512
              ],
              [
                106.436482,
                20.303188
              ],
              [
                106.436533,
                20.302937
              ],
              [
                106.436531,
                20.302794
              ],
              [
                106.436448,
                20.302572
              ],
              [
                106.43642,
                20.302419
              ],
              [
                106.436433,
                20.302175
              ],
              [
                106.436498,
                20.301889
              ],
              [
                106.43661,
                20.301466
              ],
              [
                106.436755,
                20.301056
              ],
              [
                106.437003,
                20.300348
              ],
              [
                106.437122,
                20.3001
              ],
              [
                106.437272,
                20.299865
              ],
              [
                106.437421,
                20.299577
              ],
              [
                106.437526,
                20.299372
              ],
              [
                106.437563,
                20.299296
              ],
              [
                106.437581,
                20.299153
              ],
              [
                106.437581,
                20.298766
              ],
              [
                106.43757,
                20.298432
              ],
              [
                106.437573,
                20.298346
              ],
              [
                106.437663,
                20.298173
              ],
              [
                106.437793,
                20.29785
              ],
              [
                106.437912,
                20.297533
              ],
              [
                106.438231,
                20.296365
              ],
              [
                106.438411,
                20.295701
              ],
              [
                106.435546,
                20.297266
              ],
              [
                106.432733,
                20.299288
              ],
              [
                106.432695,
                20.299315
              ],
              [
                106.431898,
                20.300085
              ],
              [
                106.429328,
                20.302565
              ],
              [
                106.428264,
                20.303873
              ],
              [
                106.426321,
                20.306317
              ],
              [
                106.42263,
                20.310554
              ],
              [
                106.422336,
                20.310856
              ],
              [
                106.422158,
                20.31104
              ],
              [
                106.419831,
                20.313435
              ],
              [
                106.418769,
                20.314807
              ],
              [
                106.415355,
                20.319675
              ],
              [
                106.41481,
                20.32064
              ],
              [
                106.41403,
                20.322022
              ],
              [
                106.412549,
                20.324646
              ],
              [
                106.410261,
                20.327999
              ],
              [
                106.408345,
                20.330488
              ],
              [
                106.406651,
                20.332331
              ],
              [
                106.404654,
                20.334247
              ],
              [
                106.402011,
                20.33624
              ],
              [
                106.398838,
                20.338489
              ],
              [
                106.398342,
                20.33888
              ],
              [
                106.399732,
                20.340135
              ],
              [
                106.401026,
                20.341326
              ],
              [
                106.401632,
                20.341907
              ],
              [
                106.402256,
                20.342547
              ],
              [
                106.403003,
                20.343283
              ],
              [
                106.403166,
                20.343454
              ],
              [
                106.403596,
                20.343952
              ],
              [
                106.403801,
                20.344146
              ],
              [
                106.403969,
                20.344265
              ],
              [
                106.404423,
                20.344533
              ],
              [
                106.404547,
                20.344609
              ],
              [
                106.405082,
                20.345006
              ],
              [
                106.405334,
                20.34528
              ],
              [
                106.40555,
                20.345591
              ],
              [
                106.40562,
                20.345753
              ],
              [
                106.405658,
                20.345944
              ],
              [
                106.405694,
                20.346248
              ],
              [
                106.405693,
                20.346633
              ],
              [
                106.405607,
                20.347057
              ],
              [
                106.405458,
                20.347431
              ],
              [
                106.405153,
                20.348096
              ],
              [
                106.404658,
                20.348953
              ],
              [
                106.404163,
                20.34967
              ],
              [
                106.40348,
                20.350546
              ],
              [
                106.403049,
                20.351102
              ],
              [
                106.402778,
                20.351559
              ],
              [
                106.402709,
                20.35177
              ],
              [
                106.402686,
                20.351986
              ],
              [
                106.402749,
                20.35224
              ],
              [
                106.402768,
                20.352295
              ],
              [
                106.402939,
                20.352653
              ],
              [
                106.403141,
                20.352986
              ],
              [
                106.40335,
                20.353258
              ],
              [
                106.403694,
                20.353644
              ],
              [
                106.40395,
                20.353904
              ],
              [
                106.40415,
                20.354074
              ],
              [
                106.404416,
                20.354273
              ],
              [
                106.404677,
                20.35446
              ],
              [
                106.405088,
                20.354678
              ],
              [
                106.405944,
                20.354935
              ],
              [
                106.406851,
                20.35516
              ],
              [
                106.407803,
                20.355371
              ],
              [
                106.409162,
                20.355572
              ],
              [
                106.410172,
                20.355793
              ],
              [
                106.410378,
                20.355878
              ],
              [
                106.410542,
                20.356002
              ],
              [
                106.41073,
                20.35618
              ],
              [
                106.410838,
                20.356333
              ],
              [
                106.410985,
                20.356579
              ],
              [
                106.411041,
                20.356696
              ],
              [
                106.411172,
                20.356674
              ],
              [
                106.41126,
                20.35666
              ],
              [
                106.411422,
                20.356519
              ],
              [
                106.412323,
                20.355836
              ],
              [
                106.412806,
                20.35543
              ],
              [
                106.411956,
                20.353343
              ],
              [
                106.413815,
                20.352726
              ],
              [
                106.415748,
                20.352108
              ],
              [
                106.41611,
                20.351993
              ],
              [
                106.416267,
                20.351943
              ],
              [
                106.416308,
                20.351966
              ],
              [
                106.416512,
                20.351905
              ],
              [
                106.416813,
                20.3518
              ],
              [
                106.417153,
                20.351688
              ],
              [
                106.417687,
                20.351534
              ],
              [
                106.417689,
                20.351557
              ],
              [
                106.417705,
                20.351997
              ],
              [
                106.419498,
                20.352118
              ],
              [
                106.419375,
                20.353126
              ],
              [
                106.419362,
                20.353212
              ],
              [
                106.418763,
                20.357199
              ],
              [
                106.418837,
                20.357205
              ],
              [
                106.419163,
                20.357232
              ],
              [
                106.423014,
                20.357555
              ],
              [
                106.42301,
                20.357576
              ],
              [
                106.422567,
                20.35959
              ],
              [
                106.422559,
                20.359637
              ],
              [
                106.422558,
                20.359642
              ],
              [
                106.422328,
                20.36089
              ],
              [
                106.422307,
                20.361016
              ],
              [
                106.422291,
                20.361094
              ],
              [
                106.422147,
                20.361875
              ],
              [
                106.421819,
                20.363657
              ],
              [
                106.421811,
                20.363706
              ],
              [
                106.421798,
                20.363772
              ],
              [
                106.421406,
                20.365896
              ],
              [
                106.421391,
                20.36599
              ],
              [
                106.421386,
                20.366019
              ],
              [
                106.421379,
                20.366068
              ],
              [
                106.421377,
                20.366093
              ],
              [
                106.421371,
                20.366173
              ],
              [
                106.421371,
                20.366177
              ],
              [
                106.421334,
                20.366454
              ],
              [
                106.421829,
                20.366527
              ],
              [
                106.421766,
                20.367482
              ],
              [
                106.421732,
                20.36752
              ],
              [
                106.421674,
                20.368766
              ],
              [
                106.421678,
                20.368772
              ],
              [
                106.421707,
                20.368816
              ],
              [
                106.421775,
                20.368782
              ],
              [
                106.422131,
                20.368609
              ],
              [
                106.422278,
                20.368509
              ],
              [
                106.422596,
                20.368247
              ],
              [
                106.422619,
                20.368228
              ],
              [
                106.422948,
                20.367944
              ],
              [
                106.423049,
                20.367861
              ],
              [
                106.423071,
                20.367839
              ],
              [
                106.423157,
                20.367755
              ],
              [
                106.423266,
                20.367666
              ],
              [
                106.423445,
                20.367555
              ],
              [
                106.423473,
                20.367537
              ],
              [
                106.423671,
                20.367448
              ],
              [
                106.424116,
                20.36725
              ],
              [
                106.424373,
                20.367135
              ],
              [
                106.424517,
                20.367062
              ],
              [
                106.424679,
                20.366978
              ],
              [
                106.424782,
                20.366941
              ],
              [
                106.424889,
                20.366894
              ],
              [
                106.425081,
                20.366866
              ],
              [
                106.425081,
                20.366866
              ]
            ]
          ]
        ]
      },
      "properties": {
        "code": "13183",
        "name": "Bình Thanh",
        "nameEn": "Binh Thanh",
        "fullName": "Xã Bình Thanh",
        "fullNameEn": "Binh Thanh Commune",
        "codeName": "binh_thanh",
        "postalCode": "06235",
        "postalCodePrefix": "",
        "gisServerId": "diaphanhanhchinhcapxa_2025.694",
        "areaKm2": 22.37
      }
    }
  ]
}