{
  "type": "FeatureCollection",
  "bbox": [
    106.316299,
    20.344351,
    106.382416,
    20.428126
  ],
  "features": [
    {
      "type": "Feature",
      "id": "13264",
      "bbox": [
        106.316299,
        20.344351,
        106.382416,
        20.428126
      ],
      "geometry": {
        "type": "MultiPolygon",
        "coordinates": [
          [
            [
              [
                106.362866,
                20.426353
              ],
              [
                106.362882,
                20.42586
              ],
              [
                106.362924,
                20.42552
              ],
              [
                106.362996,
                20.42519
              ],
              [
                106.363125,
                20.424817
              ],
              [
                106.3632,
                20.424576
              ],
              [
                106.363495,
                20.42371
              ],
              [
                106.363717,
                20.423022
              ],
              [
                106.363843,
                20.422601
              ],
              [
                106.363924,
                20.422118
              ],
              [
                106.364071,
                20.421303
              ],
              [
                106.364188,
                20.42094
              ],
              [
                106.36445,
                20.420419
              ],
              [
                106.364643,
                20.420112
              ],
              [
                106.364892,
                20.419726
              ],
              [
                106.365294,
                20.419176
              ],
              [
                106.365829,
                20.418693
              ],
              [
                106.365998,
                20.418559
              ],
              [
                106.366737,
                20.417791
              ],
              [
                106.367044,
                20.417416
              ],
              [
                106.367401,
                20.41677
              ],
              [
                106.367486,
                20.416583
              ],
              [
                106.367645,
                20.416228
              ],
              [
                106.367718,
                20.415965
              ],
              [
                106.367806,
                20.415567
              ],
              [
                106.367874,
                20.415237
              ],
              [
                106.367917,
                20.414832
              ],
              [
                106.367903,
                20.414459
              ],
              [
                106.367885,
                20.414288
              ],
              [
                106.367747,
                20.413712
              ],
              [
                106.367674,
                20.413304
              ],
              [
                106.36765,
                20.412617
              ],
              [
                106.367635,
                20.412481
              ],
              [
                106.367611,
                20.412346
              ],
              [
                106.367603,
                20.412132
              ],
              [
                106.367523,
                20.411667
              ],
              [
                106.367447,
                20.411364
              ],
              [
                106.367332,
                20.410902
              ],
              [
                106.367318,
                20.410847
              ],
              [
                106.367028,
                20.409921
              ],
              [
                106.36699,
                20.409826
              ],
              [
                106.366847,
                20.409477
              ],
              [
                106.366694,
                20.409103
              ],
              [
                106.366446,
                20.408617
              ],
              [
                106.366288,
                20.408382
              ],
              [
                106.36595,
                20.407958
              ],
              [
                106.365904,
                20.407893
              ],
              [
                106.365805,
                20.407761
              ],
              [
                106.365789,
                20.407693
              ],
              [
                106.365756,
                20.407559
              ],
              [
                106.365619,
                20.407563
              ],
              [
                106.365185,
                20.40749
              ],
              [
                106.36453,
                20.407456
              ],
              [
                106.364211,
                20.407411
              ],
              [
                106.36075,
                20.406735
              ],
              [
                106.359199,
                20.406424
              ],
              [
                106.358294,
                20.406203
              ],
              [
                106.357738,
                20.406122
              ],
              [
                106.357767,
                20.405876
              ],
              [
                106.35781,
                20.405632
              ],
              [
                106.357861,
                20.405533
              ],
              [
                106.357993,
                20.405338
              ],
              [
                106.358049,
                20.405257
              ],
              [
                106.358112,
                20.405255
              ],
              [
                106.358169,
                20.405278
              ],
              [
                106.358185,
                20.405279
              ],
              [
                106.358214,
                20.405282
              ],
              [
                106.358247,
                20.405267
              ],
              [
                106.358258,
                20.405254
              ],
              [
                106.358314,
                20.405189
              ],
              [
                106.359086,
                20.404277
              ],
              [
                106.359104,
                20.404232
              ],
              [
                106.359482,
                20.403777
              ],
              [
                106.359795,
                20.4034
              ],
              [
                106.359813,
                20.403381
              ],
              [
                106.36051,
                20.402648
              ],
              [
                106.360819,
                20.402348
              ],
              [
                106.361787,
                20.401351
              ],
              [
                106.361874,
                20.401262
              ],
              [
                106.363378,
                20.39979
              ],
              [
                106.363421,
                20.39979
              ],
              [
                106.363837,
                20.399953
              ],
              [
                106.364511,
                20.400217
              ],
              [
                106.365939,
                20.400761
              ],
              [
                106.366018,
                20.400787
              ],
              [
                106.366031,
                20.400783
              ],
              [
                106.366413,
                20.400319
              ],
              [
                106.366442,
                20.400282
              ],
              [
                106.367558,
                20.398775
              ],
              [
                106.368137,
                20.398017
              ],
              [
                106.368182,
                20.397958
              ],
              [
                106.368236,
                20.397879
              ],
              [
                106.368111,
                20.397646
              ],
              [
                106.368064,
                20.397613
              ],
              [
                106.368027,
                20.39742
              ],
              [
                106.367901,
                20.39715
              ],
              [
                106.367602,
                20.396637
              ],
              [
                106.367278,
                20.396063
              ],
              [
                106.367076,
                20.395659
              ],
              [
                106.369486,
                20.394991
              ],
              [
                106.369296,
                20.393988
              ],
              [
                106.369872,
                20.393811
              ],
              [
                106.369968,
                20.393317
              ],
              [
                106.369979,
                20.393279
              ],
              [
                106.370017,
                20.393134
              ],
              [
                106.370272,
                20.393167
              ],
              [
                106.3703,
                20.39317
              ],
              [
                106.370531,
                20.392736
              ],
              [
                106.370475,
                20.392712
              ],
              [
                106.37024,
                20.392616
              ],
              [
                106.36998,
                20.392511
              ],
              [
                106.370179,
                20.392045
              ],
              [
                106.369677,
                20.391907
              ],
              [
                106.368235,
                20.391564
              ],
              [
                106.368072,
                20.391527
              ],
              [
                106.368004,
                20.391509
              ],
              [
                106.368004,
                20.391509
              ],
              [
                106.367582,
                20.391516
              ],
              [
                106.36757,
                20.391395
              ],
              [
                106.367543,
                20.391135
              ],
              [
                106.367515,
                20.390897
              ],
              [
                106.367483,
                20.390603
              ],
              [
                106.367453,
                20.390331
              ],
              [
                106.367447,
                20.390275
              ],
              [
                106.36743,
                20.390125
              ],
              [
                106.367423,
                20.390058
              ],
              [
                106.367415,
                20.389961
              ],
              [
                106.367411,
                20.38992
              ],
              [
                106.367211,
                20.389953
              ],
              [
                106.367122,
                20.389949
              ],
              [
                106.367055,
                20.389946
              ],
              [
                106.366962,
                20.389942
              ],
              [
                106.366498,
                20.389853
              ],
              [
                106.366054,
                20.389755
              ],
              [
                106.365754,
                20.389677
              ],
              [
                106.365744,
                20.389674
              ],
              [
                106.365623,
                20.389672
              ],
              [
                106.365571,
                20.389673
              ],
              [
                106.365523,
                20.389702
              ],
              [
                106.364727,
                20.390297
              ],
              [
                106.363524,
                20.39123
              ],
              [
                106.363333,
                20.391379
              ],
              [
                106.362974,
                20.391641
              ],
              [
                106.362972,
                20.391637
              ],
              [
                106.362939,
                20.391574
              ],
              [
                106.3626,
                20.390883
              ],
              [
                106.362205,
                20.391182
              ],
              [
                106.36218,
                20.391176
              ],
              [
                106.362025,
                20.391029
              ],
              [
                106.362135,
                20.390812
              ],
              [
                106.36202,
                20.390649
              ],
              [
                106.361939,
                20.39055
              ],
              [
                106.36178,
                20.390497
              ],
              [
                106.361562,
                20.390491
              ],
              [
                106.361439,
                20.390441
              ],
              [
                106.36095,
                20.391079
              ],
              [
                106.360933,
                20.391101
              ],
              [
                106.360921,
                20.391117
              ],
              [
                106.360456,
                20.390178
              ],
              [
                106.360397,
                20.390023
              ],
              [
                106.360374,
                20.389844
              ],
              [
                106.360362,
                20.389551
              ],
              [
                106.360264,
                20.389274
              ],
              [
                106.360151,
                20.389012
              ],
              [
                106.360003,
                20.388762
              ],
              [
                106.359781,
                20.388423
              ],
              [
                106.359209,
                20.38764
              ],
              [
                106.359002,
                20.387321
              ],
              [
                106.35884,
                20.386993
              ],
              [
                106.358595,
                20.386508
              ],
              [
                106.358443,
                20.386175
              ],
              [
                106.358285,
                20.385778
              ],
              [
                106.358154,
                20.385355
              ],
              [
                106.358109,
                20.385212
              ],
              [
                106.35805,
                20.385042
              ],
              [
                106.357944,
                20.384843
              ],
              [
                106.357767,
                20.384581
              ],
              [
                106.357536,
                20.3842
              ],
              [
                106.357393,
                20.383957
              ],
              [
                106.357433,
                20.38392
              ],
              [
                106.357454,
                20.383901
              ],
              [
                106.357868,
                20.383522
              ],
              [
                106.357965,
                20.383421
              ],
              [
                106.358061,
                20.38332
              ],
              [
                106.358119,
                20.383164
              ],
              [
                106.358149,
                20.383071
              ],
              [
                106.358535,
                20.381905
              ],
              [
                106.358866,
                20.380875
              ],
              [
                106.359058,
                20.380298
              ],
              [
                106.359061,
                20.380243
              ],
              [
                106.359039,
                20.380211
              ],
              [
                106.358964,
                20.380188
              ],
              [
                106.358675,
                20.380141
              ],
              [
                106.358623,
                20.380104
              ],
              [
                106.358598,
                20.379968
              ],
              [
                106.358603,
                20.379819
              ],
              [
                106.358674,
                20.379545
              ],
              [
                106.359012,
                20.378495
              ],
              [
                106.359028,
                20.378433
              ],
              [
                106.359027,
                20.378396
              ],
              [
                106.359005,
                20.378385
              ],
              [
                106.358592,
                20.378336
              ],
              [
                106.358568,
                20.378318
              ],
              [
                106.358578,
                20.378259
              ],
              [
                106.358724,
                20.377603
              ],
              [
                106.358798,
                20.377335
              ],
              [
                106.358944,
                20.376974
              ],
              [
                106.358991,
                20.376857
              ],
              [
                106.35992,
                20.37523
              ],
              [
                106.359975,
                20.375136
              ],
              [
                106.360459,
                20.37432
              ],
              [
                106.360538,
                20.374187
              ],
              [
                106.360555,
                20.374156
              ],
              [
                106.360638,
                20.374009
              ],
              [
                106.360639,
                20.374007
              ],
              [
                106.361508,
                20.372455
              ],
              [
                106.362127,
                20.371346
              ],
              [
                106.362157,
                20.371317
              ],
              [
                106.362274,
                20.371364
              ],
              [
                106.362976,
                20.371641
              ],
              [
                106.363129,
                20.371701
              ],
              [
                106.363185,
                20.371706
              ],
              [
                106.363225,
                20.371677
              ],
              [
                106.363398,
                20.37124
              ],
              [
                106.363448,
                20.371135
              ],
              [
                106.363509,
                20.371139
              ],
              [
                106.363962,
                20.371351
              ],
              [
                106.364079,
                20.371388
              ],
              [
                106.364103,
                20.371387
              ],
              [
                106.36418,
                20.371383
              ],
              [
                106.36506,
                20.371041
              ],
              [
                106.365747,
                20.370773
              ],
              [
                106.365791,
                20.370756
              ],
              [
                106.366424,
                20.370509
              ],
              [
                106.36703,
                20.37026
              ],
              [
                106.367242,
                20.370173
              ],
              [
                106.367565,
                20.370041
              ],
              [
                106.367596,
                20.370034
              ],
              [
                106.367757,
                20.369992
              ],
              [
                106.367919,
                20.369938
              ],
              [
                106.368075,
                20.369843
              ],
              [
                106.368155,
                20.369794
              ],
              [
                106.368156,
                20.369793
              ],
              [
                106.368165,
                20.369782
              ],
              [
                106.368185,
                20.369756
              ],
              [
                106.368216,
                20.369716
              ],
              [
                106.368251,
                20.369625
              ],
              [
                106.36826,
                20.369467
              ],
              [
                106.368263,
                20.369271
              ],
              [
                106.368226,
                20.369027
              ],
              [
                106.368224,
                20.368851
              ],
              [
                106.368268,
                20.368659
              ],
              [
                106.368306,
                20.368551
              ],
              [
                106.368372,
                20.368362
              ],
              [
                106.368481,
                20.368111
              ],
              [
                106.368541,
                20.367973
              ],
              [
                106.368681,
                20.367786
              ],
              [
                106.368738,
                20.367737
              ],
              [
                106.368825,
                20.367662
              ],
              [
                106.368917,
                20.367583
              ],
              [
                106.369245,
                20.367365
              ],
              [
                106.369674,
                20.367137
              ],
              [
                106.369947,
                20.36703
              ],
              [
                106.370058,
                20.366998
              ],
              [
                106.370119,
                20.366981
              ],
              [
                106.370144,
                20.366983
              ],
              [
                106.370306,
                20.366994
              ],
              [
                106.370449,
                20.367036
              ],
              [
                106.370551,
                20.367106
              ],
              [
                106.370648,
                20.366924
              ],
              [
                106.370701,
                20.3667
              ],
              [
                106.370721,
                20.366617
              ],
              [
                106.370736,
                20.366546
              ],
              [
                106.370809,
                20.366205
              ],
              [
                106.370836,
                20.366021
              ],
              [
                106.370866,
                20.365818
              ],
              [
                106.370923,
                20.36543
              ],
              [
                106.370951,
                20.3651
              ],
              [
                106.37095,
                20.36499
              ],
              [
                106.37095,
                20.364949
              ],
              [
                106.370947,
                20.364631
              ],
              [
                106.370923,
                20.364197
              ],
              [
                106.370872,
                20.36376
              ],
              [
                106.370862,
                20.363681
              ],
              [
                106.37084,
                20.363485
              ],
              [
                106.370772,
                20.362888
              ],
              [
                106.370758,
                20.362768
              ],
              [
                106.370692,
                20.3622
              ],
              [
                106.370679,
                20.362093
              ],
              [
                106.370649,
                20.361855
              ],
              [
                106.370594,
                20.361407
              ],
              [
                106.370541,
                20.361006
              ],
              [
                106.370502,
                20.360717
              ],
              [
                106.370494,
                20.360303
              ],
              [
                106.370492,
                20.360213
              ],
              [
                106.370509,
                20.359874
              ],
              [
                106.370551,
                20.359452
              ],
              [
                106.370629,
                20.359012
              ],
              [
                106.370671,
                20.358831
              ],
              [
                106.370692,
                20.358744
              ],
              [
                106.370772,
                20.358585
              ],
              [
                106.370877,
                20.358465
              ],
              [
                106.371269,
                20.358118
              ],
              [
                106.372034,
                20.357457
              ],
              [
                106.372451,
                20.357066
              ],
              [
                106.372848,
                20.356661
              ],
              [
                106.373315,
                20.356141
              ],
              [
                106.373553,
                20.35586
              ],
              [
                106.373636,
                20.355761
              ],
              [
                106.374007,
                20.355299
              ],
              [
                106.374207,
                20.355042
              ],
              [
                106.374508,
                20.354655
              ],
              [
                106.374876,
                20.354201
              ],
              [
                106.374915,
                20.354154
              ],
              [
                106.375808,
                20.353196
              ],
              [
                106.376301,
                20.352658
              ],
              [
                106.376516,
                20.352424
              ],
              [
                106.376682,
                20.352243
              ],
              [
                106.376807,
                20.352108
              ],
              [
                106.376866,
                20.352045
              ],
              [
                106.377358,
                20.351416
              ],
              [
                106.377679,
                20.35107
              ],
              [
                106.378041,
                20.350656
              ],
              [
                106.378473,
                20.350298
              ],
              [
                106.379077,
                20.349777
              ],
              [
                106.379191,
                20.349713
              ],
              [
                106.379359,
                20.349617
              ],
              [
                106.379582,
                20.349534
              ],
              [
                106.37985,
                20.349513
              ],
              [
                106.380443,
                20.349465
              ],
              [
                106.380746,
                20.349396
              ],
              [
                106.381141,
                20.349273
              ],
              [
                106.381413,
                20.349118
              ],
              [
                106.381645,
                20.348963
              ],
              [
                106.381755,
                20.348833
              ],
              [
                106.381794,
                20.348699
              ],
              [
                106.381803,
                20.348556
              ],
              [
                106.381744,
                20.348183
              ],
              [
                106.381682,
                20.347854
              ],
              [
                106.381703,
                20.34775
              ],
              [
                106.381942,
                20.346569
              ],
              [
                106.382206,
                20.345476
              ],
              [
                106.382416,
                20.344595
              ],
              [
                106.376865,
                20.344352
              ],
              [
                106.375561,
                20.344351
              ],
              [
                106.374847,
                20.344428
              ],
              [
                106.374212,
                20.34456
              ],
              [
                106.374057,
                20.344592
              ],
              [
                106.370751,
                20.345607
              ],
              [
                106.365926,
                20.347562
              ],
              [
                106.364882,
                20.347985
              ],
              [
                106.363406,
                20.348689
              ],
              [
                106.361944,
                20.349617
              ],
              [
                106.358458,
                20.351833
              ],
              [
                106.357343,
                20.352574
              ],
              [
                106.356488,
                20.35323
              ],
              [
                106.355377,
                20.35429
              ],
              [
                106.353586,
                20.356459
              ],
              [
                106.353226,
                20.357041
              ],
              [
                106.351497,
                20.359381
              ],
              [
                106.350355,
                20.360928
              ],
              [
                106.349313,
                20.362467
              ],
              [
                106.3481,
                20.364685
              ],
              [
                106.346993,
                20.367043
              ],
              [
                106.346446,
                20.368656
              ],
              [
                106.345807,
                20.370325
              ],
              [
                106.345194,
                20.371606
              ],
              [
                106.344708,
                20.372542
              ],
              [
                106.344251,
                20.373327
              ],
              [
                106.34414,
                20.373515
              ],
              [
                106.343846,
                20.374009
              ],
              [
                106.343844,
                20.374013
              ],
              [
                106.343447,
                20.374793
              ],
              [
                106.343211,
                20.37507
              ],
              [
                106.34271,
                20.375657
              ],
              [
                106.34173,
                20.376588
              ],
              [
                106.340735,
                20.377057
              ],
              [
                106.339737,
                20.377185
              ],
              [
                106.338562,
                20.377111
              ],
              [
                106.336726,
                20.37658
              ],
              [
                106.335881,
                20.376135
              ],
              [
                106.33332,
                20.374014
              ],
              [
                106.333314,
                20.374009
              ],
              [
                106.33237,
                20.37319
              ],
              [
                106.331612,
                20.373535
              ],
              [
                106.331073,
                20.37378
              ],
              [
                106.330567,
                20.374009
              ],
              [
                106.330567,
                20.374009
              ],
              [
                106.330556,
                20.374015
              ],
              [
                106.330077,
                20.374257
              ],
              [
                106.329788,
                20.374364
              ],
              [
                106.329269,
                20.374614
              ],
              [
                106.328585,
                20.37496
              ],
              [
                106.328053,
                20.375179
              ],
              [
                106.328181,
                20.375506
              ],
              [
                106.328311,
                20.375812
              ],
              [
                106.328424,
                20.376076
              ],
              [
                106.327991,
                20.376029
              ],
              [
                106.32791,
                20.37699
              ],
              [
                106.32755,
                20.376965
              ],
              [
                106.327534,
                20.377206
              ],
              [
                106.327554,
                20.377869
              ],
              [
                106.327233,
                20.377911
              ],
              [
                106.327226,
                20.379014
              ],
              [
                106.327214,
                20.379503
              ],
              [
                106.327177,
                20.380671
              ],
              [
                106.32718,
                20.380909
              ],
              [
                106.327164,
                20.381659
              ],
              [
                106.327143,
                20.382008
              ],
              [
                106.327102,
                20.382324
              ],
              [
                106.327093,
                20.382393
              ],
              [
                106.327006,
                20.382883
              ],
              [
                106.326898,
                20.383565
              ],
              [
                106.326808,
                20.383956
              ],
              [
                106.326601,
                20.383961
              ],
              [
                106.326247,
                20.383972
              ],
              [
                106.325961,
                20.383972
              ],
              [
                106.32566,
                20.383962
              ],
              [
                106.325594,
                20.383958
              ],
              [
                106.325522,
                20.383954
              ],
              [
                106.325513,
                20.384235
              ],
              [
                106.325304,
                20.384226
              ],
              [
                106.324519,
                20.384087
              ],
              [
                106.323792,
                20.383981
              ],
              [
                106.323097,
                20.383821
              ],
              [
                106.323063,
                20.383838
              ],
              [
                106.322417,
                20.385334
              ],
              [
                106.322126,
                20.385999
              ],
              [
                106.32211,
                20.386035
              ],
              [
                106.32208,
                20.386104
              ],
              [
                106.321636,
                20.387128
              ],
              [
                106.321552,
                20.3871
              ],
              [
                106.321081,
                20.386933
              ],
              [
                106.321028,
                20.387053
              ],
              [
                106.320625,
                20.387998
              ],
              [
                106.318965,
                20.387434
              ],
              [
                106.31843,
                20.387362
              ],
              [
                106.318348,
                20.387528
              ],
              [
                106.318195,
                20.387472
              ],
              [
                106.317985,
                20.3874
              ],
              [
                106.317495,
                20.387226
              ],
              [
                106.31709,
                20.387078
              ],
              [
                106.316653,
                20.386923
              ],
              [
                106.316522,
                20.386883
              ],
              [
                106.316525,
                20.387109
              ],
              [
                106.316531,
                20.387354
              ],
              [
                106.316534,
                20.387445
              ],
              [
                106.316539,
                20.387687
              ],
              [
                106.31654,
                20.387747
              ],
              [
                106.316542,
                20.387817
              ],
              [
                106.316545,
                20.388128
              ],
              [
                106.316557,
                20.388402
              ],
              [
                106.316558,
                20.38865
              ],
              [
                106.316557,
                20.3887
              ],
              [
                106.316554,
                20.388963
              ],
              [
                106.316557,
                20.389169
              ],
              [
                106.316555,
                20.389477
              ],
              [
                106.316609,
                20.389763
              ],
              [
                106.316401,
                20.390108
              ],
              [
                106.31635,
                20.390196
              ],
              [
                106.316328,
                20.390234
              ],
              [
                106.316299,
                20.390284
              ],
              [
                106.316374,
                20.390339
              ],
              [
                106.316494,
                20.390405
              ],
              [
                106.3166,
                20.390465
              ],
              [
                106.316676,
                20.390513
              ],
              [
                106.317181,
                20.39083
              ],
              [
                106.317377,
                20.391006
              ],
              [
                106.317507,
                20.39124
              ],
              [
                106.317597,
                20.391441
              ],
              [
                106.317635,
                20.391669
              ],
              [
                106.317631,
                20.392
              ],
              [
                106.317512,
                20.392466
              ],
              [
                106.317401,
                20.392829
              ],
              [
                106.317286,
                20.393163
              ],
              [
                106.317138,
                20.393569
              ],
              [
                106.316963,
                20.393995
              ],
              [
                106.316825,
                20.394351
              ],
              [
                106.316738,
                20.394674
              ],
              [
                106.316693,
                20.395054
              ],
              [
                106.316693,
                20.395379
              ],
              [
                106.316768,
                20.395768
              ],
              [
                106.316875,
                20.396079
              ],
              [
                106.31704,
                20.396474
              ],
              [
                106.317216,
                20.396813
              ],
              [
                106.317505,
                20.397201
              ],
              [
                106.318159,
                20.397987
              ],
              [
                106.318676,
                20.398379
              ],
              [
                106.318765,
                20.398447
              ],
              [
                106.319184,
                20.398904
              ],
              [
                106.319695,
                20.399352
              ],
              [
                106.32005,
                20.399684
              ],
              [
                106.320638,
                20.400146
              ],
              [
                106.320676,
                20.400175
              ],
              [
                106.321141,
                20.400506
              ],
              [
                106.321543,
                20.400802
              ],
              [
                106.32175,
                20.40091
              ],
              [
                106.321995,
                20.401017
              ],
              [
                106.322277,
                20.401115
              ],
              [
                106.322588,
                20.401128
              ],
              [
                106.322703,
                20.401121
              ],
              [
                106.322925,
                20.401099
              ],
              [
                106.323261,
                20.401058
              ],
              [
                106.323688,
                20.400995
              ],
              [
                106.324408,
                20.400891
              ],
              [
                106.324487,
                20.400879
              ],
              [
                106.324916,
                20.400793
              ],
              [
                106.32505,
                20.400758
              ],
              [
                106.326081,
                20.400458
              ],
              [
                106.32754,
                20.400119
              ],
              [
                106.327857,
                20.400058
              ],
              [
                106.328424,
                20.39998
              ],
              [
                106.328981,
                20.39996
              ],
              [
                106.32975,
                20.399964
              ],
              [
                106.330579,
                20.400007
              ],
              [
                106.331162,
                20.400076
              ],
              [
                106.331661,
                20.400162
              ],
              [
                106.332045,
                20.400273
              ],
              [
                106.332587,
                20.40046
              ],
              [
                106.332714,
                20.400523
              ],
              [
                106.332969,
                20.400642
              ],
              [
                106.333221,
                20.400768
              ],
              [
                106.333798,
                20.401082
              ],
              [
                106.334274,
                20.401396
              ],
              [
                106.334609,
                20.401652
              ],
              [
                106.335102,
                20.402061
              ],
              [
                106.336033,
                20.402993
              ],
              [
                106.336389,
                20.403403
              ],
              [
                106.336727,
                20.403873
              ],
              [
                106.336934,
                20.404178
              ],
              [
                106.337405,
                20.404919
              ],
              [
                106.337953,
                20.405871
              ],
              [
                106.33806,
                20.406129
              ],
              [
                106.337976,
                20.406161
              ],
              [
                106.337764,
                20.406241
              ],
              [
                106.337184,
                20.406441
              ],
              [
                106.337017,
                20.406542
              ],
              [
                106.336806,
                20.406718
              ],
              [
                106.336574,
                20.406946
              ],
              [
                106.336264,
                20.407328
              ],
              [
                106.336076,
                20.407604
              ],
              [
                106.335558,
                20.408442
              ],
              [
                106.335375,
                20.408852
              ],
              [
                106.335226,
                20.409396
              ],
              [
                106.335413,
                20.40947
              ],
              [
                106.335596,
                20.409565
              ],
              [
                106.336254,
                20.409981
              ],
              [
                106.336293,
                20.410004
              ],
              [
                106.337188,
                20.410541
              ],
              [
                106.337663,
                20.410825
              ],
              [
                106.337866,
                20.410946
              ],
              [
                106.338774,
                20.411498
              ],
              [
                106.339769,
                20.412114
              ],
              [
                106.34026,
                20.412412
              ],
              [
                106.340768,
                20.412731
              ],
              [
                106.34131,
                20.41307
              ],
              [
                106.341392,
                20.41312
              ],
              [
                106.342211,
                20.413608
              ],
              [
                106.343046,
                20.414115
              ],
              [
                106.343954,
                20.414664
              ],
              [
                106.344661,
                20.415097
              ],
              [
                106.345559,
                20.415651
              ],
              [
                106.345642,
                20.415702
              ],
              [
                106.346448,
                20.41619
              ],
              [
                106.346891,
                20.416458
              ],
              [
                106.347023,
                20.416544
              ],
              [
                106.34738,
                20.416776
              ],
              [
                106.347623,
                20.416934
              ],
              [
                106.347594,
                20.416995
              ],
              [
                106.347205,
                20.417809
              ],
              [
                106.346599,
                20.419117
              ],
              [
                106.346312,
                20.41976
              ],
              [
                106.34631,
                20.419764
              ],
              [
                106.346372,
                20.419795
              ],
              [
                106.346644,
                20.419933
              ],
              [
                106.346716,
                20.41997
              ],
              [
                106.34729,
                20.420261
              ],
              [
                106.348153,
                20.420792
              ],
              [
                106.348358,
                20.420917
              ],
              [
                106.349216,
                20.421434
              ],
              [
                106.350125,
                20.42197
              ],
              [
                106.350532,
                20.422221
              ],
              [
                106.350558,
                20.422226
              ],
              [
                106.350593,
                20.422223
              ],
              [
                106.350631,
                20.422175
              ],
              [
                106.350951,
                20.42171
              ],
              [
                106.350972,
                20.421702
              ],
              [
                106.351029,
                20.421695
              ],
              [
                106.351882,
                20.422091
              ],
              [
                106.352754,
                20.422478
              ],
              [
                106.35292,
                20.422551
              ],
              [
                106.353497,
                20.422822
              ],
              [
                106.353625,
                20.422869
              ],
              [
                106.353781,
                20.422923
              ],
              [
                106.353925,
                20.422991
              ],
              [
                106.35399,
                20.423027
              ],
              [
                106.354268,
                20.423206
              ],
              [
                106.354503,
                20.423367
              ],
              [
                106.354887,
                20.423631
              ],
              [
                106.356264,
                20.424558
              ],
              [
                106.356606,
                20.424792
              ],
              [
                106.356813,
                20.424933
              ],
              [
                106.357131,
                20.425151
              ],
              [
                106.357222,
                20.425213
              ],
              [
                106.357456,
                20.425373
              ],
              [
                106.357767,
                20.425581
              ],
              [
                106.358078,
                20.42579
              ],
              [
                106.358534,
                20.426095
              ],
              [
                106.35942,
                20.426679
              ],
              [
                106.359538,
                20.426756
              ],
              [
                106.359804,
                20.426917
              ],
              [
                106.359867,
                20.42692
              ],
              [
                106.359974,
                20.426875
              ],
              [
                106.360124,
                20.426774
              ],
              [
                106.360174,
                20.42674
              ],
              [
                106.360613,
                20.426364
              ],
              [
                106.360673,
                20.426346
              ],
              [
                106.36071,
                20.426348
              ],
              [
                106.360754,
                20.426376
              ],
              [
                106.361048,
                20.426675
              ],
              [
                106.361096,
                20.426724
              ],
              [
                106.361107,
                20.426736
              ],
              [
                106.361203,
                20.426844
              ],
              [
                106.361288,
                20.426939
              ],
              [
                106.361851,
                20.42757
              ],
              [
                106.361851,
                20.42757
              ],
              [
                106.361913,
                20.427639
              ],
              [
                106.362247,
                20.427989
              ],
              [
                106.36236,
                20.428047
              ],
              [
                106.362642,
                20.428125
              ],
              [
                106.362643,
                20.428126
              ],
              [
                106.362643,
                20.428125
              ],
              [
                106.363157,
                20.427717
              ],
              [
                106.363232,
                20.427651
              ],
              [
                106.363208,
                20.427614
              ],
              [
                106.362947,
                20.427061
              ],
              [
                106.362896,
                20.426867
              ],
              [
                106.362858,
                20.426597
              ],
              [
                106.362866,
                20.426353
              ],
              [
                106.362866,
                20.426353
              ]
            ]
          ]
        ]
      },
      "properties": {
        "code": "13264",
        "name": "Thư Vũ",
        "nameEn": "Thu Vu",
        "fullName": "Xã Thư Vũ",
        "fullNameEn": "Thu Vu Commune",
        "codeName": "thu_vu",
        "postalCode": "06938",
        "postalCodePrefix": "",
        "gisServerId": "diaphanhanhchinhcapxa_2025.687",
        "areaKm2": 24.99
      }
    }
  ]
}