{
  "type": "FeatureCollection",
  "bbox": [
    105.122519,
    19.343826,
    105.255099,
    19.429937
  ],
  "features": [
    {
      "type": "Feature",
      "id": "17056",
      "bbox": [
        105.122519,
        19.343826,
        105.255099,
        19.429937
      ],
      "geometry": {
        "type": "MultiPolygon",
        "coordinates": [
          [
            [
              [
                105.122519,
                19.389286
              ],
              [
                105.122788,
                19.38964
              ],
              [
                105.124078,
                19.391343
              ],
              [
                105.124813,
                19.392251
              ],
              [
                105.124814,
                19.392252
              ],
              [
                105.125129,
                19.392641
              ],
              [
                105.126179,
                19.39394
              ],
              [
                105.126858,
                19.394276
              ],
              [
                105.12686,
                19.394277
              ],
              [
                105.127022,
                19.394366
              ],
              [
                105.12712,
                19.394415
              ],
              [
                105.127135,
                19.394423
              ],
              [
                105.127498,
                19.394532
              ],
              [
                105.127951,
                19.394728
              ],
              [
                105.128269,
                19.394819
              ],
              [
                105.128702,
                19.394814
              ],
              [
                105.129025,
                19.394756
              ],
              [
                105.129141,
                19.394694
              ],
              [
                105.129498,
                19.394392
              ],
              [
                105.12966,
                19.394273
              ],
              [
                105.129791,
                19.394244
              ],
              [
                105.130002,
                19.394277
              ],
              [
                105.130486,
                19.394401
              ],
              [
                105.130687,
                19.394483
              ],
              [
                105.130725,
                19.394486
              ],
              [
                105.13104,
                19.394432
              ],
              [
                105.131374,
                19.394378
              ],
              [
                105.131575,
                19.394378
              ],
              [
                105.131809,
                19.394401
              ],
              [
                105.131985,
                19.394509
              ],
              [
                105.132117,
                19.394712
              ],
              [
                105.132256,
                19.395005
              ],
              [
                105.132401,
                19.395375
              ],
              [
                105.132465,
                19.395638
              ],
              [
                105.132602,
                19.395871
              ],
              [
                105.132659,
                19.395906
              ],
              [
                105.132821,
                19.395958
              ],
              [
                105.132992,
                19.396044
              ],
              [
                105.133209,
                19.396221
              ],
              [
                105.133496,
                19.396427
              ],
              [
                105.133928,
                19.396794
              ],
              [
                105.134369,
                19.397279
              ],
              [
                105.134893,
                19.397936
              ],
              [
                105.134903,
                19.397944
              ],
              [
                105.135586,
                19.398519
              ],
              [
                105.136171,
                19.398825
              ],
              [
                105.136756,
                19.398942
              ],
              [
                105.137541,
                19.398985
              ],
              [
                105.138137,
                19.399106
              ],
              [
                105.138756,
                19.399232
              ],
              [
                105.139418,
                19.39948
              ],
              [
                105.139911,
                19.399917
              ],
              [
                105.140071,
                19.400056
              ],
              [
                105.140989,
                19.400851
              ],
              [
                105.142606,
                19.40231
              ],
              [
                105.143099,
                19.402821
              ],
              [
                105.143438,
                19.403419
              ],
              [
                105.143545,
                19.403631
              ],
              [
                105.144008,
                19.404543
              ],
              [
                105.144272,
                19.404961
              ],
              [
                105.144486,
                19.405302
              ],
              [
                105.144655,
                19.405637
              ],
              [
                105.144656,
                19.405842
              ],
              [
                105.14461,
                19.406265
              ],
              [
                105.144656,
                19.406513
              ],
              [
                105.144761,
                19.406638
              ],
              [
                105.144964,
                19.406878
              ],
              [
                105.145267,
                19.407202
              ],
              [
                105.145337,
                19.407276
              ],
              [
                105.145652,
                19.407532
              ],
              [
                105.145755,
                19.407625
              ],
              [
                105.145799,
                19.407677
              ],
              [
                105.146082,
                19.408078
              ],
              [
                105.146344,
                19.408465
              ],
              [
                105.146475,
                19.408709
              ],
              [
                105.146591,
                19.40881
              ],
              [
                105.146909,
                19.409048
              ],
              [
                105.147272,
                19.409316
              ],
              [
                105.147458,
                19.409472
              ],
              [
                105.147783,
                19.409927
              ],
              [
                105.148815,
                19.411284
              ],
              [
                105.149154,
                19.411649
              ],
              [
                105.149578,
                19.411999
              ],
              [
                105.149862,
                19.412138
              ],
              [
                105.150832,
                19.41229
              ],
              [
                105.151786,
                19.412487
              ],
              [
                105.152094,
                19.41253
              ],
              [
                105.152371,
                19.412515
              ],
              [
                105.152447,
                19.412501
              ],
              [
                105.152771,
                19.412442
              ],
              [
                105.153217,
                19.412405
              ],
              [
                105.15371,
                19.412441
              ],
              [
                105.153911,
                19.412474
              ],
              [
                105.153986,
                19.41251
              ],
              [
                105.154177,
                19.412672
              ],
              [
                105.154359,
                19.41294
              ],
              [
                105.15443,
                19.413303
              ],
              [
                105.154571,
                19.413772
              ],
              [
                105.154814,
                19.414231
              ],
              [
                105.155026,
                19.414508
              ],
              [
                105.155207,
                19.414756
              ],
              [
                105.155389,
                19.414976
              ],
              [
                105.155651,
                19.415186
              ],
              [
                105.155919,
                19.41535
              ],
              [
                105.156069,
                19.415447
              ],
              [
                105.156574,
                19.415865
              ],
              [
                105.156632,
                19.415933
              ],
              [
                105.156739,
                19.416016
              ],
              [
                105.157011,
                19.416274
              ],
              [
                105.157179,
                19.416539
              ],
              [
                105.157223,
                19.416618
              ],
              [
                105.157242,
                19.416675
              ],
              [
                105.157292,
                19.416826
              ],
              [
                105.157388,
                19.417052
              ],
              [
                105.157512,
                19.417325
              ],
              [
                105.157523,
                19.417431
              ],
              [
                105.157524,
                19.417767
              ],
              [
                105.157551,
                19.418508
              ],
              [
                105.157606,
                19.419665
              ],
              [
                105.157672,
                19.419888
              ],
              [
                105.157815,
                19.420209
              ],
              [
                105.15798,
                19.420424
              ],
              [
                105.158288,
                19.420818
              ],
              [
                105.158498,
                19.421049
              ],
              [
                105.158546,
                19.421103
              ],
              [
                105.158932,
                19.421438
              ],
              [
                105.158981,
                19.421471
              ],
              [
                105.159159,
                19.421587
              ],
              [
                105.159455,
                19.421733
              ],
              [
                105.159759,
                19.421868
              ],
              [
                105.160055,
                19.421952
              ],
              [
                105.160375,
                19.422017
              ],
              [
                105.160989,
                19.42211
              ],
              [
                105.161043,
                19.422113
              ],
              [
                105.161667,
                19.422138
              ],
              [
                105.162284,
                19.422162
              ],
              [
                105.162358,
                19.422165
              ],
              [
                105.162359,
                19.422165
              ],
              [
                105.162417,
                19.422196
              ],
              [
                105.16244,
                19.422217
              ],
              [
                105.162445,
                19.422235
              ],
              [
                105.162602,
                19.422611
              ],
              [
                105.162824,
                19.423012
              ],
              [
                105.163047,
                19.423404
              ],
              [
                105.163309,
                19.423681
              ],
              [
                105.163632,
                19.423987
              ],
              [
                105.163864,
                19.424197
              ],
              [
                105.164227,
                19.42458
              ],
              [
                105.164591,
                19.424933
              ],
              [
                105.164863,
                19.425143
              ],
              [
                105.165115,
                19.425373
              ],
              [
                105.165297,
                19.425602
              ],
              [
                105.16561,
                19.425917
              ],
              [
                105.165872,
                19.426185
              ],
              [
                105.166074,
                19.426347
              ],
              [
                105.166397,
                19.426548
              ],
              [
                105.166841,
                19.426815
              ],
              [
                105.167335,
                19.427121
              ],
              [
                105.167658,
                19.42736
              ],
              [
                105.168051,
                19.427608
              ],
              [
                105.168515,
                19.427933
              ],
              [
                105.169141,
                19.428382
              ],
              [
                105.169565,
                19.428649
              ],
              [
                105.169983,
                19.428948
              ],
              [
                105.170301,
                19.429222
              ],
              [
                105.170513,
                19.429452
              ],
              [
                105.170683,
                19.429857
              ],
              [
                105.170735,
                19.429937
              ],
              [
                105.170838,
                19.429784
              ],
              [
                105.170926,
                19.429671
              ],
              [
                105.171096,
                19.429563
              ],
              [
                105.171493,
                19.429443
              ],
              [
                105.172331,
                19.429197
              ],
              [
                105.172583,
                19.429119
              ],
              [
                105.172866,
                19.429089
              ],
              [
                105.173124,
                19.429095
              ],
              [
                105.173332,
                19.429118
              ],
              [
                105.173496,
                19.429148
              ],
              [
                105.173647,
                19.429166
              ],
              [
                105.173655,
                19.429166
              ],
              [
                105.173786,
                19.429166
              ],
              [
                105.173925,
                19.42916
              ],
              [
                105.174007,
                19.429136
              ],
              [
                105.174321,
                19.428956
              ],
              [
                105.17459,
                19.428779
              ],
              [
                105.174712,
                19.428699
              ],
              [
                105.175016,
                19.428498
              ],
              [
                105.175052,
                19.428457
              ],
              [
                105.175184,
                19.428349
              ],
              [
                105.175279,
                19.428274
              ],
              [
                105.175367,
                19.428232
              ],
              [
                105.175449,
                19.428217
              ],
              [
                105.175534,
                19.428217
              ],
              [
                105.175776,
                19.428193
              ],
              [
                105.175902,
                19.428175
              ],
              [
                105.176013,
                19.428136
              ],
              [
                105.176123,
                19.428067
              ],
              [
                105.176255,
                19.427977
              ],
              [
                105.176438,
                19.427851
              ],
              [
                105.176538,
                19.427798
              ],
              [
                105.176633,
                19.427768
              ],
              [
                105.176784,
                19.427738
              ],
              [
                105.177134,
                19.427606
              ],
              [
                105.177456,
                19.427462
              ],
              [
                105.177817,
                19.427315
              ],
              [
                105.177999,
                19.427231
              ],
              [
                105.178232,
                19.427171
              ],
              [
                105.178604,
                19.427123
              ],
              [
                105.179014,
                19.427087
              ],
              [
                105.179429,
                19.426996
              ],
              [
                105.179839,
                19.42693
              ],
              [
                105.179971,
                19.426918
              ],
              [
                105.180179,
                19.426954
              ],
              [
                105.180225,
                19.426963
              ],
              [
                105.180234,
                19.426963
              ],
              [
                105.180869,
                19.426963
              ],
              [
                105.181315,
                19.426941
              ],
              [
                105.181746,
                19.426933
              ],
              [
                105.182064,
                19.426782
              ],
              [
                105.182615,
                19.426545
              ],
              [
                105.183024,
                19.42648
              ],
              [
                105.183205,
                19.426523
              ],
              [
                105.183402,
                19.426573
              ],
              [
                105.183553,
                19.426659
              ],
              [
                105.183924,
                19.427003
              ],
              [
                105.184386,
                19.427382
              ],
              [
                105.184931,
                19.427841
              ],
              [
                105.185639,
                19.428546
              ],
              [
                105.185735,
                19.428632
              ],
              [
                105.185772,
                19.428664
              ],
              [
                105.18665,
                19.429284
              ],
              [
                105.186864,
                19.429395
              ],
              [
                105.187045,
                19.429244
              ],
              [
                105.187106,
                19.429193
              ],
              [
                105.187215,
                19.429111
              ],
              [
                105.187503,
                19.428896
              ],
              [
                105.187896,
                19.428602
              ],
              [
                105.188213,
                19.428408
              ],
              [
                105.1885,
                19.428271
              ],
              [
                105.188863,
                19.428091
              ],
              [
                105.189238,
                19.42787
              ],
              [
                105.189301,
                19.427833
              ],
              [
                105.18953,
                19.427664
              ],
              [
                105.189704,
                19.427542
              ],
              [
                105.189986,
                19.427295
              ],
              [
                105.190531,
                19.426817
              ],
              [
                105.191576,
                19.426023
              ],
              [
                105.191716,
                19.425946
              ],
              [
                105.192033,
                19.425544
              ],
              [
                105.192153,
                19.424719
              ],
              [
                105.192304,
                19.424439
              ],
              [
                105.192575,
                19.424157
              ],
              [
                105.192805,
                19.423876
              ],
              [
                105.193032,
                19.423611
              ],
              [
                105.193213,
                19.423331
              ],
              [
                105.193545,
                19.422721
              ],
              [
                105.193718,
                19.422319
              ],
              [
                105.193823,
                19.421881
              ],
              [
                105.193936,
                19.421494
              ],
              [
                105.193949,
                19.421444
              ],
              [
                105.194043,
                19.421193
              ],
              [
                105.19425,
                19.420882
              ],
              [
                105.194703,
                19.420284
              ],
              [
                105.194869,
                19.420002
              ],
              [
                105.194954,
                19.41982
              ],
              [
                105.195004,
                19.419648
              ],
              [
                105.194989,
                19.419519
              ],
              [
                105.194868,
                19.41926
              ],
              [
                105.194656,
                19.419007
              ],
              [
                105.194429,
                19.418725
              ],
              [
                105.194277,
                19.418505
              ],
              [
                105.194232,
                19.418386
              ],
              [
                105.194231,
                19.418252
              ],
              [
                105.194231,
                19.418113
              ],
              [
                105.194294,
                19.417911
              ],
              [
                105.194341,
                19.417782
              ],
              [
                105.195836,
                19.418284
              ],
              [
                105.198014,
                19.419013
              ],
              [
                105.201652,
                19.420207
              ],
              [
                105.202642,
                19.420543
              ],
              [
                105.205002,
                19.421315
              ],
              [
                105.206979,
                19.421992
              ],
              [
                105.208239,
                19.422383
              ],
              [
                105.208905,
                19.422602
              ],
              [
                105.209399,
                19.422659
              ],
              [
                105.210185,
                19.422639
              ],
              [
                105.211093,
                19.422695
              ],
              [
                105.212655,
                19.422932
              ],
              [
                105.214027,
                19.423132
              ],
              [
                105.214612,
                19.423198
              ],
              [
                105.21464,
                19.423186
              ],
              [
                105.215587,
                19.423163
              ],
              [
                105.216825,
                19.423108
              ],
              [
                105.218771,
                19.423033
              ],
              [
                105.218915,
                19.422911
              ],
              [
                105.219007,
                19.422742
              ],
              [
                105.219105,
                19.422562
              ],
              [
                105.21925,
                19.422354
              ],
              [
                105.219327,
                19.422244
              ],
              [
                105.219566,
                19.421955
              ],
              [
                105.219608,
                19.421915
              ],
              [
                105.219788,
                19.421743
              ],
              [
                105.219874,
                19.42164
              ],
              [
                105.219979,
                19.421515
              ],
              [
                105.220106,
                19.421318
              ],
              [
                105.220245,
                19.42109
              ],
              [
                105.220515,
                19.420855
              ],
              [
                105.220683,
                19.420778
              ],
              [
                105.22085,
                19.42071
              ],
              [
                105.221025,
                19.420656
              ],
              [
                105.221192,
                19.42058
              ],
              [
                105.221328,
                19.420459
              ],
              [
                105.221415,
                19.420375
              ],
              [
                105.221486,
                19.420269
              ],
              [
                105.221502,
                19.42023
              ],
              [
                105.22151,
                19.420208
              ],
              [
                105.22151,
                19.420176
              ],
              [
                105.22151,
                19.420102
              ],
              [
                105.221485,
                19.419867
              ],
              [
                105.221461,
                19.419724
              ],
              [
                105.221479,
                19.419465
              ],
              [
                105.221488,
                19.41933
              ],
              [
                105.221541,
                19.418986
              ],
              [
                105.221557,
                19.418901
              ],
              [
                105.221587,
                19.418824
              ],
              [
                105.221802,
                19.418457
              ],
              [
                105.221917,
                19.418256
              ],
              [
                105.222008,
                19.418019
              ],
              [
                105.222018,
                19.417992
              ],
              [
                105.222064,
                19.417699
              ],
              [
                105.222115,
                19.417608
              ],
              [
                105.222193,
                19.41752
              ],
              [
                105.222288,
                19.417445
              ],
              [
                105.222376,
                19.417406
              ],
              [
                105.222723,
                19.417306
              ],
              [
                105.22306,
                19.417129
              ],
              [
                105.223777,
                19.416665
              ],
              [
                105.223972,
                19.416584
              ],
              [
                105.224105,
                19.416575
              ],
              [
                105.224259,
                19.416607
              ],
              [
                105.224509,
                19.416633
              ],
              [
                105.224729,
                19.416592
              ],
              [
                105.224914,
                19.416557
              ],
              [
                105.225435,
                19.416547
              ],
              [
                105.225851,
                19.416538
              ],
              [
                105.226097,
                19.416481
              ],
              [
                105.226216,
                19.416376
              ],
              [
                105.226282,
                19.416283
              ],
              [
                105.226288,
                19.416217
              ],
              [
                105.22625,
                19.416116
              ],
              [
                105.226086,
                19.415925
              ],
              [
                105.22601,
                19.415749
              ],
              [
                105.225988,
                19.415483
              ],
              [
                105.226051,
                19.415091
              ],
              [
                105.226062,
                19.41508
              ],
              [
                105.226121,
                19.415073
              ],
              [
                105.22648,
                19.41508
              ],
              [
                105.226674,
                19.415027
              ],
              [
                105.226713,
                19.415005
              ],
              [
                105.226802,
                19.414954
              ],
              [
                105.227116,
                19.414391
              ],
              [
                105.227151,
                19.414335
              ],
              [
                105.227207,
                19.414246
              ],
              [
                105.227257,
                19.414204
              ],
              [
                105.227314,
                19.414186
              ],
              [
                105.227389,
                19.414186
              ],
              [
                105.227547,
                19.41418
              ],
              [
                105.227685,
                19.41418
              ],
              [
                105.227944,
                19.414257
              ],
              [
                105.228177,
                19.414371
              ],
              [
                105.228414,
                19.414463
              ],
              [
                105.228462,
                19.41448
              ],
              [
                105.228579,
                19.414493
              ],
              [
                105.228615,
                19.414497
              ],
              [
                105.22943,
                19.414372
              ],
              [
                105.229836,
                19.414345
              ],
              [
                105.230037,
                19.41443
              ],
              [
                105.230273,
                19.41453
              ],
              [
                105.231116,
                19.414791
              ],
              [
                105.231172,
                19.414726
              ],
              [
                105.231658,
                19.414156
              ],
              [
                105.231737,
                19.413905
              ],
              [
                105.231998,
                19.41308
              ],
              [
                105.231986,
                19.412889
              ],
              [
                105.231986,
                19.412889
              ],
              [
                105.231971,
                19.41264
              ],
              [
                105.232026,
                19.412334
              ],
              [
                105.232112,
                19.411953
              ],
              [
                105.232153,
                19.411773
              ],
              [
                105.232154,
                19.411772
              ],
              [
                105.232365,
                19.411483
              ],
              [
                105.233064,
                19.411044
              ],
              [
                105.233089,
                19.41102
              ],
              [
                105.233092,
                19.411017
              ],
              [
                105.233745,
                19.410394
              ],
              [
                105.233808,
                19.41035
              ],
              [
                105.233847,
                19.410303
              ],
              [
                105.234141,
                19.409987
              ],
              [
                105.234428,
                19.409549
              ],
              [
                105.234571,
                19.409261
              ],
              [
                105.234798,
                19.409032
              ],
              [
                105.234949,
                19.408766
              ],
              [
                105.234971,
                19.40845
              ],
              [
                105.234826,
                19.407748
              ],
              [
                105.234682,
                19.407425
              ],
              [
                105.234682,
                19.407195
              ],
              [
                105.234613,
                19.40683
              ],
              [
                105.23465,
                19.406471
              ],
              [
                105.234726,
                19.406198
              ],
              [
                105.234876,
                19.40594
              ],
              [
                105.235382,
                19.405401
              ],
              [
                105.235835,
                19.40502
              ],
              [
                105.236129,
                19.404625
              ],
              [
                105.236552,
                19.403929
              ],
              [
                105.237539,
                19.401984
              ],
              [
                105.239039,
                19.398919
              ],
              [
                105.239766,
                19.397629
              ],
              [
                105.24199,
                19.3938
              ],
              [
                105.243048,
                19.392029
              ],
              [
                105.243169,
                19.391849
              ],
              [
                105.243803,
                19.391274
              ],
              [
                105.24418,
                19.390901
              ],
              [
                105.244965,
                19.389881
              ],
              [
                105.245946,
                19.388488
              ],
              [
                105.247033,
                19.387669
              ],
              [
                105.247661,
                19.387312
              ],
              [
                105.249889,
                19.385964
              ],
              [
                105.250644,
                19.38552
              ],
              [
                105.255099,
                19.381703
              ],
              [
                105.251858,
                19.380021
              ],
              [
                105.251563,
                19.379862
              ],
              [
                105.25068,
                19.379384
              ],
              [
                105.24925,
                19.378619
              ],
              [
                105.248225,
                19.378071
              ],
              [
                105.246414,
                19.377101
              ],
              [
                105.245197,
                19.376386
              ],
              [
                105.244022,
                19.375757
              ],
              [
                105.244088,
                19.375404
              ],
              [
                105.244124,
                19.375052
              ],
              [
                105.244138,
                19.374499
              ],
              [
                105.244151,
                19.374014
              ],
              [
                105.244151,
                19.374013
              ],
              [
                105.24412,
                19.372398
              ],
              [
                105.244129,
                19.372332
              ],
              [
                105.244059,
                19.367915
              ],
              [
                105.244061,
                19.367133
              ],
              [
                105.244054,
                19.366967
              ],
              [
                105.243969,
                19.364635
              ],
              [
                105.244002,
                19.364091
              ],
              [
                105.244015,
                19.363789
              ],
              [
                105.244029,
                19.363494
              ],
              [
                105.244017,
                19.363236
              ],
              [
                105.243987,
                19.363017
              ],
              [
                105.243923,
                19.362776
              ],
              [
                105.24383,
                19.362596
              ],
              [
                105.243541,
                19.362262
              ],
              [
                105.243436,
                19.362082
              ],
              [
                105.243111,
                19.36131
              ],
              [
                105.242678,
                19.35991
              ],
              [
                105.241758,
                19.358421
              ],
              [
                105.241283,
                19.357573
              ],
              [
                105.241091,
                19.357211
              ],
              [
                105.241017,
                19.356971
              ],
              [
                105.240992,
                19.356746
              ],
              [
                105.241009,
                19.356325
              ],
              [
                105.24114,
                19.355695
              ],
              [
                105.241247,
                19.355134
              ],
              [
                105.241382,
                19.354875
              ],
              [
                105.241596,
                19.35464
              ],
              [
                105.241853,
                19.354393
              ],
              [
                105.24213,
                19.353988
              ],
              [
                105.242194,
                19.353894
              ],
              [
                105.242241,
                19.353806
              ],
              [
                105.242305,
                19.353706
              ],
              [
                105.242347,
                19.353668
              ],
              [
                105.242395,
                19.353646
              ],
              [
                105.242476,
                19.353615
              ],
              [
                105.242589,
                19.35358
              ],
              [
                105.242767,
                19.353524
              ],
              [
                105.242948,
                19.353388
              ],
              [
                105.243196,
                19.353135
              ],
              [
                105.243723,
                19.35278
              ],
              [
                105.244404,
                19.352392
              ],
              [
                105.244202,
                19.352169
              ],
              [
                105.244024,
                19.351972
              ],
              [
                105.243782,
                19.351764
              ],
              [
                105.243562,
                19.351586
              ],
              [
                105.243532,
                19.351565
              ],
              [
                105.243318,
                19.351417
              ],
              [
                105.243289,
                19.351397
              ],
              [
                105.242813,
                19.351078
              ],
              [
                105.242723,
                19.351017
              ],
              [
                105.242706,
                19.351006
              ],
              [
                105.242388,
                19.350758
              ],
              [
                105.241842,
                19.350371
              ],
              [
                105.241782,
                19.350326
              ],
              [
                105.241432,
                19.350066
              ],
              [
                105.24129,
                19.349986
              ],
              [
                105.241045,
                19.349849
              ],
              [
                105.240737,
                19.34969
              ],
              [
                105.240656,
                19.349652
              ],
              [
                105.240604,
                19.349629
              ],
              [
                105.240653,
                19.34959
              ],
              [
                105.240702,
                19.349552
              ],
              [
                105.240961,
                19.349346
              ],
              [
                105.241112,
                19.349269
              ],
              [
                105.241304,
                19.349288
              ],
              [
                105.241657,
                19.349403
              ],
              [
                105.241788,
                19.349402
              ],
              [
                105.241808,
                19.349396
              ],
              [
                105.241929,
                19.349354
              ],
              [
                105.24207,
                19.349268
              ],
              [
                105.24209,
                19.349172
              ],
              [
                105.24205,
                19.349019
              ],
              [
                105.241912,
                19.348805
              ],
              [
                105.241908,
                19.348799
              ],
              [
                105.241666,
                19.348579
              ],
              [
                105.241333,
                19.34835
              ],
              [
                105.240871,
                19.348038
              ],
              [
                105.24087,
                19.348037
              ],
              [
                105.240838,
                19.348015
              ],
              [
                105.240797,
                19.34792
              ],
              [
                105.240868,
                19.347642
              ],
              [
                105.240857,
                19.347527
              ],
              [
                105.240797,
                19.347364
              ],
              [
                105.240746,
                19.34723
              ],
              [
                105.240737,
                19.347116
              ],
              [
                105.240705,
                19.346684
              ],
              [
                105.240715,
                19.346454
              ],
              [
                105.240795,
                19.346186
              ],
              [
                105.240805,
                19.346033
              ],
              [
                105.240754,
                19.345813
              ],
              [
                105.240622,
                19.345478
              ],
              [
                105.240592,
                19.345306
              ],
              [
                105.240632,
                19.345162
              ],
              [
                105.240663,
                19.345109
              ],
              [
                105.24065,
                19.345091
              ],
              [
                105.240093,
                19.344588
              ],
              [
                105.239784,
                19.344413
              ],
              [
                105.238741,
                19.344211
              ],
              [
                105.237606,
                19.343873
              ],
              [
                105.236247,
                19.343826
              ],
              [
                105.235725,
                19.343882
              ],
              [
                105.235264,
                19.343937
              ],
              [
                105.23483,
                19.344003
              ],
              [
                105.233804,
                19.344279
              ],
              [
                105.233667,
                19.344338
              ],
              [
                105.233599,
                19.344366
              ],
              [
                105.232448,
                19.344839
              ],
              [
                105.230735,
                19.345727
              ],
              [
                105.229872,
                19.346355
              ],
              [
                105.228897,
                19.347253
              ],
              [
                105.228875,
                19.347282
              ],
              [
                105.228162,
                19.348176
              ],
              [
                105.2277,
                19.348825
              ],
              [
                105.227326,
                19.349297
              ],
              [
                105.227016,
                19.349655
              ],
              [
                105.226974,
                19.349687
              ],
              [
                105.226933,
                19.349693
              ],
              [
                105.226868,
                19.349677
              ],
              [
                105.226802,
                19.34967
              ],
              [
                105.226678,
                19.349676
              ],
              [
                105.226298,
                19.349662
              ],
              [
                105.226213,
                19.349645
              ],
              [
                105.226107,
                19.349605
              ],
              [
                105.22592,
                19.349502
              ],
              [
                105.225524,
                19.349269
              ],
              [
                105.225327,
                19.349269
              ],
              [
                105.225105,
                19.349422
              ],
              [
                105.224835,
                19.349775
              ],
              [
                105.224478,
                19.350069
              ],
              [
                105.224145,
                19.350163
              ],
              [
                105.223993,
                19.350146
              ],
              [
                105.22388,
                19.350104
              ],
              [
                105.223744,
                19.350013
              ],
              [
                105.223255,
                19.349559
              ],
              [
                105.22286,
                19.349417
              ],
              [
                105.222529,
                19.349345
              ],
              [
                105.222266,
                19.349355
              ],
              [
                105.221945,
                19.349412
              ],
              [
                105.221532,
                19.349593
              ],
              [
                105.221204,
                19.349861
              ],
              [
                105.221,
                19.350081
              ],
              [
                105.220819,
                19.350313
              ],
              [
                105.220583,
                19.350549
              ],
              [
                105.220332,
                19.350943
              ],
              [
                105.220285,
                19.351001
              ],
              [
                105.220197,
                19.351079
              ],
              [
                105.22017,
                19.351098
              ],
              [
                105.220033,
                19.351213
              ],
              [
                105.219912,
                19.351267
              ],
              [
                105.219828,
                19.351283
              ],
              [
                105.219242,
                19.351343
              ],
              [
                105.21917,
                19.351365
              ],
              [
                105.21868,
                19.351629
              ],
              [
                105.218522,
                19.35177
              ],
              [
                105.217855,
                19.352753
              ],
              [
                105.217743,
                19.352899
              ],
              [
                105.217602,
                19.353025
              ],
              [
                105.217495,
                19.353122
              ],
              [
                105.217351,
                19.35321
              ],
              [
                105.217133,
                19.353257
              ],
              [
                105.216918,
                19.353271
              ],
              [
                105.216805,
                19.353283
              ],
              [
                105.216254,
                19.353412
              ],
              [
                105.21611,
                19.353459
              ],
              [
                105.215945,
                19.353521
              ],
              [
                105.215767,
                19.3536
              ],
              [
                105.215597,
                19.353657
              ],
              [
                105.21551,
                19.353681
              ],
              [
                105.21542,
                19.353698
              ],
              [
                105.215048,
                19.353764
              ],
              [
                105.214932,
                19.353803
              ],
              [
                105.21487,
                19.35384
              ],
              [
                105.214711,
                19.353992
              ],
              [
                105.214644,
                19.354101
              ],
              [
                105.214507,
                19.354365
              ],
              [
                105.214253,
                19.354787
              ],
              [
                105.214199,
                19.354868
              ],
              [
                105.214139,
                19.354931
              ],
              [
                105.213963,
                19.355068
              ],
              [
                105.213882,
                19.355118
              ],
              [
                105.213529,
                19.355237
              ],
              [
                105.213447,
                19.355249
              ],
              [
                105.212988,
                19.35528
              ],
              [
                105.212862,
                19.355277
              ],
              [
                105.212862,
                19.355277
              ],
              [
                105.211546,
                19.355242
              ],
              [
                105.209036,
                19.355015
              ],
              [
                105.207986,
                19.354937
              ],
              [
                105.204276,
                19.355608
              ],
              [
                105.20361,
                19.355272
              ],
              [
                105.202632,
                19.355171
              ],
              [
                105.200686,
                19.35497
              ],
              [
                105.200519,
                19.354953
              ],
              [
                105.20113,
                19.354149
              ],
              [
                105.201016,
                19.353525
              ],
              [
                105.20066,
                19.353052
              ],
              [
                105.200205,
                19.350732
              ],
              [
                105.199859,
                19.348801
              ],
              [
                105.199507,
                19.348825
              ],
              [
                105.199341,
                19.348763
              ],
              [
                105.199038,
                19.348634
              ],
              [
                105.198754,
                19.348517
              ],
              [
                105.198672,
                19.348466
              ],
              [
                105.198604,
                19.348408
              ],
              [
                105.198548,
                19.34834
              ],
              [
                105.198455,
                19.34809
              ],
              [
                105.198371,
                19.347884
              ],
              [
                105.198357,
                19.347821
              ],
              [
                105.19837,
                19.347765
              ],
              [
                105.198392,
                19.34775
              ],
              [
                105.198328,
                19.347612
              ],
              [
                105.19781,
                19.346851
              ],
              [
                105.196028,
                19.347185
              ],
              [
                105.195928,
                19.347204
              ],
              [
                105.195536,
                19.347278
              ],
              [
                105.193916,
                19.347594
              ],
              [
                105.192799,
                19.347812
              ],
              [
                105.189357,
                19.348485
              ],
              [
                105.18711,
                19.348924
              ],
              [
                105.186957,
                19.349003
              ],
              [
                105.184804,
                19.350659
              ],
              [
                105.184237,
                19.35071
              ],
              [
                105.183626,
                19.350511
              ],
              [
                105.183557,
                19.350488
              ],
              [
                105.182914,
                19.350489
              ],
              [
                105.179325,
                19.350722
              ],
              [
                105.176106,
                19.350983
              ],
              [
                105.174986,
                19.350159
              ],
              [
                105.173929,
                19.350591
              ],
              [
                105.173606,
                19.351194
              ],
              [
                105.172817,
                19.351167
              ],
              [
                105.172479,
                19.351199
              ],
              [
                105.172074,
                19.35125
              ],
              [
                105.17201,
                19.351258
              ],
              [
                105.171216,
                19.351249
              ],
              [
                105.169792,
                19.351305
              ],
              [
                105.169274,
                19.351327
              ],
              [
                105.168639,
                19.351419
              ],
              [
                105.168379,
                19.351476
              ],
              [
                105.168206,
                19.351513
              ],
              [
                105.168145,
                19.351298
              ],
              [
                105.168106,
                19.351213
              ],
              [
                105.168058,
                19.351146
              ],
              [
                105.167964,
                19.351052
              ],
              [
                105.167885,
                19.351018
              ],
              [
                105.167825,
                19.351008
              ],
              [
                105.167781,
                19.35102
              ],
              [
                105.167707,
                19.351099
              ],
              [
                105.167547,
                19.351242
              ],
              [
                105.167447,
                19.351294
              ],
              [
                105.167258,
                19.351366
              ],
              [
                105.167051,
                19.351425
              ],
              [
                105.166537,
                19.35164
              ],
              [
                105.166409,
                19.351697
              ],
              [
                105.16633,
                19.351741
              ],
              [
                105.165786,
                19.352161
              ],
              [
                105.165635,
                19.352253
              ],
              [
                105.165575,
                19.35226
              ],
              [
                105.165141,
                19.352213
              ],
              [
                105.164717,
                19.352127
              ],
              [
                105.164628,
                19.352116
              ],
              [
                105.164473,
                19.352105
              ],
              [
                105.163789,
                19.352166
              ],
              [
                105.162556,
                19.352183
              ],
              [
                105.161873,
                19.352276
              ],
              [
                105.161077,
                19.352407
              ],
              [
                105.160838,
                19.352377
              ],
              [
                105.16034,
                19.352327
              ],
              [
                105.159841,
                19.352442
              ],
              [
                105.15944,
                19.352636
              ],
              [
                105.159244,
                19.352844
              ],
              [
                105.159025,
                19.353297
              ],
              [
                105.158679,
                19.354194
              ],
              [
                105.158625,
                19.354377
              ],
              [
                105.158485,
                19.354858
              ],
              [
                105.158452,
                19.355025
              ],
              [
                105.158445,
                19.355176
              ],
              [
                105.158454,
                19.355251
              ],
              [
                105.158485,
                19.355304
              ],
              [
                105.158507,
                19.35533
              ],
              [
                105.158605,
                19.355416
              ],
              [
                105.158864,
                19.355624
              ],
              [
                105.159079,
                19.355908
              ],
              [
                105.1592,
                19.356159
              ],
              [
                105.159356,
                19.356481
              ],
              [
                105.159367,
                19.356656
              ],
              [
                105.159347,
                19.356734
              ],
              [
                105.159224,
                19.356822
              ],
              [
                105.15905,
                19.35691
              ],
              [
                105.158165,
                19.357174
              ],
              [
                105.154449,
                19.358203
              ],
              [
                105.152651,
                19.358616
              ],
              [
                105.152648,
                19.358616
              ],
              [
                105.151521,
                19.35882
              ],
              [
                105.150908,
                19.358928
              ],
              [
                105.146494,
                19.359911
              ],
              [
                105.146087,
                19.360012
              ],
              [
                105.14552,
                19.360225
              ],
              [
                105.145441,
                19.360254
              ],
              [
                105.143005,
                19.360599
              ],
              [
                105.142651,
                19.360663
              ],
              [
                105.139196,
                19.361286
              ],
              [
                105.139179,
                19.361377
              ],
              [
                105.139194,
                19.361489
              ],
              [
                105.139195,
                19.361489
              ],
              [
                105.139243,
                19.361598
              ],
              [
                105.139296,
                19.361751
              ],
              [
                105.139321,
                19.361875
              ],
              [
                105.139331,
                19.361984
              ],
              [
                105.139316,
                19.362073
              ],
              [
                105.139289,
                19.362142
              ],
              [
                105.139187,
                19.362283
              ],
              [
                105.139098,
                19.362386
              ],
              [
                105.139086,
                19.362418
              ],
              [
                105.139078,
                19.362473
              ],
              [
                105.139073,
                19.362528
              ],
              [
                105.139033,
                19.363142
              ],
              [
                105.138999,
                19.363271
              ],
              [
                105.138997,
                19.363279
              ],
              [
                105.138893,
                19.364032
              ],
              [
                105.138884,
                19.364056
              ],
              [
                105.138768,
                19.364682
              ],
              [
                105.13865,
                19.365247
              ],
              [
                105.138647,
                19.365299
              ],
              [
                105.138641,
                19.365502
              ],
              [
                105.138705,
                19.3657
              ],
              [
                105.138754,
                19.365953
              ],
              [
                105.138781,
                19.366127
              ],
              [
                105.138768,
                19.366261
              ],
              [
                105.13872,
                19.366445
              ],
              [
                105.138485,
                19.367342
              ],
              [
                105.138349,
                19.367949
              ],
              [
                105.138195,
                19.368216
              ],
              [
                105.138157,
                19.368271
              ],
              [
                105.138058,
                19.368384
              ],
              [
                105.13793,
                19.368479
              ],
              [
                105.13786,
                19.368506
              ],
              [
                105.137686,
                19.368526
              ],
              [
                105.137327,
                19.368538
              ],
              [
                105.136509,
                19.368518
              ],
              [
                105.136399,
                19.368529
              ],
              [
                105.136336,
                19.368548
              ],
              [
                105.136215,
                19.36861
              ],
              [
                105.135993,
                19.368737
              ],
              [
                105.135604,
                19.369005
              ],
              [
                105.135427,
                19.369146
              ],
              [
                105.135323,
                19.369243
              ],
              [
                105.135279,
                19.369323
              ],
              [
                105.13523,
                19.369464
              ],
              [
                105.135186,
                19.369728
              ],
              [
                105.135163,
                19.370112
              ],
              [
                105.135185,
                19.37053
              ],
              [
                105.13517,
                19.370738
              ],
              [
                105.135137,
                19.370854
              ],
              [
                105.135041,
                19.371068
              ],
              [
                105.134615,
                19.371625
              ],
              [
                105.134317,
                19.372045
              ],
              [
                105.134152,
                19.372448
              ],
              [
                105.134052,
                19.372643
              ],
              [
                105.133942,
                19.372834
              ],
              [
                105.13383,
                19.37298
              ],
              [
                105.133588,
                19.373274
              ],
              [
                105.133233,
                19.373594
              ],
              [
                105.133048,
                19.37383
              ],
              [
                105.132908,
                19.374015
              ],
              [
                105.132892,
                19.374216
              ],
              [
                105.132867,
                19.374327
              ],
              [
                105.132851,
                19.374403
              ],
              [
                105.132804,
                19.374465
              ],
              [
                105.13271,
                19.374536
              ],
              [
                105.132606,
                19.3746
              ],
              [
                105.1325,
                19.374666
              ],
              [
                105.132149,
                19.374889
              ],
              [
                105.132092,
                19.374936
              ],
              [
                105.13199,
                19.375018
              ],
              [
                105.131792,
                19.375284
              ],
              [
                105.131714,
                19.375389
              ],
              [
                105.129445,
                19.380702
              ],
              [
                105.125044,
                19.385966
              ],
              [
                105.122519,
                19.389286
              ],
              [
                105.122519,
                19.389286
              ]
            ]
          ]
        ]
      },
      "properties": {
        "code": "17056",
        "name": "Châu Lộc",
        "nameEn": "Chau Loc",
        "fullName": "Xã Châu Lộc",
        "fullNameEn": "Chau Loc Commune",
        "codeName": "chau_loc",
        "postalCode": "43911",
        "postalCodePrefix": "",
        "gisServerId": "diaphanhanhchinhcapxa_2025.1477",
        "areaKm2": 85.69
      }
    }
  ]
}