{
  "type": "FeatureCollection",
  "bbox": [
    105.666451,
    19.185311,
    105.756794,
    19.260478
  ],
  "features": [
    {
      "type": "Feature",
      "id": "17125",
      "bbox": [
        105.666451,
        19.185311,
        105.756794,
        19.260478
      ],
      "geometry": {
        "type": "MultiPolygon",
        "coordinates": [
          [
            [
              [
                105.696526,
                19.258638
              ],
              [
                105.696636,
                19.258628
              ],
              [
                105.698023,
                19.259376
              ],
              [
                105.698493,
                19.25963
              ],
              [
                105.698623,
                19.259252
              ],
              [
                105.698885,
                19.25878
              ],
              [
                105.699163,
                19.258402
              ],
              [
                105.699442,
                19.258055
              ],
              [
                105.699803,
                19.257755
              ],
              [
                105.70033,
                19.257501
              ],
              [
                105.700825,
                19.25731
              ],
              [
                105.701303,
                19.257229
              ],
              [
                105.701666,
                19.257227
              ],
              [
                105.701935,
                19.257307
              ],
              [
                105.70203,
                19.257335
              ],
              [
                105.702461,
                19.257647
              ],
              [
                105.703192,
                19.258302
              ],
              [
                105.703673,
                19.258677
              ],
              [
                105.704021,
                19.258847
              ],
              [
                105.704467,
                19.258971
              ],
              [
                105.704963,
                19.259062
              ],
              [
                105.705756,
                19.259011
              ],
              [
                105.706382,
                19.258882
              ],
              [
                105.706877,
                19.258691
              ],
              [
                105.707027,
                19.258581
              ],
              [
                105.707222,
                19.258438
              ],
              [
                105.707468,
                19.25817
              ],
              [
                105.707664,
                19.257777
              ],
              [
                105.707711,
                19.257416
              ],
              [
                105.707667,
                19.257178
              ],
              [
                105.707643,
                19.257055
              ],
              [
                105.707442,
                19.256601
              ],
              [
                105.707125,
                19.255896
              ],
              [
                105.706858,
                19.255411
              ],
              [
                105.706707,
                19.254988
              ],
              [
                105.706654,
                19.254771
              ],
              [
                105.70664,
                19.254547
              ],
              [
                105.706674,
                19.254387
              ],
              [
                105.707063,
                19.253673
              ],
              [
                105.707279,
                19.253299
              ],
              [
                105.707647,
                19.25282
              ],
              [
                105.70821,
                19.252071
              ],
              [
                105.708576,
                19.251344
              ],
              [
                105.708943,
                19.250741
              ],
              [
                105.709158,
                19.250181
              ],
              [
                105.709265,
                19.249766
              ],
              [
                105.709175,
                19.249393
              ],
              [
                105.708956,
                19.249125
              ],
              [
                105.708762,
                19.249053
              ],
              [
                105.708674,
                19.249048
              ],
              [
                105.708519,
                19.249065
              ],
              [
                105.70815,
                19.249357
              ],
              [
                105.707563,
                19.249712
              ],
              [
                105.707259,
                19.249797
              ],
              [
                105.706692,
                19.249862
              ],
              [
                105.706015,
                19.249741
              ],
              [
                105.705077,
                19.249642
              ],
              [
                105.704335,
                19.249563
              ],
              [
                105.70392,
                19.249503
              ],
              [
                105.703526,
                19.24934
              ],
              [
                105.70322,
                19.249155
              ],
              [
                105.70312,
                19.249019
              ],
              [
                105.703118,
                19.249017
              ],
              [
                105.703073,
                19.248429
              ],
              [
                105.703071,
                19.247941
              ],
              [
                105.703139,
                19.247271
              ],
              [
                105.703161,
                19.246458
              ],
              [
                105.703159,
                19.24613
              ],
              [
                105.703091,
                19.245674
              ],
              [
                105.702979,
                19.24526
              ],
              [
                105.702825,
                19.244929
              ],
              [
                105.702452,
                19.244558
              ],
              [
                105.701904,
                19.244043
              ],
              [
                105.7014,
                19.24361
              ],
              [
                105.70107,
                19.243115
              ],
              [
                105.700915,
                19.242743
              ],
              [
                105.700869,
                19.242287
              ],
              [
                105.700931,
                19.241769
              ],
              [
                105.701104,
                19.241436
              ],
              [
                105.701429,
                19.241144
              ],
              [
                105.701503,
                19.241086
              ],
              [
                105.701547,
                19.241051
              ],
              [
                105.701591,
                19.241016
              ],
              [
                105.70161,
                19.241
              ],
              [
                105.702059,
                19.240644
              ],
              [
                105.70245,
                19.240393
              ],
              [
                105.702885,
                19.240266
              ],
              [
                105.703278,
                19.240223
              ],
              [
                105.703649,
                19.240283
              ],
              [
                105.703977,
                19.240447
              ],
              [
                105.70424,
                19.240736
              ],
              [
                105.704352,
                19.241253
              ],
              [
                105.704379,
                19.242062
              ],
              [
                105.704404,
                19.242662
              ],
              [
                105.704515,
                19.243097
              ],
              [
                105.705,
                19.243903
              ],
              [
                105.706032,
                19.245078
              ],
              [
                105.706978,
                19.246462
              ],
              [
                105.707505,
                19.247205
              ],
              [
                105.707769,
                19.247494
              ],
              [
                105.708075,
                19.247637
              ],
              [
                105.708337,
                19.247657
              ],
              [
                105.708619,
                19.247552
              ],
              [
                105.708967,
                19.247322
              ],
              [
                105.709292,
                19.246947
              ],
              [
                105.70964,
                19.246697
              ],
              [
                105.709996,
                19.246498
              ],
              [
                105.710008,
                19.246515
              ],
              [
                105.710238,
                19.246363
              ],
              [
                105.711206,
                19.246025
              ],
              [
                105.712709,
                19.245789
              ],
              [
                105.713363,
                19.24562
              ],
              [
                105.713667,
                19.245494
              ],
              [
                105.71384,
                19.245286
              ],
              [
                105.713839,
                19.244996
              ],
              [
                105.713553,
                19.244583
              ],
              [
                105.712982,
                19.243964
              ],
              [
                105.712454,
                19.24318
              ],
              [
                105.711946,
                19.242063
              ],
              [
                105.711506,
                19.241403
              ],
              [
                105.711066,
                19.2407
              ],
              [
                105.710756,
                19.239914
              ],
              [
                105.710709,
                19.239417
              ],
              [
                105.710838,
                19.238961
              ],
              [
                105.711076,
                19.238649
              ],
              [
                105.711445,
                19.23844
              ],
              [
                105.71199,
                19.238312
              ],
              [
                105.712492,
                19.238372
              ],
              [
                105.713365,
                19.238616
              ],
              [
                105.714459,
                19.23919
              ],
              [
                105.715202,
                19.239497
              ],
              [
                105.715462,
                19.239565
              ],
              [
                105.715748,
                19.23964
              ],
              [
                105.716119,
                19.239596
              ],
              [
                105.716358,
                19.23945
              ],
              [
                105.716487,
                19.239242
              ],
              [
                105.716486,
                19.238931
              ],
              [
                105.716155,
                19.238353
              ],
              [
                105.715757,
                19.237464
              ],
              [
                105.715601,
                19.236884
              ],
              [
                105.715663,
                19.236304
              ],
              [
                105.716248,
                19.235513
              ],
              [
                105.717374,
                19.23416
              ],
              [
                105.717829,
                19.233785
              ],
              [
                105.718372,
                19.233367
              ],
              [
                105.719067,
                19.232866
              ],
              [
                105.719652,
                19.232159
              ],
              [
                105.720603,
                19.230786
              ],
              [
                105.721055,
                19.22981
              ],
              [
                105.721558,
                19.228764
              ],
              [
                105.721874,
                19.228447
              ],
              [
                105.72222,
                19.228181
              ],
              [
                105.72262,
                19.228014
              ],
              [
                105.722974,
                19.227955
              ],
              [
                105.723178,
                19.227955
              ],
              [
                105.723465,
                19.228025
              ],
              [
                105.723701,
                19.228201
              ],
              [
                105.723867,
                19.228334
              ],
              [
                105.723851,
                19.228346
              ],
              [
                105.723902,
                19.228387
              ],
              [
                105.724119,
                19.228656
              ],
              [
                105.724274,
                19.228856
              ],
              [
                105.724327,
                19.228925
              ],
              [
                105.724509,
                19.229354
              ],
              [
                105.724984,
                19.230626
              ],
              [
                105.725102,
                19.230942
              ],
              [
                105.725415,
                19.231677
              ],
              [
                105.725477,
                19.231767
              ],
              [
                105.725553,
                19.231876
              ],
              [
                105.725555,
                19.231879
              ],
              [
                105.725693,
                19.232077
              ],
              [
                105.725953,
                19.232415
              ],
              [
                105.726281,
                19.232692
              ],
              [
                105.726609,
                19.23292
              ],
              [
                105.726657,
                19.232939
              ],
              [
                105.726989,
                19.233074
              ],
              [
                105.72713,
                19.233101
              ],
              [
                105.727558,
                19.233182
              ],
              [
                105.727648,
                19.233173
              ],
              [
                105.728172,
                19.233221
              ],
              [
                105.728203,
                19.233223
              ],
              [
                105.729405,
                19.233143
              ],
              [
                105.730672,
                19.232937
              ],
              [
                105.732,
                19.232573
              ],
              [
                105.732177,
                19.232468
              ],
              [
                105.733205,
                19.231861
              ],
              [
                105.733567,
                19.231648
              ],
              [
                105.734561,
                19.231099
              ],
              [
                105.734938,
                19.230997
              ],
              [
                105.735361,
                19.230909
              ],
              [
                105.735665,
                19.230881
              ],
              [
                105.735892,
                19.230963
              ],
              [
                105.736187,
                19.231149
              ],
              [
                105.736379,
                19.231269
              ],
              [
                105.736525,
                19.231459
              ],
              [
                105.738149,
                19.232727
              ],
              [
                105.738323,
                19.232863
              ],
              [
                105.740379,
                19.234973
              ],
              [
                105.740574,
                19.235173
              ],
              [
                105.742544,
                19.236624
              ],
              [
                105.743543,
                19.23727
              ],
              [
                105.744764,
                19.237643
              ],
              [
                105.745998,
                19.237853
              ],
              [
                105.747308,
                19.237967
              ],
              [
                105.74829,
                19.238011
              ],
              [
                105.749375,
                19.237864
              ],
              [
                105.750155,
                19.237581
              ],
              [
                105.750944,
                19.23713
              ],
              [
                105.751855,
                19.236796
              ],
              [
                105.752222,
                19.236661
              ],
              [
                105.753503,
                19.236044
              ],
              [
                105.753632,
                19.235982
              ],
              [
                105.754083,
                19.2357
              ],
              [
                105.75419,
                19.235634
              ],
              [
                105.755128,
                19.23505
              ],
              [
                105.755414,
                19.234775
              ],
              [
                105.755584,
                19.234611
              ],
              [
                105.755875,
                19.234332
              ],
              [
                105.756119,
                19.233966
              ],
              [
                105.756203,
                19.233822
              ],
              [
                105.756299,
                19.233656
              ],
              [
                105.756629,
                19.232965
              ],
              [
                105.756794,
                19.232467
              ],
              [
                105.755544,
                19.232326
              ],
              [
                105.755677,
                19.232279
              ],
              [
                105.755686,
                19.232275
              ],
              [
                105.755694,
                19.232263
              ],
              [
                105.755736,
                19.232197
              ],
              [
                105.75573,
                19.232187
              ],
              [
                105.755686,
                19.232102
              ],
              [
                105.75564,
                19.232043
              ],
              [
                105.755602,
                19.231995
              ],
              [
                105.755459,
                19.23181
              ],
              [
                105.755255,
                19.231548
              ],
              [
                105.754825,
                19.231137
              ],
              [
                105.754503,
                19.230893
              ],
              [
                105.754327,
                19.230864
              ],
              [
                105.754289,
                19.230851
              ],
              [
                105.754213,
                19.230823
              ],
              [
                105.754151,
                19.230782
              ],
              [
                105.754131,
                19.230769
              ],
              [
                105.754049,
                19.230644
              ],
              [
                105.754048,
                19.230543
              ],
              [
                105.754058,
                19.230529
              ],
              [
                105.754111,
                19.230447
              ],
              [
                105.754306,
                19.23041
              ],
              [
                105.754375,
                19.230368
              ],
              [
                105.754682,
                19.230187
              ],
              [
                105.754717,
                19.230203
              ],
              [
                105.754779,
                19.230233
              ],
              [
                105.754809,
                19.230247
              ],
              [
                105.75486,
                19.230294
              ],
              [
                105.755002,
                19.230424
              ],
              [
                105.755026,
                19.230446
              ],
              [
                105.755037,
                19.230461
              ],
              [
                105.755043,
                19.230545
              ],
              [
                105.754987,
                19.230623
              ],
              [
                105.754958,
                19.23067
              ],
              [
                105.754937,
                19.230706
              ],
              [
                105.754899,
                19.230802
              ],
              [
                105.754918,
                19.230838
              ],
              [
                105.755022,
                19.230881
              ],
              [
                105.755032,
                19.230885
              ],
              [
                105.755171,
                19.230951
              ],
              [
                105.755297,
                19.230998
              ],
              [
                105.755464,
                19.231021
              ],
              [
                105.755467,
                19.231021
              ],
              [
                105.755649,
                19.231002
              ],
              [
                105.755711,
                19.2309
              ],
              [
                105.755711,
                19.230763
              ],
              [
                105.755577,
                19.230553
              ],
              [
                105.75558,
                19.230554
              ],
              [
                105.755567,
                19.230537
              ],
              [
                105.75555,
                19.230516
              ],
              [
                105.755059,
                19.230042
              ],
              [
                105.755042,
                19.230013
              ],
              [
                105.754952,
                19.229864
              ],
              [
                105.754913,
                19.229595
              ],
              [
                105.75488,
                19.229374
              ],
              [
                105.754785,
                19.229254
              ],
              [
                105.754672,
                19.229237
              ],
              [
                105.75459,
                19.229303
              ],
              [
                105.754528,
                19.229441
              ],
              [
                105.754573,
                19.22974
              ],
              [
                105.754507,
                19.229955
              ],
              [
                105.754505,
                19.229961
              ],
              [
                105.754305,
                19.230165
              ],
              [
                105.753953,
                19.230316
              ],
              [
                105.753413,
                19.230492
              ],
              [
                105.753073,
                19.230559
              ],
              [
                105.752645,
                19.23056
              ],
              [
                105.752179,
                19.230459
              ],
              [
                105.752179,
                19.230459
              ],
              [
                105.752022,
                19.230425
              ],
              [
                105.751855,
                19.230391
              ],
              [
                105.751461,
                19.230308
              ],
              [
                105.750995,
                19.230262
              ],
              [
                105.750689,
                19.230241
              ],
              [
                105.750555,
                19.230232
              ],
              [
                105.750422,
                19.230223
              ],
              [
                105.74983,
                19.230088
              ],
              [
                105.749582,
                19.229984
              ],
              [
                105.749013,
                19.229744
              ],
              [
                105.748277,
                19.229356
              ],
              [
                105.748075,
                19.229232
              ],
              [
                105.747936,
                19.229138
              ],
              [
                105.746071,
                19.227559
              ],
              [
                105.745576,
                19.22704
              ],
              [
                105.745091,
                19.226602
              ],
              [
                105.744764,
                19.226168
              ],
              [
                105.744636,
                19.22607
              ],
              [
                105.744449,
                19.225926
              ],
              [
                105.744233,
                19.22576
              ],
              [
                105.744154,
                19.225621
              ],
              [
                105.743706,
                19.224698
              ],
              [
                105.743696,
                19.224678
              ],
              [
                105.743612,
                19.224506
              ],
              [
                105.743589,
                19.224461
              ],
              [
                105.743565,
                19.224415
              ],
              [
                105.743396,
                19.224093
              ],
              [
                105.743341,
                19.22402
              ],
              [
                105.743301,
                19.224005
              ],
              [
                105.743216,
                19.224011
              ],
              [
                105.743066,
                19.224017
              ],
              [
                105.743038,
                19.224016
              ],
              [
                105.742932,
                19.224012
              ],
              [
                105.742832,
                19.22397
              ],
              [
                105.742764,
                19.223916
              ],
              [
                105.742749,
                19.223905
              ],
              [
                105.742647,
                19.223709
              ],
              [
                105.742617,
                19.22365
              ],
              [
                105.742552,
                19.223394
              ],
              [
                105.742492,
                19.223284
              ],
              [
                105.742476,
                19.223256
              ],
              [
                105.74239,
                19.223098
              ],
              [
                105.742227,
                19.222883
              ],
              [
                105.742038,
                19.222633
              ],
              [
                105.741938,
                19.2225
              ],
              [
                105.741902,
                19.222476
              ],
              [
                105.74186,
                19.222448
              ],
              [
                105.74183,
                19.222428
              ],
              [
                105.741792,
                19.222379
              ],
              [
                105.741772,
                19.22229
              ],
              [
                105.741776,
                19.222161
              ],
              [
                105.741812,
                19.221966
              ],
              [
                105.741805,
                19.221852
              ],
              [
                105.741755,
                19.221713
              ],
              [
                105.741694,
                19.221625
              ],
              [
                105.741615,
                19.221558
              ],
              [
                105.741517,
                19.221522
              ],
              [
                105.741423,
                19.221529
              ],
              [
                105.741312,
                19.221582
              ],
              [
                105.741271,
                19.221621
              ],
              [
                105.741142,
                19.221788
              ],
              [
                105.741038,
                19.221923
              ],
              [
                105.740918,
                19.222175
              ],
              [
                105.740859,
                19.222362
              ],
              [
                105.740716,
                19.222527
              ],
              [
                105.740437,
                19.222586
              ],
              [
                105.740278,
                19.222579
              ],
              [
                105.739787,
                19.222391
              ],
              [
                105.739302,
                19.222074
              ],
              [
                105.739065,
                19.221736
              ],
              [
                105.738998,
                19.22164
              ],
              [
                105.738884,
                19.221497
              ],
              [
                105.738802,
                19.221394
              ],
              [
                105.738368,
                19.220785
              ],
              [
                105.738093,
                19.22019
              ],
              [
                105.737394,
                19.218585
              ],
              [
                105.737234,
                19.218215
              ],
              [
                105.736815,
                19.217009
              ],
              [
                105.736319,
                19.215582
              ],
              [
                105.735851,
                19.213856
              ],
              [
                105.735338,
                19.212031
              ],
              [
                105.734945,
                19.210293
              ],
              [
                105.733773,
                19.205585
              ],
              [
                105.733486,
                19.20369
              ],
              [
                105.73335,
                19.203074
              ],
              [
                105.733077,
                19.201572
              ],
              [
                105.732602,
                19.198965
              ],
              [
                105.732571,
                19.198549
              ],
              [
                105.732551,
                19.198271
              ],
              [
                105.732473,
                19.197781
              ],
              [
                105.731926,
                19.194693
              ],
              [
                105.731606,
                19.192883
              ],
              [
                105.731468,
                19.191821
              ],
              [
                105.731137,
                19.189287
              ],
              [
                105.731057,
                19.188017
              ],
              [
                105.730904,
                19.188036
              ],
              [
                105.729873,
                19.188214
              ],
              [
                105.729241,
                19.188271
              ],
              [
                105.72909,
                19.188307
              ],
              [
                105.728242,
                19.188402
              ],
              [
                105.728486,
                19.187287
              ],
              [
                105.728363,
                19.187282
              ],
              [
                105.72769,
                19.187251
              ],
              [
                105.727099,
                19.187225
              ],
              [
                105.722914,
                19.187111
              ],
              [
                105.72148,
                19.187127
              ],
              [
                105.720603,
                19.18676
              ],
              [
                105.720075,
                19.186916
              ],
              [
                105.720076,
                19.187102
              ],
              [
                105.72026,
                19.188013
              ],
              [
                105.718028,
                19.188562
              ],
              [
                105.717044,
                19.189018
              ],
              [
                105.716327,
                19.18935
              ],
              [
                105.716099,
                19.188591
              ],
              [
                105.715969,
                19.1882
              ],
              [
                105.715938,
                19.187996
              ],
              [
                105.715938,
                19.187938
              ],
              [
                105.715751,
                19.187985
              ],
              [
                105.714251,
                19.188605
              ],
              [
                105.714125,
                19.188658
              ],
              [
                105.714343,
                19.18945
              ],
              [
                105.71375,
                19.189601
              ],
              [
                105.713475,
                19.189714
              ],
              [
                105.713416,
                19.189244
              ],
              [
                105.713356,
                19.188863
              ],
              [
                105.712437,
                19.189153
              ],
              [
                105.712089,
                19.189256
              ],
              [
                105.712084,
                19.189259
              ],
              [
                105.712033,
                19.189287
              ],
              [
                105.711941,
                19.189338
              ],
              [
                105.711773,
                19.189432
              ],
              [
                105.711668,
                19.189479
              ],
              [
                105.711604,
                19.189483
              ],
              [
                105.711864,
                19.189974
              ],
              [
                105.71215,
                19.190778
              ],
              [
                105.712155,
                19.190792
              ],
              [
                105.711922,
                19.190869
              ],
              [
                105.711778,
                19.190916
              ],
              [
                105.711711,
                19.19094
              ],
              [
                105.710589,
                19.191343
              ],
              [
                105.709212,
                19.191805
              ],
              [
                105.708237,
                19.192132
              ],
              [
                105.707989,
                19.192215
              ],
              [
                105.707257,
                19.192461
              ],
              [
                105.707029,
                19.192541
              ],
              [
                105.706912,
                19.192583
              ],
              [
                105.705628,
                19.193036
              ],
              [
                105.705327,
                19.193142
              ],
              [
                105.705293,
                19.193158
              ],
              [
                105.70502,
                19.193277
              ],
              [
                105.70498,
                19.193294
              ],
              [
                105.704951,
                19.193317
              ],
              [
                105.704912,
                19.193347
              ],
              [
                105.70478,
                19.193027
              ],
              [
                105.704396,
                19.192713
              ],
              [
                105.703719,
                19.192161
              ],
              [
                105.702467,
                19.191075
              ],
              [
                105.702302,
                19.190928
              ],
              [
                105.702296,
                19.190923
              ],
              [
                105.701809,
                19.190485
              ],
              [
                105.701426,
                19.190142
              ],
              [
                105.701133,
                19.189952
              ],
              [
                105.700527,
                19.189581
              ],
              [
                105.699786,
                19.189144
              ],
              [
                105.699402,
                19.188903
              ],
              [
                105.698443,
                19.188285
              ],
              [
                105.698373,
                19.18819
              ],
              [
                105.698383,
                19.188124
              ],
              [
                105.697909,
                19.187845
              ],
              [
                105.69588,
                19.186648
              ],
              [
                105.695268,
                19.186367
              ],
              [
                105.695139,
                19.186313
              ],
              [
                105.694744,
                19.186164
              ],
              [
                105.692433,
                19.185311
              ],
              [
                105.691461,
                19.186203
              ],
              [
                105.690252,
                19.187261
              ],
              [
                105.69004,
                19.187454
              ],
              [
                105.690003,
                19.187574
              ],
              [
                105.68999,
                19.187676
              ],
              [
                105.690111,
                19.187992
              ],
              [
                105.690295,
                19.18838
              ],
              [
                105.690569,
                19.189084
              ],
              [
                105.690766,
                19.189556
              ],
              [
                105.690874,
                19.189884
              ],
              [
                105.690902,
                19.190416
              ],
              [
                105.69079,
                19.190901
              ],
              [
                105.69051,
                19.191589
              ],
              [
                105.690499,
                19.191667
              ],
              [
                105.690381,
                19.1921
              ],
              [
                105.690327,
                19.192195
              ],
              [
                105.690235,
                19.192358
              ],
              [
                105.690017,
                19.192649
              ],
              [
                105.689483,
                19.193078
              ],
              [
                105.688969,
                19.193435
              ],
              [
                105.688845,
                19.193727
              ],
              [
                105.68873,
                19.193909
              ],
              [
                105.688621,
                19.194014
              ],
              [
                105.688581,
                19.194061
              ],
              [
                105.688374,
                19.194274
              ],
              [
                105.68831,
                19.194344
              ],
              [
                105.688153,
                19.194515
              ],
              [
                105.687943,
                19.194744
              ],
              [
                105.687737,
                19.194979
              ],
              [
                105.687484,
                19.195181
              ],
              [
                105.68775,
                19.195968
              ],
              [
                105.687641,
                19.196579
              ],
              [
                105.687561,
                19.197747
              ],
              [
                105.68729,
                19.197978
              ],
              [
                105.686043,
                19.198812
              ],
              [
                105.685794,
                19.198979
              ],
              [
                105.684987,
                19.199586
              ],
              [
                105.683337,
                19.200779
              ],
              [
                105.683323,
                19.200785
              ],
              [
                105.682024,
                19.200343
              ],
              [
                105.679671,
                19.201782
              ],
              [
                105.67962,
                19.201812
              ],
              [
                105.679279,
                19.202021
              ],
              [
                105.679413,
                19.202214
              ],
              [
                105.679687,
                19.202628
              ],
              [
                105.680012,
                19.203117
              ],
              [
                105.680198,
                19.203366
              ],
              [
                105.680952,
                19.204457
              ],
              [
                105.681754,
                19.205607
              ],
              [
                105.682184,
                19.206225
              ],
              [
                105.682116,
                19.206451
              ],
              [
                105.681957,
                19.206977
              ],
              [
                105.681801,
                19.207643
              ],
              [
                105.681781,
                19.207702
              ],
              [
                105.681689,
                19.20798
              ],
              [
                105.681667,
                19.208031
              ],
              [
                105.681464,
                19.20849
              ],
              [
                105.681322,
                19.208677
              ],
              [
                105.681313,
                19.208681
              ],
              [
                105.681073,
                19.208772
              ],
              [
                105.680877,
                19.20888
              ],
              [
                105.680848,
                19.208913
              ],
              [
                105.680757,
                19.209017
              ],
              [
                105.680607,
                19.209304
              ],
              [
                105.680353,
                19.20967
              ],
              [
                105.680294,
                19.209718
              ],
              [
                105.680047,
                19.210035
              ],
              [
                105.679882,
                19.21033
              ],
              [
                105.679747,
                19.210667
              ],
              [
                105.679605,
                19.211142
              ],
              [
                105.679591,
                19.211199
              ],
              [
                105.679486,
                19.211436
              ],
              [
                105.679396,
                19.211687
              ],
              [
                105.679367,
                19.21191
              ],
              [
                105.679444,
                19.212325
              ],
              [
                105.679597,
                19.21282
              ],
              [
                105.679659,
                19.213013
              ],
              [
                105.679796,
                19.2134
              ],
              [
                105.679986,
                19.21378
              ],
              [
                105.680063,
                19.214045
              ],
              [
                105.68005,
                19.214112
              ],
              [
                105.680033,
                19.214195
              ],
              [
                105.67977,
                19.21439
              ],
              [
                105.679448,
                19.214491
              ],
              [
                105.679446,
                19.214492
              ],
              [
                105.677938,
                19.214697
              ],
              [
                105.67752,
                19.214799
              ],
              [
                105.676187,
                19.214837
              ],
              [
                105.674689,
                19.21488
              ],
              [
                105.674493,
                19.21487
              ],
              [
                105.674143,
                19.214853
              ],
              [
                105.673945,
                19.214882
              ],
              [
                105.673806,
                19.214902
              ],
              [
                105.673437,
                19.214895
              ],
              [
                105.673422,
                19.214904
              ],
              [
                105.67301,
                19.215138
              ],
              [
                105.672668,
                19.215496
              ],
              [
                105.672579,
                19.215589
              ],
              [
                105.672379,
                19.215819
              ],
              [
                105.672058,
                19.216214
              ],
              [
                105.672035,
                19.216242
              ],
              [
                105.672028,
                19.216251
              ],
              [
                105.671769,
                19.216411
              ],
              [
                105.671656,
                19.216481
              ],
              [
                105.671543,
                19.216551
              ],
              [
                105.671253,
                19.216643
              ],
              [
                105.670907,
                19.216756
              ],
              [
                105.670514,
                19.216885
              ],
              [
                105.670001,
                19.217011
              ],
              [
                105.669257,
                19.217215
              ],
              [
                105.668835,
                19.217412
              ],
              [
                105.668704,
                19.217571
              ],
              [
                105.668605,
                19.217827
              ],
              [
                105.66864,
                19.21782
              ],
              [
                105.668681,
                19.217815
              ],
              [
                105.668713,
                19.217822
              ],
              [
                105.668772,
                19.217857
              ],
              [
                105.668883,
                19.217962
              ],
              [
                105.668977,
                19.218018
              ],
              [
                105.669081,
                19.218048
              ],
              [
                105.669185,
                19.218059
              ],
              [
                105.669245,
                19.218104
              ],
              [
                105.669362,
                19.218199
              ],
              [
                105.66941,
                19.21831
              ],
              [
                105.66947,
                19.218426
              ],
              [
                105.669502,
                19.2185
              ],
              [
                105.669555,
                19.218572
              ],
              [
                105.669606,
                19.218608
              ],
              [
                105.669653,
                19.218625
              ],
              [
                105.669987,
                19.218588
              ],
              [
                105.670185,
                19.218618
              ],
              [
                105.670327,
                19.21862
              ],
              [
                105.670459,
                19.218593
              ],
              [
                105.670581,
                19.21855
              ],
              [
                105.670682,
                19.218511
              ],
              [
                105.670738,
                19.218496
              ],
              [
                105.671034,
                19.218492
              ],
              [
                105.671226,
                19.218515
              ],
              [
                105.671346,
                19.218533
              ],
              [
                105.671384,
                19.218548
              ],
              [
                105.671435,
                19.218633
              ],
              [
                105.671442,
                19.21867
              ],
              [
                105.671085,
                19.219033
              ],
              [
                105.669702,
                19.220616
              ],
              [
                105.669183,
                19.221179
              ],
              [
                105.66909,
                19.221261
              ],
              [
                105.669,
                19.221321
              ],
              [
                105.668885,
                19.221383
              ],
              [
                105.668675,
                19.221454
              ],
              [
                105.66864,
                19.221634
              ],
              [
                105.668579,
                19.22194
              ],
              [
                105.668553,
                19.222067
              ],
              [
                105.668492,
                19.222352
              ],
              [
                105.668481,
                19.222409
              ],
              [
                105.668437,
                19.222528
              ],
              [
                105.668366,
                19.22272
              ],
              [
                105.668316,
                19.222854
              ],
              [
                105.668218,
                19.223093
              ],
              [
                105.667947,
                19.22375
              ],
              [
                105.667945,
                19.223755
              ],
              [
                105.667857,
                19.223913
              ],
              [
                105.667512,
                19.224531
              ],
              [
                105.667131,
                19.225328
              ],
              [
                105.667093,
                19.225408
              ],
              [
                105.666933,
                19.225683
              ],
              [
                105.666871,
                19.225838
              ],
              [
                105.666829,
                19.225944
              ],
              [
                105.666451,
                19.226524
              ],
              [
                105.666547,
                19.226596
              ],
              [
                105.667329,
                19.227151
              ],
              [
                105.667916,
                19.227533
              ],
              [
                105.668668,
                19.228036
              ],
              [
                105.669034,
                19.228351
              ],
              [
                105.669817,
                19.228934
              ],
              [
                105.670221,
                19.229236
              ],
              [
                105.670251,
                19.229267
              ],
              [
                105.670841,
                19.229879
              ],
              [
                105.671079,
                19.230149
              ],
              [
                105.671123,
                19.230198
              ],
              [
                105.671188,
                19.230271
              ],
              [
                105.671409,
                19.230522
              ],
              [
                105.671473,
                19.230594
              ],
              [
                105.67171,
                19.230957
              ],
              [
                105.671941,
                19.23131
              ],
              [
                105.672677,
                19.232658
              ],
              [
                105.672901,
                19.233072
              ],
              [
                105.673293,
                19.232671
              ],
              [
                105.673578,
                19.233093
              ],
              [
                105.673769,
                19.233426
              ],
              [
                105.673875,
                19.23359
              ],
              [
                105.674013,
                19.233732
              ],
              [
                105.674139,
                19.23385
              ],
              [
                105.674156,
                19.233871
              ],
              [
                105.674265,
                19.233999
              ],
              [
                105.674658,
                19.234366
              ],
              [
                105.674926,
                19.23463
              ],
              [
                105.67506,
                19.234752
              ],
              [
                105.675149,
                19.234794
              ],
              [
                105.67532,
                19.234816
              ],
              [
                105.67549,
                19.23482
              ],
              [
                105.675619,
                19.23485
              ],
              [
                105.675935,
                19.234987
              ],
              [
                105.676206,
                19.235154
              ],
              [
                105.676545,
                19.235399
              ],
              [
                105.676784,
                19.235532
              ],
              [
                105.677152,
                19.235608
              ],
              [
                105.677253,
                19.235718
              ],
              [
                105.677671,
                19.236191
              ],
              [
                105.677754,
                19.236285
              ],
              [
                105.678047,
                19.236489
              ],
              [
                105.678264,
                19.236666
              ],
              [
                105.678395,
                19.236742
              ],
              [
                105.678537,
                19.236899
              ],
              [
                105.678694,
                19.237142
              ],
              [
                105.678738,
                19.237202
              ],
              [
                105.678872,
                19.237567
              ],
              [
                105.678984,
                19.237844
              ],
              [
                105.679106,
                19.238088
              ],
              [
                105.679222,
                19.238245
              ],
              [
                105.679399,
                19.238469
              ],
              [
                105.679586,
                19.238564
              ],
              [
                105.679873,
                19.238673
              ],
              [
                105.680115,
                19.238686
              ],
              [
                105.680442,
                19.238747
              ],
              [
                105.68073,
                19.238837
              ],
              [
                105.680946,
                19.238879
              ],
              [
                105.681041,
                19.238887
              ],
              [
                105.681162,
                19.238839
              ],
              [
                105.681287,
                19.238819
              ],
              [
                105.681408,
                19.23879
              ],
              [
                105.681549,
                19.238813
              ],
              [
                105.681517,
                19.238881
              ],
              [
                105.681149,
                19.239162
              ],
              [
                105.680999,
                19.239275
              ],
              [
                105.680955,
                19.239309
              ],
              [
                105.680865,
                19.239377
              ],
              [
                105.680762,
                19.239456
              ],
              [
                105.680667,
                19.239528
              ],
              [
                105.680516,
                19.239599
              ],
              [
                105.68038,
                19.239663
              ],
              [
                105.679676,
                19.239995
              ],
              [
                105.679355,
                19.240274
              ],
              [
                105.679265,
                19.240503
              ],
              [
                105.679236,
                19.240723
              ],
              [
                105.679328,
                19.241134
              ],
              [
                105.679481,
                19.241478
              ],
              [
                105.680073,
                19.242331
              ],
              [
                105.680586,
                19.243271
              ],
              [
                105.680751,
                19.243572
              ],
              [
                105.680765,
                19.243604
              ],
              [
                105.680887,
                19.243872
              ],
              [
                105.680897,
                19.243893
              ],
              [
                105.68089,
                19.244037
              ],
              [
                105.680864,
                19.24408
              ],
              [
                105.680763,
                19.244145
              ],
              [
                105.680631,
                19.244232
              ],
              [
                105.680439,
                19.244358
              ],
              [
                105.68013,
                19.24456
              ],
              [
                105.679926,
                19.244639
              ],
              [
                105.679708,
                19.24473
              ],
              [
                105.679447,
                19.244788
              ],
              [
                105.679145,
                19.244822
              ],
              [
                105.678908,
                19.244866
              ],
              [
                105.678794,
                19.244902
              ],
              [
                105.678689,
                19.245031
              ],
              [
                105.67868,
                19.245059
              ],
              [
                105.67861,
                19.245171
              ],
              [
                105.678207,
                19.245632
              ],
              [
                105.678089,
                19.245779
              ],
              [
                105.677906,
                19.245914
              ],
              [
                105.677788,
                19.246008
              ],
              [
                105.677746,
                19.246064
              ],
              [
                105.67772,
                19.246133
              ],
              [
                105.677712,
                19.246188
              ],
              [
                105.67771,
                19.246292
              ],
              [
                105.677719,
                19.246367
              ],
              [
                105.677723,
                19.246404
              ],
              [
                105.677723,
                19.2465
              ],
              [
                105.677695,
                19.246594
              ],
              [
                105.677661,
                19.246655
              ],
              [
                105.677615,
                19.246703
              ],
              [
                105.677537,
                19.246746
              ],
              [
                105.67739,
                19.246777
              ],
              [
                105.677227,
                19.246794
              ],
              [
                105.677007,
                19.246813
              ],
              [
                105.67684,
                19.246813
              ],
              [
                105.676695,
                19.246789
              ],
              [
                105.676602,
                19.246762
              ],
              [
                105.67653,
                19.246726
              ],
              [
                105.676481,
                19.246681
              ],
              [
                105.676475,
                19.246658
              ],
              [
                105.676463,
                19.246614
              ],
              [
                105.676463,
                19.246588
              ],
              [
                105.676462,
                19.246467
              ],
              [
                105.676464,
                19.246443
              ],
              [
                105.676489,
                19.246198
              ],
              [
                105.676478,
                19.246108
              ],
              [
                105.676476,
                19.246087
              ],
              [
                105.676435,
                19.246011
              ],
              [
                105.676382,
                19.245968
              ],
              [
                105.6763,
                19.245955
              ],
              [
                105.676201,
                19.245959
              ],
              [
                105.676101,
                19.24599
              ],
              [
                105.676034,
                19.246049
              ],
              [
                105.675963,
                19.246136
              ],
              [
                105.675902,
                19.246227
              ],
              [
                105.675873,
                19.246269
              ],
              [
                105.675855,
                19.246296
              ],
              [
                105.675796,
                19.246337
              ],
              [
                105.675736,
                19.246356
              ],
              [
                105.675699,
                19.246368
              ],
              [
                105.675643,
                19.246384
              ],
              [
                105.675567,
                19.246393
              ],
              [
                105.675527,
                19.246395
              ],
              [
                105.675486,
                19.246398
              ],
              [
                105.675387,
                19.246396
              ],
              [
                105.67528,
                19.246377
              ],
              [
                105.67518,
                19.246355
              ],
              [
                105.675044,
                19.246325
              ],
              [
                105.674941,
                19.246288
              ],
              [
                105.674751,
                19.246212
              ],
              [
                105.674748,
                19.246211
              ],
              [
                105.67445,
                19.246071
              ],
              [
                105.674153,
                19.245964
              ],
              [
                105.673974,
                19.245936
              ],
              [
                105.673859,
                19.245919
              ],
              [
                105.673733,
                19.245891
              ],
              [
                105.673632,
                19.245866
              ],
              [
                105.673568,
                19.245865
              ],
              [
                105.673504,
                19.245873
              ],
              [
                105.673463,
                19.245892
              ],
              [
                105.673392,
                19.245954
              ],
              [
                105.673983,
                19.247117
              ],
              [
                105.674288,
                19.247668
              ],
              [
                105.674666,
                19.248386
              ],
              [
                105.675019,
                19.249007
              ],
              [
                105.675025,
                19.249017
              ],
              [
                105.675026,
                19.249019
              ],
              [
                105.675178,
                19.249331
              ],
              [
                105.675438,
                19.249827
              ],
              [
                105.675727,
                19.250355
              ],
              [
                105.676034,
                19.250939
              ],
              [
                105.676077,
                19.251012
              ],
              [
                105.67631,
                19.251449
              ],
              [
                105.676513,
                19.251846
              ],
              [
                105.676694,
                19.25224
              ],
              [
                105.676745,
                19.252365
              ],
              [
                105.676898,
                19.252834
              ],
              [
                105.677118,
                19.253515
              ],
              [
                105.677255,
                19.253974
              ],
              [
                105.677464,
                19.254029
              ],
              [
                105.678094,
                19.254194
              ],
              [
                105.678456,
                19.254217
              ],
              [
                105.678525,
                19.254221
              ],
              [
                105.678759,
                19.254256
              ],
              [
                105.678933,
                19.254327
              ],
              [
                105.679321,
                19.254632
              ],
              [
                105.679477,
                19.254755
              ],
              [
                105.679478,
                19.254756
              ],
              [
                105.679917,
                19.254941
              ],
              [
                105.680167,
                19.255047
              ],
              [
                105.680968,
                19.255209
              ],
              [
                105.682026,
                19.255255
              ],
              [
                105.682509,
                19.255311
              ],
              [
                105.683522,
                19.255538
              ],
              [
                105.68564,
                19.256361
              ],
              [
                105.685697,
                19.256383
              ],
              [
                105.686351,
                19.256365
              ],
              [
                105.686557,
                19.256369
              ],
              [
                105.686978,
                19.256377
              ],
              [
                105.686989,
                19.256379
              ],
              [
                105.68725,
                19.256427
              ],
              [
                105.68759,
                19.256612
              ],
              [
                105.687778,
                19.256803
              ],
              [
                105.687786,
                19.256811
              ],
              [
                105.687935,
                19.25693
              ],
              [
                105.688294,
                19.257344
              ],
              [
                105.688298,
                19.257348
              ],
              [
                105.688436,
                19.257507
              ],
              [
                105.688629,
                19.257839
              ],
              [
                105.688681,
                19.257928
              ],
              [
                105.689024,
                19.258218
              ],
              [
                105.689267,
                19.258303
              ],
              [
                105.689342,
                19.258379
              ],
              [
                105.689439,
                19.258532
              ],
              [
                105.689485,
                19.258718
              ],
              [
                105.68952,
                19.258809
              ],
              [
                105.689642,
                19.258895
              ],
              [
                105.689854,
                19.259042
              ],
              [
                105.689904,
                19.259078
              ],
              [
                105.690091,
                19.259213
              ],
              [
                105.690429,
                19.259442
              ],
              [
                105.690561,
                19.259551
              ],
              [
                105.691554,
                19.260206
              ],
              [
                105.692888,
                19.260478
              ],
              [
                105.695771,
                19.258918
              ],
              [
                105.696526,
                19.258638
              ],
              [
                105.696526,
                19.258638
              ]
            ]
          ]
        ]
      },
      "properties": {
        "code": "17125",
        "name": "Quỳnh Mai",
        "nameEn": "Quynh Mai",
        "fullName": "Phường Quỳnh Mai",
        "fullNameEn": "Quynh Mai Ward",
        "codeName": "quynh_mai",
        "postalCode": "44918",
        "postalCodePrefix": "",
        "gisServerId": "diaphanhanhchinhcapxa_2025.1487",
        "areaKm2": 40.5
      }
    }
  ]
}