{
  "type": "FeatureCollection",
  "bbox": [
    105.512334,
    18.987773,
    105.581445,
    19.049997
  ],
  "features": [
    {
      "type": "Feature",
      "id": "17443",
      "bbox": [
        105.512334,
        18.987773,
        105.581445,
        19.049997
      ],
      "geometry": {
        "type": "MultiPolygon",
        "coordinates": [
          [
            [
              [
                105.561881,
                19.049646
              ],
              [
                105.562087,
                19.04964
              ],
              [
                105.562141,
                19.04991
              ],
              [
                105.562588,
                19.049914
              ],
              [
                105.563911,
                19.049923
              ],
              [
                105.563912,
                19.049927
              ],
              [
                105.563942,
                19.049924
              ],
              [
                105.564147,
                19.049903
              ],
              [
                105.564353,
                19.049882
              ],
              [
                105.564433,
                19.049876
              ],
              [
                105.564572,
                19.049861
              ],
              [
                105.564662,
                19.049852
              ],
              [
                105.564717,
                19.049845
              ],
              [
                105.564717,
                19.049845
              ],
              [
                105.564718,
                19.049845
              ],
              [
                105.564718,
                19.049845
              ],
              [
                105.5648,
                19.049835
              ],
              [
                105.564971,
                19.049815
              ],
              [
                105.565279,
                19.049801
              ],
              [
                105.565361,
                19.049782
              ],
              [
                105.565389,
                19.049775
              ],
              [
                105.565523,
                19.049744
              ],
              [
                105.565762,
                19.049703
              ],
              [
                105.566202,
                19.049633
              ],
              [
                105.566528,
                19.049582
              ],
              [
                105.566586,
                19.049568
              ],
              [
                105.567263,
                19.049429
              ],
              [
                105.567999,
                19.049314
              ],
              [
                105.568049,
                19.049305
              ],
              [
                105.568096,
                19.049308
              ],
              [
                105.568325,
                19.04943
              ],
              [
                105.56841,
                19.049471
              ],
              [
                105.568452,
                19.049491
              ],
              [
                105.568674,
                19.049592
              ],
              [
                105.56871,
                19.049603
              ],
              [
                105.568755,
                19.049607
              ],
              [
                105.568803,
                19.049599
              ],
              [
                105.569401,
                19.049262
              ],
              [
                105.569447,
                19.049226
              ],
              [
                105.569476,
                19.049138
              ],
              [
                105.569447,
                19.048999
              ],
              [
                105.569318,
                19.048389
              ],
              [
                105.569443,
                19.047653
              ],
              [
                105.56938,
                19.047196
              ],
              [
                105.570493,
                19.047121
              ],
              [
                105.571443,
                19.046987
              ],
              [
                105.571839,
                19.046948
              ],
              [
                105.572081,
                19.046924
              ],
              [
                105.572902,
                19.046842
              ],
              [
                105.573069,
                19.046825
              ],
              [
                105.572908,
                19.046609
              ],
              [
                105.572483,
                19.04604
              ],
              [
                105.572183,
                19.045636
              ],
              [
                105.572076,
                19.045499
              ],
              [
                105.571866,
                19.045227
              ],
              [
                105.571813,
                19.045158
              ],
              [
                105.571594,
                19.044876
              ],
              [
                105.571006,
                19.044115
              ],
              [
                105.570971,
                19.044069
              ],
              [
                105.569865,
                19.042617
              ],
              [
                105.569839,
                19.042582
              ],
              [
                105.56984,
                19.042582
              ],
              [
                105.569936,
                19.042561
              ],
              [
                105.570005,
                19.042545
              ],
              [
                105.570217,
                19.042497
              ],
              [
                105.570242,
                19.042491
              ],
              [
                105.570405,
                19.042455
              ],
              [
                105.571007,
                19.04232
              ],
              [
                105.572065,
                19.042138
              ],
              [
                105.572961,
                19.041984
              ],
              [
                105.572957,
                19.041927
              ],
              [
                105.572831,
                19.040112
              ],
              [
                105.57324,
                19.040054
              ],
              [
                105.573756,
                19.04003
              ],
              [
                105.573771,
                19.040256
              ],
              [
                105.574125,
                19.040254
              ],
              [
                105.57401,
                19.038479
              ],
              [
                105.573933,
                19.037271
              ],
              [
                105.576266,
                19.037118
              ],
              [
                105.576238,
                19.035538
              ],
              [
                105.576744,
                19.03543
              ],
              [
                105.576744,
                19.03543
              ],
              [
                105.577777,
                19.035221
              ],
              [
                105.577777,
                19.03522
              ],
              [
                105.577835,
                19.035209
              ],
              [
                105.577742,
                19.034233
              ],
              [
                105.57774,
                19.034224
              ],
              [
                105.577663,
                19.033442
              ],
              [
                105.577663,
                19.033442
              ],
              [
                105.577691,
                19.033447
              ],
              [
                105.578807,
                19.033351
              ],
              [
                105.578836,
                19.033349
              ],
              [
                105.578836,
                19.033349
              ],
              [
                105.578946,
                19.033331
              ],
              [
                105.57954,
                19.033233
              ],
              [
                105.57948,
                19.033137
              ],
              [
                105.579385,
                19.033063
              ],
              [
                105.579358,
                19.032963
              ],
              [
                105.579337,
                19.032625
              ],
              [
                105.579516,
                19.032424
              ],
              [
                105.579518,
                19.032366
              ],
              [
                105.579523,
                19.032167
              ],
              [
                105.579035,
                19.032184
              ],
              [
                105.579034,
                19.031954
              ],
              [
                105.579035,
                19.031846
              ],
              [
                105.57905,
                19.03175
              ],
              [
                105.579096,
                19.031332
              ],
              [
                105.579162,
                19.031339
              ],
              [
                105.579472,
                19.03133
              ],
              [
                105.579772,
                19.031322
              ],
              [
                105.579923,
                19.031321
              ],
              [
                105.580073,
                19.031341
              ],
              [
                105.580209,
                19.030771
              ],
              [
                105.580291,
                19.030433
              ],
              [
                105.580433,
                19.029822
              ],
              [
                105.580433,
                19.029822
              ],
              [
                105.580532,
                19.027844
              ],
              [
                105.580558,
                19.026918
              ],
              [
                105.581153,
                19.026929
              ],
              [
                105.581153,
                19.026771
              ],
              [
                105.581156,
                19.025848
              ],
              [
                105.581228,
                19.025842
              ],
              [
                105.581392,
                19.025828
              ],
              [
                105.581445,
                19.02542
              ],
              [
                105.580107,
                19.025519
              ],
              [
                105.579711,
                19.025595
              ],
              [
                105.579598,
                19.025617
              ],
              [
                105.578736,
                19.025782
              ],
              [
                105.578732,
                19.024924
              ],
              [
                105.57873,
                19.024525
              ],
              [
                105.576994,
                19.024711
              ],
              [
                105.576932,
                19.024717
              ],
              [
                105.576823,
                19.024729
              ],
              [
                105.576733,
                19.023929
              ],
              [
                105.576733,
                19.023925
              ],
              [
                105.576661,
                19.023167
              ],
              [
                105.576603,
                19.02256
              ],
              [
                105.576603,
                19.022548
              ],
              [
                105.576489,
                19.021338
              ],
              [
                105.576248,
                19.018697
              ],
              [
                105.574381,
                19.01863
              ],
              [
                105.574432,
                19.017755
              ],
              [
                105.574493,
                19.016706
              ],
              [
                105.574039,
                19.016644
              ],
              [
                105.573977,
                19.015956
              ],
              [
                105.573147,
                19.015942
              ],
              [
                105.573222,
                19.015365
              ],
              [
                105.572458,
                19.015342
              ],
              [
                105.572446,
                19.015342
              ],
              [
                105.57236,
                19.015853
              ],
              [
                105.572323,
                19.016071
              ],
              [
                105.572318,
                19.01607
              ],
              [
                105.571975,
                19.016039
              ],
              [
                105.571795,
                19.016022
              ],
              [
                105.57176,
                19.01627
              ],
              [
                105.570842,
                19.016195
              ],
              [
                105.570974,
                19.01544
              ],
              [
                105.571153,
                19.014419
              ],
              [
                105.571432,
                19.014413
              ],
              [
                105.571463,
                19.013866
              ],
              [
                105.571651,
                19.013886
              ],
              [
                105.571695,
                19.013654
              ],
              [
                105.571059,
                19.013488
              ],
              [
                105.571148,
                19.013099
              ],
              [
                105.571269,
                19.01247
              ],
              [
                105.571303,
                19.012383
              ],
              [
                105.571529,
                19.011794
              ],
              [
                105.571621,
                19.011201
              ],
              [
                105.571779,
                19.010315
              ],
              [
                105.571956,
                19.01035
              ],
              [
                105.572108,
                19.010381
              ],
              [
                105.572238,
                19.009352
              ],
              [
                105.573441,
                19.009427
              ],
              [
                105.573533,
                19.00872
              ],
              [
                105.573643,
                19.00788
              ],
              [
                105.574801,
                19.007987
              ],
              [
                105.574964,
                19.006369
              ],
              [
                105.575025,
                19.00462
              ],
              [
                105.574106,
                19.004528
              ],
              [
                105.573483,
                19.004454
              ],
              [
                105.572375,
                19.004298
              ],
              [
                105.572374,
                19.004298
              ],
              [
                105.571935,
                19.004243
              ],
              [
                105.571878,
                19.004236
              ],
              [
                105.571125,
                19.004143
              ],
              [
                105.570198,
                19.004014
              ],
              [
                105.570002,
                19.00399
              ],
              [
                105.569984,
                19.003988
              ],
              [
                105.569997,
                19.003889
              ],
              [
                105.570079,
                19.003503
              ],
              [
                105.570244,
                19.002742
              ],
              [
                105.570376,
                19.002282
              ],
              [
                105.570439,
                19.001878
              ],
              [
                105.570445,
                19.001834
              ],
              [
                105.570468,
                19.001856
              ],
              [
                105.570555,
                19.002023
              ],
              [
                105.57058,
                19.002072
              ],
              [
                105.570625,
                19.002097
              ],
              [
                105.570678,
                19.002116
              ],
              [
                105.570858,
                19.002118
              ],
              [
                105.571342,
                19.00213
              ],
              [
                105.571404,
                19.00213
              ],
              [
                105.571452,
                19.00149
              ],
              [
                105.571453,
                19.001452
              ],
              [
                105.571456,
                19.001331
              ],
              [
                105.56972,
                19.001438
              ],
              [
                105.569724,
                19.001554
              ],
              [
                105.569725,
                19.001593
              ],
              [
                105.569725,
                19.001626
              ],
              [
                105.569725,
                19.001643
              ],
              [
                105.569731,
                19.002132
              ],
              [
                105.569738,
                19.002701
              ],
              [
                105.569552,
                19.003774
              ],
              [
                105.568193,
                19.00357
              ],
              [
                105.568301,
                19.002735
              ],
              [
                105.568055,
                19.002685
              ],
              [
                105.568082,
                19.002387
              ],
              [
                105.567329,
                19.002388
              ],
              [
                105.566614,
                19.002432
              ],
              [
                105.566187,
                19.004678
              ],
              [
                105.566181,
                19.004705
              ],
              [
                105.565893,
                19.004676
              ],
              [
                105.565884,
                19.004675
              ],
              [
                105.56566,
                19.004656
              ],
              [
                105.565508,
                19.005191
              ],
              [
                105.564695,
                19.005187
              ],
              [
                105.564528,
                19.005186
              ],
              [
                105.564513,
                19.005185
              ],
              [
                105.564489,
                19.005385
              ],
              [
                105.564481,
                19.005445
              ],
              [
                105.562437,
                19.005228
              ],
              [
                105.561182,
                19.005094
              ],
              [
                105.561169,
                19.004647
              ],
              [
                105.561008,
                19.004634
              ],
              [
                105.559867,
                19.004478
              ],
              [
                105.55916,
                19.00437
              ],
              [
                105.55916,
                19.004363
              ],
              [
                105.559219,
                19.002066
              ],
              [
                105.559223,
                19.001918
              ],
              [
                105.558558,
                19.001942
              ],
              [
                105.558557,
                19.001786
              ],
              [
                105.558557,
                19.001472
              ],
              [
                105.558031,
                19.0015
              ],
              [
                105.557322,
                19.001226
              ],
              [
                105.557355,
                18.999968
              ],
              [
                105.557139,
                18.99998
              ],
              [
                105.55711,
                19.000135
              ],
              [
                105.556893,
                19.000127
              ],
              [
                105.556863,
                18.999867
              ],
              [
                105.556674,
                18.999868
              ],
              [
                105.556678,
                18.999734
              ],
              [
                105.556694,
                18.999177
              ],
              [
                105.556192,
                18.999173
              ],
              [
                105.554655,
                18.999107
              ],
              [
                105.55463,
                18.999105
              ],
              [
                105.553618,
                18.999035
              ],
              [
                105.553485,
                18.999744
              ],
              [
                105.553479,
                18.999778
              ],
              [
                105.553458,
                18.999775
              ],
              [
                105.553245,
                18.999745
              ],
              [
                105.552918,
                18.999698
              ],
              [
                105.552837,
                18.999687
              ],
              [
                105.55252,
                18.999647
              ],
              [
                105.552071,
                18.99959
              ],
              [
                105.551669,
                18.99954
              ],
              [
                105.551608,
                18.999532
              ],
              [
                105.551607,
                18.999533
              ],
              [
                105.551549,
                18.99975
              ],
              [
                105.551401,
                19.000294
              ],
              [
                105.551399,
                19.000302
              ],
              [
                105.551374,
                19.000392
              ],
              [
                105.551475,
                19.000437
              ],
              [
                105.551569,
                19.000494
              ],
              [
                105.551726,
                19.000646
              ],
              [
                105.551908,
                19.000903
              ],
              [
                105.552166,
                19.00131
              ],
              [
                105.552321,
                19.001608
              ],
              [
                105.55233,
                19.001788
              ],
              [
                105.55233,
                19.001797
              ],
              [
                105.552224,
                19.001793
              ],
              [
                105.552032,
                19.001802
              ],
              [
                105.551185,
                19.001842
              ],
              [
                105.550568,
                19.001871
              ],
              [
                105.549916,
                19.001882
              ],
              [
                105.549361,
                19.00186
              ],
              [
                105.548776,
                19.001804
              ],
              [
                105.548049,
                19.001676
              ],
              [
                105.547419,
                19.001542
              ],
              [
                105.546224,
                19.001299
              ],
              [
                105.546225,
                19.001295
              ],
              [
                105.546233,
                19.001262
              ],
              [
                105.546238,
                19.001243
              ],
              [
                105.546344,
                19.000819
              ],
              [
                105.545729,
                19.000751
              ],
              [
                105.54564,
                19.000471
              ],
              [
                105.544594,
                19.000345
              ],
              [
                105.544367,
                19.000225
              ],
              [
                105.544376,
                19.000211
              ],
              [
                105.543755,
                18.999955
              ],
              [
                105.543837,
                18.999773
              ],
              [
                105.544008,
                18.999393
              ],
              [
                105.544416,
                18.999246
              ],
              [
                105.544488,
                18.999018
              ],
              [
                105.544489,
                18.999017
              ],
              [
                105.544489,
                18.999014
              ],
              [
                105.544567,
                18.998878
              ],
              [
                105.54477,
                18.99873
              ],
              [
                105.54489,
                18.998612
              ],
              [
                105.545,
                18.998565
              ],
              [
                105.544903,
                18.998493
              ],
              [
                105.544661,
                18.998388
              ],
              [
                105.544601,
                18.998312
              ],
              [
                105.544389,
                18.998184
              ],
              [
                105.543969,
                18.99802
              ],
              [
                105.542452,
                18.997611
              ],
              [
                105.542371,
                18.997558
              ],
              [
                105.542341,
                18.997491
              ],
              [
                105.542005,
                18.997395
              ],
              [
                105.541928,
                18.997373
              ],
              [
                105.541857,
                18.997354
              ],
              [
                105.541973,
                18.99685
              ],
              [
                105.540673,
                18.996339
              ],
              [
                105.539843,
                18.996327
              ],
              [
                105.53928,
                18.996357
              ],
              [
                105.539115,
                18.996477
              ],
              [
                105.538965,
                18.996679
              ],
              [
                105.53891,
                18.996875
              ],
              [
                105.538911,
                18.997047
              ],
              [
                105.538947,
                18.997262
              ],
              [
                105.538987,
                18.997482
              ],
              [
                105.538975,
                18.998223
              ],
              [
                105.538871,
                18.998644
              ],
              [
                105.538634,
                18.999013
              ],
              [
                105.538633,
                18.999016
              ],
              [
                105.538632,
                18.999018
              ],
              [
                105.538442,
                18.999666
              ],
              [
                105.538437,
                18.999683
              ],
              [
                105.538427,
                18.999717
              ],
              [
                105.538425,
                18.999727
              ],
              [
                105.538214,
                18.999706
              ],
              [
                105.537826,
                18.999692
              ],
              [
                105.537104,
                18.999682
              ],
              [
                105.536121,
                18.999682
              ],
              [
                105.535177,
                18.999692
              ],
              [
                105.535193,
                18.999663
              ],
              [
                105.535207,
                18.99964
              ],
              [
                105.53522,
                18.999617
              ],
              [
                105.53544,
                18.999233
              ],
              [
                105.535514,
                18.999091
              ],
              [
                105.535647,
                18.999043
              ],
              [
                105.535758,
                18.999119
              ],
              [
                105.535809,
                18.999143
              ],
              [
                105.535919,
                18.999108
              ],
              [
                105.535896,
                18.999017
              ],
              [
                105.535895,
                18.999016
              ],
              [
                105.535894,
                18.999013
              ],
              [
                105.535813,
                18.998771
              ],
              [
                105.535778,
                18.998762
              ],
              [
                105.535722,
                18.998762
              ],
              [
                105.535281,
                18.998954
              ],
              [
                105.535175,
                18.99896
              ],
              [
                105.535115,
                18.998945
              ],
              [
                105.535029,
                18.998888
              ],
              [
                105.534857,
                18.998678
              ],
              [
                105.534817,
                18.998664
              ],
              [
                105.534747,
                18.99865
              ],
              [
                105.534701,
                18.998574
              ],
              [
                105.534554,
                18.998282
              ],
              [
                105.534514,
                18.998235
              ],
              [
                105.534464,
                18.99822
              ],
              [
                105.534418,
                18.998173
              ],
              [
                105.534292,
                18.997857
              ],
              [
                105.534271,
                18.997771
              ],
              [
                105.53425,
                18.997499
              ],
              [
                105.534219,
                18.997269
              ],
              [
                105.534154,
                18.997107
              ],
              [
                105.533992,
                18.99684
              ],
              [
                105.53386,
                18.996505
              ],
              [
                105.533703,
                18.996252
              ],
              [
                105.533617,
                18.996095
              ],
              [
                105.533542,
                18.995937
              ],
              [
                105.533102,
                18.995326
              ],
              [
                105.532941,
                18.995092
              ],
              [
                105.532824,
                18.994892
              ],
              [
                105.532643,
                18.994682
              ],
              [
                105.532481,
                18.994472
              ],
              [
                105.532203,
                18.994114
              ],
              [
                105.532077,
                18.99388
              ],
              [
                105.531946,
                18.993684
              ],
              [
                105.531829,
                18.99335
              ],
              [
                105.531768,
                18.993011
              ],
              [
                105.531787,
                18.992843
              ],
              [
                105.531746,
                18.992489
              ],
              [
                105.53169,
                18.992372
              ],
              [
                105.531496,
                18.991677
              ],
              [
                105.531205,
                18.991473
              ],
              [
                105.530998,
                18.991377
              ],
              [
                105.530928,
                18.99132
              ],
              [
                105.530927,
                18.991239
              ],
              [
                105.531081,
                18.990492
              ],
              [
                105.531061,
                18.99043
              ],
              [
                105.530312,
                18.990184
              ],
              [
                105.530245,
                18.990103
              ],
              [
                105.529765,
                18.989253
              ],
              [
                105.529709,
                18.989076
              ],
              [
                105.529659,
                18.989009
              ],
              [
                105.529658,
                18.989009
              ],
              [
                105.529538,
                18.988928
              ],
              [
                105.529235,
                18.988781
              ],
              [
                105.52921,
                18.988728
              ],
              [
                105.52922,
                18.988671
              ],
              [
                105.52935,
                18.98835
              ],
              [
                105.529334,
                18.988269
              ],
              [
                105.528892,
                18.987773
              ],
              [
                105.52854,
                18.987793
              ],
              [
                105.528309,
                18.987885
              ],
              [
                105.528053,
                18.988067
              ],
              [
                105.527903,
                18.988245
              ],
              [
                105.527644,
                18.989125
              ],
              [
                105.527575,
                18.989427
              ],
              [
                105.527531,
                18.989987
              ],
              [
                105.527457,
                18.990293
              ],
              [
                105.527337,
                18.990556
              ],
              [
                105.527182,
                18.9907
              ],
              [
                105.526835,
                18.990892
              ],
              [
                105.526188,
                18.991138
              ],
              [
                105.526042,
                18.991239
              ],
              [
                105.525757,
                18.991618
              ],
              [
                105.525647,
                18.991934
              ],
              [
                105.525608,
                18.992302
              ],
              [
                105.525675,
                18.992641
              ],
              [
                105.525801,
                18.992851
              ],
              [
                105.525942,
                18.992951
              ],
              [
                105.526802,
                18.993183
              ],
              [
                105.526918,
                18.993183
              ],
              [
                105.526978,
                18.993164
              ],
              [
                105.527058,
                18.993025
              ],
              [
                105.527177,
                18.99246
              ],
              [
                105.527242,
                18.992264
              ],
              [
                105.527372,
                18.992125
              ],
              [
                105.527553,
                18.992057
              ],
              [
                105.527699,
                18.99209
              ],
              [
                105.52782,
                18.992152
              ],
              [
                105.527956,
                18.992343
              ],
              [
                105.528057,
                18.992591
              ],
              [
                105.52832,
                18.994523
              ],
              [
                105.528316,
                18.994891
              ],
              [
                105.528211,
                18.995068
              ],
              [
                105.52768,
                18.995359
              ],
              [
                105.52686,
                18.995632
              ],
              [
                105.525694,
                18.995716
              ],
              [
                105.52488,
                18.995771
              ],
              [
                105.524458,
                18.995734
              ],
              [
                105.524125,
                18.995611
              ],
              [
                105.523672,
                18.995349
              ],
              [
                105.523228,
                18.994939
              ],
              [
                105.522976,
                18.994729
              ],
              [
                105.522755,
                18.994639
              ],
              [
                105.522564,
                18.994596
              ],
              [
                105.522312,
                18.994631
              ],
              [
                105.522227,
                18.994664
              ],
              [
                105.521836,
                18.994938
              ],
              [
                105.52155,
                18.99513
              ],
              [
                105.521384,
                18.995183
              ],
              [
                105.521228,
                18.995188
              ],
              [
                105.521072,
                18.995141
              ],
              [
                105.520881,
                18.994974
              ],
              [
                105.520623,
                18.994664
              ],
              [
                105.520341,
                18.994297
              ],
              [
                105.520179,
                18.994158
              ],
              [
                105.519484,
                18.993792
              ],
              [
                105.519293,
                18.993659
              ],
              [
                105.519252,
                18.993501
              ],
              [
                105.519277,
                18.993377
              ],
              [
                105.519422,
                18.993195
              ],
              [
                105.519708,
                18.992916
              ],
              [
                105.520671,
                18.992263
              ],
              [
                105.520776,
                18.992167
              ],
              [
                105.520801,
                18.992062
              ],
              [
                105.52074,
                18.99188
              ],
              [
                105.520508,
                18.99158
              ],
              [
                105.520256,
                18.991466
              ],
              [
                105.52003,
                18.991452
              ],
              [
                105.519819,
                18.991496
              ],
              [
                105.519644,
                18.991673
              ],
              [
                105.519489,
                18.992008
              ],
              [
                105.519269,
                18.992372
              ],
              [
                105.519088,
                18.992492
              ],
              [
                105.518882,
                18.992546
              ],
              [
                105.518641,
                18.992494
              ],
              [
                105.518374,
                18.992327
              ],
              [
                105.518232,
                18.992098
              ],
              [
                105.518151,
                18.991759
              ],
              [
                105.518069,
                18.991328
              ],
              [
                105.517983,
                18.991238
              ],
              [
                105.517842,
                18.991181
              ],
              [
                105.517677,
                18.991186
              ],
              [
                105.517511,
                18.991253
              ],
              [
                105.517381,
                18.991373
              ],
              [
                105.517135,
                18.991752
              ],
              [
                105.517026,
                18.992025
              ],
              [
                105.516991,
                18.992274
              ],
              [
                105.517018,
                18.992766
              ],
              [
                105.516989,
                18.99312
              ],
              [
                105.516894,
                18.993508
              ],
              [
                105.516745,
                18.993819
              ],
              [
                105.516339,
                18.994327
              ],
              [
                105.515659,
                18.994782
              ],
              [
                105.515493,
                18.99489
              ],
              [
                105.515192,
                18.995082
              ],
              [
                105.514031,
                18.99619
              ],
              [
                105.513881,
                18.996429
              ],
              [
                105.513831,
                18.996621
              ],
              [
                105.513826,
                18.996788
              ],
              [
                105.513884,
                18.997326
              ],
              [
                105.513878,
                18.997481
              ],
              [
                105.513803,
                18.997792
              ],
              [
                105.513604,
                18.998193
              ],
              [
                105.51331,
                18.998654
              ],
              [
                105.513235,
                18.998834
              ],
              [
                105.513215,
                18.999007
              ],
              [
                105.513217,
                18.999013
              ],
              [
                105.513263,
                18.999136
              ],
              [
                105.513317,
                18.999229
              ],
              [
                105.513396,
                18.99933
              ],
              [
                105.513759,
                18.99966
              ],
              [
                105.514007,
                18.999854
              ],
              [
                105.514012,
                18.999858
              ],
              [
                105.514098,
                18.99992
              ],
              [
                105.514315,
                19.000038
              ],
              [
                105.514488,
                19.000031
              ],
              [
                105.514646,
                18.999958
              ],
              [
                105.514741,
                18.999856
              ],
              [
                105.514914,
                18.99967
              ],
              [
                105.514947,
                18.999635
              ],
              [
                105.51509,
                18.99952
              ],
              [
                105.515286,
                18.999469
              ],
              [
                105.515474,
                18.99949
              ],
              [
                105.515573,
                18.999583
              ],
              [
                105.515664,
                18.999733
              ],
              [
                105.515714,
                18.999853
              ],
              [
                105.515762,
                18.99997
              ],
              [
                105.515801,
                19.000192
              ],
              [
                105.515771,
                19.000421
              ],
              [
                105.515704,
                19.000701
              ],
              [
                105.515562,
                19.000917
              ],
              [
                105.515306,
                19.001169
              ],
              [
                105.515223,
                19.001284
              ],
              [
                105.515149,
                19.001456
              ],
              [
                105.515149,
                19.001643
              ],
              [
                105.515113,
                19.002037
              ],
              [
                105.515038,
                19.002195
              ],
              [
                105.514922,
                19.002347
              ],
              [
                105.514857,
                19.002433
              ],
              [
                105.514737,
                19.002605
              ],
              [
                105.514655,
                19.00277
              ],
              [
                105.514589,
                19.002942
              ],
              [
                105.514563,
                19.003132
              ],
              [
                105.51457,
                19.003353
              ],
              [
                105.514634,
                19.003628
              ],
              [
                105.514709,
                19.003762
              ],
              [
                105.514832,
                19.003895
              ],
              [
                105.514927,
                19.003959
              ],
              [
                105.51507,
                19.004055
              ],
              [
                105.515661,
                19.004307
              ],
              [
                105.515868,
                19.004395
              ],
              [
                105.516023,
                19.004486
              ],
              [
                105.516096,
                19.004539
              ],
              [
                105.516296,
                19.004728
              ],
              [
                105.516494,
                19.004956
              ],
              [
                105.51661,
                19.005156
              ],
              [
                105.516721,
                19.005376
              ],
              [
                105.516817,
                19.005471
              ],
              [
                105.516928,
                19.005504
              ],
              [
                105.517063,
                19.00549
              ],
              [
                105.517193,
                19.005422
              ],
              [
                105.517414,
                19.005326
              ],
              [
                105.517711,
                19.005211
              ],
              [
                105.517856,
                19.005173
              ],
              [
                105.51819,
                19.005128
              ],
              [
                105.518284,
                19.005125
              ],
              [
                105.518498,
                19.005149
              ],
              [
                105.51869,
                19.005196
              ],
              [
                105.518816,
                19.005255
              ],
              [
                105.518904,
                19.005309
              ],
              [
                105.518952,
                19.005375
              ],
              [
                105.518961,
                19.005428
              ],
              [
                105.518958,
                19.005506
              ],
              [
                105.518927,
                19.005591
              ],
              [
                105.518879,
                19.005671
              ],
              [
                105.518754,
                19.005844
              ],
              [
                105.518714,
                19.005949
              ],
              [
                105.518729,
                19.006054
              ],
              [
                105.518765,
                19.006164
              ],
              [
                105.518906,
                19.006355
              ],
              [
                105.519236,
                19.006705
              ],
              [
                105.519322,
                19.006821
              ],
              [
                105.51938,
                19.006924
              ],
              [
                105.519431,
                19.00705
              ],
              [
                105.519465,
                19.007177
              ],
              [
                105.519481,
                19.007364
              ],
              [
                105.519463,
                19.007449
              ],
              [
                105.519414,
                19.007569
              ],
              [
                105.519376,
                19.007637
              ],
              [
                105.519354,
                19.007673
              ],
              [
                105.519241,
                19.007824
              ],
              [
                105.519094,
                19.007957
              ],
              [
                105.518681,
                19.008266
              ],
              [
                105.518463,
                19.008514
              ],
              [
                105.518341,
                19.008763
              ],
              [
                105.518293,
                19.008883
              ],
              [
                105.518281,
                19.008913
              ],
              [
                105.51811,
                19.009458
              ],
              [
                105.517984,
                19.009925
              ],
              [
                105.517899,
                19.010143
              ],
              [
                105.517818,
                19.01031
              ],
              [
                105.517738,
                19.010436
              ],
              [
                105.51765,
                19.010545
              ],
              [
                105.517592,
                19.010607
              ],
              [
                105.517508,
                19.010668
              ],
              [
                105.517429,
                19.010712
              ],
              [
                105.517101,
                19.010835
              ],
              [
                105.516879,
                19.010933
              ],
              [
                105.516745,
                19.011002
              ],
              [
                105.516611,
                19.011091
              ],
              [
                105.516514,
                19.011177
              ],
              [
                105.516389,
                19.011326
              ],
              [
                105.51638,
                19.011337
              ],
              [
                105.516255,
                19.011512
              ],
              [
                105.516222,
                19.011571
              ],
              [
                105.516128,
                19.011785
              ],
              [
                105.516118,
                19.01182
              ],
              [
                105.516062,
                19.012082
              ],
              [
                105.516036,
                19.012391
              ],
              [
                105.516068,
                19.012644
              ],
              [
                105.516117,
                19.012813
              ],
              [
                105.516178,
                19.012938
              ],
              [
                105.516239,
                19.013017
              ],
              [
                105.516329,
                19.013085
              ],
              [
                105.516458,
                19.01316
              ],
              [
                105.5167,
                19.013277
              ],
              [
                105.516748,
                19.013298
              ],
              [
                105.517796,
                19.013629
              ],
              [
                105.518043,
                19.013767
              ],
              [
                105.518139,
                19.013853
              ],
              [
                105.518185,
                19.01393
              ],
              [
                105.518206,
                19.013954
              ],
              [
                105.518225,
                19.013999
              ],
              [
                105.518244,
                19.014044
              ],
              [
                105.518245,
                19.014134
              ],
              [
                105.51823,
                19.01422
              ],
              [
                105.518207,
                19.014274
              ],
              [
                105.518131,
                19.0144
              ],
              [
                105.518039,
                19.014519
              ],
              [
                105.517841,
                19.014727
              ],
              [
                105.51763,
                19.014909
              ],
              [
                105.517485,
                19.015026
              ],
              [
                105.517272,
                19.015176
              ],
              [
                105.517096,
                19.015285
              ],
              [
                105.516762,
                19.015465
              ],
              [
                105.515938,
                19.015857
              ],
              [
                105.515253,
                19.016235
              ],
              [
                105.514992,
                19.01638
              ],
              [
                105.514966,
                19.016393
              ],
              [
                105.514927,
                19.016413
              ],
              [
                105.514756,
                19.016502
              ],
              [
                105.514541,
                19.016603
              ],
              [
                105.514417,
                19.016636
              ],
              [
                105.514262,
                19.016647
              ],
              [
                105.514149,
                19.016637
              ],
              [
                105.514047,
                19.016612
              ],
              [
                105.513953,
                19.016573
              ],
              [
                105.51384,
                19.016526
              ],
              [
                105.51359,
                19.016437
              ],
              [
                105.513457,
                19.016393
              ],
              [
                105.51332,
                19.01636
              ],
              [
                105.513168,
                19.016338
              ],
              [
                105.513028,
                19.016335
              ],
              [
                105.51287,
                19.016353
              ],
              [
                105.512666,
                19.016408
              ],
              [
                105.512378,
                19.016522
              ],
              [
                105.512408,
                19.016631
              ],
              [
                105.512444,
                19.016762
              ],
              [
                105.512582,
                19.017346
              ],
              [
                105.512572,
                19.017697
              ],
              [
                105.512512,
                19.017937
              ],
              [
                105.512499,
                19.01799
              ],
              [
                105.512426,
                19.018224
              ],
              [
                105.512389,
                19.018351
              ],
              [
                105.512334,
                19.018538
              ],
              [
                105.512336,
                19.018569
              ],
              [
                105.512349,
                19.018574
              ],
              [
                105.512786,
                19.018374
              ],
              [
                105.513559,
                19.01802
              ],
              [
                105.51451,
                19.01802
              ],
              [
                105.514582,
                19.01802
              ],
              [
                105.514624,
                19.018008
              ],
              [
                105.514663,
                19.018077
              ],
              [
                105.514972,
                19.018633
              ],
              [
                105.515386,
                19.019377
              ],
              [
                105.515541,
                19.019765
              ],
              [
                105.515586,
                19.019825
              ],
              [
                105.515875,
                19.019774
              ],
              [
                105.516062,
                19.020112
              ],
              [
                105.516345,
                19.020027
              ],
              [
                105.517395,
                19.021757
              ],
              [
                105.517463,
                19.021868
              ],
              [
                105.517822,
                19.022067
              ],
              [
                105.518031,
                19.022152
              ],
              [
                105.518247,
                19.022235
              ],
              [
                105.518461,
                19.02229
              ],
              [
                105.518655,
                19.022313
              ],
              [
                105.518788,
                19.022309
              ],
              [
                105.518895,
                19.022294
              ],
              [
                105.519009,
                19.022269
              ],
              [
                105.519202,
                19.022233
              ],
              [
                105.5193,
                19.022223
              ],
              [
                105.519403,
                19.022235
              ],
              [
                105.519456,
                19.022256
              ],
              [
                105.519514,
                19.022299
              ],
              [
                105.519565,
                19.022342
              ],
              [
                105.519603,
                19.022406
              ],
              [
                105.519644,
                19.02254
              ],
              [
                105.51969,
                19.022751
              ],
              [
                105.519756,
                19.023212
              ],
              [
                105.519785,
                19.023587
              ],
              [
                105.519808,
                19.02374
              ],
              [
                105.519824,
                19.023808
              ],
              [
                105.519878,
                19.023974
              ],
              [
                105.519925,
                19.024091
              ],
              [
                105.520117,
                19.024492
              ],
              [
                105.520218,
                19.024757
              ],
              [
                105.520254,
                19.024879
              ],
              [
                105.520269,
                19.024963
              ],
              [
                105.520264,
                19.025037
              ],
              [
                105.52024,
                19.025102
              ],
              [
                105.520184,
                19.025173
              ],
              [
                105.520104,
                19.025253
              ],
              [
                105.519991,
                19.025368
              ],
              [
                105.519946,
                19.025425
              ],
              [
                105.519922,
                19.025478
              ],
              [
                105.519925,
                19.02567
              ],
              [
                105.520062,
                19.025651
              ],
              [
                105.520845,
                19.025544
              ],
              [
                105.521401,
                19.025464
              ],
              [
                105.522121,
                19.024944
              ],
              [
                105.523878,
                19.02463
              ],
              [
                105.523887,
                19.024316
              ],
              [
                105.523607,
                19.024297
              ],
              [
                105.523575,
                19.024032
              ],
              [
                105.523947,
                19.024041
              ],
              [
                105.524488,
                19.022984
              ],
              [
                105.524511,
                19.022938
              ],
              [
                105.524488,
                19.022927
              ],
              [
                105.524366,
                19.02287
              ],
              [
                105.524397,
                19.022742
              ],
              [
                105.523733,
                19.022539
              ],
              [
                105.523743,
                19.022318
              ],
              [
                105.524486,
                19.022197
              ],
              [
                105.524527,
                19.02219
              ],
              [
                105.525909,
                19.021942
              ],
              [
                105.525839,
                19.020706
              ],
              [
                105.525847,
                19.02046
              ],
              [
                105.525883,
                19.020403
              ],
              [
                105.527037,
                19.021046
              ],
              [
                105.528234,
                19.021713
              ],
              [
                105.528511,
                19.021507
              ],
              [
                105.528746,
                19.021671
              ],
              [
                105.528926,
                19.021512
              ],
              [
                105.529047,
                19.021619
              ],
              [
                105.529332,
                19.021274
              ],
              [
                105.530058,
                19.021529
              ],
              [
                105.530441,
                19.021119
              ],
              [
                105.530115,
                19.02092
              ],
              [
                105.529958,
                19.021078
              ],
              [
                105.529708,
                19.020879
              ],
              [
                105.5297,
                19.020807
              ],
              [
                105.5297,
                19.020743
              ],
              [
                105.52976,
                19.020678
              ],
              [
                105.52982,
                19.020642
              ],
              [
                105.530009,
                19.02067
              ],
              [
                105.530039,
                19.020684
              ],
              [
                105.530159,
                19.020512
              ],
              [
                105.530045,
                19.020455
              ],
              [
                105.530203,
                19.020247
              ],
              [
                105.530029,
                19.020147
              ],
              [
                105.530528,
                19.01961
              ],
              [
                105.531058,
                19.019873
              ],
              [
                105.53065,
                19.020461
              ],
              [
                105.530863,
                19.020608
              ],
              [
                105.531512,
                19.02002
              ],
              [
                105.532028,
                19.020326
              ],
              [
                105.532208,
                19.020032
              ],
              [
                105.533511,
                19.020651
              ],
              [
                105.533983,
                19.020649
              ],
              [
                105.534091,
                19.020649
              ],
              [
                105.534043,
                19.021323
              ],
              [
                105.535106,
                19.021061
              ],
              [
                105.535095,
                19.020915
              ],
              [
                105.535207,
                19.020883
              ],
              [
                105.535332,
                19.020848
              ],
              [
                105.535332,
                19.020889
              ],
              [
                105.535355,
                19.020968
              ],
              [
                105.535404,
                19.021043
              ],
              [
                105.535495,
                19.021111
              ],
              [
                105.535672,
                19.021167
              ],
              [
                105.535819,
                19.02121
              ],
              [
                105.535931,
                19.021231
              ],
              [
                105.536091,
                19.021292
              ],
              [
                105.536178,
                19.02137
              ],
              [
                105.536216,
                19.021438
              ],
              [
                105.536235,
                19.021525
              ],
              [
                105.536232,
                19.0216
              ],
              [
                105.536198,
                19.021664
              ],
              [
                105.536115,
                19.021726
              ],
              [
                105.53597,
                19.021788
              ],
              [
                105.535603,
                19.021861
              ],
              [
                105.53546,
                19.021909
              ],
              [
                105.53532,
                19.021979
              ],
              [
                105.535209,
                19.022048
              ],
              [
                105.535125,
                19.022129
              ],
              [
                105.535009,
                19.022237
              ],
              [
                105.534829,
                19.022462
              ],
              [
                105.534688,
                19.022635
              ],
              [
                105.534643,
                19.02268
              ],
              [
                105.534577,
                19.022734
              ],
              [
                105.534535,
                19.022759
              ],
              [
                105.53453,
                19.022761
              ],
              [
                105.534444,
                19.022802
              ],
              [
                105.534322,
                19.022846
              ],
              [
                105.534248,
                19.022871
              ],
              [
                105.534165,
                19.022918
              ],
              [
                105.534116,
                19.022971
              ],
              [
                105.534109,
                19.022984
              ],
              [
                105.534051,
                19.023086
              ],
              [
                105.534001,
                19.023192
              ],
              [
                105.533991,
                19.023207
              ],
              [
                105.533936,
                19.023292
              ],
              [
                105.533856,
                19.023398
              ],
              [
                105.533794,
                19.023541
              ],
              [
                105.533729,
                19.023681
              ],
              [
                105.533816,
                19.023725
              ],
              [
                105.533992,
                19.023812
              ],
              [
                105.533993,
                19.023813
              ],
              [
                105.53406,
                19.023823
              ],
              [
                105.534593,
                19.024086
              ],
              [
                105.534593,
                19.024684
              ],
              [
                105.534884,
                19.025768
              ],
              [
                105.535226,
                19.026708
              ],
              [
                105.535299,
                19.02691
              ],
              [
                105.535505,
                19.027477
              ],
              [
                105.53554,
                19.027573
              ],
              [
                105.535963,
                19.028565
              ],
              [
                105.5365,
                19.029412
              ],
              [
                105.536705,
                19.029562
              ],
              [
                105.537122,
                19.030026
              ],
              [
                105.537257,
                19.030132
              ],
              [
                105.537688,
                19.030469
              ],
              [
                105.537945,
                19.030691
              ],
              [
                105.538038,
                19.030772
              ],
              [
                105.538053,
                19.030785
              ],
              [
                105.538058,
                19.030797
              ],
              [
                105.538128,
                19.030969
              ],
              [
                105.538562,
                19.032043
              ],
              [
                105.539549,
                19.031701
              ],
              [
                105.540115,
                19.031527
              ],
              [
                105.541191,
                19.03593
              ],
              [
                105.541802,
                19.038426
              ],
              [
                105.541807,
                19.038446
              ],
              [
                105.54181,
                19.038458
              ],
              [
                105.542713,
                19.038002
              ],
              [
                105.542786,
                19.041038
              ],
              [
                105.542814,
                19.0422
              ],
              [
                105.54288,
                19.044962
              ],
              [
                105.542883,
                19.045069
              ],
              [
                105.54357,
                19.046955
              ],
              [
                105.543693,
                19.04729
              ],
              [
                105.543733,
                19.047402
              ],
              [
                105.543868,
                19.04751
              ],
              [
                105.544097,
                19.047491
              ],
              [
                105.544229,
                19.047363
              ],
              [
                105.544325,
                19.04729
              ],
              [
                105.544438,
                19.047127
              ],
              [
                105.544495,
                19.047
              ],
              [
                105.544647,
                19.046927
              ],
              [
                105.544762,
                19.046926
              ],
              [
                105.544859,
                19.046964
              ],
              [
                105.544991,
                19.047016
              ],
              [
                105.545182,
                19.047015
              ],
              [
                105.545277,
                19.047033
              ],
              [
                105.545297,
                19.047063
              ],
              [
                105.545335,
                19.047123
              ],
              [
                105.545336,
                19.047232
              ],
              [
                105.545298,
                19.047377
              ],
              [
                105.545548,
                19.047344
              ],
              [
                105.547025,
                19.047149
              ],
              [
                105.548118,
                19.047005
              ],
              [
                105.54818,
                19.046996
              ],
              [
                105.548185,
                19.046996
              ],
              [
                105.548006,
                19.046614
              ],
              [
                105.547998,
                19.046599
              ],
              [
                105.547881,
                19.046374
              ],
              [
                105.547612,
                19.045732
              ],
              [
                105.547617,
                19.045731
              ],
              [
                105.547624,
                19.045731
              ],
              [
                105.547723,
                19.045726
              ],
              [
                105.547735,
                19.045726
              ],
              [
                105.547738,
                19.045725
              ],
              [
                105.54774,
                19.045725
              ],
              [
                105.55183,
                19.045538
              ],
              [
                105.551858,
                19.045537
              ],
              [
                105.551873,
                19.045536
              ],
              [
                105.551873,
                19.045536
              ],
              [
                105.551994,
                19.045549
              ],
              [
                105.551954,
                19.046044
              ],
              [
                105.553072,
                19.046257
              ],
              [
                105.553362,
                19.046312
              ],
              [
                105.554419,
                19.046513
              ],
              [
                105.554728,
                19.046848
              ],
              [
                105.555107,
                19.04685
              ],
              [
                105.555122,
                19.04685
              ],
              [
                105.554419,
                19.049411
              ],
              [
                105.554817,
                19.049444
              ],
              [
                105.556122,
                19.049586
              ],
              [
                105.556138,
                19.049524
              ],
              [
                105.556455,
                19.049537
              ],
              [
                105.556362,
                19.049014
              ],
              [
                105.556594,
                19.04831
              ],
              [
                105.557317,
                19.048042
              ],
              [
                105.557695,
                19.048084
              ],
              [
                105.558296,
                19.048165
              ],
              [
                105.558313,
                19.04829
              ],
              [
                105.558314,
                19.048291
              ],
              [
                105.55843,
                19.048319
              ],
              [
                105.558453,
                19.04833
              ],
              [
                105.558476,
                19.048361
              ],
              [
                105.558506,
                19.048401
              ],
              [
                105.558527,
                19.04848
              ],
              [
                105.559394,
                19.048413
              ],
              [
                105.560049,
                19.048362
              ],
              [
                105.56023,
                19.049997
              ],
              [
                105.561355,
                19.049698
              ],
              [
                105.561412,
                19.049692
              ],
              [
                105.561881,
                19.049646
              ],
              [
                105.561881,
                19.049646
              ]
            ]
          ]
        ]
      },
      "properties": {
        "code": "17443",
        "name": "Quảng Châu",
        "nameEn": "Quang Chau",
        "fullName": "Xã Quảng Châu",
        "fullNameEn": "Quang Chau Commune",
        "codeName": "quang_chau",
        "postalCode": "43447",
        "postalCodePrefix": "",
        "gisServerId": "diaphanhanhchinhcapxa_2025.1445",
        "areaKm2": 26.4
      }
    }
  ]
}