{
  "type": "FeatureCollection",
  "bbox": [
    105.561094,
    18.792042,
    105.647552,
    18.866935
  ],
  "features": [
    {
      "type": "Feature",
      "id": "17842",
      "bbox": [
        105.561094,
        18.792042,
        105.647552,
        18.866935
      ],
      "geometry": {
        "type": "MultiPolygon",
        "coordinates": [
          [
            [
              [
                105.603777,
                18.865315
              ],
              [
                105.603677,
                18.864783
              ],
              [
                105.603638,
                18.864412
              ],
              [
                105.603662,
                18.864221
              ],
              [
                105.603674,
                18.863934
              ],
              [
                105.60366,
                18.863695
              ],
              [
                105.603571,
                18.863348
              ],
              [
                105.603277,
                18.862296
              ],
              [
                105.604057,
                18.862163
              ],
              [
                105.604961,
                18.862076
              ],
              [
                105.605564,
                18.862098
              ],
              [
                105.606807,
                18.862023
              ],
              [
                105.607166,
                18.861987
              ],
              [
                105.607281,
                18.861196
              ],
              [
                105.607354,
                18.860682
              ],
              [
                105.607391,
                18.860359
              ],
              [
                105.607176,
                18.860013
              ],
              [
                105.606797,
                18.859368
              ],
              [
                105.606784,
                18.859213
              ],
              [
                105.60712,
                18.858495
              ],
              [
                105.60776,
                18.858158
              ],
              [
                105.607948,
                18.858038
              ],
              [
                105.608059,
                18.857559
              ],
              [
                105.608133,
                18.857236
              ],
              [
                105.608308,
                18.857068
              ],
              [
                105.608672,
                18.856995
              ],
              [
                105.609664,
                18.85704
              ],
              [
                105.610555,
                18.856869
              ],
              [
                105.61115,
                18.856722
              ],
              [
                105.61166,
                18.856639
              ],
              [
                105.612062,
                18.856661
              ],
              [
                105.612439,
                18.856756
              ],
              [
                105.613092,
                18.856789
              ],
              [
                105.61333,
                18.856717
              ],
              [
                105.613518,
                18.856644
              ],
              [
                105.613869,
                18.85638
              ],
              [
                105.614031,
                18.855925
              ],
              [
                105.614118,
                18.855638
              ],
              [
                105.614368,
                18.855458
              ],
              [
                105.61482,
                18.855349
              ],
              [
                105.615221,
                18.855156
              ],
              [
                105.615559,
                18.854904
              ],
              [
                105.615859,
                18.85464
              ],
              [
                105.616536,
                18.854303
              ],
              [
                105.617376,
                18.853954
              ],
              [
                105.617777,
                18.853641
              ],
              [
                105.618406,
                18.853289
              ],
              [
                105.619999,
                18.852244
              ],
              [
                105.620442,
                18.851905
              ],
              [
                105.620615,
                18.851804
              ],
              [
                105.620713,
                18.851739
              ],
              [
                105.620758,
                18.851703
              ],
              [
                105.620856,
                18.851696
              ],
              [
                105.621007,
                18.851702
              ],
              [
                105.621286,
                18.851751
              ],
              [
                105.621617,
                18.851758
              ],
              [
                105.621949,
                18.851756
              ],
              [
                105.622212,
                18.851734
              ],
              [
                105.622416,
                18.851683
              ],
              [
                105.622626,
                18.851625
              ],
              [
                105.62289,
                18.851603
              ],
              [
                105.623086,
                18.851602
              ],
              [
                105.62347,
                18.851637
              ],
              [
                105.623983,
                18.851721
              ],
              [
                105.624383,
                18.851913
              ],
              [
                105.624715,
                18.852149
              ],
              [
                105.625115,
                18.85232
              ],
              [
                105.625923,
                18.852647
              ],
              [
                105.626391,
                18.852803
              ],
              [
                105.626752,
                18.852809
              ],
              [
                105.626993,
                18.852816
              ],
              [
                105.62728,
                18.8528
              ],
              [
                105.627581,
                18.852763
              ],
              [
                105.627935,
                18.852748
              ],
              [
                105.62835,
                18.852797
              ],
              [
                105.628666,
                18.852867
              ],
              [
                105.628983,
                18.852945
              ],
              [
                105.629187,
                18.852995
              ],
              [
                105.629473,
                18.85303
              ],
              [
                105.629627,
                18.853065
              ],
              [
                105.629716,
                18.852987
              ],
              [
                105.629908,
                18.852823
              ],
              [
                105.630181,
                18.852492
              ],
              [
                105.630447,
                18.85206
              ],
              [
                105.6306,
                18.851741
              ],
              [
                105.630798,
                18.851403
              ],
              [
                105.630929,
                18.851194
              ],
              [
                105.631008,
                18.851094
              ],
              [
                105.631042,
                18.851083
              ],
              [
                105.631313,
                18.851111
              ],
              [
                105.631785,
                18.851159
              ],
              [
                105.632289,
                18.85115
              ],
              [
                105.632557,
                18.851103
              ],
              [
                105.63276,
                18.851075
              ],
              [
                105.632989,
                18.851045
              ],
              [
                105.633281,
                18.851011
              ],
              [
                105.633803,
                18.850863
              ],
              [
                105.633846,
                18.850838
              ],
              [
                105.633852,
                18.850837
              ],
              [
                105.634152,
                18.850671
              ],
              [
                105.6344,
                18.850519
              ],
              [
                105.6346,
                18.850396
              ],
              [
                105.634667,
                18.850328
              ],
              [
                105.634701,
                18.850213
              ],
              [
                105.634752,
                18.849905
              ],
              [
                105.634846,
                18.849689
              ],
              [
                105.634863,
                18.849645
              ],
              [
                105.634912,
                18.849532
              ],
              [
                105.635009,
                18.849353
              ],
              [
                105.635217,
                18.849107
              ],
              [
                105.63562,
                18.848721
              ],
              [
                105.636273,
                18.848287
              ],
              [
                105.636374,
                18.848232
              ],
              [
                105.636505,
                18.848141
              ],
              [
                105.636929,
                18.847813
              ],
              [
                105.637196,
                18.847579
              ],
              [
                105.637297,
                18.847478
              ],
              [
                105.63738,
                18.84746
              ],
              [
                105.637572,
                18.847445
              ],
              [
                105.637847,
                18.847419
              ],
              [
                105.638212,
                18.847364
              ],
              [
                105.638498,
                18.847302
              ],
              [
                105.638777,
                18.847219
              ],
              [
                105.639048,
                18.847099
              ],
              [
                105.639236,
                18.846998
              ],
              [
                105.639401,
                18.84684
              ],
              [
                105.639498,
                18.846714
              ],
              [
                105.639552,
                18.8466
              ],
              [
                105.639657,
                18.846292
              ],
              [
                105.639913,
                18.845846
              ],
              [
                105.640211,
                18.845593
              ],
              [
                105.640398,
                18.845456
              ],
              [
                105.640458,
                18.845409
              ],
              [
                105.640574,
                18.84534
              ],
              [
                105.640691,
                18.8453
              ],
              [
                105.640838,
                18.84526
              ],
              [
                105.641158,
                18.845223
              ],
              [
                105.641685,
                18.845143
              ],
              [
                105.642016,
                18.845073
              ],
              [
                105.642268,
                18.844961
              ],
              [
                105.642621,
                18.844723
              ],
              [
                105.642922,
                18.844471
              ],
              [
                105.643184,
                18.84427
              ],
              [
                105.643338,
                18.844161
              ],
              [
                105.643527,
                18.844075
              ],
              [
                105.643745,
                18.844009
              ],
              [
                105.644245,
                18.843896
              ],
              [
                105.644554,
                18.843781
              ],
              [
                105.644701,
                18.843718
              ],
              [
                105.645413,
                18.843336
              ],
              [
                105.645797,
                18.843261
              ],
              [
                105.646127,
                18.84315
              ],
              [
                105.646442,
                18.843014
              ],
              [
                105.646728,
                18.842851
              ],
              [
                105.646833,
                18.842761
              ],
              [
                105.646991,
                18.842667
              ],
              [
                105.64722,
                18.842512
              ],
              [
                105.647329,
                18.842369
              ],
              [
                105.647456,
                18.842048
              ],
              [
                105.647478,
                18.842002
              ],
              [
                105.647533,
                18.841755
              ],
              [
                105.647552,
                18.841658
              ],
              [
                105.647551,
                18.841518
              ],
              [
                105.647494,
                18.84126
              ],
              [
                105.647394,
                18.840822
              ],
              [
                105.647318,
                18.840582
              ],
              [
                105.647185,
                18.840396
              ],
              [
                105.64697,
                18.84011
              ],
              [
                105.646883,
                18.840006
              ],
              [
                105.646746,
                18.839892
              ],
              [
                105.646546,
                18.839753
              ],
              [
                105.646373,
                18.839675
              ],
              [
                105.646161,
                18.839568
              ],
              [
                105.646118,
                18.839498
              ],
              [
                105.646099,
                18.839445
              ],
              [
                105.645797,
                18.838067
              ],
              [
                105.645397,
                18.838298
              ],
              [
                105.644996,
                18.838401
              ],
              [
                105.644658,
                18.83848
              ],
              [
                105.64376,
                18.838507
              ],
              [
                105.642943,
                18.838432
              ],
              [
                105.642535,
                18.838458
              ],
              [
                105.642247,
                18.838506
              ],
              [
                105.641927,
                18.838621
              ],
              [
                105.641545,
                18.838808
              ],
              [
                105.641138,
                18.839096
              ],
              [
                105.640464,
                18.839587
              ],
              [
                105.640029,
                18.839841
              ],
              [
                105.639678,
                18.840004
              ],
              [
                105.63934,
                18.840083
              ],
              [
                105.638574,
                18.840151
              ],
              [
                105.637601,
                18.84018
              ],
              [
                105.636898,
                18.840151
              ],
              [
                105.6362,
                18.840028
              ],
              [
                105.635182,
                18.839702
              ],
              [
                105.63417,
                18.839317
              ],
              [
                105.633387,
                18.838992
              ],
              [
                105.633224,
                18.83889
              ],
              [
                105.632728,
                18.838396
              ],
              [
                105.632564,
                18.838097
              ],
              [
                105.632452,
                18.837772
              ],
              [
                105.632445,
                18.837414
              ],
              [
                105.632452,
                18.837139
              ],
              [
                105.632569,
                18.836616
              ],
              [
                105.632694,
                18.836029
              ],
              [
                105.632747,
                18.835329
              ],
              [
                105.632898,
                18.83484
              ],
              [
                105.633095,
                18.834414
              ],
              [
                105.633283,
                18.834189
              ],
              [
                105.633542,
                18.833955
              ],
              [
                105.63387,
                18.833722
              ],
              [
                105.634494,
                18.833264
              ],
              [
                105.63479,
                18.832989
              ],
              [
                105.634861,
                18.832889
              ],
              [
                105.634942,
                18.832749
              ],
              [
                105.63499,
                18.832549
              ],
              [
                105.635011,
                18.832346
              ],
              [
                105.634994,
                18.832186
              ],
              [
                105.634938,
                18.832018
              ],
              [
                105.634873,
                18.831873
              ],
              [
                105.634637,
                18.83156
              ],
              [
                105.634284,
                18.831283
              ],
              [
                105.633796,
                18.83109
              ],
              [
                105.633339,
                18.830985
              ],
              [
                105.632826,
                18.830948
              ],
              [
                105.632179,
                18.830999
              ],
              [
                105.631538,
                18.8311
              ],
              [
                105.631021,
                18.831137
              ],
              [
                105.630759,
                18.831115
              ],
              [
                105.630558,
                18.83107
              ],
              [
                105.630406,
                18.830994
              ],
              [
                105.630301,
                18.830872
              ],
              [
                105.630095,
                18.830604
              ],
              [
                105.630027,
                18.830454
              ],
              [
                105.629965,
                18.830312
              ],
              [
                105.629937,
                18.830034
              ],
              [
                105.62996,
                18.829782
              ],
              [
                105.630064,
                18.829387
              ],
              [
                105.630191,
                18.828974
              ],
              [
                105.63053,
                18.828088
              ],
              [
                105.630976,
                18.827128
              ],
              [
                105.631342,
                18.826394
              ],
              [
                105.631699,
                18.826007
              ],
              [
                105.632149,
                18.825742
              ],
              [
                105.632568,
                18.825612
              ],
              [
                105.632822,
                18.825618
              ],
              [
                105.633081,
                18.825707
              ],
              [
                105.633761,
                18.82608
              ],
              [
                105.634315,
                18.826434
              ],
              [
                105.634572,
                18.82653
              ],
              [
                105.634845,
                18.826519
              ],
              [
                105.635117,
                18.826404
              ],
              [
                105.635286,
                18.826211
              ],
              [
                105.635464,
                18.825917
              ],
              [
                105.635555,
                18.825639
              ],
              [
                105.635617,
                18.825304
              ],
              [
                105.635655,
                18.824638
              ],
              [
                105.635607,
                18.823498
              ],
              [
                105.635519,
                18.822401
              ],
              [
                105.635425,
                18.821817
              ],
              [
                105.635302,
                18.821424
              ],
              [
                105.63516,
                18.82111
              ],
              [
                105.634995,
                18.820861
              ],
              [
                105.634605,
                18.820411
              ],
              [
                105.634354,
                18.820197
              ],
              [
                105.634098,
                18.82003
              ],
              [
                105.633835,
                18.819898
              ],
              [
                105.633244,
                18.81971
              ],
              [
                105.63272,
                18.819596
              ],
              [
                105.632187,
                18.819542
              ],
              [
                105.631585,
                18.819504
              ],
              [
                105.631049,
                18.81953
              ],
              [
                105.630539,
                18.819619
              ],
              [
                105.629643,
                18.819908
              ],
              [
                105.628523,
                18.820416
              ],
              [
                105.627974,
                18.820713
              ],
              [
                105.627778,
                18.820797
              ],
              [
                105.627588,
                18.820846
              ],
              [
                105.62737,
                18.820887
              ],
              [
                105.627237,
                18.820904
              ],
              [
                105.627076,
                18.820894
              ],
              [
                105.626952,
                18.820867
              ],
              [
                105.626851,
                18.820836
              ],
              [
                105.626533,
                18.82068
              ],
              [
                105.626336,
                18.820465
              ],
              [
                105.626139,
                18.820193
              ],
              [
                105.626033,
                18.819849
              ],
              [
                105.626016,
                18.819304
              ],
              [
                105.626179,
                18.818586
              ],
              [
                105.626177,
                18.818127
              ],
              [
                105.626175,
                18.817682
              ],
              [
                105.625993,
                18.817281
              ],
              [
                105.625359,
                18.816867
              ],
              [
                105.624997,
                18.816797
              ],
              [
                105.623535,
                18.816716
              ],
              [
                105.623349,
                18.816778
              ],
              [
                105.622648,
                18.817206
              ],
              [
                105.622243,
                18.817581
              ],
              [
                105.622079,
                18.817997
              ],
              [
                105.621886,
                18.818973
              ],
              [
                105.621768,
                18.819691
              ],
              [
                105.621589,
                18.820065
              ],
              [
                105.621333,
                18.820166
              ],
              [
                105.620896,
                18.820053
              ],
              [
                105.620639,
                18.819795
              ],
              [
                105.620124,
                18.818979
              ],
              [
                105.61968,
                18.817144
              ],
              [
                105.619663,
                18.816542
              ],
              [
                105.619543,
                18.816165
              ],
              [
                105.619373,
                18.815682
              ],
              [
                105.619115,
                18.815138
              ],
              [
                105.619024,
                18.814995
              ],
              [
                105.618751,
                18.814493
              ],
              [
                105.618629,
                18.814135
              ],
              [
                105.618538,
                18.813848
              ],
              [
                105.618492,
                18.813619
              ],
              [
                105.618611,
                18.813303
              ],
              [
                105.618821,
                18.813087
              ],
              [
                105.619062,
                18.812928
              ],
              [
                105.619754,
                18.812711
              ],
              [
                105.620627,
                18.812435
              ],
              [
                105.621514,
                18.811859
              ],
              [
                105.622055,
                18.811469
              ],
              [
                105.622446,
                18.811425
              ],
              [
                105.622702,
                18.811396
              ],
              [
                105.622913,
                18.81151
              ],
              [
                105.62308,
                18.811782
              ],
              [
                105.626301,
                18.810795
              ],
              [
                105.62685,
                18.812169
              ],
              [
                105.627208,
                18.812997
              ],
              [
                105.628473,
                18.813062
              ],
              [
                105.628921,
                18.812445
              ],
              [
                105.629308,
                18.81171
              ],
              [
                105.629369,
                18.811567
              ],
              [
                105.630251,
                18.811656
              ],
              [
                105.630316,
                18.811053
              ],
              [
                105.630351,
                18.81035
              ],
              [
                105.630296,
                18.809917
              ],
              [
                105.630243,
                18.809568
              ],
              [
                105.630213,
                18.809446
              ],
              [
                105.629998,
                18.808902
              ],
              [
                105.62981,
                18.808587
              ],
              [
                105.629393,
                18.807957
              ],
              [
                105.629091,
                18.807578
              ],
              [
                105.628743,
                18.807292
              ],
              [
                105.628133,
                18.806811
              ],
              [
                105.627892,
                18.806563
              ],
              [
                105.627608,
                18.806205
              ],
              [
                105.6274,
                18.805695
              ],
              [
                105.627315,
                18.805268
              ],
              [
                105.627184,
                18.804863
              ],
              [
                105.627073,
                18.804586
              ],
              [
                105.62685,
                18.804405
              ],
              [
                105.626524,
                18.804192
              ],
              [
                105.626357,
                18.80413
              ],
              [
                105.626082,
                18.804048
              ],
              [
                105.62573,
                18.804004
              ],
              [
                105.624904,
                18.803966
              ],
              [
                105.623618,
                18.804038
              ],
              [
                105.623126,
                18.804001
              ],
              [
                105.622413,
                18.803946
              ],
              [
                105.62184,
                18.803804
              ],
              [
                105.621488,
                18.803767
              ],
              [
                105.621087,
                18.803826
              ],
              [
                105.620776,
                18.803951
              ],
              [
                105.620455,
                18.804239
              ],
              [
                105.620055,
                18.804662
              ],
              [
                105.619906,
                18.805025
              ],
              [
                105.619847,
                18.805332
              ],
              [
                105.61981,
                18.806365
              ],
              [
                105.619751,
                18.806652
              ],
              [
                105.619631,
                18.806863
              ],
              [
                105.619471,
                18.806997
              ],
              [
                105.61919,
                18.807094
              ],
              [
                105.618849,
                18.807124
              ],
              [
                105.618327,
                18.807097
              ],
              [
                105.617865,
                18.807098
              ],
              [
                105.617473,
                18.807166
              ],
              [
                105.616771,
                18.807408
              ],
              [
                105.616049,
                18.807688
              ],
              [
                105.615788,
                18.807717
              ],
              [
                105.615487,
                18.807728
              ],
              [
                105.615286,
                18.8077
              ],
              [
                105.615094,
                18.807624
              ],
              [
                105.614943,
                18.80751
              ],
              [
                105.614846,
                18.807394
              ],
              [
                105.614646,
                18.806904
              ],
              [
                105.614398,
                18.806044
              ],
              [
                105.614202,
                18.805477
              ],
              [
                105.614162,
                18.804999
              ],
              [
                105.614185,
                18.804479
              ],
              [
                105.614246,
                18.803785
              ],
              [
                105.614232,
                18.803468
              ],
              [
                105.614212,
                18.803235
              ],
              [
                105.614104,
                18.802895
              ],
              [
                105.613864,
                18.802435
              ],
              [
                105.613593,
                18.802042
              ],
              [
                105.613132,
                18.801428
              ],
              [
                105.612861,
                18.801064
              ],
              [
                105.612722,
                18.800813
              ],
              [
                105.612659,
                18.800604
              ],
              [
                105.612639,
                18.800371
              ],
              [
                105.612651,
                18.800138
              ],
              [
                105.612725,
                18.799857
              ],
              [
                105.612856,
                18.799635
              ],
              [
                105.613025,
                18.799395
              ],
              [
                105.613275,
                18.79909
              ],
              [
                105.613644,
                18.798742
              ],
              [
                105.614326,
                18.798309
              ],
              [
                105.615022,
                18.79796
              ],
              [
                105.615642,
                18.797707
              ],
              [
                105.616006,
                18.797616
              ],
              [
                105.616408,
                18.797585
              ],
              [
                105.616797,
                18.797614
              ],
              [
                105.617117,
                18.797702
              ],
              [
                105.617469,
                18.797844
              ],
              [
                105.617834,
                18.798047
              ],
              [
                105.618559,
                18.798827
              ],
              [
                105.618792,
                18.799155
              ],
              [
                105.619039,
                18.799758
              ],
              [
                105.619325,
                18.800768
              ],
              [
                105.619555,
                18.801831
              ],
              [
                105.619714,
                18.802303
              ],
              [
                105.619941,
                18.802613
              ],
              [
                105.62013,
                18.802767
              ],
              [
                105.620312,
                18.802815
              ],
              [
                105.620532,
                18.802814
              ],
              [
                105.620726,
                18.802736
              ],
              [
                105.620945,
                18.802585
              ],
              [
                105.621283,
                18.802232
              ],
              [
                105.621614,
                18.801692
              ],
              [
                105.621788,
                18.801214
              ],
              [
                105.621818,
                18.800885
              ],
              [
                105.621867,
                18.800598
              ],
              [
                105.621846,
                18.79997
              ],
              [
                105.621744,
                18.799504
              ],
              [
                105.62161,
                18.799134
              ],
              [
                105.621163,
                18.798645
              ],
              [
                105.620722,
                18.798234
              ],
              [
                105.620432,
                18.797859
              ],
              [
                105.62028,
                18.797584
              ],
              [
                105.620198,
                18.797297
              ],
              [
                105.62014,
                18.796939
              ],
              [
                105.620025,
                18.796521
              ],
              [
                105.619905,
                18.796282
              ],
              [
                105.619766,
                18.796055
              ],
              [
                105.6193,
                18.795674
              ],
              [
                105.618633,
                18.795216
              ],
              [
                105.618143,
                18.794895
              ],
              [
                105.617784,
                18.794615
              ],
              [
                105.617519,
                18.794353
              ],
              [
                105.617305,
                18.794145
              ],
              [
                105.61701,
                18.793978
              ],
              [
                105.616815,
                18.793967
              ],
              [
                105.61647,
                18.794058
              ],
              [
                105.615937,
                18.794269
              ],
              [
                105.615404,
                18.794474
              ],
              [
                105.614878,
                18.794553
              ],
              [
                105.613666,
                18.794772
              ],
              [
                105.613013,
                18.794837
              ],
              [
                105.612501,
                18.794838
              ],
              [
                105.61219,
                18.794877
              ],
              [
                105.612029,
                18.794916
              ],
              [
                105.611864,
                18.795012
              ],
              [
                105.611644,
                18.795238
              ],
              [
                105.611084,
                18.795881
              ],
              [
                105.610824,
                18.796216
              ],
              [
                105.610664,
                18.796504
              ],
              [
                105.610316,
                18.797447
              ],
              [
                105.610008,
                18.798247
              ],
              [
                105.609879,
                18.798682
              ],
              [
                105.609839,
                18.798902
              ],
              [
                105.60982,
                18.799137
              ],
              [
                105.609861,
                18.799314
              ],
              [
                105.609917,
                18.799481
              ],
              [
                105.609998,
                18.799638
              ],
              [
                105.610325,
                18.800039
              ],
              [
                105.610537,
                18.800325
              ],
              [
                105.610679,
                18.800655
              ],
              [
                105.610745,
                18.800918
              ],
              [
                105.610726,
                18.801166
              ],
              [
                105.610652,
                18.801372
              ],
              [
                105.610527,
                18.801564
              ],
              [
                105.609786,
                18.802126
              ],
              [
                105.609295,
                18.802467
              ],
              [
                105.609129,
                18.802534
              ],
              [
                105.609019,
                18.802549
              ],
              [
                105.608873,
                18.802535
              ],
              [
                105.608617,
                18.802484
              ],
              [
                105.607732,
                18.802161
              ],
              [
                105.607138,
                18.801871
              ],
              [
                105.606836,
                18.801681
              ],
              [
                105.606519,
                18.8014
              ],
              [
                105.606337,
                18.801181
              ],
              [
                105.60609,
                18.800689
              ],
              [
                105.605745,
                18.79992
              ],
              [
                105.605361,
                18.799151
              ],
              [
                105.605144,
                18.798985
              ],
              [
                105.604948,
                18.798928
              ],
              [
                105.604712,
                18.798933
              ],
              [
                105.604356,
                18.799006
              ],
              [
                105.60405,
                18.799146
              ],
              [
                105.60375,
                18.799353
              ],
              [
                105.603505,
                18.799569
              ],
              [
                105.603214,
                18.799914
              ],
              [
                105.602905,
                18.800317
              ],
              [
                105.602555,
                18.800767
              ],
              [
                105.602269,
                18.801017
              ],
              [
                105.601969,
                18.80119
              ],
              [
                105.601638,
                18.801301
              ],
              [
                105.601301,
                18.801336
              ],
              [
                105.600704,
                18.801342
              ],
              [
                105.600011,
                18.801316
              ],
              [
                105.599368,
                18.801251
              ],
              [
                105.598986,
                18.801171
              ],
              [
                105.598724,
                18.801071
              ],
              [
                105.598347,
                18.800838
              ],
              [
                105.597999,
                18.800485
              ],
              [
                105.597404,
                18.799889
              ],
              [
                105.597213,
                18.799598
              ],
              [
                105.59704,
                18.799178
              ],
              [
                105.596979,
                18.798977
              ],
              [
                105.596968,
                18.798705
              ],
              [
                105.597003,
                18.798418
              ],
              [
                105.597112,
                18.79814
              ],
              [
                105.597267,
                18.797853
              ],
              [
                105.597521,
                18.797474
              ],
              [
                105.598142,
                18.796898
              ],
              [
                105.598618,
                18.796504
              ],
              [
                105.599019,
                18.796269
              ],
              [
                105.599365,
                18.796124
              ],
              [
                105.599721,
                18.796042
              ],
              [
                105.600263,
                18.795949
              ],
              [
                105.600664,
                18.795857
              ],
              [
                105.600865,
                18.79577
              ],
              [
                105.601015,
                18.795645
              ],
              [
                105.601235,
                18.795444
              ],
              [
                105.60148,
                18.795094
              ],
              [
                105.601625,
                18.794787
              ],
              [
                105.601669,
                18.794563
              ],
              [
                105.601653,
                18.794405
              ],
              [
                105.601627,
                18.79419
              ],
              [
                105.601511,
                18.793913
              ],
              [
                105.601198,
                18.793588
              ],
              [
                105.600886,
                18.793355
              ],
              [
                105.600358,
                18.793046
              ],
              [
                105.599654,
                18.792828
              ],
              [
                105.599167,
                18.792705
              ],
              [
                105.59884,
                18.792544
              ],
              [
                105.598246,
                18.79223
              ],
              [
                105.597839,
                18.792078
              ],
              [
                105.597608,
                18.792065
              ],
              [
                105.597256,
                18.792042
              ],
              [
                105.59692,
                18.792072
              ],
              [
                105.596468,
                18.792198
              ],
              [
                105.596118,
                18.792385
              ],
              [
                105.595897,
                18.792549
              ],
              [
                105.595707,
                18.792712
              ],
              [
                105.595527,
                18.792894
              ],
              [
                105.595397,
                18.793055
              ],
              [
                105.595287,
                18.793232
              ],
              [
                105.59519,
                18.793438
              ],
              [
                105.59511,
                18.793687
              ],
              [
                105.595011,
                18.794094
              ],
              [
                105.594895,
                18.794472
              ],
              [
                105.594788,
                18.794733
              ],
              [
                105.594698,
                18.794901
              ],
              [
                105.594588,
                18.794989
              ],
              [
                105.594402,
                18.795095
              ],
              [
                105.594249,
                18.795146
              ],
              [
                105.594059,
                18.795182
              ],
              [
                105.593559,
                18.795127
              ],
              [
                105.593107,
                18.795085
              ],
              [
                105.592846,
                18.795102
              ],
              [
                105.592713,
                18.795158
              ],
              [
                105.59259,
                18.795244
              ],
              [
                105.592233,
                18.795666
              ],
              [
                105.591725,
                18.796323
              ],
              [
                105.591458,
                18.796702
              ],
              [
                105.591128,
                18.797155
              ],
              [
                105.590856,
                18.79756
              ],
              [
                105.590771,
                18.797706
              ],
              [
                105.590731,
                18.797828
              ],
              [
                105.59065,
                18.798201
              ],
              [
                105.590591,
                18.798551
              ],
              [
                105.590577,
                18.798871
              ],
              [
                105.590603,
                18.7991
              ],
              [
                105.590641,
                18.799263
              ],
              [
                105.590724,
                18.799449
              ],
              [
                105.590881,
                18.799721
              ],
              [
                105.590997,
                18.799872
              ],
              [
                105.591183,
                18.800036
              ],
              [
                105.591364,
                18.800157
              ],
              [
                105.591681,
                18.800305
              ],
              [
                105.592069,
                18.800461
              ],
              [
                105.592222,
                18.800554
              ],
              [
                105.592421,
                18.80073
              ],
              [
                105.592653,
                18.800971
              ],
              [
                105.592819,
                18.801181
              ],
              [
                105.592971,
                18.801432
              ],
              [
                105.593181,
                18.801897
              ],
              [
                105.593336,
                18.802344
              ],
              [
                105.593371,
                18.802478
              ],
              [
                105.593382,
                18.802578
              ],
              [
                105.593382,
                18.802683
              ],
              [
                105.59336,
                18.80281
              ],
              [
                105.593292,
                18.802951
              ],
              [
                105.593198,
                18.803071
              ],
              [
                105.59303,
                18.803189
              ],
              [
                105.592794,
                18.803309
              ],
              [
                105.592047,
                18.803515
              ],
              [
                105.591768,
                18.803564
              ],
              [
                105.591131,
                18.803649
              ],
              [
                105.590854,
                18.803636
              ],
              [
                105.590746,
                18.8036
              ],
              [
                105.590643,
                18.803543
              ],
              [
                105.590492,
                18.80341
              ],
              [
                105.590114,
                18.802997
              ],
              [
                105.589983,
                18.802857
              ],
              [
                105.589834,
                18.802776
              ],
              [
                105.589631,
                18.802705
              ],
              [
                105.58941,
                18.802662
              ],
              [
                105.588822,
                18.802578
              ],
              [
                105.588711,
                18.802528
              ],
              [
                105.588616,
                18.802445
              ],
              [
                105.588479,
                18.802283
              ],
              [
                105.588381,
                18.802061
              ],
              [
                105.58821,
                18.801308
              ],
              [
                105.587935,
                18.800288
              ],
              [
                105.587887,
                18.800039
              ],
              [
                105.58783,
                18.799654
              ],
              [
                105.587827,
                18.799418
              ],
              [
                105.587841,
                18.799114
              ],
              [
                105.587937,
                18.798573
              ],
              [
                105.588039,
                18.798243
              ],
              [
                105.588128,
                18.798075
              ],
              [
                105.588213,
                18.798006
              ],
              [
                105.588289,
                18.797972
              ],
              [
                105.588384,
                18.797948
              ],
              [
                105.588547,
                18.797952
              ],
              [
                105.588879,
                18.797989
              ],
              [
                105.588984,
                18.798001
              ],
              [
                105.58915,
                18.797981
              ],
              [
                105.589238,
                18.797943
              ],
              [
                105.589365,
                18.797854
              ],
              [
                105.589541,
                18.797691
              ],
              [
                105.58969,
                18.797403
              ],
              [
                105.589727,
                18.797281
              ],
              [
                105.589742,
                18.797181
              ],
              [
                105.589727,
                18.797083
              ],
              [
                105.589709,
                18.797013
              ],
              [
                105.589658,
                18.796913
              ],
              [
                105.58949,
                18.796722
              ],
              [
                105.589338,
                18.796603
              ],
              [
                105.588604,
                18.796178
              ],
              [
                105.588073,
                18.795959
              ],
              [
                105.587917,
                18.795917
              ],
              [
                105.587732,
                18.795893
              ],
              [
                105.587561,
                18.795906
              ],
              [
                105.58743,
                18.795933
              ],
              [
                105.58727,
                18.795991
              ],
              [
                105.587092,
                18.796154
              ],
              [
                105.587055,
                18.796218
              ],
              [
                105.587018,
                18.796376
              ],
              [
                105.587027,
                18.79673
              ],
              [
                105.587041,
                18.797149
              ],
              [
                105.587031,
                18.797361
              ],
              [
                105.586994,
                18.79746
              ],
              [
                105.586906,
                18.797534
              ],
              [
                105.586773,
                18.797558
              ],
              [
                105.586625,
                18.797552
              ],
              [
                105.586607,
                18.797666
              ],
              [
                105.586738,
                18.797978
              ],
              [
                105.586899,
                18.798112
              ],
              [
                105.58707,
                18.798188
              ],
              [
                105.58713,
                18.798235
              ],
              [
                105.587121,
                18.798312
              ],
              [
                105.587102,
                18.798618
              ],
              [
                105.587152,
                18.798713
              ],
              [
                105.587253,
                18.798857
              ],
              [
                105.587263,
                18.798943
              ],
              [
                105.587274,
                18.799067
              ],
              [
                105.587184,
                18.799153
              ],
              [
                105.587054,
                18.799259
              ],
              [
                105.587044,
                18.799345
              ],
              [
                105.587075,
                18.799517
              ],
              [
                105.587115,
                18.799641
              ],
              [
                105.587115,
                18.799718
              ],
              [
                105.587046,
                18.7999
              ],
              [
                105.586987,
                18.800436
              ],
              [
                105.586909,
                18.800914
              ],
              [
                105.586819,
                18.801153
              ],
              [
                105.586429,
                18.801729
              ],
              [
                105.585919,
                18.802266
              ],
              [
                105.585358,
                18.802803
              ],
              [
                105.585158,
                18.80288
              ],
              [
                105.585027,
                18.8029
              ],
              [
                105.584807,
                18.802987
              ],
              [
                105.584656,
                18.803092
              ],
              [
                105.584336,
                18.803485
              ],
              [
                105.584027,
                18.803926
              ],
              [
                105.584017,
                18.804137
              ],
              [
                105.583988,
                18.804433
              ],
              [
                105.583929,
                18.804625
              ],
              [
                105.583809,
                18.804884
              ],
              [
                105.583679,
                18.80497
              ],
              [
                105.583609,
                18.805085
              ],
              [
                105.583629,
                18.805248
              ],
              [
                105.58371,
                18.80541
              ],
              [
                105.584013,
                18.805772
              ],
              [
                105.584305,
                18.806049
              ],
              [
                105.58506,
                18.806563
              ],
              [
                105.585392,
                18.806706
              ],
              [
                105.585895,
                18.806953
              ],
              [
                105.586187,
                18.807028
              ],
              [
                105.586448,
                18.807037
              ],
              [
                105.586749,
                18.806969
              ],
              [
                105.58725,
                18.806757
              ],
              [
                105.587541,
                18.806594
              ],
              [
                105.587842,
                18.806459
              ],
              [
                105.588103,
                18.806343
              ],
              [
                105.588313,
                18.806218
              ],
              [
                105.588463,
                18.806074
              ],
              [
                105.588553,
                18.805969
              ],
              [
                105.588623,
                18.805796
              ],
              [
                105.588653,
                18.805662
              ],
              [
                105.588682,
                18.805423
              ],
              [
                105.588711,
                18.805174
              ],
              [
                105.5887,
                18.804983
              ],
              [
                105.58871,
                18.804887
              ],
              [
                105.58883,
                18.804801
              ],
              [
                105.589001,
                18.804753
              ],
              [
                105.589141,
                18.804733
              ],
              [
                105.589343,
                18.804828
              ],
              [
                105.589695,
                18.805095
              ],
              [
                105.590058,
                18.805419
              ],
              [
                105.590109,
                18.805458
              ],
              [
                105.589786,
                18.807396
              ],
              [
                105.589706,
                18.808036
              ],
              [
                105.589626,
                18.808437
              ],
              [
                105.589558,
                18.808634
              ],
              [
                105.589414,
                18.808695
              ],
              [
                105.588894,
                18.808941
              ],
              [
                105.588467,
                18.809098
              ],
              [
                105.588191,
                18.809141
              ],
              [
                105.58777,
                18.809088
              ],
              [
                105.587324,
                18.808994
              ],
              [
                105.586709,
                18.808805
              ],
              [
                105.586407,
                18.808746
              ],
              [
                105.586087,
                18.808711
              ],
              [
                105.585704,
                18.808694
              ],
              [
                105.585541,
                18.808707
              ],
              [
                105.585327,
                18.808749
              ],
              [
                105.584982,
                18.808834
              ],
              [
                105.584625,
                18.808895
              ],
              [
                105.58428,
                18.808914
              ],
              [
                105.584129,
                18.808903
              ],
              [
                105.583588,
                18.808695
              ],
              [
                105.583419,
                18.80857
              ],
              [
                105.583261,
                18.808434
              ],
              [
                105.58314,
                18.808277
              ],
              [
                105.582823,
                18.808063
              ],
              [
                105.58249,
                18.807705
              ],
              [
                105.582412,
                18.807603
              ],
              [
                105.582265,
                18.808384
              ],
              [
                105.582092,
                18.809197
              ],
              [
                105.581579,
                18.809629
              ],
              [
                105.580575,
                18.809584
              ],
              [
                105.58025,
                18.810088
              ],
              [
                105.579713,
                18.811082
              ],
              [
                105.57955,
                18.811106
              ],
              [
                105.579211,
                18.811131
              ],
              [
                105.578936,
                18.811216
              ],
              [
                105.578763,
                18.811233
              ],
              [
                105.578883,
                18.811667
              ],
              [
                105.578883,
                18.811666
              ],
              [
                105.578884,
                18.811666
              ],
              [
                105.578895,
                18.811738
              ],
              [
                105.578914,
                18.81186
              ],
              [
                105.578908,
                18.811986
              ],
              [
                105.578934,
                18.812026
              ],
              [
                105.578927,
                18.812191
              ],
              [
                105.578898,
                18.812193
              ],
              [
                105.578136,
                18.812234
              ],
              [
                105.578023,
                18.812235
              ],
              [
                105.57801,
                18.812127
              ],
              [
                105.578034,
                18.811984
              ],
              [
                105.578146,
                18.811744
              ],
              [
                105.578171,
                18.811601
              ],
              [
                105.578133,
                18.811553
              ],
              [
                105.578008,
                18.811517
              ],
              [
                105.577781,
                18.811494
              ],
              [
                105.577531,
                18.811591
              ],
              [
                105.577456,
                18.811806
              ],
              [
                105.577243,
                18.811866
              ],
              [
                105.576967,
                18.811831
              ],
              [
                105.576329,
                18.811691
              ],
              [
                105.575931,
                18.813187
              ],
              [
                105.575359,
                18.813428
              ],
              [
                105.57209,
                18.814988
              ],
              [
                105.571308,
                18.815334
              ],
              [
                105.571097,
                18.815479
              ],
              [
                105.569922,
                18.816296
              ],
              [
                105.570262,
                18.816943
              ],
              [
                105.569721,
                18.816973
              ],
              [
                105.569445,
                18.817031
              ],
              [
                105.568592,
                18.817254
              ],
              [
                105.565426,
                18.818129
              ],
              [
                105.563716,
                18.818741
              ],
              [
                105.564827,
                18.82173
              ],
              [
                105.564767,
                18.821823
              ],
              [
                105.564552,
                18.821999
              ],
              [
                105.564387,
                18.822058
              ],
              [
                105.564175,
                18.822049
              ],
              [
                105.563774,
                18.821898
              ],
              [
                105.563467,
                18.821912
              ],
              [
                105.563089,
                18.821981
              ],
              [
                105.562535,
                18.822164
              ],
              [
                105.562477,
                18.82218
              ],
              [
                105.561552,
                18.822613
              ],
              [
                105.561308,
                18.822709
              ],
              [
                105.561153,
                18.822916
              ],
              [
                105.561094,
                18.823111
              ],
              [
                105.561095,
                18.823366
              ],
              [
                105.561141,
                18.823814
              ],
              [
                105.561195,
                18.824044
              ],
              [
                105.561243,
                18.824274
              ],
              [
                105.561253,
                18.82452
              ],
              [
                105.561328,
                18.824717
              ],
              [
                105.561385,
                18.824974
              ],
              [
                105.561411,
                18.825188
              ],
              [
                105.561392,
                18.825663
              ],
              [
                105.561418,
                18.825912
              ],
              [
                105.561466,
                18.825957
              ],
              [
                105.561468,
                18.826081
              ],
              [
                105.56143,
                18.826231
              ],
              [
                105.561531,
                18.826461
              ],
              [
                105.561675,
                18.826809
              ],
              [
                105.561825,
                18.827215
              ],
              [
                105.561991,
                18.827415
              ],
              [
                105.562218,
                18.827658
              ],
              [
                105.562459,
                18.82783
              ],
              [
                105.562535,
                18.827944
              ],
              [
                105.562528,
                18.82803
              ],
              [
                105.562476,
                18.828188
              ],
              [
                105.562416,
                18.828289
              ],
              [
                105.562394,
                18.828425
              ],
              [
                105.562432,
                18.828583
              ],
              [
                105.562554,
                18.828984
              ],
              [
                105.562563,
                18.829486
              ],
              [
                105.562467,
                18.830061
              ],
              [
                105.562355,
                18.830491
              ],
              [
                105.562183,
                18.830764
              ],
              [
                105.561958,
                18.831138
              ],
              [
                105.561794,
                18.831648
              ],
              [
                105.561698,
                18.832265
              ],
              [
                105.561452,
                18.833077
              ],
              [
                105.561474,
                18.833268
              ],
              [
                105.561524,
                18.833275
              ],
              [
                105.56204,
                18.83335
              ],
              [
                105.562753,
                18.833589
              ],
              [
                105.562947,
                18.833617
              ],
              [
                105.563151,
                18.833568
              ],
              [
                105.563306,
                18.833517
              ],
              [
                105.563422,
                18.833576
              ],
              [
                105.563987,
                18.833868
              ],
              [
                105.564161,
                18.833927
              ],
              [
                105.56434,
                18.833936
              ],
              [
                105.564548,
                18.833957
              ],
              [
                105.564652,
                18.834012
              ],
              [
                105.56501,
                18.834293
              ],
              [
                105.565221,
                18.834535
              ],
              [
                105.56557,
                18.835051
              ],
              [
                105.565881,
                18.835555
              ],
              [
                105.566138,
                18.836184
              ],
              [
                105.566352,
                18.836768
              ],
              [
                105.566436,
                18.836982
              ],
              [
                105.566467,
                18.837299
              ],
              [
                105.566468,
                18.837529
              ],
              [
                105.566434,
                18.83771
              ],
              [
                105.566272,
                18.837921
              ],
              [
                105.566086,
                18.838039
              ],
              [
                105.566077,
                18.838045
              ],
              [
                105.56578,
                18.838137
              ],
              [
                105.565837,
                18.838275
              ],
              [
                105.56602,
                18.838543
              ],
              [
                105.56619,
                18.838854
              ],
              [
                105.566374,
                18.839325
              ],
              [
                105.566525,
                18.839516
              ],
              [
                105.566639,
                18.839641
              ],
              [
                105.566727,
                18.839934
              ],
              [
                105.566722,
                18.840077
              ],
              [
                105.566547,
                18.840556
              ],
              [
                105.566391,
                18.840778
              ],
              [
                105.566121,
                18.840931
              ],
              [
                105.565626,
                18.840924
              ],
              [
                105.565205,
                18.840925
              ],
              [
                105.56459,
                18.84101
              ],
              [
                105.56373,
                18.841186
              ],
              [
                105.563411,
                18.841265
              ],
              [
                105.562946,
                18.841368
              ],
              [
                105.562381,
                18.841346
              ],
              [
                105.56201,
                18.841281
              ],
              [
                105.561679,
                18.841403
              ],
              [
                105.56156,
                18.841663
              ],
              [
                105.561601,
                18.842336
              ],
              [
                105.561483,
                18.844523
              ],
              [
                105.561422,
                18.844997
              ],
              [
                105.561437,
                18.845437
              ],
              [
                105.561519,
                18.845704
              ],
              [
                105.56198,
                18.846961
              ],
              [
                105.562072,
                18.847353
              ],
              [
                105.562219,
                18.847912
              ],
              [
                105.562281,
                18.848476
              ],
              [
                105.562272,
                18.848729
              ],
              [
                105.562243,
                18.848964
              ],
              [
                105.562108,
                18.849189
              ],
              [
                105.561903,
                18.849467
              ],
              [
                105.561743,
                18.849654
              ],
              [
                105.561548,
                18.849811
              ],
              [
                105.561643,
                18.849874
              ],
              [
                105.561855,
                18.850156
              ],
              [
                105.562455,
                18.850943
              ],
              [
                105.562743,
                18.851315
              ],
              [
                105.56306,
                18.851687
              ],
              [
                105.563655,
                18.85224
              ],
              [
                105.564038,
                18.852579
              ],
              [
                105.564204,
                18.852683
              ],
              [
                105.564486,
                18.852859
              ],
              [
                105.564737,
                18.85294
              ],
              [
                105.565069,
                18.853049
              ],
              [
                105.565225,
                18.853168
              ],
              [
                105.565477,
                18.853287
              ],
              [
                105.566056,
                18.853582
              ],
              [
                105.566405,
                18.853706
              ],
              [
                105.566503,
                18.853964
              ],
              [
                105.566608,
                18.854296
              ],
              [
                105.566695,
                18.854944
              ],
              [
                105.566712,
                18.855192
              ],
              [
                105.566694,
                18.855557
              ],
              [
                105.566733,
                18.856032
              ],
              [
                105.566853,
                18.856268
              ],
              [
                105.566958,
                18.856575
              ],
              [
                105.567018,
                18.856796
              ],
              [
                105.567057,
                18.857122
              ],
              [
                105.567203,
                18.857567
              ],
              [
                105.567242,
                18.857785
              ],
              [
                105.567308,
                18.857985
              ],
              [
                105.567365,
                18.858107
              ],
              [
                105.567412,
                18.85826
              ],
              [
                105.567538,
                18.858374
              ],
              [
                105.567893,
                18.858595
              ],
              [
                105.56827,
                18.858809
              ],
              [
                105.568399,
                18.858895
              ],
              [
                105.568558,
                18.859088
              ],
              [
                105.568883,
                18.859625
              ],
              [
                105.568914,
                18.859668
              ],
              [
                105.569057,
                18.859804
              ],
              [
                105.569586,
                18.860146
              ],
              [
                105.56982,
                18.860375
              ],
              [
                105.569995,
                18.860647
              ],
              [
                105.570188,
                18.86112
              ],
              [
                105.570501,
                18.861148
              ],
              [
                105.570818,
                18.861226
              ],
              [
                105.571172,
                18.86139
              ],
              [
                105.571323,
                18.861404
              ],
              [
                105.57164,
                18.86141
              ],
              [
                105.572318,
                18.861472
              ],
              [
                105.572785,
                18.861499
              ],
              [
                105.573396,
                18.861605
              ],
              [
                105.573976,
                18.861625
              ],
              [
                105.574421,
                18.861717
              ],
              [
                105.57461,
                18.861702
              ],
              [
                105.574782,
                18.861587
              ],
              [
                105.575091,
                18.861485
              ],
              [
                105.575287,
                18.861499
              ],
              [
                105.575355,
                18.861513
              ],
              [
                105.575574,
                18.861699
              ],
              [
                105.57577,
                18.861856
              ],
              [
                105.575861,
                18.861892
              ],
              [
                105.576344,
                18.862026
              ],
              [
                105.577112,
                18.862053
              ],
              [
                105.577379,
                18.862122
              ],
              [
                105.577377,
                18.862346
              ],
              [
                105.577453,
                18.862611
              ],
              [
                105.577582,
                18.862805
              ],
              [
                105.577763,
                18.862897
              ],
              [
                105.577975,
                18.862968
              ],
              [
                105.578502,
                18.863074
              ],
              [
                105.578993,
                18.86318
              ],
              [
                105.579717,
                18.863458
              ],
              [
                105.580049,
                18.863557
              ],
              [
                105.580335,
                18.863607
              ],
              [
                105.580772,
                18.863569
              ],
              [
                105.58115,
                18.863478
              ],
              [
                105.581661,
                18.863409
              ],
              [
                105.581842,
                18.863415
              ],
              [
                105.582008,
                18.863479
              ],
              [
                105.582189,
                18.863586
              ],
              [
                105.582657,
                18.863793
              ],
              [
                105.582891,
                18.863929
              ],
              [
                105.583215,
                18.864093
              ],
              [
                105.583638,
                18.864192
              ],
              [
                105.584211,
                18.864362
              ],
              [
                105.58458,
                18.864418
              ],
              [
                105.584761,
                18.864396
              ],
              [
                105.58519,
                18.864244
              ],
              [
                105.585679,
                18.864035
              ],
              [
                105.585905,
                18.863969
              ],
              [
                105.586176,
                18.86394
              ],
              [
                105.586406,
                18.864083
              ],
              [
                105.586622,
                18.864268
              ],
              [
                105.587815,
                18.865118
              ],
              [
                105.58814,
                18.865268
              ],
              [
                105.588344,
                18.865296
              ],
              [
                105.588622,
                18.865302
              ],
              [
                105.5893,
                18.865271
              ],
              [
                105.589609,
                18.865177
              ],
              [
                105.590038,
                18.865161
              ],
              [
                105.590498,
                18.865239
              ],
              [
                105.590921,
                18.865385
              ],
              [
                105.592671,
                18.865849
              ],
              [
                105.593372,
                18.866012
              ],
              [
                105.594209,
                18.866239
              ],
              [
                105.594873,
                18.866308
              ],
              [
                105.59574,
                18.86642
              ],
              [
                105.596222,
                18.866426
              ],
              [
                105.596851,
                18.866347
              ],
              [
                105.597185,
                18.866043
              ],
              [
                105.597545,
                18.865676
              ],
              [
                105.597823,
                18.865445
              ],
              [
                105.598139,
                18.865272
              ],
              [
                105.59844,
                18.86517
              ],
              [
                105.598704,
                18.865091
              ],
              [
                105.59908,
                18.864989
              ],
              [
                105.599359,
                18.864974
              ],
              [
                105.599563,
                18.865016
              ],
              [
                105.599692,
                18.86531
              ],
              [
                105.599753,
                18.865546
              ],
              [
                105.599912,
                18.86574
              ],
              [
                105.600199,
                18.865932
              ],
              [
                105.600275,
                18.866176
              ],
              [
                105.600367,
                18.866664
              ],
              [
                105.600466,
                18.866828
              ],
              [
                105.600632,
                18.866935
              ],
              [
                105.600783,
                18.866935
              ],
              [
                105.601813,
                18.866487
              ],
              [
                105.602716,
                18.866118
              ],
              [
                105.60304,
                18.865995
              ],
              [
                105.603568,
                18.865501
              ],
              [
                105.603777,
                18.865315
              ],
              [
                105.603777,
                18.865315
              ]
            ]
          ]
        ]
      },
      "properties": {
        "code": "17842",
        "name": "Thần Lĩnh",
        "nameEn": "Than Linh",
        "fullName": "Xã Thần Lĩnh",
        "fullNameEn": "Than Linh Commune",
        "codeName": "than_linh",
        "postalCode": "43340",
        "postalCodePrefix": "",
        "gisServerId": "diaphanhanhchinhcapxa_2025.1526",
        "areaKm2": 44.69
      }
    }
  ]
}