{
  "type": "FeatureCollection",
  "bbox": [
    105.618492,
    18.784842,
    105.698162,
    18.856197
  ],
  "features": [
    {
      "type": "Feature",
      "id": "17866",
      "bbox": [
        105.618492,
        18.784842,
        105.698162,
        18.856197
      ],
      "geometry": {
        "type": "MultiPolygon",
        "coordinates": [
          [
            [
              [
                105.673572,
                18.851931
              ],
              [
                105.67392,
                18.851903
              ],
              [
                105.674478,
                18.851944
              ],
              [
                105.67527,
                18.852078
              ],
              [
                105.675677,
                18.852134
              ],
              [
                105.676302,
                18.852088
              ],
              [
                105.676768,
                18.851907
              ],
              [
                105.677121,
                18.851662
              ],
              [
                105.677354,
                18.851353
              ],
              [
                105.677503,
                18.850915
              ],
              [
                105.677545,
                18.850097
              ],
              [
                105.677698,
                18.848934
              ],
              [
                105.677869,
                18.848374
              ],
              [
                105.678124,
                18.847921
              ],
              [
                105.678341,
                18.84764
              ],
              [
                105.678559,
                18.847453
              ],
              [
                105.679431,
                18.847134
              ],
              [
                105.679878,
                18.846974
              ],
              [
                105.680538,
                18.8468
              ],
              [
                105.681342,
                18.846575
              ],
              [
                105.683308,
                18.846123
              ],
              [
                105.684181,
                18.846084
              ],
              [
                105.685719,
                18.846136
              ],
              [
                105.687731,
                18.846214
              ],
              [
                105.688423,
                18.846162
              ],
              [
                105.688755,
                18.84611
              ],
              [
                105.689349,
                18.845914
              ],
              [
                105.689588,
                18.845817
              ],
              [
                105.690058,
                18.845564
              ],
              [
                105.691185,
                18.844789
              ],
              [
                105.69221,
                18.844148
              ],
              [
                105.693156,
                18.843513
              ],
              [
                105.693546,
                18.842981
              ],
              [
                105.693829,
                18.842191
              ],
              [
                105.694171,
                18.841085
              ],
              [
                105.69441,
                18.840467
              ],
              [
                105.694901,
                18.83916
              ],
              [
                105.695331,
                18.837393
              ],
              [
                105.696105,
                18.835138
              ],
              [
                105.696713,
                18.832783
              ],
              [
                105.697173,
                18.83106
              ],
              [
                105.697592,
                18.830283
              ],
              [
                105.698162,
                18.829718
              ],
              [
                105.696081,
                18.829971
              ],
              [
                105.695733,
                18.82998
              ],
              [
                105.694436,
                18.82988
              ],
              [
                105.693491,
                18.82952
              ],
              [
                105.692785,
                18.828882
              ],
              [
                105.692014,
                18.827975
              ],
              [
                105.691643,
                18.827387
              ],
              [
                105.691545,
                18.827193
              ],
              [
                105.691501,
                18.827105
              ],
              [
                105.691407,
                18.826815
              ],
              [
                105.691315,
                18.826561
              ],
              [
                105.691227,
                18.82643
              ],
              [
                105.690994,
                18.826293
              ],
              [
                105.690824,
                18.826192
              ],
              [
                105.690672,
                18.825954
              ],
              [
                105.690517,
                18.825371
              ],
              [
                105.690494,
                18.82506
              ],
              [
                105.690543,
                18.824956
              ],
              [
                105.69016,
                18.824264
              ],
              [
                105.690039,
                18.82406
              ],
              [
                105.689843,
                18.82388
              ],
              [
                105.689478,
                18.823643
              ],
              [
                105.68901,
                18.823423
              ],
              [
                105.688285,
                18.8231
              ],
              [
                105.687651,
                18.82272
              ],
              [
                105.687102,
                18.822421
              ],
              [
                105.686593,
                18.822078
              ],
              [
                105.686226,
                18.821855
              ],
              [
                105.685752,
                18.821567
              ],
              [
                105.685765,
                18.821417
              ],
              [
                105.685742,
                18.821285
              ],
              [
                105.685704,
                18.821205
              ],
              [
                105.685584,
                18.821047
              ],
              [
                105.685367,
                18.820769
              ],
              [
                105.685287,
                18.820657
              ],
              [
                105.685146,
                18.820414
              ],
              [
                105.684839,
                18.819988
              ],
              [
                105.684308,
                18.819208
              ],
              [
                105.684149,
                18.818961
              ],
              [
                105.684089,
                18.818919
              ],
              [
                105.683945,
                18.818887
              ],
              [
                105.68383,
                18.818847
              ],
              [
                105.683698,
                18.818717
              ],
              [
                105.683521,
                18.818473
              ],
              [
                105.683496,
                18.818354
              ],
              [
                105.683545,
                18.818216
              ],
              [
                105.683595,
                18.818117
              ],
              [
                105.683733,
                18.818069
              ],
              [
                105.684062,
                18.818002
              ],
              [
                105.684508,
                18.817931
              ],
              [
                105.684828,
                18.817891
              ],
              [
                105.685135,
                18.81786
              ],
              [
                105.685474,
                18.817838
              ],
              [
                105.685669,
                18.817802
              ],
              [
                105.685747,
                18.817742
              ],
              [
                105.685784,
                18.817619
              ],
              [
                105.685755,
                18.817416
              ],
              [
                105.685599,
                18.816971
              ],
              [
                105.685469,
                18.816684
              ],
              [
                105.685397,
                18.81658
              ],
              [
                105.685274,
                18.816548
              ],
              [
                105.685161,
                18.816569
              ],
              [
                105.68492,
                18.816707
              ],
              [
                105.684717,
                18.816819
              ],
              [
                105.684551,
                18.816858
              ],
              [
                105.684368,
                18.816856
              ],
              [
                105.684221,
                18.816773
              ],
              [
                105.684126,
                18.816648
              ],
              [
                105.684078,
                18.816343
              ],
              [
                105.684036,
                18.816173
              ],
              [
                105.68392,
                18.816104
              ],
              [
                105.683791,
                18.816075
              ],
              [
                105.683546,
                18.816106
              ],
              [
                105.683289,
                18.81616
              ],
              [
                105.683154,
                18.81617
              ],
              [
                105.683022,
                18.816149
              ],
              [
                105.682915,
                18.816111
              ],
              [
                105.682796,
                18.816019
              ],
              [
                105.68265,
                18.815798
              ],
              [
                105.682537,
                18.815628
              ],
              [
                105.682429,
                18.815491
              ],
              [
                105.68219,
                18.815256
              ],
              [
                105.682035,
                18.815047
              ],
              [
                105.682,
                18.814928
              ],
              [
                105.682038,
                18.814829
              ],
              [
                105.682122,
                18.81473
              ],
              [
                105.6823,
                18.814619
              ],
              [
                105.682315,
                18.814519
              ],
              [
                105.682296,
                18.814368
              ],
              [
                105.682229,
                18.814174
              ],
              [
                105.681272,
                18.811192
              ],
              [
                105.680773,
                18.809654
              ],
              [
                105.680687,
                18.809554
              ],
              [
                105.680233,
                18.808929
              ],
              [
                105.680182,
                18.808795
              ],
              [
                105.680192,
                18.808642
              ],
              [
                105.680218,
                18.808561
              ],
              [
                105.678592,
                18.807678
              ],
              [
                105.677612,
                18.807163
              ],
              [
                105.675689,
                18.806257
              ],
              [
                105.674035,
                18.805423
              ],
              [
                105.672744,
                18.804811
              ],
              [
                105.671813,
                18.804344
              ],
              [
                105.671662,
                18.804281
              ],
              [
                105.670732,
                18.803739
              ],
              [
                105.670151,
                18.80348
              ],
              [
                105.669235,
                18.803124
              ],
              [
                105.668362,
                18.802772
              ],
              [
                105.667288,
                18.802338
              ],
              [
                105.666651,
                18.802093
              ],
              [
                105.665825,
                18.801777
              ],
              [
                105.665673,
                18.801724
              ],
              [
                105.664086,
                18.80117
              ],
              [
                105.663566,
                18.800997
              ],
              [
                105.663474,
                18.800967
              ],
              [
                105.663457,
                18.800858
              ],
              [
                105.663379,
                18.800542
              ],
              [
                105.663303,
                18.800255
              ],
              [
                105.66312,
                18.799646
              ],
              [
                105.662865,
                18.798705
              ],
              [
                105.662587,
                18.797649
              ],
              [
                105.662452,
                18.797133
              ],
              [
                105.662398,
                18.796909
              ],
              [
                105.662375,
                18.796708
              ],
              [
                105.662264,
                18.79579
              ],
              [
                105.662212,
                18.795431
              ],
              [
                105.662186,
                18.795185
              ],
              [
                105.662177,
                18.794918
              ],
              [
                105.662159,
                18.794736
              ],
              [
                105.662125,
                18.794484
              ],
              [
                105.662071,
                18.794011
              ],
              [
                105.662051,
                18.793738
              ],
              [
                105.662059,
                18.793384
              ],
              [
                105.662055,
                18.793273
              ],
              [
                105.662039,
                18.793147
              ],
              [
                105.66197,
                18.792753
              ],
              [
                105.661924,
                18.792509
              ],
              [
                105.661878,
                18.792474
              ],
              [
                105.661482,
                18.792382
              ],
              [
                105.661399,
                18.792338
              ],
              [
                105.661375,
                18.792282
              ],
              [
                105.661328,
                18.792214
              ],
              [
                105.661257,
                18.792192
              ],
              [
                105.661127,
                18.792204
              ],
              [
                105.66095,
                18.792227
              ],
              [
                105.660872,
                18.792165
              ],
              [
                105.660617,
                18.791475
              ],
              [
                105.66057,
                18.791385
              ],
              [
                105.659682,
                18.790635
              ],
              [
                105.658505,
                18.791381
              ],
              [
                105.658441,
                18.791012
              ],
              [
                105.658286,
                18.78984
              ],
              [
                105.658173,
                18.789039
              ],
              [
                105.658118,
                18.788719
              ],
              [
                105.658066,
                18.788498
              ],
              [
                105.65763,
                18.788441
              ],
              [
                105.657209,
                18.788395
              ],
              [
                105.656937,
                18.788408
              ],
              [
                105.656676,
                18.787405
              ],
              [
                105.656395,
                18.787462
              ],
              [
                105.656078,
                18.787073
              ],
              [
                105.65554,
                18.787175
              ],
              [
                105.65533,
                18.787276
              ],
              [
                105.654886,
                18.787517
              ],
              [
                105.654672,
                18.787613
              ],
              [
                105.65443,
                18.787735
              ],
              [
                105.654008,
                18.787923
              ],
              [
                105.653654,
                18.788051
              ],
              [
                105.653487,
                18.788115
              ],
              [
                105.653325,
                18.788138
              ],
              [
                105.653235,
                18.788198
              ],
              [
                105.653183,
                18.788261
              ],
              [
                105.653066,
                18.788549
              ],
              [
                105.653038,
                18.788708
              ],
              [
                105.652993,
                18.788708
              ],
              [
                105.652556,
                18.78871
              ],
              [
                105.651699,
                18.788708
              ],
              [
                105.651955,
                18.786745
              ],
              [
                105.650237,
                18.786641
              ],
              [
                105.649988,
                18.786608
              ],
              [
                105.650151,
                18.784897
              ],
              [
                105.649038,
                18.784842
              ],
              [
                105.649102,
                18.785705
              ],
              [
                105.648146,
                18.785814
              ],
              [
                105.648111,
                18.785811
              ],
              [
                105.647976,
                18.785805
              ],
              [
                105.647491,
                18.785874
              ],
              [
                105.647595,
                18.78643
              ],
              [
                105.647672,
                18.786822
              ],
              [
                105.647987,
                18.788605
              ],
              [
                105.647997,
                18.788664
              ],
              [
                105.64808,
                18.789096
              ],
              [
                105.648261,
                18.790039
              ],
              [
                105.648336,
                18.790431
              ],
              [
                105.648436,
                18.790956
              ],
              [
                105.648456,
                18.791061
              ],
              [
                105.64882,
                18.792872
              ],
              [
                105.649213,
                18.794636
              ],
              [
                105.648661,
                18.794525
              ],
              [
                105.6482,
                18.794419
              ],
              [
                105.648152,
                18.795768
              ],
              [
                105.647437,
                18.795815
              ],
              [
                105.647329,
                18.795377
              ],
              [
                105.646737,
                18.795439
              ],
              [
                105.646877,
                18.796224
              ],
              [
                105.646931,
                18.79645
              ],
              [
                105.647058,
                18.797124
              ],
              [
                105.647116,
                18.797431
              ],
              [
                105.646133,
                18.797697
              ],
              [
                105.645469,
                18.797922
              ],
              [
                105.645468,
                18.79796
              ],
              [
                105.645644,
                18.798488
              ],
              [
                105.645651,
                18.798561
              ],
              [
                105.645616,
                18.7986
              ],
              [
                105.645526,
                18.798654
              ],
              [
                105.64552,
                18.798693
              ],
              [
                105.645548,
                18.798753
              ],
              [
                105.645596,
                18.798819
              ],
              [
                105.645666,
                18.798977
              ],
              [
                105.645722,
                18.799142
              ],
              [
                105.645758,
                18.799347
              ],
              [
                105.645103,
                18.799489
              ],
              [
                105.645147,
                18.799634
              ],
              [
                105.644686,
                18.799733
              ],
              [
                105.644732,
                18.80002
              ],
              [
                105.644821,
                18.800522
              ],
              [
                105.64486,
                18.800875
              ],
              [
                105.644916,
                18.801224
              ],
              [
                105.644443,
                18.801448
              ],
              [
                105.644098,
                18.801593
              ],
              [
                105.64391,
                18.801109
              ],
              [
                105.643812,
                18.800833
              ],
              [
                105.642487,
                18.801234
              ],
              [
                105.642224,
                18.801325
              ],
              [
                105.642179,
                18.801177
              ],
              [
                105.641881,
                18.801284
              ],
              [
                105.641732,
                18.800865
              ],
              [
                105.639283,
                18.801652
              ],
              [
                105.639151,
                18.801329
              ],
              [
                105.638409,
                18.801462
              ],
              [
                105.638765,
                18.802113
              ],
              [
                105.637163,
                18.80253
              ],
              [
                105.636958,
                18.802608
              ],
              [
                105.63711,
                18.802924
              ],
              [
                105.637091,
                18.802971
              ],
              [
                105.636561,
                18.803181
              ],
              [
                105.636158,
                18.803478
              ],
              [
                105.635465,
                18.803772
              ],
              [
                105.634968,
                18.803888
              ],
              [
                105.634851,
                18.803534
              ],
              [
                105.634471,
                18.80344
              ],
              [
                105.633913,
                18.803523
              ],
              [
                105.633953,
                18.803715
              ],
              [
                105.633566,
                18.803768
              ],
              [
                105.633269,
                18.802889
              ],
              [
                105.629839,
                18.803898
              ],
              [
                105.629687,
                18.803943
              ],
              [
                105.629874,
                18.804473
              ],
              [
                105.628405,
                18.804966
              ],
              [
                105.628372,
                18.804895
              ],
              [
                105.627315,
                18.805268
              ],
              [
                105.6274,
                18.805695
              ],
              [
                105.627608,
                18.806205
              ],
              [
                105.627892,
                18.806563
              ],
              [
                105.628133,
                18.806811
              ],
              [
                105.628743,
                18.807292
              ],
              [
                105.629091,
                18.807578
              ],
              [
                105.629393,
                18.807957
              ],
              [
                105.62981,
                18.808587
              ],
              [
                105.629998,
                18.808902
              ],
              [
                105.630213,
                18.809446
              ],
              [
                105.630243,
                18.809568
              ],
              [
                105.630296,
                18.809917
              ],
              [
                105.630351,
                18.81035
              ],
              [
                105.630316,
                18.811053
              ],
              [
                105.630251,
                18.811656
              ],
              [
                105.629369,
                18.811567
              ],
              [
                105.629308,
                18.81171
              ],
              [
                105.628921,
                18.812445
              ],
              [
                105.628473,
                18.813062
              ],
              [
                105.627208,
                18.812997
              ],
              [
                105.62685,
                18.812169
              ],
              [
                105.626301,
                18.810795
              ],
              [
                105.62308,
                18.811782
              ],
              [
                105.622913,
                18.81151
              ],
              [
                105.622702,
                18.811396
              ],
              [
                105.622446,
                18.811425
              ],
              [
                105.622055,
                18.811469
              ],
              [
                105.621514,
                18.811859
              ],
              [
                105.620627,
                18.812435
              ],
              [
                105.619754,
                18.812711
              ],
              [
                105.619062,
                18.812928
              ],
              [
                105.618821,
                18.813087
              ],
              [
                105.618611,
                18.813303
              ],
              [
                105.618492,
                18.813619
              ],
              [
                105.618538,
                18.813848
              ],
              [
                105.618629,
                18.814135
              ],
              [
                105.618751,
                18.814493
              ],
              [
                105.619024,
                18.814995
              ],
              [
                105.619115,
                18.815138
              ],
              [
                105.619373,
                18.815682
              ],
              [
                105.619543,
                18.816165
              ],
              [
                105.619663,
                18.816542
              ],
              [
                105.61968,
                18.817144
              ],
              [
                105.620124,
                18.818979
              ],
              [
                105.620639,
                18.819795
              ],
              [
                105.620896,
                18.820053
              ],
              [
                105.621333,
                18.820166
              ],
              [
                105.621589,
                18.820065
              ],
              [
                105.621768,
                18.819691
              ],
              [
                105.621886,
                18.818973
              ],
              [
                105.622079,
                18.817997
              ],
              [
                105.622243,
                18.817581
              ],
              [
                105.622648,
                18.817206
              ],
              [
                105.623349,
                18.816778
              ],
              [
                105.623535,
                18.816716
              ],
              [
                105.624997,
                18.816797
              ],
              [
                105.625359,
                18.816867
              ],
              [
                105.625993,
                18.817281
              ],
              [
                105.626175,
                18.817682
              ],
              [
                105.626177,
                18.818127
              ],
              [
                105.626179,
                18.818586
              ],
              [
                105.626016,
                18.819304
              ],
              [
                105.626033,
                18.819849
              ],
              [
                105.626139,
                18.820193
              ],
              [
                105.626336,
                18.820465
              ],
              [
                105.626533,
                18.82068
              ],
              [
                105.626851,
                18.820836
              ],
              [
                105.626952,
                18.820867
              ],
              [
                105.627076,
                18.820894
              ],
              [
                105.627237,
                18.820904
              ],
              [
                105.62737,
                18.820887
              ],
              [
                105.627588,
                18.820846
              ],
              [
                105.627778,
                18.820797
              ],
              [
                105.627974,
                18.820713
              ],
              [
                105.628523,
                18.820416
              ],
              [
                105.629643,
                18.819908
              ],
              [
                105.630539,
                18.819619
              ],
              [
                105.631049,
                18.81953
              ],
              [
                105.631585,
                18.819504
              ],
              [
                105.632187,
                18.819542
              ],
              [
                105.63272,
                18.819596
              ],
              [
                105.633244,
                18.81971
              ],
              [
                105.633835,
                18.819898
              ],
              [
                105.634098,
                18.82003
              ],
              [
                105.634354,
                18.820197
              ],
              [
                105.634605,
                18.820411
              ],
              [
                105.634995,
                18.820861
              ],
              [
                105.63516,
                18.82111
              ],
              [
                105.635302,
                18.821424
              ],
              [
                105.635425,
                18.821817
              ],
              [
                105.635519,
                18.822401
              ],
              [
                105.635607,
                18.823498
              ],
              [
                105.635655,
                18.824638
              ],
              [
                105.635617,
                18.825304
              ],
              [
                105.635555,
                18.825639
              ],
              [
                105.635464,
                18.825917
              ],
              [
                105.635286,
                18.826211
              ],
              [
                105.635117,
                18.826404
              ],
              [
                105.634845,
                18.826519
              ],
              [
                105.634572,
                18.82653
              ],
              [
                105.634315,
                18.826434
              ],
              [
                105.633761,
                18.82608
              ],
              [
                105.633081,
                18.825707
              ],
              [
                105.632822,
                18.825618
              ],
              [
                105.632568,
                18.825612
              ],
              [
                105.632149,
                18.825742
              ],
              [
                105.631699,
                18.826007
              ],
              [
                105.631342,
                18.826394
              ],
              [
                105.630976,
                18.827128
              ],
              [
                105.63053,
                18.828088
              ],
              [
                105.630191,
                18.828974
              ],
              [
                105.630064,
                18.829387
              ],
              [
                105.62996,
                18.829782
              ],
              [
                105.629937,
                18.830034
              ],
              [
                105.629965,
                18.830312
              ],
              [
                105.630027,
                18.830454
              ],
              [
                105.630095,
                18.830604
              ],
              [
                105.630301,
                18.830872
              ],
              [
                105.630406,
                18.830994
              ],
              [
                105.630558,
                18.83107
              ],
              [
                105.630759,
                18.831115
              ],
              [
                105.631021,
                18.831137
              ],
              [
                105.631538,
                18.8311
              ],
              [
                105.632179,
                18.830999
              ],
              [
                105.632826,
                18.830948
              ],
              [
                105.633339,
                18.830985
              ],
              [
                105.633796,
                18.83109
              ],
              [
                105.634284,
                18.831283
              ],
              [
                105.634637,
                18.83156
              ],
              [
                105.634873,
                18.831873
              ],
              [
                105.634938,
                18.832018
              ],
              [
                105.634994,
                18.832186
              ],
              [
                105.635011,
                18.832346
              ],
              [
                105.63499,
                18.832549
              ],
              [
                105.634942,
                18.832749
              ],
              [
                105.634861,
                18.832889
              ],
              [
                105.63479,
                18.832989
              ],
              [
                105.634494,
                18.833264
              ],
              [
                105.63387,
                18.833722
              ],
              [
                105.633542,
                18.833955
              ],
              [
                105.633283,
                18.834189
              ],
              [
                105.633095,
                18.834414
              ],
              [
                105.632898,
                18.83484
              ],
              [
                105.632747,
                18.835329
              ],
              [
                105.632694,
                18.836029
              ],
              [
                105.632569,
                18.836616
              ],
              [
                105.632452,
                18.837139
              ],
              [
                105.632445,
                18.837414
              ],
              [
                105.632452,
                18.837772
              ],
              [
                105.632564,
                18.838097
              ],
              [
                105.632728,
                18.838396
              ],
              [
                105.633224,
                18.83889
              ],
              [
                105.633387,
                18.838992
              ],
              [
                105.63417,
                18.839317
              ],
              [
                105.635182,
                18.839702
              ],
              [
                105.6362,
                18.840028
              ],
              [
                105.636898,
                18.840151
              ],
              [
                105.637601,
                18.84018
              ],
              [
                105.638574,
                18.840151
              ],
              [
                105.63934,
                18.840083
              ],
              [
                105.639678,
                18.840004
              ],
              [
                105.640029,
                18.839841
              ],
              [
                105.640464,
                18.839587
              ],
              [
                105.641138,
                18.839096
              ],
              [
                105.641545,
                18.838808
              ],
              [
                105.641927,
                18.838621
              ],
              [
                105.642247,
                18.838506
              ],
              [
                105.642535,
                18.838458
              ],
              [
                105.642943,
                18.838432
              ],
              [
                105.64376,
                18.838507
              ],
              [
                105.644658,
                18.83848
              ],
              [
                105.644996,
                18.838401
              ],
              [
                105.645397,
                18.838298
              ],
              [
                105.645797,
                18.838067
              ],
              [
                105.646859,
                18.83717
              ],
              [
                105.647697,
                18.836478
              ],
              [
                105.648388,
                18.836189
              ],
              [
                105.649028,
                18.836106
              ],
              [
                105.649422,
                18.836166
              ],
              [
                105.649652,
                18.836233
              ],
              [
                105.649944,
                18.836414
              ],
              [
                105.650136,
                18.836605
              ],
              [
                105.650268,
                18.836939
              ],
              [
                105.65028,
                18.837427
              ],
              [
                105.650163,
                18.838298
              ],
              [
                105.650095,
                18.83914
              ],
              [
                105.650128,
                18.83979
              ],
              [
                105.650267,
                18.840541
              ],
              [
                105.650296,
                18.840665
              ],
              [
                105.650556,
                18.84147
              ],
              [
                105.65092,
                18.84242
              ],
              [
                105.650994,
                18.842805
              ],
              [
                105.651019,
                18.843286
              ],
              [
                105.650984,
                18.8437
              ],
              [
                105.650859,
                18.844262
              ],
              [
                105.650609,
                18.844818
              ],
              [
                105.650327,
                18.845225
              ],
              [
                105.650097,
                18.845656
              ],
              [
                105.649858,
                18.846193
              ],
              [
                105.649659,
                18.846691
              ],
              [
                105.649651,
                18.847188
              ],
              [
                105.649744,
                18.847588
              ],
              [
                105.649938,
                18.847992
              ],
              [
                105.650133,
                18.848291
              ],
              [
                105.650368,
                18.848519
              ],
              [
                105.650732,
                18.848772
              ],
              [
                105.651357,
                18.849153
              ],
              [
                105.651719,
                18.849371
              ],
              [
                105.652302,
                18.849513
              ],
              [
                105.652976,
                18.849587
              ],
              [
                105.653448,
                18.849518
              ],
              [
                105.653929,
                18.849306
              ],
              [
                105.654309,
                18.84897
              ],
              [
                105.65464,
                18.848625
              ],
              [
                105.654969,
                18.848059
              ],
              [
                105.655028,
                18.847955
              ],
              [
                105.655198,
                18.847599
              ],
              [
                105.6555,
                18.847112
              ],
              [
                105.655538,
                18.847043
              ],
              [
                105.656098,
                18.846381
              ],
              [
                105.656498,
                18.845978
              ],
              [
                105.657039,
                18.845594
              ],
              [
                105.657801,
                18.845161
              ],
              [
                105.658302,
                18.844939
              ],
              [
                105.659065,
                18.844697
              ],
              [
                105.659988,
                18.844522
              ],
              [
                105.660932,
                18.844403
              ],
              [
                105.661685,
                18.844439
              ],
              [
                105.662258,
                18.844523
              ],
              [
                105.662862,
                18.844712
              ],
              [
                105.663395,
                18.84494
              ],
              [
                105.663909,
                18.845254
              ],
              [
                105.664382,
                18.845606
              ],
              [
                105.664876,
                18.846006
              ],
              [
                105.6654,
                18.846511
              ],
              [
                105.665895,
                18.84715
              ],
              [
                105.666269,
                18.847713
              ],
              [
                105.666482,
                18.848162
              ],
              [
                105.666665,
                18.848783
              ],
              [
                105.666708,
                18.849337
              ],
              [
                105.666699,
                18.84973
              ],
              [
                105.66658,
                18.85018
              ],
              [
                105.66625,
                18.850621
              ],
              [
                105.66579,
                18.850948
              ],
              [
                105.665581,
                18.851025
              ],
              [
                105.665047,
                18.851208
              ],
              [
                105.664004,
                18.85147
              ],
              [
                105.663482,
                18.85175
              ],
              [
                105.663082,
                18.852076
              ],
              [
                105.662822,
                18.852383
              ],
              [
                105.662642,
                18.852633
              ],
              [
                105.662493,
                18.853035
              ],
              [
                105.662394,
                18.853552
              ],
              [
                105.662396,
                18.853953
              ],
              [
                105.662539,
                18.854479
              ],
              [
                105.662663,
                18.854754
              ],
              [
                105.662862,
                18.854956
              ],
              [
                105.663335,
                18.855308
              ],
              [
                105.663849,
                18.855612
              ],
              [
                105.664694,
                18.855982
              ],
              [
                105.665499,
                18.856171
              ],
              [
                105.666057,
                18.856197
              ],
              [
                105.666709,
                18.856109
              ],
              [
                105.667067,
                18.856024
              ],
              [
                105.667509,
                18.855951
              ],
              [
                105.667797,
                18.855912
              ],
              [
                105.668858,
                18.855845
              ],
              [
                105.669738,
                18.85562
              ],
              [
                105.670212,
                18.85536
              ],
              [
                105.67064,
                18.855129
              ],
              [
                105.671083,
                18.854654
              ],
              [
                105.671176,
                18.85454
              ],
              [
                105.671622,
                18.853683
              ],
              [
                105.671868,
                18.853109
              ],
              [
                105.672228,
                18.852612
              ],
              [
                105.672641,
                18.852302
              ],
              [
                105.67316,
                18.852035
              ],
              [
                105.673572,
                18.851931
              ],
              [
                105.673572,
                18.851931
              ]
            ]
          ]
        ]
      },
      "properties": {
        "code": "17866",
        "name": "Trung Lộc",
        "nameEn": "Trung Loc",
        "fullName": "Xã Trung Lộc",
        "fullNameEn": "Trung Loc Commune",
        "codeName": "trung_loc",
        "postalCode": "43339",
        "postalCodePrefix": "",
        "gisServerId": "diaphanhanhchinhcapxa_2025.1528",
        "areaKm2": 31.35
      }
    }
  ]
}