{
  "type": "FeatureCollection",
  "bbox": [
    106.399229,
    9.942409,
    106.473635,
    10.06975
  ],
  "features": [
    {
      "type": "Feature",
      "id": "29194",
      "bbox": [
        106.399229,
        9.942409,
        106.473635,
        10.06975
      ],
      "geometry": {
        "type": "MultiPolygon",
        "coordinates": [
          [
            [
              [
                106.453889,
                9.959736
              ],
              [
                106.453528,
                9.959421
              ],
              [
                106.452585,
                9.958865
              ],
              [
                106.451308,
                9.958254
              ],
              [
                106.450815,
                9.958083
              ],
              [
                106.45054,
                9.958099
              ],
              [
                106.450149,
                9.958244
              ],
              [
                106.449773,
                9.958246
              ],
              [
                106.449251,
                9.958176
              ],
              [
                106.448599,
                9.958079
              ],
              [
                106.448339,
                9.957994
              ],
              [
                106.448193,
                9.957836
              ],
              [
                106.448075,
                9.957406
              ],
              [
                106.448016,
                9.957019
              ],
              [
                106.447855,
                9.95669
              ],
              [
                106.447564,
                9.956346
              ],
              [
                106.447157,
                9.95609
              ],
              [
                106.446141,
                9.955534
              ],
              [
                106.445445,
                9.95515
              ],
              [
                106.445183,
                9.954921
              ],
              [
                106.445052,
                9.954692
              ],
              [
                106.444949,
                9.954276
              ],
              [
                106.444946,
                9.953645
              ],
              [
                106.444857,
                9.953243
              ],
              [
                106.444726,
                9.953115
              ],
              [
                106.444422,
                9.952987
              ],
              [
                106.443566,
                9.952746
              ],
              [
                106.442957,
                9.952505
              ],
              [
                106.442797,
                9.952305
              ],
              [
                106.442753,
                9.95209
              ],
              [
                106.442795,
                9.951903
              ],
              [
                106.442925,
                9.951687
              ],
              [
                106.443343,
                9.951384
              ],
              [
                106.443761,
                9.95098
              ],
              [
                106.443933,
                9.95062
              ],
              [
                106.444134,
                9.950175
              ],
              [
                106.444364,
                9.949729
              ],
              [
                106.444651,
                9.949225
              ],
              [
                106.444881,
                9.948865
              ],
              [
                106.444981,
                9.948592
              ],
              [
                106.444966,
                9.948262
              ],
              [
                106.444775,
                9.947803
              ],
              [
                106.444585,
                9.947417
              ],
              [
                106.444482,
                9.946972
              ],
              [
                106.444466,
                9.946527
              ],
              [
                106.444464,
                9.946211
              ],
              [
                106.444304,
                9.946026
              ],
              [
                106.442501,
                9.944297
              ],
              [
                106.440554,
                9.942409
              ],
              [
                106.439278,
                9.94293
              ],
              [
                106.439192,
                9.942967
              ],
              [
                106.43824,
                9.943382
              ],
              [
                106.438021,
                9.943477
              ],
              [
                106.437217,
                9.943827
              ],
              [
                106.436965,
                9.943937
              ],
              [
                106.436689,
                9.944057
              ],
              [
                106.432261,
                9.945986
              ],
              [
                106.431656,
                9.946249
              ],
              [
                106.42962,
                9.947136
              ],
              [
                106.426254,
                9.949091
              ],
              [
                106.424338,
                9.950203
              ],
              [
                106.42008,
                9.952676
              ],
              [
                106.418927,
                9.953345
              ],
              [
                106.418223,
                9.953824
              ],
              [
                106.412584,
                9.957653
              ],
              [
                106.412031,
                9.958028
              ],
              [
                106.410594,
                9.959004
              ],
              [
                106.408028,
                9.960975
              ],
              [
                106.405683,
                9.962775
              ],
              [
                106.405377,
                9.96301
              ],
              [
                106.402391,
                9.965293
              ],
              [
                106.400797,
                9.966511
              ],
              [
                106.400019,
                9.967106
              ],
              [
                106.39976,
                9.967258
              ],
              [
                106.399229,
                9.967572
              ],
              [
                106.399428,
                9.967635
              ],
              [
                106.399807,
                9.967757
              ],
              [
                106.400712,
                9.968046
              ],
              [
                106.403701,
                9.968745
              ],
              [
                106.406474,
                9.969529
              ],
              [
                106.407115,
                9.969784
              ],
              [
                106.408505,
                9.970304
              ],
              [
                106.409291,
                9.970672
              ],
              [
                106.409714,
                9.970921
              ],
              [
                106.409956,
                9.971135
              ],
              [
                106.410241,
                9.971647
              ],
              [
                106.410318,
                9.97189
              ],
              [
                106.410445,
                9.972579
              ],
              [
                106.410636,
                9.973317
              ],
              [
                106.410674,
                9.973798
              ],
              [
                106.41064,
                9.97438
              ],
              [
                106.410643,
                9.974925
              ],
              [
                106.410688,
                9.975248
              ],
              [
                106.410761,
                9.97543
              ],
              [
                106.410812,
                9.975556
              ],
              [
                106.411049,
                9.975809
              ],
              [
                106.411059,
                9.97582
              ],
              [
                106.411295,
                9.975992
              ],
              [
                106.412284,
                9.97646
              ],
              [
                106.413364,
                9.976885
              ],
              [
                106.413765,
                9.977
              ],
              [
                106.414004,
                9.977107
              ],
              [
                106.414334,
                9.977917
              ],
              [
                106.414669,
                9.978532
              ],
              [
                106.415084,
                9.979076
              ],
              [
                106.415608,
                9.979677
              ],
              [
                106.415893,
                9.980135
              ],
              [
                106.415988,
                9.980378
              ],
              [
                106.416018,
                9.980594
              ],
              [
                106.41599,
                9.980795
              ],
              [
                106.415789,
                9.98119
              ],
              [
                106.415645,
                9.981478
              ],
              [
                106.415581,
                9.981694
              ],
              [
                106.415625,
                9.981844
              ],
              [
                106.415857,
                9.982058
              ],
              [
                106.416148,
                9.982172
              ],
              [
                106.416293,
                9.982272
              ],
              [
                106.416468,
                9.982522
              ],
              [
                106.416709,
                9.983009
              ],
              [
                106.416948,
                9.983217
              ],
              [
                106.417246,
                9.983366
              ],
              [
                106.41763,
                9.983443
              ],
              [
                106.418246,
                9.983512
              ],
              [
                106.418919,
                9.98356
              ],
              [
                106.419433,
                9.983558
              ],
              [
                106.419752,
                9.983485
              ],
              [
                106.42002,
                9.983548
              ],
              [
                106.420201,
                9.983648
              ],
              [
                106.420282,
                9.983812
              ],
              [
                106.420356,
                9.9842
              ],
              [
                106.420473,
                9.984465
              ],
              [
                106.420735,
                9.984873
              ],
              [
                106.421026,
                9.985187
              ],
              [
                106.421375,
                9.985537
              ],
              [
                106.421644,
                9.985744
              ],
              [
                106.421963,
                9.985908
              ],
              [
                106.422217,
                9.986065
              ],
              [
                106.42258,
                9.986257
              ],
              [
                106.422907,
                9.986442
              ],
              [
                106.4234,
                9.98662
              ],
              [
                106.42374,
                9.986697
              ],
              [
                106.424204,
                9.986839
              ],
              [
                106.424429,
                9.986996
              ],
              [
                106.424568,
                9.987203
              ],
              [
                106.424714,
                9.98749
              ],
              [
                106.424935,
                9.987714
              ],
              [
                106.424947,
                9.987726
              ],
              [
                106.425055,
                9.987739
              ],
              [
                106.425083,
                9.98787
              ],
              [
                106.425213,
                9.988336
              ],
              [
                106.425156,
                9.988566
              ],
              [
                106.425147,
                9.988576
              ],
              [
                106.42494,
                9.988782
              ],
              [
                106.423446,
                9.989368
              ],
              [
                106.422164,
                9.989871
              ],
              [
                106.421579,
                9.990099
              ],
              [
                106.420403,
                9.990557
              ],
              [
                106.418848,
                9.991162
              ],
              [
                106.419953,
                9.991914
              ],
              [
                106.420001,
                9.991946
              ],
              [
                106.421234,
                9.992615
              ],
              [
                106.421815,
                9.992929
              ],
              [
                106.421861,
                9.99346
              ],
              [
                106.421818,
                9.993749
              ],
              [
                106.421734,
                9.994322
              ],
              [
                106.421505,
                9.995041
              ],
              [
                106.4218,
                9.996159
              ],
              [
                106.421916,
                9.997111
              ],
              [
                106.421919,
                9.997121
              ],
              [
                106.421938,
                9.997181
              ],
              [
                106.420399,
                9.99782
              ],
              [
                106.419989,
                9.997983
              ],
              [
                106.419778,
                9.998008
              ],
              [
                106.418764,
                9.99798
              ],
              [
                106.418425,
                9.997971
              ],
              [
                106.415718,
                9.998008
              ],
              [
                106.41357,
                9.998069
              ],
              [
                106.413337,
                9.998059
              ],
              [
                106.413265,
                9.998056
              ],
              [
                106.413273,
                9.998305
              ],
              [
                106.413519,
                9.998986
              ],
              [
                106.413742,
                9.999622
              ],
              [
                106.41376,
                9.999749
              ],
              [
                106.413832,
                10.000282
              ],
              [
                106.413892,
                10.001298
              ],
              [
                106.413902,
                10.001466
              ],
              [
                106.413977,
                10.002114
              ],
              [
                106.414028,
                10.002561
              ],
              [
                106.41403,
                10.002577
              ],
              [
                106.41407,
                10.002984
              ],
              [
                106.414198,
                10.004261
              ],
              [
                106.414265,
                10.004938
              ],
              [
                106.414377,
                10.005886
              ],
              [
                106.414393,
                10.006014
              ],
              [
                106.41464,
                10.00864
              ],
              [
                106.414653,
                10.008807
              ],
              [
                106.414768,
                10.009944
              ],
              [
                106.414787,
                10.010216
              ],
              [
                106.414825,
                10.010759
              ],
              [
                106.414871,
                10.011384
              ],
              [
                106.414889,
                10.011598
              ],
              [
                106.414886,
                10.011599
              ],
              [
                106.414738,
                10.011653
              ],
              [
                106.413478,
                10.012113
              ],
              [
                106.412849,
                10.012345
              ],
              [
                106.410957,
                10.013043
              ],
              [
                106.410793,
                10.013104
              ],
              [
                106.411116,
                10.014024
              ],
              [
                106.411146,
                10.014111
              ],
              [
                106.411149,
                10.014119
              ],
              [
                106.411818,
                10.013924
              ],
              [
                106.412625,
                10.013641
              ],
              [
                106.413149,
                10.013458
              ],
              [
                106.414495,
                10.013059
              ],
              [
                106.415683,
                10.012707
              ],
              [
                106.415658,
                10.012802
              ],
              [
                106.414325,
                10.017991
              ],
              [
                106.4144,
                10.018339
              ],
              [
                106.414427,
                10.018463
              ],
              [
                106.414472,
                10.018922
              ],
              [
                106.414488,
                10.019053
              ],
              [
                106.414577,
                10.019307
              ],
              [
                106.414746,
                10.019528
              ],
              [
                106.414875,
                10.019691
              ],
              [
                106.415038,
                10.019867
              ],
              [
                106.415105,
                10.019907
              ],
              [
                106.415289,
                10.019983
              ],
              [
                106.415403,
                10.020011
              ],
              [
                106.415596,
                10.020062
              ],
              [
                106.415823,
                10.020157
              ],
              [
                106.416202,
                10.020245
              ],
              [
                106.416144,
                10.02045
              ],
              [
                106.41608,
                10.020657
              ],
              [
                106.416081,
                10.020837
              ],
              [
                106.416156,
                10.021086
              ],
              [
                106.416209,
                10.021169
              ],
              [
                106.416785,
                10.021781
              ],
              [
                106.417445,
                10.022702
              ],
              [
                106.417483,
                10.022747
              ],
              [
                106.417588,
                10.022873
              ],
              [
                106.417805,
                10.02311
              ],
              [
                106.417826,
                10.023132
              ],
              [
                106.417871,
                10.02319
              ],
              [
                106.417987,
                10.02338
              ],
              [
                106.418042,
                10.02343
              ],
              [
                106.418114,
                10.023479
              ],
              [
                106.418217,
                10.023533
              ],
              [
                106.418338,
                10.023584
              ],
              [
                106.418359,
                10.023593
              ],
              [
                106.418428,
                10.023639
              ],
              [
                106.418447,
                10.023663
              ],
              [
                106.418477,
                10.023695
              ],
              [
                106.418538,
                10.023778
              ],
              [
                106.4186,
                10.02392
              ],
              [
                106.418613,
                10.023958
              ],
              [
                106.4188,
                10.024248
              ],
              [
                106.419029,
                10.02446
              ],
              [
                106.419188,
                10.024703
              ],
              [
                106.419324,
                10.024879
              ],
              [
                106.419386,
                10.025129
              ],
              [
                106.419589,
                10.025441
              ],
              [
                106.419662,
                10.025527
              ],
              [
                106.419785,
                10.025613
              ],
              [
                106.41988,
                10.02567
              ],
              [
                106.42022,
                10.025733
              ],
              [
                106.420431,
                10.025768
              ],
              [
                106.420547,
                10.025818
              ],
              [
                106.420692,
                10.025917
              ],
              [
                106.420685,
                10.026018
              ],
              [
                106.420427,
                10.026822
              ],
              [
                106.420262,
                10.027338
              ],
              [
                106.420256,
                10.027355
              ],
              [
                106.420382,
                10.027356
              ],
              [
                106.421348,
                10.027307
              ],
              [
                106.421337,
                10.027883
              ],
              [
                106.421296,
                10.028883
              ],
              [
                106.421272,
                10.029789
              ],
              [
                106.421237,
                10.03115
              ],
              [
                106.421231,
                10.031388
              ],
              [
                106.421131,
                10.034814
              ],
              [
                106.42111,
                10.035705
              ],
              [
                106.421062,
                10.037737
              ],
              [
                106.421038,
                10.039572
              ],
              [
                106.42104,
                10.039655
              ],
              [
                106.421095,
                10.041423
              ],
              [
                106.421205,
                10.043132
              ],
              [
                106.421278,
                10.045047
              ],
              [
                106.421333,
                10.045973
              ],
              [
                106.421206,
                10.045975
              ],
              [
                106.41992,
                10.046176
              ],
              [
                106.419039,
                10.046396
              ],
              [
                106.418276,
                10.046586
              ],
              [
                106.418229,
                10.04643
              ],
              [
                106.417544,
                10.046677
              ],
              [
                106.417678,
                10.047211
              ],
              [
                106.418091,
                10.048851
              ],
              [
                106.417851,
                10.048918
              ],
              [
                106.417601,
                10.048988
              ],
              [
                106.417747,
                10.049531
              ],
              [
                106.417744,
                10.049591
              ],
              [
                106.417637,
                10.049615
              ],
              [
                106.419452,
                10.051832
              ],
              [
                106.420312,
                10.052884
              ],
              [
                106.421275,
                10.054061
              ],
              [
                106.422139,
                10.055117
              ],
              [
                106.423262,
                10.056489
              ],
              [
                106.424575,
                10.058026
              ],
              [
                106.425287,
                10.058626
              ],
              [
                106.425647,
                10.058854
              ],
              [
                106.426928,
                10.059667
              ],
              [
                106.427865,
                10.058629
              ],
              [
                106.427966,
                10.058527
              ],
              [
                106.427967,
                10.058527
              ],
              [
                106.428428,
                10.058921
              ],
              [
                106.428851,
                10.059208
              ],
              [
                106.429194,
                10.05944
              ],
              [
                106.430506,
                10.060329
              ],
              [
                106.430556,
                10.060346
              ],
              [
                106.431288,
                10.058928
              ],
              [
                106.431833,
                10.057791
              ],
              [
                106.431896,
                10.057669
              ],
              [
                106.432093,
                10.057291
              ],
              [
                106.432366,
                10.056651
              ],
              [
                106.432539,
                10.056442
              ],
              [
                106.432828,
                10.056297
              ],
              [
                106.433056,
                10.05624
              ],
              [
                106.433414,
                10.056151
              ],
              [
                106.433609,
                10.05615
              ],
              [
                106.433846,
                10.05622
              ],
              [
                106.433823,
                10.056278
              ],
              [
                106.433777,
                10.056422
              ],
              [
                106.433746,
                10.056517
              ],
              [
                106.433761,
                10.056621
              ],
              [
                106.433804,
                10.056675
              ],
              [
                106.433906,
                10.056721
              ],
              [
                106.434037,
                10.056729
              ],
              [
                106.43415,
                10.056723
              ],
              [
                106.43433,
                10.056693
              ],
              [
                106.434483,
                10.056658
              ],
              [
                106.434605,
                10.056606
              ],
              [
                106.434686,
                10.056525
              ],
              [
                106.434732,
                10.056418
              ],
              [
                106.434743,
                10.05636
              ],
              [
                106.434725,
                10.056188
              ],
              [
                106.434707,
                10.056055
              ],
              [
                106.43473,
                10.055937
              ],
              [
                106.434782,
                10.055853
              ],
              [
                106.434905,
                10.055788
              ],
              [
                106.435006,
                10.05577
              ],
              [
                106.435067,
                10.05577
              ],
              [
                106.435121,
                10.055765
              ],
              [
                106.43516,
                10.055761
              ],
              [
                106.435287,
                10.055714
              ],
              [
                106.435479,
                10.055642
              ],
              [
                106.435618,
                10.055578
              ],
              [
                106.435825,
                10.055538
              ],
              [
                106.436005,
                10.055566
              ],
              [
                106.436087,
                10.055649
              ],
              [
                106.436168,
                10.055798
              ],
              [
                106.436247,
                10.055945
              ],
              [
                106.436361,
                10.056097
              ],
              [
                106.436524,
                10.05624
              ],
              [
                106.436655,
                10.05634
              ],
              [
                106.436795,
                10.056464
              ],
              [
                106.436848,
                10.056541
              ],
              [
                106.436842,
                10.056616
              ],
              [
                106.436764,
                10.056691
              ],
              [
                106.436564,
                10.056764
              ],
              [
                106.436263,
                10.056895
              ],
              [
                106.436049,
                10.057002
              ],
              [
                106.435887,
                10.05711
              ],
              [
                106.43578,
                10.057219
              ],
              [
                106.435745,
                10.0573
              ],
              [
                106.43574,
                10.057347
              ],
              [
                106.435772,
                10.057473
              ],
              [
                106.435892,
                10.057634
              ],
              [
                106.436026,
                10.057763
              ],
              [
                106.43614,
                10.057874
              ],
              [
                106.436248,
                10.058009
              ],
              [
                106.436449,
                10.058193
              ],
              [
                106.436537,
                10.05833
              ],
              [
                106.436577,
                10.05851
              ],
              [
                106.436618,
                10.05866
              ],
              [
                106.436706,
                10.058821
              ],
              [
                106.436776,
                10.058947
              ],
              [
                106.43691,
                10.059059
              ],
              [
                106.437052,
                10.059139
              ],
              [
                106.43723,
                10.059193
              ],
              [
                106.437366,
                10.059258
              ],
              [
                106.437439,
                10.059347
              ],
              [
                106.43744,
                10.059442
              ],
              [
                106.43742,
                10.059503
              ],
              [
                106.437385,
                10.059563
              ],
              [
                106.437284,
                10.059688
              ],
              [
                106.4372,
                10.059748
              ],
              [
                106.437009,
                10.059813
              ],
              [
                106.436838,
                10.05994
              ],
              [
                106.436647,
                10.060102
              ],
              [
                106.436518,
                10.060295
              ],
              [
                106.436417,
                10.060449
              ],
              [
                106.436333,
                10.060495
              ],
              [
                106.436228,
                10.060484
              ],
              [
                106.436092,
                10.060467
              ],
              [
                106.435956,
                10.060476
              ],
              [
                106.435828,
                10.06048
              ],
              [
                106.435599,
                10.060599
              ],
              [
                106.435313,
                10.060902
              ],
              [
                106.435204,
                10.061058
              ],
              [
                106.435169,
                10.061185
              ],
              [
                106.43517,
                10.061238
              ],
              [
                106.43517,
                10.061286
              ],
              [
                106.435191,
                10.061398
              ],
              [
                106.435249,
                10.061479
              ],
              [
                106.435415,
                10.061685
              ],
              [
                106.435782,
                10.061937
              ],
              [
                106.436053,
                10.062163
              ],
              [
                106.436161,
                10.062304
              ],
              [
                106.436208,
                10.062427
              ],
              [
                106.436197,
                10.062531
              ],
              [
                106.436159,
                10.062629
              ],
              [
                106.436119,
                10.062704
              ],
              [
                106.435983,
                10.062849
              ],
              [
                106.435732,
                10.063083
              ],
              [
                106.435478,
                10.063372
              ],
              [
                106.435377,
                10.063522
              ],
              [
                106.435296,
                10.063678
              ],
              [
                106.435259,
                10.063796
              ],
              [
                106.43526,
                10.06392
              ],
              [
                106.435263,
                10.064064
              ],
              [
                106.435281,
                10.06427
              ],
              [
                106.43527,
                10.0644
              ],
              [
                106.435233,
                10.064874
              ],
              [
                106.435138,
                10.065102
              ],
              [
                106.434987,
                10.065246
              ],
              [
                106.434584,
                10.065553
              ],
              [
                106.434266,
                10.065925
              ],
              [
                106.434212,
                10.066069
              ],
              [
                106.434232,
                10.06629
              ],
              [
                106.434311,
                10.066463
              ],
              [
                106.434493,
                10.06666
              ],
              [
                106.434947,
                10.066999
              ],
              [
                106.435117,
                10.067137
              ],
              [
                106.435606,
                10.067384
              ],
              [
                106.441469,
                10.06975
              ],
              [
                106.441789,
                10.069448
              ],
              [
                106.441784,
                10.06944
              ],
              [
                106.444219,
                10.06704
              ],
              [
                106.448313,
                10.062999
              ],
              [
                106.448315,
                10.062997
              ],
              [
                106.449206,
                10.062019
              ],
              [
                106.449697,
                10.061481
              ],
              [
                106.452686,
                10.058455
              ],
              [
                106.453032,
                10.058105
              ],
              [
                106.454806,
                10.056309
              ],
              [
                106.455178,
                10.055932
              ],
              [
                106.455264,
                10.055845
              ],
              [
                106.455685,
                10.055369
              ],
              [
                106.457694,
                10.053092
              ],
              [
                106.458338,
                10.052363
              ],
              [
                106.458873,
                10.051808
              ],
              [
                106.460747,
                10.049866
              ],
              [
                106.460891,
                10.049717
              ],
              [
                106.461132,
                10.049451
              ],
              [
                106.462243,
                10.048221
              ],
              [
                106.463227,
                10.047134
              ],
              [
                106.463975,
                10.046312
              ],
              [
                106.463995,
                10.04629
              ],
              [
                106.465857,
                10.044245
              ],
              [
                106.466596,
                10.043432
              ],
              [
                106.470502,
                10.03914
              ],
              [
                106.470843,
                10.038765
              ],
              [
                106.471951,
                10.037547
              ],
              [
                106.472226,
                10.037212
              ],
              [
                106.473377,
                10.035807
              ],
              [
                106.473582,
                10.035579
              ],
              [
                106.473635,
                10.035519
              ],
              [
                106.469803,
                10.032718
              ],
              [
                106.468147,
                10.031653
              ],
              [
                106.467619,
                10.031317
              ],
              [
                106.466424,
                10.030558
              ],
              [
                106.466406,
                10.030547
              ],
              [
                106.466322,
                10.030502
              ],
              [
                106.466019,
                10.03027
              ],
              [
                106.466017,
                10.030265
              ],
              [
                106.465521,
                10.029728
              ],
              [
                106.465379,
                10.029575
              ],
              [
                106.464863,
                10.029075
              ],
              [
                106.46434,
                10.028551
              ],
              [
                106.464001,
                10.028214
              ],
              [
                106.463652,
                10.027863
              ],
              [
                106.4632,
                10.027641
              ],
              [
                106.463122,
                10.027586
              ],
              [
                106.462932,
                10.02756
              ],
              [
                106.46262,
                10.02755
              ],
              [
                106.462441,
                10.027562
              ],
              [
                106.462218,
                10.027596
              ],
              [
                106.462007,
                10.027608
              ],
              [
                106.461817,
                10.027609
              ],
              [
                106.461649,
                10.027521
              ],
              [
                106.461493,
                10.027422
              ],
              [
                106.461369,
                10.027301
              ],
              [
                106.46119,
                10.027147
              ],
              [
                106.461034,
                10.027048
              ],
              [
                106.460958,
                10.027022
              ],
              [
                106.460868,
                10.026995
              ],
              [
                106.460788,
                10.026981
              ],
              [
                106.4607,
                10.026979
              ],
              [
                106.460626,
                10.026981
              ],
              [
                106.460556,
                10.026986
              ],
              [
                106.46048,
                10.026993
              ],
              [
                106.46041,
                10.026995
              ],
              [
                106.46036,
                10.026993
              ],
              [
                106.460309,
                10.026978
              ],
              [
                106.460257,
                10.026961
              ],
              [
                106.460224,
                10.026968
              ],
              [
                106.460226,
                10.026962
              ],
              [
                106.460202,
                10.026972
              ],
              [
                106.460001,
                10.026847
              ],
              [
                106.459766,
                10.026612
              ],
              [
                106.459676,
                10.026123
              ],
              [
                106.459671,
                10.024275
              ],
              [
                106.459681,
                10.023559
              ],
              [
                106.459689,
                10.022971
              ],
              [
                106.459691,
                10.022843
              ],
              [
                106.459722,
                10.020769
              ],
              [
                106.46111,
                10.020658
              ],
              [
                106.461639,
                10.020613
              ],
              [
                106.462803,
                10.020515
              ],
              [
                106.463156,
                10.020485
              ],
              [
                106.463847,
                10.020492
              ],
              [
                106.464564,
                10.020502
              ],
              [
                106.464857,
                10.020475
              ],
              [
                106.465036,
                10.020422
              ],
              [
                106.465375,
                10.02032
              ],
              [
                106.465363,
                10.019538
              ],
              [
                106.465475,
                10.015867
              ],
              [
                106.465481,
                10.0157
              ],
              [
                106.465488,
                10.01549
              ],
              [
                106.465516,
                10.014666
              ],
              [
                106.465459,
                10.013945
              ],
              [
                106.465449,
                10.01335
              ],
              [
                106.465548,
                10.012496
              ],
              [
                106.465507,
                10.011937
              ],
              [
                106.465477,
                10.011365
              ],
              [
                106.465485,
                10.011059
              ],
              [
                106.465512,
                10.010008
              ],
              [
                106.465611,
                10.008967
              ],
              [
                106.46563,
                10.008759
              ],
              [
                106.465586,
                10.008395
              ],
              [
                106.465535,
                10.008168
              ],
              [
                106.465512,
                10.008066
              ],
              [
                106.465401,
                10.007566
              ],
              [
                106.465223,
                10.006915
              ],
              [
                106.46515,
                10.00658
              ],
              [
                106.465017,
                10.005858
              ],
              [
                106.464963,
                10.005284
              ],
              [
                106.464943,
                10.003942
              ],
              [
                106.464865,
                10.002801
              ],
              [
                106.464804,
                10.00216
              ],
              [
                106.464672,
                10.00078
              ],
              [
                106.46463,
                10.00034
              ],
              [
                106.464565,
                9.998985
              ],
              [
                106.464443,
                9.99827
              ],
              [
                106.464313,
                9.996407
              ],
              [
                106.463968,
                9.992466
              ],
              [
                106.463784,
                9.992569
              ],
              [
                106.46338,
                9.992829
              ],
              [
                106.462919,
                9.993125
              ],
              [
                106.46226,
                9.993549
              ],
              [
                106.461449,
                9.99411
              ],
              [
                106.461053,
                9.994384
              ],
              [
                106.460644,
                9.994667
              ],
              [
                106.460566,
                9.994719
              ],
              [
                106.459578,
                9.995399
              ],
              [
                106.459216,
                9.995648
              ],
              [
                106.458606,
                9.996068
              ],
              [
                106.458579,
                9.996034
              ],
              [
                106.458425,
                9.995693
              ],
              [
                106.458302,
                9.995549
              ],
              [
                106.458211,
                9.995445
              ],
              [
                106.457863,
                9.994477
              ],
              [
                106.457703,
                9.994033
              ],
              [
                106.457351,
                9.993056
              ],
              [
                106.457125,
                9.992452
              ],
              [
                106.457078,
                9.992329
              ],
              [
                106.456062,
                9.989617
              ],
              [
                106.456035,
                9.989542
              ],
              [
                106.456031,
                9.989531
              ],
              [
                106.454322,
                9.984783
              ],
              [
                106.452954,
                9.981018
              ],
              [
                106.451703,
                9.977674
              ],
              [
                106.450922,
                9.975668
              ],
              [
                106.449985,
                9.973357
              ],
              [
                106.449706,
                9.972775
              ],
              [
                106.451098,
                9.97225
              ],
              [
                106.451068,
                9.972154
              ],
              [
                106.451615,
                9.971865
              ],
              [
                106.451657,
                9.971643
              ],
              [
                106.454056,
                9.970751
              ],
              [
                106.454058,
                9.970757
              ],
              [
                106.454161,
                9.971073
              ],
              [
                106.45423,
                9.971047
              ],
              [
                106.456886,
                9.970048
              ],
              [
                106.458151,
                9.969564
              ],
              [
                106.459112,
                9.969208
              ],
              [
                106.461204,
                9.968391
              ],
              [
                106.460183,
                9.966574
              ],
              [
                106.459937,
                9.966224
              ],
              [
                106.458177,
                9.964549
              ],
              [
                106.457563,
                9.963945
              ],
              [
                106.456491,
                9.961068
              ],
              [
                106.455956,
                9.959939
              ],
              [
                106.455833,
                9.959738
              ],
              [
                106.455561,
                9.959725
              ],
              [
                106.455045,
                9.959903
              ],
              [
                106.454693,
                9.959998
              ],
              [
                106.454516,
                9.96004
              ],
              [
                106.454333,
                9.959999
              ],
              [
                106.453889,
                9.959736
              ],
              [
                106.453889,
                9.959736
              ]
            ]
          ]
        ]
      },
      "properties": {
        "code": "29194",
        "name": "Đại Điền",
        "nameEn": "Dai Dien",
        "fullName": "Xã Đại Điền",
        "fullNameEn": "Dai Dien Commune",
        "codeName": "dai_dien",
        "postalCode": "86912",
        "postalCodePrefix": "",
        "gisServerId": "diaphanhanhchinhcapxa_2025.2479",
        "areaKm2": 59.26
      }
    }
  ]
}