{
  "type": "FeatureCollection",
  "bbox": [
    106.46628,
    9.721567,
    106.545102,
    9.853401
  ],
  "features": [
    {
      "type": "Feature",
      "id": "29419",
      "bbox": [
        106.46628,
        9.721567,
        106.545102,
        9.853401
      ],
      "geometry": {
        "type": "MultiPolygon",
        "coordinates": [
          [
            [
              [
                106.54036,
                9.784914
              ],
              [
                106.539947,
                9.784437
              ],
              [
                106.539318,
                9.784009
              ],
              [
                106.538907,
                9.78382
              ],
              [
                106.538232,
                9.783823
              ],
              [
                106.537569,
                9.783795
              ],
              [
                106.537195,
                9.78378
              ],
              [
                106.537008,
                9.783754
              ],
              [
                106.535819,
                9.783594
              ],
              [
                106.535313,
                9.783573
              ],
              [
                106.534894,
                9.783764
              ],
              [
                106.534783,
                9.783814
              ],
              [
                106.534693,
                9.783831
              ],
              [
                106.534133,
                9.783937
              ],
              [
                106.533516,
                9.783896
              ],
              [
                106.533457,
                9.783892
              ],
              [
                106.532686,
                9.784039
              ],
              [
                106.532095,
                9.784303
              ],
              [
                106.532036,
                9.784329
              ],
              [
                106.531766,
                9.78464
              ],
              [
                106.531556,
                9.784882
              ],
              [
                106.531411,
                9.784814
              ],
              [
                106.53115,
                9.784692
              ],
              [
                106.530611,
                9.784962
              ],
              [
                106.529651,
                9.785866
              ],
              [
                106.528807,
                9.786942
              ],
              [
                106.528155,
                9.787921
              ],
              [
                106.527773,
                9.788803
              ],
              [
                106.52751,
                9.790201
              ],
              [
                106.527304,
                9.791561
              ],
              [
                106.527366,
                9.792594
              ],
              [
                106.527406,
                9.792839
              ],
              [
                106.527664,
                9.794449
              ],
              [
                106.527731,
                9.795427
              ],
              [
                106.527767,
                9.795961
              ],
              [
                106.52783,
                9.797089
              ],
              [
                106.527651,
                9.798368
              ],
              [
                106.527492,
                9.799495
              ],
              [
                106.527304,
                9.801003
              ],
              [
                106.527285,
                9.80116
              ],
              [
                106.527195,
                9.801882
              ],
              [
                106.527172,
                9.802068
              ],
              [
                106.527053,
                9.804587
              ],
              [
                106.527016,
                9.80573
              ],
              [
                106.527009,
                9.805956
              ],
              [
                106.527019,
                9.805986
              ],
              [
                106.527058,
                9.806101
              ],
              [
                106.527316,
                9.806857
              ],
              [
                106.527345,
                9.806942
              ],
              [
                106.527527,
                9.80727
              ],
              [
                106.528342,
                9.807386
              ],
              [
                106.530181,
                9.807378
              ],
              [
                106.531115,
                9.807194
              ],
              [
                106.532079,
                9.806928
              ],
              [
                106.533102,
                9.806647
              ],
              [
                106.53362,
                9.806508
              ],
              [
                106.53413,
                9.806372
              ],
              [
                106.535326,
                9.806053
              ],
              [
                106.535955,
                9.805885
              ],
              [
                106.536032,
                9.805865
              ],
              [
                106.536294,
                9.805795
              ],
              [
                106.5378,
                9.805251
              ],
              [
                106.538964,
                9.804851
              ],
              [
                106.539163,
                9.804759
              ],
              [
                106.539816,
                9.804523
              ],
              [
                106.54015,
                9.804302
              ],
              [
                106.540996,
                9.803743
              ],
              [
                106.541228,
                9.80359
              ],
              [
                106.541487,
                9.803381
              ],
              [
                106.54231,
                9.802717
              ],
              [
                106.542717,
                9.802258
              ],
              [
                106.54279,
                9.802175
              ],
              [
                106.543113,
                9.80181
              ],
              [
                106.543239,
                9.801667
              ],
              [
                106.543597,
                9.800708
              ],
              [
                106.543579,
                9.800291
              ],
              [
                106.543563,
                9.799931
              ],
              [
                106.544215,
                9.797565
              ],
              [
                106.544424,
                9.797026
              ],
              [
                106.544668,
                9.796237
              ],
              [
                106.544858,
                9.795623
              ],
              [
                106.544867,
                9.795595
              ],
              [
                106.544845,
                9.795097
              ],
              [
                106.544767,
                9.794753
              ],
              [
                106.544533,
                9.794371
              ],
              [
                106.544454,
                9.793989
              ],
              [
                106.544568,
                9.793529
              ],
              [
                106.544758,
                9.792897
              ],
              [
                106.54473,
                9.792761
              ],
              [
                106.544679,
                9.792514
              ],
              [
                106.544311,
                9.792172
              ],
              [
                106.543903,
                9.791542
              ],
              [
                106.543823,
                9.791045
              ],
              [
                106.543925,
                9.790559
              ],
              [
                106.544138,
                9.790178
              ],
              [
                106.544266,
                9.789949
              ],
              [
                106.545055,
                9.788576
              ],
              [
                106.545102,
                9.788313
              ],
              [
                106.545053,
                9.788074
              ],
              [
                106.544859,
                9.78786
              ],
              [
                106.544496,
                9.787622
              ],
              [
                106.544157,
                9.787241
              ],
              [
                106.543938,
                9.786883
              ],
              [
                106.543845,
                9.786728
              ],
              [
                106.543695,
                9.786477
              ],
              [
                106.543212,
                9.786216
              ],
              [
                106.542642,
                9.786136
              ],
              [
                106.542391,
                9.7861
              ],
              [
                106.541691,
                9.786056
              ],
              [
                106.541111,
                9.785819
              ],
              [
                106.540772,
                9.785438
              ],
              [
                106.54036,
                9.784914
              ],
              [
                106.54036,
                9.784914
              ]
            ]
          ],
          [
            [
              [
                106.507646,
                9.840352
              ],
              [
                106.508076,
                9.839857
              ],
              [
                106.509984,
                9.836983
              ],
              [
                106.511548,
                9.834006
              ],
              [
                106.513226,
                9.830223
              ],
              [
                106.51087,
                9.829269
              ],
              [
                106.506217,
                9.827385
              ],
              [
                106.502841,
                9.826018
              ],
              [
                106.499129,
                9.824515
              ],
              [
                106.499067,
                9.824489
              ],
              [
                106.499509,
                9.824043
              ],
              [
                106.499585,
                9.823967
              ],
              [
                106.499775,
                9.823775
              ],
              [
                106.499927,
                9.823622
              ],
              [
                106.500091,
                9.823456
              ],
              [
                106.500232,
                9.823313
              ],
              [
                106.500407,
                9.823137
              ],
              [
                106.500438,
                9.823106
              ],
              [
                106.500661,
                9.822881
              ],
              [
                106.501819,
                9.821712
              ],
              [
                106.501871,
                9.82166
              ],
              [
                106.502122,
                9.821456
              ],
              [
                106.502122,
                9.821456
              ],
              [
                106.504139,
                9.819817
              ],
              [
                106.50464,
                9.81941
              ],
              [
                106.5056,
                9.81863
              ],
              [
                106.506061,
                9.818255
              ],
              [
                106.506324,
                9.818042
              ],
              [
                106.506497,
                9.817902
              ],
              [
                106.508691,
                9.816456
              ],
              [
                106.511127,
                9.81492
              ],
              [
                106.513925,
                9.813592
              ],
              [
                106.515417,
                9.81292
              ],
              [
                106.515592,
                9.812841
              ],
              [
                106.516271,
                9.812535
              ],
              [
                106.516495,
                9.812386
              ],
              [
                106.516916,
                9.812105
              ],
              [
                106.518436,
                9.81109
              ],
              [
                106.518595,
                9.810962
              ],
              [
                106.519487,
                9.810248
              ],
              [
                106.519591,
                9.810122
              ],
              [
                106.520629,
                9.808861
              ],
              [
                106.521316,
                9.808027
              ],
              [
                106.521839,
                9.807007
              ],
              [
                106.522068,
                9.806563
              ],
              [
                106.522131,
                9.806439
              ],
              [
                106.522362,
                9.805989
              ],
              [
                106.523015,
                9.803833
              ],
              [
                106.523167,
                9.8019
              ],
              [
                106.523243,
                9.800931
              ],
              [
                106.523239,
                9.799986
              ],
              [
                106.523235,
                9.799041
              ],
              [
                106.523231,
                9.79818
              ],
              [
                106.523229,
                9.797791
              ],
              [
                106.523221,
                9.796027
              ],
              [
                106.523038,
                9.795434
              ],
              [
                106.522242,
                9.792863
              ],
              [
                106.52221,
                9.79276
              ],
              [
                106.521752,
                9.791279
              ],
              [
                106.520945,
                9.789816
              ],
              [
                106.520558,
                9.789116
              ],
              [
                106.520172,
                9.788415
              ],
              [
                106.519878,
                9.787665
              ],
              [
                106.519526,
                9.786763
              ],
              [
                106.519226,
                9.785997
              ],
              [
                106.518944,
                9.78489
              ],
              [
                106.518676,
                9.783837
              ],
              [
                106.518367,
                9.782622
              ],
              [
                106.518065,
                9.781522
              ],
              [
                106.517661,
                9.780054
              ],
              [
                106.517473,
                9.776996
              ],
              [
                106.517466,
                9.776885
              ],
              [
                106.517403,
                9.774801
              ],
              [
                106.517378,
                9.773972
              ],
              [
                106.51736,
                9.773357
              ],
              [
                106.517419,
                9.773126
              ],
              [
                106.517559,
                9.77258
              ],
              [
                106.517567,
                9.772548
              ],
              [
                106.517641,
                9.772324
              ],
              [
                106.517716,
                9.772099
              ],
              [
                106.517957,
                9.772008
              ],
              [
                106.518086,
                9.77196
              ],
              [
                106.518197,
                9.771917
              ],
              [
                106.51836,
                9.77189
              ],
              [
                106.51874,
                9.771825
              ],
              [
                106.518919,
                9.771585
              ],
              [
                106.519015,
                9.77107
              ],
              [
                106.519162,
                9.770284
              ],
              [
                106.519243,
                9.769849
              ],
              [
                106.519281,
                9.769481
              ],
              [
                106.5193,
                9.769299
              ],
              [
                106.519319,
                9.769117
              ],
              [
                106.51933,
                9.769012
              ],
              [
                106.519604,
                9.769028
              ],
              [
                106.519812,
                9.769039
              ],
              [
                106.520001,
                9.768421
              ],
              [
                106.520169,
                9.767872
              ],
              [
                106.521035,
                9.766074
              ],
              [
                106.5213,
                9.765742
              ],
              [
                106.521754,
                9.765173
              ],
              [
                106.521934,
                9.765053
              ],
              [
                106.522358,
                9.76529
              ],
              [
                106.523708,
                9.763968
              ],
              [
                106.524308,
                9.763478
              ],
              [
                106.525517,
                9.762491
              ],
              [
                106.525991,
                9.762104
              ],
              [
                106.530978,
                9.758404
              ],
              [
                106.532838,
                9.756648
              ],
              [
                106.532905,
                9.756585
              ],
              [
                106.533389,
                9.756076
              ],
              [
                106.534519,
                9.754889
              ],
              [
                106.536322,
                9.753715
              ],
              [
                106.537135,
                9.753412
              ],
              [
                106.538129,
                9.753288
              ],
              [
                106.539334,
                9.753163
              ],
              [
                106.539947,
                9.753109
              ],
              [
                106.540057,
                9.7531
              ],
              [
                106.54018,
                9.753034
              ],
              [
                106.540508,
                9.752858
              ],
              [
                106.541168,
                9.751988
              ],
              [
                106.541577,
                9.751611
              ],
              [
                106.542073,
                9.751154
              ],
              [
                106.542313,
                9.750933
              ],
              [
                106.542315,
                9.750933
              ],
              [
                106.542367,
                9.750931
              ],
              [
                106.542713,
                9.750922
              ],
              [
                106.542782,
                9.75092
              ],
              [
                106.542877,
                9.750917
              ],
              [
                106.542888,
                9.750917
              ],
              [
                106.542991,
                9.750914
              ],
              [
                106.542999,
                9.750914
              ],
              [
                106.542992,
                9.750887
              ],
              [
                106.542779,
                9.750097
              ],
              [
                106.542472,
                9.748985
              ],
              [
                106.542472,
                9.748985
              ],
              [
                106.542471,
                9.74898
              ],
              [
                106.54247,
                9.748976
              ],
              [
                106.542469,
                9.748975
              ],
              [
                106.54235,
                9.748585
              ],
              [
                106.542209,
                9.748231
              ],
              [
                106.542158,
                9.748102
              ],
              [
                106.542132,
                9.748056
              ],
              [
                106.541945,
                9.747723
              ],
              [
                106.541716,
                9.747321
              ],
              [
                106.541143,
                9.746405
              ],
              [
                106.540752,
                9.745741
              ],
              [
                106.540264,
                9.744885
              ],
              [
                106.539946,
                9.744303
              ],
              [
                106.539787,
                9.743891
              ],
              [
                106.539773,
                9.743854
              ],
              [
                106.539639,
                9.743535
              ],
              [
                106.538994,
                9.742435
              ],
              [
                106.538868,
                9.742153
              ],
              [
                106.538776,
                9.741948
              ],
              [
                106.538591,
                9.741537
              ],
              [
                106.538082,
                9.740574
              ],
              [
                106.537655,
                9.739892
              ],
              [
                106.537533,
                9.739698
              ],
              [
                106.537236,
                9.739368
              ],
              [
                106.536715,
                9.738846
              ],
              [
                106.535924,
                9.738094
              ],
              [
                106.535236,
                9.737586
              ],
              [
                106.534465,
                9.736971
              ],
              [
                106.534315,
                9.736802
              ],
              [
                106.534176,
                9.73664
              ],
              [
                106.53383,
                9.736235
              ],
              [
                106.533506,
                9.735809
              ],
              [
                106.532676,
                9.73459
              ],
              [
                106.532318,
                9.734139
              ],
              [
                106.531644,
                9.733442
              ],
              [
                106.530887,
                9.733036
              ],
              [
                106.530425,
                9.73277
              ],
              [
                106.530073,
                9.732552
              ],
              [
                106.529335,
                9.732093
              ],
              [
                106.528737,
                9.73177
              ],
              [
                106.528206,
                9.731457
              ],
              [
                106.528004,
                9.731337
              ],
              [
                106.527801,
                9.731121
              ],
              [
                106.527375,
                9.730665
              ],
              [
                106.527307,
                9.730236
              ],
              [
                106.527307,
                9.730165
              ],
              [
                106.527558,
                9.729815
              ],
              [
                106.527809,
                9.729466
              ],
              [
                106.527894,
                9.729052
              ],
              [
                106.527849,
                9.728812
              ],
              [
                106.52784,
                9.728771
              ],
              [
                106.527779,
                9.728507
              ],
              [
                106.527649,
                9.728171
              ],
              [
                106.52745,
                9.727878
              ],
              [
                106.527246,
                9.727677
              ],
              [
                106.52688,
                9.727318
              ],
              [
                106.526692,
                9.727178
              ],
              [
                106.526063,
                9.726763
              ],
              [
                106.525434,
                9.726433
              ],
              [
                106.525132,
                9.726251
              ],
              [
                106.524456,
                9.725769
              ],
              [
                106.524399,
                9.725732
              ],
              [
                106.523873,
                9.72539
              ],
              [
                106.523582,
                9.725081
              ],
              [
                106.523278,
                9.724725
              ],
              [
                106.522957,
                9.724252
              ],
              [
                106.522889,
                9.724193
              ],
              [
                106.522351,
                9.723732
              ],
              [
                106.52207,
                9.723565
              ],
              [
                106.521649,
                9.723316
              ],
              [
                106.521314,
                9.723123
              ],
              [
                106.520678,
                9.722741
              ],
              [
                106.519273,
                9.722082
              ],
              [
                106.518867,
                9.721854
              ],
              [
                106.51859,
                9.721735
              ],
              [
                106.518128,
                9.721584
              ],
              [
                106.517821,
                9.721575
              ],
              [
                106.51756,
                9.721567
              ],
              [
                106.517348,
                9.721648
              ],
              [
                106.517251,
                9.721697
              ],
              [
                106.517076,
                9.721839
              ],
              [
                106.516948,
                9.722145
              ],
              [
                106.5169,
                9.722379
              ],
              [
                106.516898,
                9.722427
              ],
              [
                106.516893,
                9.722667
              ],
              [
                106.516973,
                9.723342
              ],
              [
                106.517158,
                9.724274
              ],
              [
                106.517185,
                9.724509
              ],
              [
                106.51722,
                9.72483
              ],
              [
                106.517358,
                9.726062
              ],
              [
                106.517478,
                9.726633
              ],
              [
                106.517556,
                9.726989
              ],
              [
                106.517475,
                9.727294
              ],
              [
                106.517372,
                9.727624
              ],
              [
                106.517181,
                9.728044
              ],
              [
                106.516876,
                9.728408
              ],
              [
                106.516842,
                9.728448
              ],
              [
                106.51647,
                9.728558
              ],
              [
                106.516157,
                9.72856
              ],
              [
                106.515712,
                9.728398
              ],
              [
                106.515397,
                9.728088
              ],
              [
                106.515241,
                9.727881
              ],
              [
                106.515002,
                9.727526
              ],
              [
                106.51493,
                9.727359
              ],
              [
                106.514924,
                9.727341
              ],
              [
                106.514832,
                9.727035
              ],
              [
                106.514772,
                9.726835
              ],
              [
                106.514684,
                9.726481
              ],
              [
                106.514539,
                9.725912
              ],
              [
                106.514415,
                9.725411
              ],
              [
                106.514345,
                9.725218
              ],
              [
                106.514192,
                9.724798
              ],
              [
                106.514148,
                9.72468
              ],
              [
                106.513904,
                9.724033
              ],
              [
                106.513892,
                9.724015
              ],
              [
                106.513837,
                9.723878
              ],
              [
                106.513639,
                9.72364
              ],
              [
                106.513381,
                9.723471
              ],
              [
                106.513224,
                9.723405
              ],
              [
                106.513138,
                9.723386
              ],
              [
                106.512891,
                9.723352
              ],
              [
                106.51287,
                9.723352
              ],
              [
                106.512606,
                9.723361
              ],
              [
                106.512322,
                9.723581
              ],
              [
                106.512138,
                9.723764
              ],
              [
                106.511744,
                9.724312
              ],
              [
                106.511537,
                9.724683
              ],
              [
                106.511445,
                9.725115
              ],
              [
                106.511425,
                9.725208
              ],
              [
                106.511297,
                9.725825
              ],
              [
                106.511142,
                9.726522
              ],
              [
                106.511051,
                9.726928
              ],
              [
                106.510999,
                9.727157
              ],
              [
                106.510653,
                9.727732
              ],
              [
                106.510618,
                9.72779
              ],
              [
                106.510399,
                9.727987
              ],
              [
                106.510043,
                9.728063
              ],
              [
                106.509862,
                9.728033
              ],
              [
                106.509648,
                9.727991
              ],
              [
                106.509203,
                9.727826
              ],
              [
                106.509199,
                9.727823
              ],
              [
                106.508857,
                9.727505
              ],
              [
                106.508707,
                9.727363
              ],
              [
                106.508453,
                9.727005
              ],
              [
                106.508245,
                9.726712
              ],
              [
                106.508199,
                9.726647
              ],
              [
                106.507971,
                9.726254
              ],
              [
                106.50779,
                9.725941
              ],
              [
                106.507479,
                9.725721
              ],
              [
                106.507361,
                9.725638
              ],
              [
                106.507324,
                9.725629
              ],
              [
                106.507055,
                9.725564
              ],
              [
                106.507053,
                9.725563
              ],
              [
                106.506713,
                9.725565
              ],
              [
                106.506449,
                9.725646
              ],
              [
                106.506217,
                9.725783
              ],
              [
                106.505937,
                9.72608
              ],
              [
                106.506121,
                9.726564
              ],
              [
                106.506174,
                9.72688
              ],
              [
                106.506223,
                9.727104
              ],
              [
                106.506354,
                9.7273
              ],
              [
                106.506582,
                9.727586
              ],
              [
                106.506844,
                9.727972
              ],
              [
                106.506959,
                9.728199
              ],
              [
                106.507028,
                9.728337
              ],
              [
                106.507078,
                9.728435
              ],
              [
                106.507369,
                9.728812
              ],
              [
                106.50767,
                9.729222
              ],
              [
                106.508217,
                9.729837
              ],
              [
                106.508456,
                9.730243
              ],
              [
                106.508548,
                9.730424
              ],
              [
                106.508578,
                9.73062
              ],
              [
                106.508656,
                9.730854
              ],
              [
                106.508729,
                9.731021
              ],
              [
                106.50887,
                9.731227
              ],
              [
                106.508905,
                9.731273
              ],
              [
                106.508938,
                9.731316
              ],
              [
                106.509292,
                9.73178
              ],
              [
                106.509612,
                9.73218
              ],
              [
                106.509748,
                9.732371
              ],
              [
                106.509988,
                9.732842
              ],
              [
                106.51003,
                9.732925
              ],
              [
                106.510298,
                9.733464
              ],
              [
                106.510642,
                9.733874
              ],
              [
                106.510792,
                9.734036
              ],
              [
                106.510827,
                9.734103
              ],
              [
                106.510846,
                9.734174
              ],
              [
                106.510779,
                9.734237
              ],
              [
                106.510687,
                9.734271
              ],
              [
                106.509844,
                9.734509
              ],
              [
                106.508929,
                9.7348
              ],
              [
                106.508106,
                9.735062
              ],
              [
                106.507383,
                9.735247
              ],
              [
                106.506989,
                9.735421
              ],
              [
                106.501776,
                9.737157
              ],
              [
                106.501776,
                9.737157
              ],
              [
                106.501576,
                9.737231
              ],
              [
                106.501243,
                9.737352
              ],
              [
                106.50107,
                9.737416
              ],
              [
                106.500962,
                9.737447
              ],
              [
                106.500953,
                9.737447
              ],
              [
                106.500955,
                9.737483
              ],
              [
                106.500961,
                9.737603
              ],
              [
                106.500965,
                9.737674
              ],
              [
                106.501009,
                9.738404
              ],
              [
                106.501029,
                9.738699
              ],
              [
                106.501039,
                9.738857
              ],
              [
                106.501048,
                9.739001
              ],
              [
                106.50106,
                9.739225
              ],
              [
                106.50106,
                9.739225
              ],
              [
                106.50106,
                9.739225
              ],
              [
                106.501063,
                9.739283
              ],
              [
                106.501085,
                9.739631
              ],
              [
                106.501101,
                9.739873
              ],
              [
                106.501111,
                9.740018
              ],
              [
                106.501133,
                9.740315
              ],
              [
                106.501147,
                9.740519
              ],
              [
                106.501158,
                9.740694
              ],
              [
                106.501163,
                9.740842
              ],
              [
                106.50116,
                9.740961
              ],
              [
                106.501152,
                9.74107
              ],
              [
                106.501142,
                9.741174
              ],
              [
                106.50113,
                9.741267
              ],
              [
                106.501116,
                9.741339
              ],
              [
                106.501102,
                9.741392
              ],
              [
                106.501065,
                9.741575
              ],
              [
                106.500922,
                9.741834
              ],
              [
                106.500918,
                9.741841
              ],
              [
                106.500751,
                9.742111
              ],
              [
                106.500713,
                9.742437
              ],
              [
                106.500708,
                9.742538
              ],
              [
                106.500706,
                9.74263
              ],
              [
                106.500704,
                9.742721
              ],
              [
                106.500704,
                9.742945
              ],
              [
                106.500705,
                9.743181
              ],
              [
                106.50071,
                9.743442
              ],
              [
                106.500718,
                9.743728
              ],
              [
                106.500723,
                9.744011
              ],
              [
                106.500722,
                9.744281
              ],
              [
                106.500717,
                9.74454
              ],
              [
                106.500712,
                9.744798
              ],
              [
                106.500707,
                9.745056
              ],
              [
                106.500701,
                9.74531
              ],
              [
                106.500697,
                9.745535
              ],
              [
                106.500696,
                9.745555
              ],
              [
                106.50069,
                9.745855
              ],
              [
                106.500683,
                9.746226
              ],
              [
                106.500678,
                9.74651
              ],
              [
                106.500674,
                9.746726
              ],
              [
                106.500672,
                9.746858
              ],
              [
                106.500633,
                9.748964
              ],
              [
                106.500633,
                9.748978
              ],
              [
                106.500633,
                9.74898
              ],
              [
                106.500625,
                9.749136
              ],
              [
                106.500622,
                9.749186
              ],
              [
                106.500621,
                9.749193
              ],
              [
                106.500616,
                9.749275
              ],
              [
                106.500611,
                9.749353
              ],
              [
                106.500608,
                9.749406
              ],
              [
                106.500606,
                9.749436
              ],
              [
                106.500605,
                9.749457
              ],
              [
                106.500606,
                9.749478
              ],
              [
                106.500607,
                9.749497
              ],
              [
                106.500612,
                9.749578
              ],
              [
                106.500617,
                9.749709
              ],
              [
                106.50062,
                9.749952
              ],
              [
                106.50062,
                9.750099
              ],
              [
                106.50062,
                9.750306
              ],
              [
                106.500621,
                9.750642
              ],
              [
                106.500621,
                9.751008
              ],
              [
                106.500621,
                9.751474
              ],
              [
                106.500618,
                9.751973
              ],
              [
                106.500616,
                9.752077
              ],
              [
                106.500612,
                9.752374
              ],
              [
                106.500604,
                9.752684
              ],
              [
                106.500597,
                9.752966
              ],
              [
                106.50059,
                9.75322
              ],
              [
                106.500585,
                9.753412
              ],
              [
                106.500581,
                9.753531
              ],
              [
                106.500577,
                9.753648
              ],
              [
                106.500569,
                9.753819
              ],
              [
                106.500564,
                9.753907
              ],
              [
                106.500558,
                9.754019
              ],
              [
                106.500548,
                9.754216
              ],
              [
                106.500538,
                9.754404
              ],
              [
                106.500531,
                9.75456
              ],
              [
                106.500527,
                9.754666
              ],
              [
                106.500523,
                9.754736
              ],
              [
                106.500522,
                9.754784
              ],
              [
                106.500522,
                9.754823
              ],
              [
                106.500528,
                9.754871
              ],
              [
                106.500539,
                9.754932
              ],
              [
                106.500545,
                9.754975
              ],
              [
                106.500545,
                9.754977
              ],
              [
                106.500546,
                9.754988
              ],
              [
                106.500548,
                9.755008
              ],
              [
                106.500553,
                9.755045
              ],
              [
                106.500556,
                9.755057
              ],
              [
                106.500564,
                9.755103
              ],
              [
                106.500579,
                9.755177
              ],
              [
                106.500592,
                9.755235
              ],
              [
                106.500598,
                9.755265
              ],
              [
                106.500609,
                9.755317
              ],
              [
                106.500602,
                9.755414
              ],
              [
                106.500585,
                9.75565
              ],
              [
                106.50057,
                9.755819
              ],
              [
                106.500549,
                9.756057
              ],
              [
                106.500522,
                9.756305
              ],
              [
                106.500496,
                9.75648
              ],
              [
                106.500487,
                9.756539
              ],
              [
                106.500447,
                9.756777
              ],
              [
                106.500442,
                9.756802
              ],
              [
                106.500442,
                9.756802
              ],
              [
                106.500402,
                9.757033
              ],
              [
                106.500357,
                9.757291
              ],
              [
                106.500314,
                9.757536
              ],
              [
                106.500283,
                9.757716
              ],
              [
                106.500266,
                9.757814
              ],
              [
                106.50025,
                9.757906
              ],
              [
                106.500222,
                9.758072
              ],
              [
                106.500178,
                9.758336
              ],
              [
                106.500128,
                9.758642
              ],
              [
                106.500089,
                9.758875
              ],
              [
                106.500055,
                9.759077
              ],
              [
                106.500006,
                9.759368
              ],
              [
                106.499946,
                9.759728
              ],
              [
                106.499895,
                9.760029
              ],
              [
                106.499856,
                9.760258
              ],
              [
                106.499804,
                9.760554
              ],
              [
                106.499725,
                9.760995
              ],
              [
                106.499635,
                9.761509
              ],
              [
                106.499601,
                9.761703
              ],
              [
                106.499584,
                9.761798
              ],
              [
                106.499546,
                9.762018
              ],
              [
                106.49948,
                9.762429
              ],
              [
                106.499443,
                9.762721
              ],
              [
                106.49941,
                9.763021
              ],
              [
                106.499355,
                9.763436
              ],
              [
                106.499286,
                9.763912
              ],
              [
                106.499232,
                9.764286
              ],
              [
                106.499231,
                9.76429
              ],
              [
                106.499198,
                9.764513
              ],
              [
                106.499158,
                9.764742
              ],
              [
                106.499095,
                9.765093
              ],
              [
                106.499035,
                9.765423
              ],
              [
                106.499031,
                9.765446
              ],
              [
                106.498997,
                9.765634
              ],
              [
                106.498963,
                9.765826
              ],
              [
                106.498926,
                9.766061
              ],
              [
                106.498901,
                9.766246
              ],
              [
                106.498892,
                9.76634
              ],
              [
                106.498885,
                9.766418
              ],
              [
                106.498879,
                9.766486
              ],
              [
                106.498876,
                9.766527
              ],
              [
                106.49886,
                9.766659
              ],
              [
                106.498838,
                9.766812
              ],
              [
                106.498808,
                9.766979
              ],
              [
                106.498766,
                9.767197
              ],
              [
                106.498717,
                9.767457
              ],
              [
                106.498665,
                9.767727
              ],
              [
                106.498625,
                9.767947
              ],
              [
                106.49862,
                9.767978
              ],
              [
                106.498583,
                9.768205
              ],
              [
                106.49855,
                9.768417
              ],
              [
                106.498539,
                9.768481
              ],
              [
                106.498523,
                9.768582
              ],
              [
                106.498499,
                9.768698
              ],
              [
                106.498471,
                9.768798
              ],
              [
                106.49844,
                9.768902
              ],
              [
                106.498399,
                9.769039
              ],
              [
                106.498348,
                9.769199
              ],
              [
                106.498299,
                9.769343
              ],
              [
                106.498251,
                9.769481
              ],
              [
                106.498205,
                9.769617
              ],
              [
                106.498187,
                9.769668
              ],
              [
                106.498173,
                9.769705
              ],
              [
                106.498151,
                9.76976
              ],
              [
                106.498135,
                9.769817
              ],
              [
                106.498127,
                9.769884
              ],
              [
                106.498122,
                9.769927
              ],
              [
                106.498119,
                9.769952
              ],
              [
                106.498104,
                9.770014
              ],
              [
                106.498087,
                9.770072
              ],
              [
                106.498071,
                9.770127
              ],
              [
                106.498056,
                9.770179
              ],
              [
                106.498041,
                9.770224
              ],
              [
                106.498027,
                9.770259
              ],
              [
                106.498016,
                9.770289
              ],
              [
                106.498009,
                9.770319
              ],
              [
                106.498004,
                9.770352
              ],
              [
                106.497996,
                9.770388
              ],
              [
                106.49798,
                9.770425
              ],
              [
                106.497964,
                9.77046
              ],
              [
                106.497946,
                9.770488
              ],
              [
                106.497932,
                9.770505
              ],
              [
                106.497925,
                9.770517
              ],
              [
                106.497919,
                9.770527
              ],
              [
                106.497913,
                9.770537
              ],
              [
                106.497912,
                9.77054
              ],
              [
                106.497904,
                9.770553
              ],
              [
                106.497897,
                9.770564
              ],
              [
                106.497892,
                9.770572
              ],
              [
                106.49789,
                9.770574
              ],
              [
                106.497882,
                9.770585
              ],
              [
                106.497866,
                9.770608
              ],
              [
                106.497853,
                9.770633
              ],
              [
                106.49784,
                9.77066
              ],
              [
                106.497828,
                9.770698
              ],
              [
                106.497827,
                9.770746
              ],
              [
                106.497827,
                9.770759
              ],
              [
                106.49783,
                9.770793
              ],
              [
                106.497826,
                9.770834
              ],
              [
                106.497812,
                9.770868
              ],
              [
                106.497795,
                9.770902
              ],
              [
                106.49778,
                9.77094
              ],
              [
                106.497769,
                9.770978
              ],
              [
                106.497759,
                9.771017
              ],
              [
                106.497748,
                9.771061
              ],
              [
                106.497734,
                9.771107
              ],
              [
                106.497713,
                9.771148
              ],
              [
                106.497689,
                9.771188
              ],
              [
                106.497666,
                9.771234
              ],
              [
                106.497636,
                9.77128
              ],
              [
                106.497605,
                9.771334
              ],
              [
                106.497571,
                9.771412
              ],
              [
                106.497566,
                9.771424
              ],
              [
                106.497497,
                9.771612
              ],
              [
                106.497418,
                9.771831
              ],
              [
                106.497399,
                9.771881
              ],
              [
                106.497302,
                9.77215
              ],
              [
                106.497192,
                9.772453
              ],
              [
                106.497067,
                9.772799
              ],
              [
                106.496962,
                9.773086
              ],
              [
                106.496887,
                9.773287
              ],
              [
                106.496806,
                9.773495
              ],
              [
                106.496701,
                9.773764
              ],
              [
                106.496597,
                9.774031
              ],
              [
                106.496593,
                9.774042
              ],
              [
                106.496485,
                9.774318
              ],
              [
                106.496385,
                9.774576
              ],
              [
                106.496314,
                9.774757
              ],
              [
                106.496268,
                9.774876
              ],
              [
                106.496158,
                9.774924
              ],
              [
                106.496022,
                9.774997
              ],
              [
                106.495094,
                9.775495
              ],
              [
                106.494596,
                9.77606
              ],
              [
                106.494458,
                9.776234
              ],
              [
                106.494374,
                9.776288
              ],
              [
                106.493746,
                9.776918
              ],
              [
                106.493258,
                9.777945
              ],
              [
                106.492523,
                9.779689
              ],
              [
                106.491243,
                9.782537
              ],
              [
                106.491167,
                9.782786
              ],
              [
                106.490953,
                9.783367
              ],
              [
                106.490931,
                9.783429
              ],
              [
                106.49093,
                9.783432
              ],
              [
                106.490908,
                9.783491
              ],
              [
                106.490249,
                9.785476
              ],
              [
                106.48986,
                9.786232
              ],
              [
                106.489856,
                9.7864
              ],
              [
                106.489986,
                9.786457
              ],
              [
                106.489877,
                9.786822
              ],
              [
                106.489684,
                9.787187
              ],
              [
                106.489503,
                9.787608
              ],
              [
                106.489377,
                9.787971
              ],
              [
                106.489223,
                9.788657
              ],
              [
                106.489068,
                9.789213
              ],
              [
                106.488986,
                9.789508
              ],
              [
                106.488837,
                9.789816
              ],
              [
                106.488242,
                9.791129
              ],
              [
                106.488088,
                9.791436
              ],
              [
                106.489545,
                9.793201
              ],
              [
                106.489617,
                9.793288
              ],
              [
                106.489546,
                9.793475
              ],
              [
                106.489447,
                9.793487
              ],
              [
                106.487817,
                9.793691
              ],
              [
                106.486734,
                9.794119
              ],
              [
                106.486344,
                9.794271
              ],
              [
                106.485731,
                9.794791
              ],
              [
                106.485392,
                9.794986
              ],
              [
                106.485175,
                9.795095
              ],
              [
                106.48477,
                9.795089
              ],
              [
                106.4838,
                9.794936
              ],
              [
                106.483242,
                9.794751
              ],
              [
                106.482205,
                9.794253
              ],
              [
                106.481908,
                9.79414
              ],
              [
                106.481743,
                9.794173
              ],
              [
                106.481268,
                9.794366
              ],
              [
                106.480924,
                9.794308
              ],
              [
                106.48058,
                9.794172
              ],
              [
                106.480484,
                9.794429
              ],
              [
                106.480336,
                9.794853
              ],
              [
                106.480582,
                9.795161
              ],
              [
                106.480571,
                9.795231
              ],
              [
                106.48057,
                9.795243
              ],
              [
                106.480534,
                9.795485
              ],
              [
                106.480586,
                9.795642
              ],
              [
                106.480507,
                9.795944
              ],
              [
                106.4804,
                9.796189
              ],
              [
                106.480213,
                9.796476
              ],
              [
                106.47999,
                9.796693
              ],
              [
                106.479697,
                9.797154
              ],
              [
                106.478806,
                9.798527
              ],
              [
                106.478316,
                9.799691
              ],
              [
                106.478057,
                9.801216
              ],
              [
                106.477761,
                9.802675
              ],
              [
                106.477728,
                9.802836
              ],
              [
                106.477272,
                9.805079
              ],
              [
                106.476655,
                9.808608
              ],
              [
                106.476468,
                9.810044
              ],
              [
                106.476376,
                9.810746
              ],
              [
                106.476337,
                9.811046
              ],
              [
                106.476294,
                9.811377
              ],
              [
                106.475936,
                9.814117
              ],
              [
                106.475902,
                9.814337
              ],
              [
                106.475829,
                9.81484
              ],
              [
                106.475819,
                9.815254
              ],
              [
                106.475803,
                9.815789
              ],
              [
                106.475807,
                9.815827
              ],
              [
                106.475867,
                9.816524
              ],
              [
                106.476031,
                9.816521
              ],
              [
                106.476353,
                9.816516
              ],
              [
                106.476053,
                9.820162
              ],
              [
                106.47597,
                9.821171
              ],
              [
                106.475167,
                9.821531
              ],
              [
                106.474893,
                9.821801
              ],
              [
                106.474717,
                9.821954
              ],
              [
                106.473462,
                9.822673
              ],
              [
                106.472559,
                9.823383
              ],
              [
                106.471928,
                9.82392
              ],
              [
                106.471446,
                9.824828
              ],
              [
                106.470213,
                9.824941
              ],
              [
                106.470199,
                9.824958
              ],
              [
                106.470096,
                9.825088
              ],
              [
                106.470062,
                9.825149
              ],
              [
                106.469954,
                9.825343
              ],
              [
                106.469916,
                9.825411
              ],
              [
                106.469891,
                9.825487
              ],
              [
                106.469803,
                9.825747
              ],
              [
                106.469731,
                9.825909
              ],
              [
                106.469588,
                9.826154
              ],
              [
                106.469492,
                9.82636
              ],
              [
                106.469409,
                9.826538
              ],
              [
                106.469277,
                9.826694
              ],
              [
                106.469048,
                9.826934
              ],
              [
                106.468693,
                9.827517
              ],
              [
                106.468466,
                9.827889
              ],
              [
                106.468402,
                9.828015
              ],
              [
                106.468355,
                9.828108
              ],
              [
                106.468245,
                9.828327
              ],
              [
                106.467813,
                9.828915
              ],
              [
                106.466988,
                9.829944
              ],
              [
                106.466961,
                9.829977
              ],
              [
                106.466769,
                9.830067
              ],
              [
                106.46654,
                9.830092
              ],
              [
                106.466484,
                9.830067
              ],
              [
                106.466333,
                9.83029
              ],
              [
                106.46628,
                9.830355
              ],
              [
                106.466936,
                9.830744
              ],
              [
                106.466853,
                9.83085
              ],
              [
                106.466845,
                9.830859
              ],
              [
                106.466878,
                9.830879
              ],
              [
                106.466888,
                9.830883
              ],
              [
                106.466904,
                9.830892
              ],
              [
                106.466927,
                9.830906
              ],
              [
                106.466958,
                9.830924
              ],
              [
                106.466989,
                9.830943
              ],
              [
                106.467024,
                9.830966
              ],
              [
                106.467058,
                9.83099
              ],
              [
                106.467062,
                9.830992
              ],
              [
                106.467074,
                9.831002
              ],
              [
                106.467095,
                9.83102
              ],
              [
                106.467121,
                9.831051
              ],
              [
                106.467146,
                9.831083
              ],
              [
                106.467165,
                9.831109
              ],
              [
                106.46717,
                9.831117
              ],
              [
                106.467191,
                9.831149
              ],
              [
                106.467192,
                9.831152
              ],
              [
                106.46721,
                9.83119
              ],
              [
                106.467223,
                9.831228
              ],
              [
                106.467234,
                9.831265
              ],
              [
                106.467243,
                9.8313
              ],
              [
                106.46725,
                9.831326
              ],
              [
                106.467252,
                9.831332
              ],
              [
                106.467255,
                9.831345
              ],
              [
                106.467263,
                9.831378
              ],
              [
                106.467257,
                9.831446
              ],
              [
                106.467255,
                9.831465
              ],
              [
                106.467255,
                9.831487
              ],
              [
                106.467253,
                9.831522
              ],
              [
                106.467252,
                9.831526
              ],
              [
                106.467248,
                9.831577
              ],
              [
                106.467242,
                9.831626
              ],
              [
                106.467236,
                9.831659
              ],
              [
                106.467235,
                9.831661
              ],
              [
                106.467234,
                9.831669
              ],
              [
                106.467223,
                9.831709
              ],
              [
                106.467211,
                9.831746
              ],
              [
                106.467199,
                9.831783
              ],
              [
                106.467187,
                9.831818
              ],
              [
                106.467176,
                9.831852
              ],
              [
                106.467164,
                9.831884
              ],
              [
                106.467153,
                9.831915
              ],
              [
                106.467148,
                9.831929
              ],
              [
                106.467144,
                9.831942
              ],
              [
                106.46714,
                9.831968
              ],
              [
                106.46714,
                9.831971
              ],
              [
                106.467139,
                9.831993
              ],
              [
                106.467139,
                9.832001
              ],
              [
                106.467139,
                9.832019
              ],
              [
                106.467142,
                9.832052
              ],
              [
                106.467151,
                9.832093
              ],
              [
                106.467155,
                9.832105
              ],
              [
                106.467163,
                9.832132
              ],
              [
                106.467175,
                9.832173
              ],
              [
                106.467187,
                9.832219
              ],
              [
                106.467197,
                9.832261
              ],
              [
                106.467206,
                9.832297
              ],
              [
                106.467213,
                9.832334
              ],
              [
                106.46722,
                9.832379
              ],
              [
                106.467221,
                9.832437
              ],
              [
                106.46722,
                9.83248
              ],
              [
                106.467219,
                9.832505
              ],
              [
                106.467215,
                9.832575
              ],
              [
                106.467211,
                9.832651
              ],
              [
                106.467207,
                9.832731
              ],
              [
                106.467205,
                9.832811
              ],
              [
                106.467205,
                9.832862
              ],
              [
                106.467205,
                9.832883
              ],
              [
                106.467205,
                9.832888
              ],
              [
                106.467205,
                9.832893
              ],
              [
                106.467209,
                9.832953
              ],
              [
                106.467218,
                9.833002
              ],
              [
                106.467236,
                9.833046
              ],
              [
                106.467261,
                9.833094
              ],
              [
                106.467282,
                9.833135
              ],
              [
                106.467286,
                9.833142
              ],
              [
                106.467313,
                9.83319
              ],
              [
                106.467342,
                9.833238
              ],
              [
                106.467369,
                9.833281
              ],
              [
                106.467395,
                9.833318
              ],
              [
                106.467427,
                9.833354
              ],
              [
                106.46747,
                9.833392
              ],
              [
                106.467527,
                9.833434
              ],
              [
                106.467588,
                9.833477
              ],
              [
                106.467646,
                9.833516
              ],
              [
                106.46765,
                9.833519
              ],
              [
                106.467711,
                9.833557
              ],
              [
                106.467782,
                9.833595
              ],
              [
                106.467805,
                9.833607
              ],
              [
                106.467867,
                9.833638
              ],
              [
                106.467948,
                9.83368
              ],
              [
                106.468033,
                9.833724
              ],
              [
                106.468127,
                9.833774
              ],
              [
                106.46821,
                9.83382
              ],
              [
                106.468277,
                9.833858
              ],
              [
                106.468337,
                9.833891
              ],
              [
                106.468394,
                9.833923
              ],
              [
                106.468443,
                9.83395
              ],
              [
                106.468477,
                9.833967
              ],
              [
                106.468478,
                9.833967
              ],
              [
                106.468504,
                9.833977
              ],
              [
                106.468523,
                9.833983
              ],
              [
                106.468525,
                9.833984
              ],
              [
                106.468545,
                9.833989
              ],
              [
                106.468554,
                9.833991
              ],
              [
                106.468567,
                9.833993
              ],
              [
                106.468592,
                9.833996
              ],
              [
                106.468616,
                9.833998
              ],
              [
                106.46864,
                9.833996
              ],
              [
                106.468668,
                9.833991
              ],
              [
                106.4687,
                9.833984
              ],
              [
                106.468734,
                9.833975
              ],
              [
                106.468779,
                9.833962
              ],
              [
                106.468837,
                9.83394
              ],
              [
                106.468901,
                9.833915
              ],
              [
                106.468916,
                9.833909
              ],
              [
                106.468968,
                9.833887
              ],
              [
                106.469044,
                9.833854
              ],
              [
                106.469132,
                9.833814
              ],
              [
                106.469227,
                9.833771
              ],
              [
                106.469322,
                9.833729
              ],
              [
                106.46941,
                9.833694
              ],
              [
                106.469485,
                9.833675
              ],
              [
                106.469551,
                9.833665
              ],
              [
                106.469613,
                9.833659
              ],
              [
                106.469673,
                9.833657
              ],
              [
                106.469731,
                9.833658
              ],
              [
                106.469783,
                9.83366
              ],
              [
                106.469794,
                9.833662
              ],
              [
                106.469829,
                9.833666
              ],
              [
                106.469876,
                9.833677
              ],
              [
                106.469925,
                9.833696
              ],
              [
                106.469932,
                9.833699
              ],
              [
                106.469974,
                9.83372
              ],
              [
                106.47002,
                9.833745
              ],
              [
                106.47006,
                9.833771
              ],
              [
                106.470092,
                9.8338
              ],
              [
                106.470124,
                9.833841
              ],
              [
                106.470157,
                9.833898
              ],
              [
                106.47019,
                9.833965
              ],
              [
                106.470222,
                9.834034
              ],
              [
                106.470238,
                9.834079
              ],
              [
                106.470247,
                9.834103
              ],
              [
                106.470262,
                9.834168
              ],
              [
                106.470265,
                9.834184
              ],
              [
                106.470268,
                9.8342
              ],
              [
                106.470273,
                9.834226
              ],
              [
                106.47028,
                9.834266
              ],
              [
                106.470297,
                9.834355
              ],
              [
                106.470277,
                9.834496
              ],
              [
                106.470272,
                9.834534
              ],
              [
                106.470268,
                9.834566
              ],
              [
                106.470255,
                9.83467
              ],
              [
                106.470246,
                9.834793
              ],
              [
                106.470246,
                9.834933
              ],
              [
                106.470252,
                9.835082
              ],
              [
                106.47026,
                9.83523
              ],
              [
                106.470275,
                9.83537
              ],
              [
                106.470295,
                9.835486
              ],
              [
                106.47031,
                9.835569
              ],
              [
                106.470323,
                9.835636
              ],
              [
                106.470339,
                9.835707
              ],
              [
                106.470354,
                9.835771
              ],
              [
                106.470379,
                9.835876
              ],
              [
                106.470439,
                9.835971
              ],
              [
                106.470468,
                9.836017
              ],
              [
                106.470504,
                9.836074
              ],
              [
                106.470509,
                9.836081
              ],
              [
                106.470554,
                9.836146
              ],
              [
                106.470582,
                9.836179
              ],
              [
                106.4706,
                9.836201
              ],
              [
                106.470645,
                9.836251
              ],
              [
                106.470689,
                9.8363
              ],
              [
                106.470732,
                9.83635
              ],
              [
                106.470776,
                9.836404
              ],
              [
                106.470831,
                9.83647
              ],
              [
                106.470903,
                9.836556
              ],
              [
                106.470986,
                9.836654
              ],
              [
                106.471062,
                9.836745
              ],
              [
                106.471126,
                9.836826
              ],
              [
                106.471172,
                9.836885
              ],
              [
                106.471214,
                9.836942
              ],
              [
                106.47125,
                9.836991
              ],
              [
                106.471259,
                9.837017
              ],
              [
                106.471274,
                9.837061
              ],
              [
                106.471288,
                9.837099
              ],
              [
                106.471303,
                9.837146
              ],
              [
                106.471305,
                9.837154
              ],
              [
                106.471317,
                9.837196
              ],
              [
                106.471333,
                9.837249
              ],
              [
                106.471342,
                9.837296
              ],
              [
                106.471345,
                9.837338
              ],
              [
                106.471342,
                9.837388
              ],
              [
                106.471333,
                9.837462
              ],
              [
                106.471328,
                9.837501
              ],
              [
                106.471327,
                9.837504
              ],
              [
                106.47132,
                9.837553
              ],
              [
                106.471308,
                9.837636
              ],
              [
                106.471295,
                9.837717
              ],
              [
                106.471282,
                9.8378
              ],
              [
                106.471269,
                9.837869
              ],
              [
                106.471258,
                9.837919
              ],
              [
                106.471247,
                9.837965
              ],
              [
                106.471245,
                9.837971
              ],
              [
                106.471235,
                9.838009
              ],
              [
                106.471225,
                9.838056
              ],
              [
                106.471219,
                9.838101
              ],
              [
                106.471217,
                9.838131
              ],
              [
                106.471216,
                9.838143
              ],
              [
                106.471216,
                9.83815
              ],
              [
                106.471216,
                9.838185
              ],
              [
                106.471224,
                9.83823
              ],
              [
                106.471245,
                9.838289
              ],
              [
                106.471276,
                9.838362
              ],
              [
                106.471309,
                9.838437
              ],
              [
                106.471345,
                9.838509
              ],
              [
                106.471381,
                9.838567
              ],
              [
                106.47141,
                9.838608
              ],
              [
                106.471445,
                9.83865
              ],
              [
                106.471508,
                9.838712
              ],
              [
                106.471602,
                9.838788
              ],
              [
                106.471703,
                9.838861
              ],
              [
                106.471806,
                9.838932
              ],
              [
                106.471912,
                9.839005
              ],
              [
                106.472004,
                9.839064
              ],
              [
                106.472009,
                9.839068
              ],
              [
                106.472108,
                9.839133
              ],
              [
                106.472203,
                9.839203
              ],
              [
                106.472262,
                9.839253
              ],
              [
                106.472287,
                9.839282
              ],
              [
                106.4723,
                9.839299
              ],
              [
                106.472302,
                9.839304
              ],
              [
                106.472321,
                9.839346
              ],
              [
                106.472337,
                9.83936
              ],
              [
                106.472375,
                9.839389
              ],
              [
                106.472467,
                9.839461
              ],
              [
                106.472591,
                9.839559
              ],
              [
                106.472594,
                9.83956
              ],
              [
                106.472716,
                9.839664
              ],
              [
                106.472826,
                9.839771
              ],
              [
                106.472929,
                9.839882
              ],
              [
                106.47293,
                9.839883
              ],
              [
                106.473028,
                9.839989
              ],
              [
                106.473104,
                9.840073
              ],
              [
                106.473148,
                9.84012
              ],
              [
                106.473186,
                9.840156
              ],
              [
                106.47324,
                9.840202
              ],
              [
                106.473252,
                9.840211
              ],
              [
                106.473292,
                9.840243
              ],
              [
                106.473302,
                9.840251
              ],
              [
                106.473364,
                9.840301
              ],
              [
                106.473425,
                9.840347
              ],
              [
                106.473474,
                9.840379
              ],
              [
                106.473513,
                9.840402
              ],
              [
                106.473549,
                9.840421
              ],
              [
                106.473584,
                9.840436
              ],
              [
                106.473617,
                9.840444
              ],
              [
                106.473648,
                9.840446
              ],
              [
                106.473679,
                9.840446
              ],
              [
                106.473713,
                9.840444
              ],
              [
                106.473742,
                9.840438
              ],
              [
                106.473753,
                9.840435
              ],
              [
                106.473796,
                9.840424
              ],
              [
                106.473832,
                9.840415
              ],
              [
                106.47385,
                9.84041
              ],
              [
                106.473871,
                9.840405
              ],
              [
                106.473888,
                9.840397
              ],
              [
                106.47398,
                9.840462
              ],
              [
                106.474131,
                9.840661
              ],
              [
                106.474465,
                9.841032
              ],
              [
                106.475061,
                9.841475
              ],
              [
                106.475991,
                9.842325
              ],
              [
                106.476303,
                9.842575
              ],
              [
                106.476455,
                9.842603
              ],
              [
                106.47814,
                9.843716
              ],
              [
                106.477927,
                9.84395
              ],
              [
                106.478536,
                9.844248
              ],
              [
                106.479526,
                9.84487
              ],
              [
                106.479568,
                9.844994
              ],
              [
                106.479606,
                9.845111
              ],
              [
                106.47984,
                9.845483
              ],
              [
                106.480221,
                9.846042
              ],
              [
                106.480817,
                9.846584
              ],
              [
                106.481456,
                9.84717
              ],
              [
                106.481835,
                9.847635
              ],
              [
                106.482163,
                9.848029
              ],
              [
                106.488338,
                9.853043
              ],
              [
                106.491536,
                9.853334
              ],
              [
                106.492674,
                9.853401
              ],
              [
                106.492837,
                9.853385
              ],
              [
                106.49302,
                9.853366
              ],
              [
                106.493174,
                9.853277
              ],
              [
                106.493355,
                9.853142
              ],
              [
                106.493484,
                9.853056
              ],
              [
                106.493584,
                9.85299
              ],
              [
                106.493729,
                9.85291
              ],
              [
                106.493842,
                9.852848
              ],
              [
                106.494123,
                9.852696
              ],
              [
                106.494415,
                9.852515
              ],
              [
                106.494687,
                9.852339
              ],
              [
                106.494917,
                9.852201
              ],
              [
                106.495105,
                9.852096
              ],
              [
                106.49527,
                9.852008
              ],
              [
                106.495444,
                9.851909
              ],
              [
                106.495655,
                9.851755
              ],
              [
                106.495903,
                9.851542
              ],
              [
                106.496143,
                9.851326
              ],
              [
                106.496342,
                9.851161
              ],
              [
                106.496538,
                9.851029
              ],
              [
                106.496792,
                9.85087
              ],
              [
                106.497117,
                9.850658
              ],
              [
                106.497488,
                9.850398
              ],
              [
                106.498011,
                9.849963
              ],
              [
                106.499101,
                9.848883
              ],
              [
                106.501776,
                9.845664
              ],
              [
                106.501777,
                9.845663
              ],
              [
                106.507646,
                9.840352
              ],
              [
                106.507646,
                9.840352
              ]
            ]
          ]
        ]
      },
      "properties": {
        "code": "29419",
        "name": "Mỹ Long",
        "nameEn": "My Long",
        "fullName": "Xã Mỹ Long",
        "fullNameEn": "My Long Commune",
        "codeName": "my_long",
        "postalCode": "87807",
        "postalCodePrefix": "",
        "gisServerId": "diaphanhanhchinhcapxa_2025.2524",
        "areaKm2": 73.61
      }
    }
  ]
}