{
  "type": "FeatureCollection",
  "bbox": [
    105.932574,
    10.023681,
    106.020749,
    10.096084
  ],
  "features": [
    {
      "type": "Feature",
      "id": "29719",
      "bbox": [
        105.932574,
        10.023681,
        106.020749,
        10.096084
      ],
      "geometry": {
        "type": "MultiPolygon",
        "coordinates": [
          [
            [
              [
                105.9842,
                10.023883
              ],
              [
                105.984085,
                10.023943
              ],
              [
                105.983994,
                10.02399
              ],
              [
                105.983972,
                10.024002
              ],
              [
                105.983925,
                10.024028
              ],
              [
                105.98386,
                10.024062
              ],
              [
                105.983805,
                10.024091
              ],
              [
                105.983755,
                10.024118
              ],
              [
                105.983689,
                10.024153
              ],
              [
                105.983608,
                10.024194
              ],
              [
                105.983529,
                10.024233
              ],
              [
                105.983452,
                10.024271
              ],
              [
                105.983373,
                10.02431
              ],
              [
                105.983297,
                10.024348
              ],
              [
                105.983235,
                10.02438
              ],
              [
                105.983192,
                10.024402
              ],
              [
                105.983158,
                10.024419
              ],
              [
                105.983126,
                10.024437
              ],
              [
                105.983091,
                10.024458
              ],
              [
                105.983052,
                10.02448
              ],
              [
                105.983014,
                10.0245
              ],
              [
                105.982984,
                10.024513
              ],
              [
                105.982964,
                10.02452
              ],
              [
                105.982949,
                10.024525
              ],
              [
                105.982931,
                10.024531
              ],
              [
                105.982912,
                10.024537
              ],
              [
                105.98291,
                10.024538
              ],
              [
                105.982892,
                10.024542
              ],
              [
                105.982876,
                10.024545
              ],
              [
                105.982859,
                10.024546
              ],
              [
                105.982839,
                10.024546
              ],
              [
                105.982822,
                10.024546
              ],
              [
                105.982806,
                10.024545
              ],
              [
                105.982787,
                10.024544
              ],
              [
                105.982766,
                10.024541
              ],
              [
                105.982742,
                10.024537
              ],
              [
                105.982719,
                10.024533
              ],
              [
                105.982697,
                10.024527
              ],
              [
                105.982675,
                10.024519
              ],
              [
                105.982654,
                10.024509
              ],
              [
                105.982635,
                10.0245
              ],
              [
                105.982615,
                10.024491
              ],
              [
                105.982604,
                10.024485
              ],
              [
                105.982516,
                10.024526
              ],
              [
                105.98235,
                10.024605
              ],
              [
                105.982073,
                10.024703
              ],
              [
                105.981682,
                10.02489
              ],
              [
                105.981599,
                10.02496
              ],
              [
                105.981561,
                10.024992
              ],
              [
                105.98153,
                10.025064
              ],
              [
                105.981519,
                10.025088
              ],
              [
                105.98152,
                10.025202
              ],
              [
                105.981528,
                10.025225
              ],
              [
                105.981528,
                10.025293
              ],
              [
                105.979092,
                10.026472
              ],
              [
                105.979054,
                10.026707
              ],
              [
                105.979014,
                10.026934
              ],
              [
                105.978965,
                10.027213
              ],
              [
                105.978913,
                10.027214
              ],
              [
                105.978751,
                10.027218
              ],
              [
                105.978136,
                10.027192
              ],
              [
                105.977119,
                10.027149
              ],
              [
                105.977116,
                10.028072
              ],
              [
                105.977067,
                10.028795
              ],
              [
                105.976998,
                10.029823
              ],
              [
                105.976986,
                10.029998
              ],
              [
                105.976923,
                10.030928
              ],
              [
                105.976725,
                10.03091
              ],
              [
                105.976656,
                10.030904
              ],
              [
                105.976601,
                10.0309
              ],
              [
                105.976242,
                10.030869
              ],
              [
                105.975651,
                10.030818
              ],
              [
                105.975536,
                10.030779
              ],
              [
                105.975423,
                10.030713
              ],
              [
                105.975268,
                10.030644
              ],
              [
                105.97512,
                10.030623
              ],
              [
                105.974936,
                10.030638
              ],
              [
                105.974718,
                10.030691
              ],
              [
                105.97452,
                10.030737
              ],
              [
                105.974302,
                10.030773
              ],
              [
                105.9741,
                10.030788
              ],
              [
                105.973977,
                10.030804
              ],
              [
                105.973829,
                10.030823
              ],
              [
                105.972662,
                10.030782
              ],
              [
                105.972656,
                10.03083
              ],
              [
                105.972556,
                10.031835
              ],
              [
                105.97248,
                10.032523
              ],
              [
                105.972486,
                10.032625
              ],
              [
                105.97251,
                10.032715
              ],
              [
                105.972565,
                10.032984
              ],
              [
                105.972596,
                10.033223
              ],
              [
                105.972597,
                10.03332
              ],
              [
                105.972597,
                10.033426
              ],
              [
                105.972555,
                10.033666
              ],
              [
                105.972484,
                10.034013
              ],
              [
                105.972424,
                10.034294
              ],
              [
                105.972312,
                10.034994
              ],
              [
                105.972223,
                10.035527
              ],
              [
                105.972069,
                10.036431
              ],
              [
                105.972055,
                10.036561
              ],
              [
                105.972004,
                10.037053
              ],
              [
                105.971957,
                10.037334
              ],
              [
                105.971921,
                10.037532
              ],
              [
                105.971885,
                10.037729
              ],
              [
                105.971809,
                10.038232
              ],
              [
                105.971767,
                10.038328
              ],
              [
                105.971736,
                10.038352
              ],
              [
                105.970946,
                10.038318
              ],
              [
                105.969944,
                10.038285
              ],
              [
                105.96966,
                10.038292
              ],
              [
                105.969588,
                10.038328
              ],
              [
                105.969564,
                10.038376
              ],
              [
                105.969552,
                10.038621
              ],
              [
                105.969482,
                10.039363
              ],
              [
                105.969441,
                10.039597
              ],
              [
                105.969352,
                10.040333
              ],
              [
                105.969299,
                10.040728
              ],
              [
                105.969239,
                10.040959
              ],
              [
                105.969159,
                10.040959
              ],
              [
                105.96834,
                10.040854
              ],
              [
                105.967406,
                10.040763
              ],
              [
                105.966145,
                10.040645
              ],
              [
                105.965653,
                10.040624
              ],
              [
                105.965648,
                10.04081
              ],
              [
                105.965636,
                10.040972
              ],
              [
                105.965607,
                10.041187
              ],
              [
                105.965577,
                10.041319
              ],
              [
                105.965541,
                10.04145
              ],
              [
                105.965494,
                10.041762
              ],
              [
                105.965404,
                10.042133
              ],
              [
                105.965273,
                10.042576
              ],
              [
                105.965124,
                10.0433
              ],
              [
                105.965035,
                10.043851
              ],
              [
                105.964952,
                10.044174
              ],
              [
                105.964845,
                10.044677
              ],
              [
                105.964719,
                10.045006
              ],
              [
                105.964654,
                10.045371
              ],
              [
                105.964624,
                10.045598
              ],
              [
                105.964594,
                10.045712
              ],
              [
                105.964528,
                10.04579
              ],
              [
                105.964414,
                10.04582
              ],
              [
                105.964335,
                10.045821
              ],
              [
                105.964208,
                10.045761
              ],
              [
                105.963997,
                10.04563
              ],
              [
                105.963513,
                10.045344
              ],
              [
                105.962926,
                10.045029
              ],
              [
                105.962322,
                10.04466
              ],
              [
                105.962166,
                10.044613
              ],
              [
                105.962025,
                10.044571
              ],
              [
                105.961994,
                10.044726
              ],
              [
                105.961982,
                10.044788
              ],
              [
                105.961967,
                10.044866
              ],
              [
                105.961941,
                10.044999
              ],
              [
                105.961633,
                10.046562
              ],
              [
                105.961606,
                10.046644
              ],
              [
                105.961427,
                10.046579
              ],
              [
                105.961348,
                10.04655
              ],
              [
                105.958704,
                10.045476
              ],
              [
                105.958414,
                10.045405
              ],
              [
                105.958226,
                10.045377
              ],
              [
                105.956576,
                10.046198
              ],
              [
                105.955214,
                10.046908
              ],
              [
                105.955191,
                10.046928
              ],
              [
                105.954998,
                10.047104
              ],
              [
                105.954665,
                10.047272
              ],
              [
                105.954399,
                10.046971
              ],
              [
                105.954219,
                10.0467
              ],
              [
                105.953073,
                10.045499
              ],
              [
                105.953004,
                10.045426
              ],
              [
                105.95295,
                10.045484
              ],
              [
                105.952088,
                10.046403
              ],
              [
                105.951085,
                10.047425
              ],
              [
                105.950262,
                10.048425
              ],
              [
                105.949721,
                10.049159
              ],
              [
                105.949403,
                10.049547
              ],
              [
                105.949317,
                10.049856
              ],
              [
                105.949058,
                10.050438
              ],
              [
                105.948404,
                10.052228
              ],
              [
                105.948151,
                10.052959
              ],
              [
                105.948072,
                10.053187
              ],
              [
                105.947844,
                10.053844
              ],
              [
                105.947731,
                10.054117
              ],
              [
                105.947497,
                10.05468
              ],
              [
                105.94716,
                10.05549
              ],
              [
                105.947111,
                10.055606
              ],
              [
                105.946732,
                10.055672
              ],
              [
                105.942437,
                10.056366
              ],
              [
                105.939975,
                10.056624
              ],
              [
                105.938672,
                10.056784
              ],
              [
                105.937248,
                10.057027
              ],
              [
                105.936371,
                10.057079
              ],
              [
                105.936265,
                10.057148
              ],
              [
                105.936157,
                10.057168
              ],
              [
                105.936121,
                10.057174
              ],
              [
                105.93526,
                10.057332
              ],
              [
                105.933598,
                10.057464
              ],
              [
                105.932574,
                10.05751
              ],
              [
                105.932636,
                10.057837
              ],
              [
                105.93281,
                10.058567
              ],
              [
                105.933052,
                10.059951
              ],
              [
                105.933304,
                10.061425
              ],
              [
                105.933493,
                10.062282
              ],
              [
                105.933735,
                10.063418
              ],
              [
                105.933864,
                10.06416
              ],
              [
                105.934058,
                10.065391
              ],
              [
                105.934165,
                10.065995
              ],
              [
                105.934306,
                10.066778
              ],
              [
                105.934322,
                10.066937
              ],
              [
                105.934322,
                10.066943
              ],
              [
                105.934322,
                10.067069
              ],
              [
                105.934335,
                10.067194
              ],
              [
                105.934341,
                10.067251
              ],
              [
                105.934487,
                10.06763
              ],
              [
                105.93452,
                10.067744
              ],
              [
                105.934609,
                10.068061
              ],
              [
                105.934849,
                10.06888
              ],
              [
                105.935002,
                10.069356
              ],
              [
                105.93507,
                10.069347
              ],
              [
                105.935369,
                10.069309
              ],
              [
                105.936169,
                10.069278
              ],
              [
                105.939744,
                10.069091
              ],
              [
                105.94207,
                10.068976
              ],
              [
                105.944971,
                10.068909
              ],
              [
                105.944983,
                10.068908
              ],
              [
                105.945221,
                10.068925
              ],
              [
                105.945507,
                10.068946
              ],
              [
                105.945705,
                10.068967
              ],
              [
                105.945904,
                10.069053
              ],
              [
                105.946139,
                10.069131
              ],
              [
                105.947821,
                10.069768
              ],
              [
                105.948024,
                10.069845
              ],
              [
                105.948938,
                10.070241
              ],
              [
                105.957109,
                10.073544
              ],
              [
                105.957986,
                10.073776
              ],
              [
                105.958276,
                10.07387
              ],
              [
                105.958483,
                10.073897
              ],
              [
                105.958516,
                10.073994
              ],
              [
                105.958524,
                10.074089
              ],
              [
                105.95853,
                10.074153
              ],
              [
                105.958605,
                10.074153
              ],
              [
                105.958787,
                10.074152
              ],
              [
                105.958912,
                10.074151
              ],
              [
                105.959482,
                10.074215
              ],
              [
                105.959587,
                10.074227
              ],
              [
                105.959588,
                10.07423
              ],
              [
                105.960347,
                10.074335
              ],
              [
                105.961255,
                10.074462
              ],
              [
                105.961243,
                10.074546
              ],
              [
                105.961236,
                10.074601
              ],
              [
                105.96124,
                10.074602
              ],
              [
                105.961221,
                10.074709
              ],
              [
                105.961178,
                10.07495
              ],
              [
                105.961122,
                10.075261
              ],
              [
                105.961086,
                10.075459
              ],
              [
                105.96102,
                10.075828
              ],
              [
                105.961674,
                10.075914
              ],
              [
                105.961817,
                10.075932
              ],
              [
                105.962983,
                10.076086
              ],
              [
                105.963164,
                10.076109
              ],
              [
                105.96316,
                10.076138
              ],
              [
                105.96312,
                10.076451
              ],
              [
                105.964179,
                10.076597
              ],
              [
                105.96436,
                10.076621
              ],
              [
                105.964322,
                10.076914
              ],
              [
                105.964249,
                10.077484
              ],
              [
                105.964121,
                10.078484
              ],
              [
                105.964106,
                10.078558
              ],
              [
                105.964119,
                10.078561
              ],
              [
                105.96479,
                10.078674
              ],
              [
                105.965587,
                10.078805
              ],
              [
                105.966305,
                10.078939
              ],
              [
                105.966971,
                10.079036
              ],
              [
                105.967109,
                10.07907
              ],
              [
                105.967237,
                10.079081
              ],
              [
                105.967339,
                10.07909
              ],
              [
                105.967323,
                10.07925
              ],
              [
                105.967324,
                10.079327
              ],
              [
                105.967325,
                10.079406
              ],
              [
                105.967326,
                10.079463
              ],
              [
                105.967327,
                10.079511
              ],
              [
                105.967328,
                10.079557
              ],
              [
                105.967331,
                10.079595
              ],
              [
                105.967334,
                10.079627
              ],
              [
                105.967338,
                10.079663
              ],
              [
                105.967341,
                10.07969
              ],
              [
                105.967344,
                10.079717
              ],
              [
                105.967353,
                10.0798
              ],
              [
                105.967364,
                10.079901
              ],
              [
                105.967376,
                10.080008
              ],
              [
                105.96739,
                10.080122
              ],
              [
                105.967408,
                10.08025
              ],
              [
                105.967427,
                10.080384
              ],
              [
                105.967446,
                10.080517
              ],
              [
                105.967463,
                10.080639
              ],
              [
                105.967474,
                10.080741
              ],
              [
                105.967483,
                10.080832
              ],
              [
                105.96749,
                10.080919
              ],
              [
                105.967494,
                10.080996
              ],
              [
                105.967493,
                10.081057
              ],
              [
                105.96749,
                10.081106
              ],
              [
                105.967485,
                10.081152
              ],
              [
                105.96748,
                10.081193
              ],
              [
                105.967476,
                10.081225
              ],
              [
                105.967471,
                10.08125
              ],
              [
                105.967467,
                10.081273
              ],
              [
                105.967463,
                10.081296
              ],
              [
                105.96746,
                10.081317
              ],
              [
                105.967457,
                10.081337
              ],
              [
                105.967454,
                10.081356
              ],
              [
                105.967452,
                10.081377
              ],
              [
                105.967451,
                10.081399
              ],
              [
                105.96745,
                10.08142
              ],
              [
                105.967449,
                10.081442
              ],
              [
                105.967449,
                10.081466
              ],
              [
                105.967448,
                10.081494
              ],
              [
                105.967447,
                10.081526
              ],
              [
                105.967446,
                10.081559
              ],
              [
                105.967441,
                10.081599
              ],
              [
                105.967431,
                10.081644
              ],
              [
                105.96742,
                10.081687
              ],
              [
                105.967412,
                10.081715
              ],
              [
                105.967391,
                10.081789
              ],
              [
                105.967349,
                10.081851
              ],
              [
                105.96733,
                10.081878
              ],
              [
                105.967303,
                10.081916
              ],
              [
                105.967276,
                10.081956
              ],
              [
                105.96725,
                10.081994
              ],
              [
                105.967224,
                10.082032
              ],
              [
                105.9672,
                10.082069
              ],
              [
                105.967179,
                10.0821
              ],
              [
                105.967166,
                10.082121
              ],
              [
                105.967159,
                10.082134
              ],
              [
                105.967155,
                10.08214
              ],
              [
                105.967144,
                10.082161
              ],
              [
                105.967138,
                10.082186
              ],
              [
                105.967136,
                10.082196
              ],
              [
                105.967133,
                10.082211
              ],
              [
                105.96713,
                10.082226
              ],
              [
                105.967127,
                10.082241
              ],
              [
                105.967124,
                10.082256
              ],
              [
                105.967122,
                10.082271
              ],
              [
                105.96712,
                10.082287
              ],
              [
                105.967119,
                10.082304
              ],
              [
                105.967119,
                10.082321
              ],
              [
                105.967119,
                10.082339
              ],
              [
                105.967119,
                10.082357
              ],
              [
                105.967118,
                10.082377
              ],
              [
                105.967116,
                10.082396
              ],
              [
                105.967114,
                10.082417
              ],
              [
                105.96711,
                10.082443
              ],
              [
                105.967103,
                10.082477
              ],
              [
                105.967096,
                10.08251
              ],
              [
                105.967091,
                10.082531
              ],
              [
                105.967079,
                10.082588
              ],
              [
                105.967065,
                10.082609
              ],
              [
                105.967141,
                10.082651
              ],
              [
                105.967265,
                10.08272
              ],
              [
                105.967726,
                10.082856
              ],
              [
                105.967763,
                10.08287
              ],
              [
                105.967892,
                10.082916
              ],
              [
                105.968188,
                10.082972
              ],
              [
                105.968382,
                10.083034
              ],
              [
                105.968469,
                10.08312
              ],
              [
                105.968557,
                10.083207
              ],
              [
                105.968636,
                10.083234
              ],
              [
                105.968826,
                10.083245
              ],
              [
                105.969107,
                10.083256
              ],
              [
                105.969179,
                10.083238
              ],
              [
                105.96949,
                10.083159
              ],
              [
                105.970048,
                10.083044
              ],
              [
                105.970618,
                10.082935
              ],
              [
                105.971088,
                10.082856
              ],
              [
                105.971598,
                10.082654
              ],
              [
                105.972165,
                10.082467
              ],
              [
                105.972765,
                10.082324
              ],
              [
                105.973528,
                10.082125
              ],
              [
                105.973972,
                10.082009
              ],
              [
                105.974327,
                10.081901
              ],
              [
                105.974671,
                10.081828
              ],
              [
                105.97487,
                10.081774
              ],
              [
                105.97496,
                10.081773
              ],
              [
                105.975052,
                10.081814
              ],
              [
                105.975114,
                10.081841
              ],
              [
                105.975057,
                10.081949
              ],
              [
                105.974884,
                10.082272
              ],
              [
                105.974786,
                10.082416
              ],
              [
                105.974758,
                10.08252
              ],
              [
                105.974754,
                10.082592
              ],
              [
                105.974769,
                10.082671
              ],
              [
                105.974846,
                10.082829
              ],
              [
                105.974966,
                10.08308
              ],
              [
                105.975068,
                10.083302
              ],
              [
                105.975178,
                10.083754
              ],
              [
                105.97527,
                10.084238
              ],
              [
                105.975343,
                10.084496
              ],
              [
                105.975393,
                10.084746
              ],
              [
                105.975426,
                10.08504
              ],
              [
                105.97545,
                10.085267
              ],
              [
                105.975482,
                10.085416
              ],
              [
                105.975579,
                10.085781
              ],
              [
                105.975645,
                10.085902
              ],
              [
                105.975863,
                10.086271
              ],
              [
                105.975991,
                10.086533
              ],
              [
                105.976148,
                10.086877
              ],
              [
                105.976228,
                10.087107
              ],
              [
                105.976241,
                10.087158
              ],
              [
                105.976267,
                10.087257
              ],
              [
                105.976317,
                10.087332
              ],
              [
                105.976355,
                10.087387
              ],
              [
                105.976386,
                10.087432
              ],
              [
                105.976415,
                10.087475
              ],
              [
                105.976515,
                10.087657
              ],
              [
                105.97657,
                10.087771
              ],
              [
                105.976691,
                10.088004
              ],
              [
                105.97681,
                10.088284
              ],
              [
                105.976916,
                10.088583
              ],
              [
                105.976978,
                10.08884
              ],
              [
                105.977057,
                10.089049
              ],
              [
                105.977139,
                10.089193
              ],
              [
                105.977193,
                10.089243
              ],
              [
                105.977235,
                10.089249
              ],
              [
                105.977332,
                10.089246
              ],
              [
                105.977425,
                10.089198
              ],
              [
                105.977648,
                10.089092
              ],
              [
                105.977896,
                10.089005
              ],
              [
                105.978022,
                10.088987
              ],
              [
                105.978104,
                10.089025
              ],
              [
                105.978174,
                10.089082
              ],
              [
                105.978174,
                10.089083
              ],
              [
                105.978276,
                10.089044
              ],
              [
                105.978785,
                10.088847
              ],
              [
                105.981399,
                10.087866
              ],
              [
                105.981492,
                10.087831
              ],
              [
                105.981535,
                10.087962
              ],
              [
                105.981584,
                10.088075
              ],
              [
                105.98163,
                10.088183
              ],
              [
                105.981676,
                10.088288
              ],
              [
                105.981718,
                10.088389
              ],
              [
                105.981754,
                10.08848
              ],
              [
                105.981786,
                10.088565
              ],
              [
                105.981816,
                10.088645
              ],
              [
                105.981841,
                10.088712
              ],
              [
                105.981858,
                10.088761
              ],
              [
                105.981878,
                10.088821
              ],
              [
                105.981908,
                10.088917
              ],
              [
                105.981946,
                10.089035
              ],
              [
                105.981983,
                10.089151
              ],
              [
                105.982012,
                10.08924
              ],
              [
                105.982033,
                10.0893
              ],
              [
                105.982067,
                10.089394
              ],
              [
                105.982135,
                10.08958
              ],
              [
                105.982224,
                10.089821
              ],
              [
                105.982313,
                10.090066
              ],
              [
                105.982386,
                10.09027
              ],
              [
                105.982432,
                10.090405
              ],
              [
                105.982462,
                10.0905
              ],
              [
                105.982487,
                10.090584
              ],
              [
                105.982507,
                10.090659
              ],
              [
                105.982521,
                10.090719
              ],
              [
                105.98253,
                10.09077
              ],
              [
                105.982539,
                10.090819
              ],
              [
                105.982548,
                10.090872
              ],
              [
                105.982559,
                10.09093
              ],
              [
                105.982571,
                10.090993
              ],
              [
                105.982584,
                10.091059
              ],
              [
                105.982601,
                10.091134
              ],
              [
                105.982626,
                10.091227
              ],
              [
                105.982656,
                10.091333
              ],
              [
                105.982682,
                10.091427
              ],
              [
                105.982707,
                10.091514
              ],
              [
                105.982732,
                10.0916
              ],
              [
                105.982751,
                10.091666
              ],
              [
                105.982765,
                10.091712
              ],
              [
                105.982784,
                10.091769
              ],
              [
                105.982811,
                10.091853
              ],
              [
                105.982839,
                10.091937
              ],
              [
                105.982867,
                10.092023
              ],
              [
                105.982896,
                10.09211
              ],
              [
                105.982919,
                10.092182
              ],
              [
                105.982941,
                10.092257
              ],
              [
                105.982971,
                10.092364
              ],
              [
                105.983006,
                10.092492
              ],
              [
                105.983043,
                10.092625
              ],
              [
                105.983079,
                10.092756
              ],
              [
                105.983114,
                10.092884
              ],
              [
                105.983149,
                10.093009
              ],
              [
                105.983183,
                10.093131
              ],
              [
                105.983214,
                10.09324
              ],
              [
                105.983243,
                10.093338
              ],
              [
                105.983273,
                10.093435
              ],
              [
                105.983301,
                10.093524
              ],
              [
                105.98333,
                10.09362
              ],
              [
                105.983365,
                10.093732
              ],
              [
                105.983405,
                10.09386
              ],
              [
                105.983453,
                10.094019
              ],
              [
                105.983508,
                10.094199
              ],
              [
                105.983564,
                10.094381
              ],
              [
                105.983617,
                10.094554
              ],
              [
                105.983665,
                10.094709
              ],
              [
                105.983711,
                10.094853
              ],
              [
                105.983754,
                10.094992
              ],
              [
                105.983792,
                10.095117
              ],
              [
                105.983821,
                10.095217
              ],
              [
                105.983844,
                10.095303
              ],
              [
                105.983865,
                10.095384
              ],
              [
                105.983877,
                10.095431
              ],
              [
                105.983885,
                10.095461
              ],
              [
                105.983902,
                10.09553
              ],
              [
                105.983917,
                10.095594
              ],
              [
                105.983932,
                10.095656
              ],
              [
                105.983947,
                10.095713
              ],
              [
                105.983963,
                10.095759
              ],
              [
                105.983977,
                10.095798
              ],
              [
                105.983992,
                10.095834
              ],
              [
                105.984007,
                10.095868
              ],
              [
                105.984022,
                10.095896
              ],
              [
                105.984036,
                10.095917
              ],
              [
                105.984045,
                10.095931
              ],
              [
                105.984106,
                10.096018
              ],
              [
                105.984224,
                10.096076
              ],
              [
                105.984239,
                10.096078
              ],
              [
                105.984253,
                10.09608
              ],
              [
                105.984284,
                10.096084
              ],
              [
                105.984312,
                10.096076
              ],
              [
                105.984317,
                10.096075
              ],
              [
                105.98433,
                10.096071
              ],
              [
                105.984344,
                10.096067
              ],
              [
                105.984377,
                10.096059
              ],
              [
                105.984435,
                10.096
              ],
              [
                105.98446,
                10.095976
              ],
              [
                105.984498,
                10.095936
              ],
              [
                105.98455,
                10.095877
              ],
              [
                105.98462,
                10.095788
              ],
              [
                105.984703,
                10.095681
              ],
              [
                105.984786,
                10.095573
              ],
              [
                105.98486,
                10.095478
              ],
              [
                105.984922,
                10.0954
              ],
              [
                105.985002,
                10.095305
              ],
              [
                105.985125,
                10.095165
              ],
              [
                105.985269,
                10.095003
              ],
              [
                105.985419,
                10.094836
              ],
              [
                105.98557,
                10.09467
              ],
              [
                105.985728,
                10.094496
              ],
              [
                105.985892,
                10.094314
              ],
              [
                105.986051,
                10.094137
              ],
              [
                105.98618,
                10.093991
              ],
              [
                105.986268,
                10.093892
              ],
              [
                105.986336,
                10.093819
              ],
              [
                105.986388,
                10.093766
              ],
              [
                105.98643,
                10.093727
              ],
              [
                105.986481,
                10.093682
              ],
              [
                105.986538,
                10.093628
              ],
              [
                105.986586,
                10.09359
              ],
              [
                105.986621,
                10.093566
              ],
              [
                105.986651,
                10.093548
              ],
              [
                105.986678,
                10.093533
              ],
              [
                105.986703,
                10.093525
              ],
              [
                105.986727,
                10.09352
              ],
              [
                105.98675,
                10.093516
              ],
              [
                105.986765,
                10.093513
              ],
              [
                105.986772,
                10.093512
              ],
              [
                105.986792,
                10.093515
              ],
              [
                105.986813,
                10.093525
              ],
              [
                105.986823,
                10.093532
              ],
              [
                105.986868,
                10.09346
              ],
              [
                105.986895,
                10.093418
              ],
              [
                105.987206,
                10.092921
              ],
              [
                105.987583,
                10.092466
              ],
              [
                105.98765,
                10.092401
              ],
              [
                105.987837,
                10.0922
              ],
              [
                105.988011,
                10.092021
              ],
              [
                105.988207,
                10.091815
              ],
              [
                105.988401,
                10.091612
              ],
              [
                105.988594,
                10.091406
              ],
              [
                105.988793,
                10.091202
              ],
              [
                105.988951,
                10.091033
              ],
              [
                105.989117,
                10.090862
              ],
              [
                105.989286,
                10.090683
              ],
              [
                105.989454,
                10.090512
              ],
              [
                105.989619,
                10.090335
              ],
              [
                105.989795,
                10.090168
              ],
              [
                105.989963,
                10.089987
              ],
              [
                105.990141,
                10.089804
              ],
              [
                105.990317,
                10.089625
              ],
              [
                105.990489,
                10.089453
              ],
              [
                105.990659,
                10.089274
              ],
              [
                105.990839,
                10.089091
              ],
              [
                105.991023,
                10.088905
              ],
              [
                105.991201,
                10.088713
              ],
              [
                105.991386,
                10.088523
              ],
              [
                105.991574,
                10.088324
              ],
              [
                105.991759,
                10.088131
              ],
              [
                105.991945,
                10.087938
              ],
              [
                105.992051,
                10.087811
              ],
              [
                105.992118,
                10.087729
              ],
              [
                105.992285,
                10.087555
              ],
              [
                105.992451,
                10.087373
              ],
              [
                105.992625,
                10.087201
              ],
              [
                105.992783,
                10.087031
              ],
              [
                105.993164,
                10.08667
              ],
              [
                105.993078,
                10.086597
              ],
              [
                105.992986,
                10.086492
              ],
              [
                105.992826,
                10.086363
              ],
              [
                105.992638,
                10.086215
              ],
              [
                105.992396,
                10.08601
              ],
              [
                105.992192,
                10.08579
              ],
              [
                105.992095,
                10.08559
              ],
              [
                105.992042,
                10.085537
              ],
              [
                105.991998,
                10.085523
              ],
              [
                105.991906,
                10.085538
              ],
              [
                105.9918,
                10.085595
              ],
              [
                105.991636,
                10.085663
              ],
              [
                105.991458,
                10.08574
              ],
              [
                105.991337,
                10.085793
              ],
              [
                105.991154,
                10.085837
              ],
              [
                105.991014,
                10.085894
              ],
              [
                105.990942,
                10.085895
              ],
              [
                105.990879,
                10.085861
              ],
              [
                105.990826,
                10.085823
              ],
              [
                105.990763,
                10.085761
              ],
              [
                105.990579,
                10.08557
              ],
              [
                105.990341,
                10.085265
              ],
              [
                105.990254,
                10.08515
              ],
              [
                105.990059,
                10.084792
              ],
              [
                105.989972,
                10.084639
              ],
              [
                105.989899,
                10.084505
              ],
              [
                105.989889,
                10.084352
              ],
              [
                105.989869,
                10.083941
              ],
              [
                105.989839,
                10.083678
              ],
              [
                105.989824,
                10.083453
              ],
              [
                105.989808,
                10.08317
              ],
              [
                105.989772,
                10.082221
              ],
              [
                105.989719,
                10.081593
              ],
              [
                105.989695,
                10.080936
              ],
              [
                105.98967,
                10.080505
              ],
              [
                105.989927,
                10.080391
              ],
              [
                105.990065,
                10.080289
              ],
              [
                105.990656,
                10.079958
              ],
              [
                105.991156,
                10.079741
              ],
              [
                105.991349,
                10.079699
              ],
              [
                105.99153,
                10.079614
              ],
              [
                105.991759,
                10.079572
              ],
              [
                105.99194,
                10.079577
              ],
              [
                105.992079,
                10.079589
              ],
              [
                105.992224,
                10.079558
              ],
              [
                105.992302,
                10.079504
              ],
              [
                105.992441,
                10.07933
              ],
              [
                105.992742,
                10.079078
              ],
              [
                105.993266,
                10.0787
              ],
              [
                105.993826,
                10.078375
              ],
              [
                105.994091,
                10.078243
              ],
              [
                105.994302,
                10.078206
              ],
              [
                105.994664,
                10.078062
              ],
              [
                105.994827,
                10.078001
              ],
              [
                105.994857,
                10.077989
              ],
              [
                105.99505,
                10.077881
              ],
              [
                105.995291,
                10.077779
              ],
              [
                105.995592,
                10.077706
              ],
              [
                105.995828,
                10.077699
              ],
              [
                105.995997,
                10.077699
              ],
              [
                105.996081,
                10.077668
              ],
              [
                105.99616,
                10.077585
              ],
              [
                105.99622,
                10.077489
              ],
              [
                105.996268,
                10.077375
              ],
              [
                105.996322,
                10.077267
              ],
              [
                105.9964,
                10.077189
              ],
              [
                105.996472,
                10.077141
              ],
              [
                105.996749,
                10.077044
              ],
              [
                105.996967,
                10.076996
              ],
              [
                105.997111,
                10.076948
              ],
              [
                105.997208,
                10.076881
              ],
              [
                105.99722,
                10.076822
              ],
              [
                105.997231,
                10.076702
              ],
              [
                105.997231,
                10.076475
              ],
              [
                105.9972,
                10.076331
              ],
              [
                105.9972,
                10.076218
              ],
              [
                105.997179,
                10.076145
              ],
              [
                105.997321,
                10.076099
              ],
              [
                105.997488,
                10.076063
              ],
              [
                105.997611,
                10.076052
              ],
              [
                105.997637,
                10.07605
              ],
              [
                105.997835,
                10.076076
              ],
              [
                105.997968,
                10.076092
              ],
              [
                105.998096,
                10.076073
              ],
              [
                105.998231,
                10.076003
              ],
              [
                105.9984,
                10.075871
              ],
              [
                105.998501,
                10.075808
              ],
              [
                105.998593,
                10.075796
              ],
              [
                105.998692,
                10.075834
              ],
              [
                105.998803,
                10.075867
              ],
              [
                105.998873,
                10.075867
              ],
              [
                105.998986,
                10.075826
              ],
              [
                105.999095,
                10.075749
              ],
              [
                105.999302,
                10.075643
              ],
              [
                105.999425,
                10.075605
              ],
              [
                105.999732,
                10.075594
              ],
              [
                105.99981,
                10.075715
              ],
              [
                105.999895,
                10.075867
              ],
              [
                105.999897,
                10.076004
              ],
              [
                105.999913,
                10.076305
              ],
              [
                105.999899,
                10.076498
              ],
              [
                105.999856,
                10.076828
              ],
              [
                105.999766,
                10.077105
              ],
              [
                105.999691,
                10.077295
              ],
              [
                105.999579,
                10.077489
              ],
              [
                105.999493,
                10.077752
              ],
              [
                105.999417,
                10.077992
              ],
              [
                105.999375,
                10.078244
              ],
              [
                105.999334,
                10.078728
              ],
              [
                105.999348,
                10.079338
              ],
              [
                105.999452,
                10.079679
              ],
              [
                105.99961,
                10.080037
              ],
              [
                105.999735,
                10.080288
              ],
              [
                106.000008,
                10.08076
              ],
              [
                106.000351,
                10.08117
              ],
              [
                106.000738,
                10.081468
              ],
              [
                106.001174,
                10.0817
              ],
              [
                106.001658,
                10.08185
              ],
              [
                106.001761,
                10.081888
              ],
              [
                106.001779,
                10.081895
              ],
              [
                106.002015,
                10.081987
              ],
              [
                106.002091,
                10.082017
              ],
              [
                106.002169,
                10.082048
              ],
              [
                106.00221,
                10.082059
              ],
              [
                106.002261,
                10.082074
              ],
              [
                106.002321,
                10.082091
              ],
              [
                106.002382,
                10.08211
              ],
              [
                106.002446,
                10.082129
              ],
              [
                106.002515,
                10.08215
              ],
              [
                106.002593,
                10.082174
              ],
              [
                106.003245,
                10.082392
              ],
              [
                106.003764,
                10.082555
              ],
              [
                106.003936,
                10.082606
              ],
              [
                106.004286,
                10.082446
              ],
              [
                106.004624,
                10.082361
              ],
              [
                106.005384,
                10.082263
              ],
              [
                106.006218,
                10.082368
              ],
              [
                106.006761,
                10.082498
              ],
              [
                106.007462,
                10.082699
              ],
              [
                106.008465,
                10.082995
              ],
              [
                106.009299,
                10.083376
              ],
              [
                106.009831,
                10.083697
              ],
              [
                106.010267,
                10.083995
              ],
              [
                106.010811,
                10.0844
              ],
              [
                106.011416,
                10.084757
              ],
              [
                106.011552,
                10.084799
              ],
              [
                106.011761,
                10.084863
              ],
              [
                106.011773,
                10.084866
              ],
              [
                106.011833,
                10.084881
              ],
              [
                106.011901,
                10.084893
              ],
              [
                106.011927,
                10.084896
              ],
              [
                106.011933,
                10.084897
              ],
              [
                106.011958,
                10.084899
              ],
              [
                106.012003,
                10.0849
              ],
              [
                106.012042,
                10.084898
              ],
              [
                106.012104,
                10.084892
              ],
              [
                106.012144,
                10.084888
              ],
              [
                106.012166,
                10.084886
              ],
              [
                106.012233,
                10.08488
              ],
              [
                106.012292,
                10.084875
              ],
              [
                106.012297,
                10.084874
              ],
              [
                106.01234,
                10.084871
              ],
              [
                106.012458,
                10.084862
              ],
              [
                106.012508,
                10.084858
              ],
              [
                106.012562,
                10.084852
              ],
              [
                106.012628,
                10.084845
              ],
              [
                106.01267,
                10.084839
              ],
              [
                106.012705,
                10.084833
              ],
              [
                106.012739,
                10.084828
              ],
              [
                106.012778,
                10.084821
              ],
              [
                106.012838,
                10.084811
              ],
              [
                106.012924,
                10.084796
              ],
              [
                106.012999,
                10.084781
              ],
              [
                106.013067,
                10.084763
              ],
              [
                106.013163,
                10.084736
              ],
              [
                106.01329,
                10.084701
              ],
              [
                106.013407,
                10.084667
              ],
              [
                106.013516,
                10.084634
              ],
              [
                106.013651,
                10.084594
              ],
              [
                106.013803,
                10.08455
              ],
              [
                106.013851,
                10.084536
              ],
              [
                106.014049,
                10.084464
              ],
              [
                106.014214,
                10.084395
              ],
              [
                106.014513,
                10.084244
              ],
              [
                106.015085,
                10.083815
              ],
              [
                106.015325,
                10.083644
              ],
              [
                106.015431,
                10.083558
              ],
              [
                106.015539,
                10.08342
              ],
              [
                106.015579,
                10.08337
              ],
              [
                106.01562,
                10.083318
              ],
              [
                106.015623,
                10.083314
              ],
              [
                106.015629,
                10.083304
              ],
              [
                106.015663,
                10.083248
              ],
              [
                106.015711,
                10.083167
              ],
              [
                106.015764,
                10.083074
              ],
              [
                106.015823,
                10.082972
              ],
              [
                106.015885,
                10.08286
              ],
              [
                106.015946,
                10.082741
              ],
              [
                106.016004,
                10.082616
              ],
              [
                106.016056,
                10.08249
              ],
              [
                106.016101,
                10.082375
              ],
              [
                106.016142,
                10.08227
              ],
              [
                106.016183,
                10.082164
              ],
              [
                106.016229,
                10.082052
              ],
              [
                106.016276,
                10.081937
              ],
              [
                106.01633,
                10.081809
              ],
              [
                106.016392,
                10.081664
              ],
              [
                106.01646,
                10.081507
              ],
              [
                106.016543,
                10.081321
              ],
              [
                106.016653,
                10.081076
              ],
              [
                106.016791,
                10.080769
              ],
              [
                106.016952,
                10.080416
              ],
              [
                106.017129,
                10.080032
              ],
              [
                106.017311,
                10.079642
              ],
              [
                106.017352,
                10.079554
              ],
              [
                106.017482,
                10.079277
              ],
              [
                106.017627,
                10.078977
              ],
              [
                106.017742,
                10.078757
              ],
              [
                106.017838,
                10.078594
              ],
              [
                106.017929,
                10.078459
              ],
              [
                106.018023,
                10.078335
              ],
              [
                106.018122,
                10.078219
              ],
              [
                106.018165,
                10.078173
              ],
              [
                106.018221,
                10.078113
              ],
              [
                106.018313,
                10.078019
              ],
              [
                106.01839,
                10.077945
              ],
              [
                106.018448,
                10.077894
              ],
              [
                106.018491,
                10.077862
              ],
              [
                106.018527,
                10.077838
              ],
              [
                106.018562,
                10.077816
              ],
              [
                106.0186,
                10.077794
              ],
              [
                106.018645,
                10.07777
              ],
              [
                106.018696,
                10.077744
              ],
              [
                106.01875,
                10.077716
              ],
              [
                106.018804,
                10.077689
              ],
              [
                106.018854,
                10.077664
              ],
              [
                106.018906,
                10.07764
              ],
              [
                106.018967,
                10.077615
              ],
              [
                106.019034,
                10.077589
              ],
              [
                106.019096,
                10.077566
              ],
              [
                106.019154,
                10.077546
              ],
              [
                106.019218,
                10.077525
              ],
              [
                106.019286,
                10.077502
              ],
              [
                106.019346,
                10.077485
              ],
              [
                106.01939,
                10.077474
              ],
              [
                106.019428,
                10.077466
              ],
              [
                106.019467,
                10.07746
              ],
              [
                106.019511,
                10.077452
              ],
              [
                106.019558,
                10.077444
              ],
              [
                106.019604,
                10.077436
              ],
              [
                106.019654,
                10.077428
              ],
              [
                106.019716,
                10.077417
              ],
              [
                106.019786,
                10.077405
              ],
              [
                106.019857,
                10.077392
              ],
              [
                106.019925,
                10.077378
              ],
              [
                106.019987,
                10.077366
              ],
              [
                106.02004,
                10.077356
              ],
              [
                106.020085,
                10.077349
              ],
              [
                106.02015,
                10.077337
              ],
              [
                106.020315,
                10.077304
              ],
              [
                106.020409,
                10.077284
              ],
              [
                106.020749,
                10.077212
              ],
              [
                106.020742,
                10.0772
              ],
              [
                106.020699,
                10.077086
              ],
              [
                106.020604,
                10.076819
              ],
              [
                106.020571,
                10.076752
              ],
              [
                106.020536,
                10.076693
              ],
              [
                106.020497,
                10.076627
              ],
              [
                106.02046,
                10.07656
              ],
              [
                106.020426,
                10.076496
              ],
              [
                106.020396,
                10.076438
              ],
              [
                106.020388,
                10.076424
              ],
              [
                106.020361,
                10.07637
              ],
              [
                106.020334,
                10.076324
              ],
              [
                106.02028,
                10.076249
              ],
              [
                106.02018,
                10.076113
              ],
              [
                106.020053,
                10.075941
              ],
              [
                106.019927,
                10.075769
              ],
              [
                106.019829,
                10.075636
              ],
              [
                106.019773,
                10.075558
              ],
              [
                106.019711,
                10.075461
              ],
              [
                106.01959,
                10.075262
              ],
              [
                106.019431,
                10.074998
              ],
              [
                106.019285,
                10.074757
              ],
              [
                106.019152,
                10.074539
              ],
              [
                106.019011,
                10.074306
              ],
              [
                106.018857,
                10.074052
              ],
              [
                106.018821,
                10.073994
              ],
              [
                106.018662,
                10.073737
              ],
              [
                106.018433,
                10.073369
              ],
              [
                106.018199,
                10.072996
              ],
              [
                106.017976,
                10.072653
              ],
              [
                106.017763,
                10.072351
              ],
              [
                106.017595,
                10.072123
              ],
              [
                106.017559,
                10.072073
              ],
              [
                106.017391,
                10.071846
              ],
              [
                106.017246,
                10.07165
              ],
              [
                106.017089,
                10.071434
              ],
              [
                106.01692,
                10.071191
              ],
              [
                106.01671,
                10.070877
              ],
              [
                106.016468,
                10.070504
              ],
              [
                106.016217,
                10.070118
              ],
              [
                106.016184,
                10.070069
              ],
              [
                106.015796,
                10.069567
              ],
              [
                106.01519,
                10.06869
              ],
              [
                106.014553,
                10.067729
              ],
              [
                106.013789,
                10.066601
              ],
              [
                106.013019,
                10.065449
              ],
              [
                106.012449,
                10.064619
              ],
              [
                106.011982,
                10.063938
              ],
              [
                106.011188,
                10.062786
              ],
              [
                106.010387,
                10.061592
              ],
              [
                106.009677,
                10.060544
              ],
              [
                106.0095,
                10.060252
              ],
              [
                106.003933,
                10.051891
              ],
              [
                105.997833,
                10.043112
              ],
              [
                105.992713,
                10.035467
              ],
              [
                105.985632,
                10.025323
              ],
              [
                105.984591,
                10.023681
              ],
              [
                105.9842,
                10.023883
              ],
              [
                105.9842,
                10.023883
              ]
            ]
          ]
        ]
      },
      "properties": {
        "code": "29719",
        "name": "Tam Bình",
        "nameEn": "Tam Binh",
        "fullName": "Xã Tam Bình",
        "fullNameEn": "Tam Binh Commune",
        "codeName": "tam_binh",
        "postalCode": "85306",
        "postalCodePrefix": "",
        "gisServerId": "diaphanhanhchinhcapxa_2025.2544",
        "areaKm2": 34.63
      }
    }
  ]
}