{
  "type": "FeatureCollection",
  "bbox": [
    106.12316,
    11.26155,
    106.215874,
    11.363679
  ],
  "features": [
    {
      "type": "Feature",
      "id": "25567",
      "bbox": [
        106.12316,
        11.26155,
        106.215874,
        11.363679
      ],
      "geometry": {
        "type": "MultiPolygon",
        "coordinates": [
          [
            [
              [
                106.1267,
                11.320787
              ],
              [
                106.126551,
                11.320889
              ],
              [
                106.126284,
                11.320995
              ],
              [
                106.125993,
                11.321042
              ],
              [
                106.125813,
                11.321035
              ],
              [
                106.125749,
                11.321019
              ],
              [
                106.125543,
                11.320967
              ],
              [
                106.124896,
                11.321042
              ],
              [
                106.124649,
                11.321172
              ],
              [
                106.124464,
                11.321356
              ],
              [
                106.124381,
                11.321438
              ],
              [
                106.124236,
                11.321756
              ],
              [
                106.124193,
                11.321851
              ],
              [
                106.12406,
                11.322142
              ],
              [
                106.12398,
                11.322345
              ],
              [
                106.123932,
                11.322492
              ],
              [
                106.123899,
                11.322594
              ],
              [
                106.123876,
                11.322777
              ],
              [
                106.123843,
                11.323009
              ],
              [
                106.123824,
                11.323242
              ],
              [
                106.123822,
                11.323263
              ],
              [
                106.123816,
                11.323313
              ],
              [
                106.123813,
                11.323332
              ],
              [
                106.123812,
                11.323348
              ],
              [
                106.123807,
                11.323389
              ],
              [
                106.123806,
                11.323394
              ],
              [
                106.123805,
                11.323401
              ],
              [
                106.123784,
                11.323483
              ],
              [
                106.123633,
                11.323884
              ],
              [
                106.123431,
                11.32411
              ],
              [
                106.123286,
                11.324225
              ],
              [
                106.12316,
                11.324221
              ],
              [
                106.123874,
                11.324722
              ],
              [
                106.124142,
                11.324928
              ],
              [
                106.12414,
                11.324932
              ],
              [
                106.124174,
                11.324956
              ],
              [
                106.124063,
                11.325194
              ],
              [
                106.124042,
                11.325281
              ],
              [
                106.124195,
                11.325364
              ],
              [
                106.123918,
                11.325861
              ],
              [
                106.123835,
                11.326598
              ],
              [
                106.123798,
                11.326927
              ],
              [
                106.123698,
                11.327765
              ],
              [
                106.123637,
                11.328278
              ],
              [
                106.123561,
                11.328923
              ],
              [
                106.123512,
                11.32933
              ],
              [
                106.123518,
                11.32934
              ],
              [
                106.123522,
                11.329351
              ],
              [
                106.123524,
                11.329362
              ],
              [
                106.123524,
                11.329374
              ],
              [
                106.123522,
                11.329385
              ],
              [
                106.123518,
                11.329396
              ],
              [
                106.123512,
                11.329406
              ],
              [
                106.123504,
                11.329415
              ],
              [
                106.123512,
                11.329423
              ],
              [
                106.123556,
                11.329475
              ],
              [
                106.123637,
                11.329599
              ],
              [
                106.123661,
                11.329637
              ],
              [
                106.123634,
                11.329655
              ],
              [
                106.123605,
                11.329671
              ],
              [
                106.123706,
                11.329701
              ],
              [
                106.123814,
                11.329819
              ],
              [
                106.123854,
                11.329857
              ],
              [
                106.123857,
                11.329861
              ],
              [
                106.124037,
                11.330034
              ],
              [
                106.12409,
                11.330052
              ],
              [
                106.124148,
                11.330028
              ],
              [
                106.124152,
                11.330027
              ],
              [
                106.124207,
                11.329994
              ],
              [
                106.124252,
                11.329946
              ],
              [
                106.12429,
                11.329927
              ],
              [
                106.124322,
                11.329949
              ],
              [
                106.124371,
                11.33003
              ],
              [
                106.124497,
                11.329978
              ],
              [
                106.124641,
                11.329919
              ],
              [
                106.124761,
                11.329933
              ],
              [
                106.125516,
                11.329557
              ],
              [
                106.125543,
                11.329626
              ],
              [
                106.12558,
                11.329723
              ],
              [
                106.125605,
                11.330245
              ],
              [
                106.12561,
                11.33035
              ],
              [
                106.12564,
                11.33035
              ],
              [
                106.12589,
                11.330352
              ],
              [
                106.125896,
                11.330392
              ],
              [
                106.125963,
                11.330834
              ],
              [
                106.126786,
                11.330803
              ],
              [
                106.127659,
                11.330775
              ],
              [
                106.128846,
                11.330878
              ],
              [
                106.130874,
                11.331134
              ],
              [
                106.131762,
                11.331234
              ],
              [
                106.131554,
                11.332402
              ],
              [
                106.131221,
                11.333705
              ],
              [
                106.131121,
                11.33369
              ],
              [
                106.131075,
                11.333924
              ],
              [
                106.131126,
                11.333932
              ],
              [
                106.130969,
                11.33474
              ],
              [
                106.130863,
                11.335163
              ],
              [
                106.130658,
                11.336027
              ],
              [
                106.130496,
                11.336794
              ],
              [
                106.13039,
                11.336783
              ],
              [
                106.13019,
                11.33806
              ],
              [
                106.130048,
                11.33866
              ],
              [
                106.129942,
                11.339231
              ],
              [
                106.129938,
                11.339254
              ],
              [
                106.129875,
                11.339462
              ],
              [
                106.129839,
                11.33952
              ],
              [
                106.129705,
                11.339944
              ],
              [
                106.129633,
                11.34007
              ],
              [
                106.129628,
                11.340134
              ],
              [
                106.129664,
                11.340289
              ],
              [
                106.129701,
                11.340321
              ],
              [
                106.129716,
                11.340961
              ],
              [
                106.129714,
                11.340996
              ],
              [
                106.129697,
                11.340991
              ],
              [
                106.129709,
                11.341984
              ],
              [
                106.129699,
                11.342461
              ],
              [
                106.129638,
                11.342478
              ],
              [
                106.129643,
                11.3427
              ],
              [
                106.129524,
                11.3427
              ],
              [
                106.129522,
                11.342772
              ],
              [
                106.129405,
                11.34274
              ],
              [
                106.128982,
                11.342739
              ],
              [
                106.128924,
                11.342984
              ],
              [
                106.128589,
                11.342929
              ],
              [
                106.128533,
                11.343274
              ],
              [
                106.128183,
                11.34319
              ],
              [
                106.128128,
                11.343166
              ],
              [
                106.128081,
                11.343492
              ],
              [
                106.128136,
                11.343518
              ],
              [
                106.12826,
                11.343575
              ],
              [
                106.128818,
                11.343833
              ],
              [
                106.128971,
                11.343904
              ],
              [
                106.129213,
                11.344016
              ],
              [
                106.130434,
                11.344567
              ],
              [
                106.131513,
                11.345071
              ],
              [
                106.132044,
                11.345318
              ],
              [
                106.133641,
                11.346091
              ],
              [
                106.133691,
                11.346116
              ],
              [
                106.135108,
                11.346774
              ],
              [
                106.135392,
                11.346906
              ],
              [
                106.135797,
                11.347094
              ],
              [
                106.135899,
                11.347141
              ],
              [
                106.135923,
                11.347151
              ],
              [
                106.135965,
                11.347167
              ],
              [
                106.136164,
                11.347246
              ],
              [
                106.136334,
                11.347314
              ],
              [
                106.137304,
                11.347784
              ],
              [
                106.138151,
                11.348175
              ],
              [
                106.138245,
                11.348218
              ],
              [
                106.138273,
                11.348231
              ],
              [
                106.138564,
                11.348365
              ],
              [
                106.138647,
                11.348403
              ],
              [
                106.139776,
                11.348964
              ],
              [
                106.13991,
                11.34903
              ],
              [
                106.140577,
                11.349328
              ],
              [
                106.141381,
                11.349696
              ],
              [
                106.142473,
                11.350205
              ],
              [
                106.144122,
                11.350952
              ],
              [
                106.145669,
                11.351662
              ],
              [
                106.146042,
                11.351831
              ],
              [
                106.14655,
                11.352061
              ],
              [
                106.146864,
                11.352203
              ],
              [
                106.147671,
                11.352573
              ],
              [
                106.148137,
                11.352786
              ],
              [
                106.149405,
                11.35337
              ],
              [
                106.149582,
                11.353456
              ],
              [
                106.150002,
                11.353659
              ],
              [
                106.150314,
                11.353803
              ],
              [
                106.150721,
                11.353992
              ],
              [
                106.151116,
                11.354168
              ],
              [
                106.152841,
                11.354984
              ],
              [
                106.153364,
                11.355224
              ],
              [
                106.154322,
                11.355665
              ],
              [
                106.154864,
                11.355914
              ],
              [
                106.155853,
                11.356369
              ],
              [
                106.155895,
                11.356387
              ],
              [
                106.156512,
                11.356669
              ],
              [
                106.158558,
                11.357608
              ],
              [
                106.158806,
                11.357729
              ],
              [
                106.160016,
                11.35832
              ],
              [
                106.162165,
                11.359286
              ],
              [
                106.163623,
                11.359961
              ],
              [
                106.163889,
                11.360084
              ],
              [
                106.165165,
                11.360674
              ],
              [
                106.166228,
                11.361168
              ],
              [
                106.166798,
                11.361433
              ],
              [
                106.167745,
                11.361865
              ],
              [
                106.167953,
                11.36195
              ],
              [
                106.167957,
                11.361952
              ],
              [
                106.168335,
                11.362126
              ],
              [
                106.170841,
                11.363278
              ],
              [
                106.171436,
                11.363455
              ],
              [
                106.171834,
                11.363462
              ],
              [
                106.17204,
                11.363456
              ],
              [
                106.17255,
                11.363442
              ],
              [
                106.173194,
                11.363424
              ],
              [
                106.17532,
                11.363425
              ],
              [
                106.175478,
                11.363425
              ],
              [
                106.175981,
                11.363424
              ],
              [
                106.176353,
                11.363425
              ],
              [
                106.17719,
                11.363475
              ],
              [
                106.178071,
                11.363659
              ],
              [
                106.178168,
                11.363679
              ],
              [
                106.178143,
                11.363571
              ],
              [
                106.178118,
                11.36349
              ],
              [
                106.178007,
                11.363272
              ],
              [
                106.17794,
                11.363108
              ],
              [
                106.177874,
                11.363011
              ],
              [
                106.177873,
                11.36301
              ],
              [
                106.177863,
                11.362995
              ],
              [
                106.177815,
                11.362928
              ],
              [
                106.17779,
                11.362881
              ],
              [
                106.177752,
                11.362809
              ],
              [
                106.177739,
                11.36271
              ],
              [
                106.177743,
                11.362538
              ],
              [
                106.177742,
                11.362443
              ],
              [
                106.177833,
                11.362332
              ],
              [
                106.178014,
                11.362164
              ],
              [
                106.178059,
                11.361985
              ],
              [
                106.178083,
                11.361887
              ],
              [
                106.178174,
                11.361775
              ],
              [
                106.178239,
                11.361701
              ],
              [
                106.178282,
                11.361641
              ],
              [
                106.178312,
                11.361592
              ],
              [
                106.178334,
                11.361546
              ],
              [
                106.178342,
                11.361488
              ],
              [
                106.178358,
                11.361277
              ],
              [
                106.178363,
                11.361214
              ],
              [
                106.178458,
                11.360846
              ],
              [
                106.178491,
                11.360711
              ],
              [
                106.178519,
                11.360613
              ],
              [
                106.178556,
                11.360547
              ],
              [
                106.178614,
                11.36048
              ],
              [
                106.178714,
                11.360406
              ],
              [
                106.178778,
                11.360364
              ],
              [
                106.178792,
                11.360351
              ],
              [
                106.178808,
                11.360322
              ],
              [
                106.178825,
                11.360271
              ],
              [
                106.178853,
                11.36012
              ],
              [
                106.178866,
                11.360067
              ],
              [
                106.178919,
                11.359691
              ],
              [
                106.178988,
                11.359561
              ],
              [
                106.179033,
                11.359336
              ],
              [
                106.179036,
                11.359322
              ],
              [
                106.179136,
                11.359086
              ],
              [
                106.179172,
                11.358947
              ],
              [
                106.179209,
                11.358809
              ],
              [
                106.179148,
                11.358645
              ],
              [
                106.179156,
                11.358406
              ],
              [
                106.179222,
                11.357981
              ],
              [
                106.179233,
                11.357817
              ],
              [
                106.179273,
                11.357023
              ],
              [
                106.179278,
                11.356991
              ],
              [
                106.179435,
                11.356738
              ],
              [
                106.17945,
                11.356714
              ],
              [
                106.179473,
                11.356677
              ],
              [
                106.179431,
                11.356234
              ],
              [
                106.179414,
                11.356045
              ],
              [
                106.17937,
                11.355686
              ],
              [
                106.179349,
                11.355694
              ],
              [
                106.179171,
                11.355686
              ],
              [
                106.179158,
                11.355551
              ],
              [
                106.179148,
                11.355546
              ],
              [
                106.179159,
                11.355513
              ],
              [
                106.179151,
                11.355369
              ],
              [
                106.179126,
                11.355349
              ],
              [
                106.178964,
                11.355352
              ],
              [
                106.178952,
                11.355346
              ],
              [
                106.178908,
                11.355102
              ],
              [
                106.178913,
                11.355088
              ],
              [
                106.178917,
                11.355087
              ],
              [
                106.178916,
                11.35508
              ],
              [
                106.178913,
                11.354873
              ],
              [
                106.178927,
                11.354676
              ],
              [
                106.178833,
                11.354662
              ],
              [
                106.178766,
                11.354655
              ],
              [
                106.178497,
                11.354653
              ],
              [
                106.177943,
                11.354592
              ],
              [
                106.177772,
                11.354573
              ],
              [
                106.177649,
                11.354552
              ],
              [
                106.177591,
                11.354548
              ],
              [
                106.177466,
                11.354545
              ],
              [
                106.177401,
                11.35473
              ],
              [
                106.177134,
                11.354722
              ],
              [
                106.176961,
                11.354764
              ],
              [
                106.176957,
                11.35472
              ],
              [
                106.176926,
                11.354611
              ],
              [
                106.17683,
                11.354381
              ],
              [
                106.176757,
                11.354174
              ],
              [
                106.176671,
                11.354041
              ],
              [
                106.176559,
                11.354062
              ],
              [
                106.176551,
                11.354063
              ],
              [
                106.17655,
                11.354059
              ],
              [
                106.17654,
                11.353967
              ],
              [
                106.176534,
                11.353908
              ],
              [
                106.176499,
                11.353661
              ],
              [
                106.176465,
                11.353546
              ],
              [
                106.176456,
                11.353544
              ],
              [
                106.176393,
                11.353532
              ],
              [
                106.176391,
                11.353527
              ],
              [
                106.176369,
                11.353473
              ],
              [
                106.176369,
                11.353471
              ],
              [
                106.176366,
                11.353445
              ],
              [
                106.176355,
                11.353337
              ],
              [
                106.17635,
                11.353309
              ],
              [
                106.176334,
                11.353229
              ],
              [
                106.176351,
                11.35314
              ],
              [
                106.176358,
                11.353139
              ],
              [
                106.176363,
                11.353083
              ],
              [
                106.17637,
                11.353022
              ],
              [
                106.176374,
                11.352998
              ],
              [
                106.17638,
                11.35298
              ],
              [
                106.176354,
                11.352811
              ],
              [
                106.176354,
                11.35281
              ],
              [
                106.176365,
                11.352806
              ],
              [
                106.176362,
                11.352785
              ],
              [
                106.176323,
                11.35262
              ],
              [
                106.176317,
                11.352595
              ],
              [
                106.176317,
                11.352594
              ],
              [
                106.176302,
                11.352567
              ],
              [
                106.176255,
                11.35249
              ],
              [
                106.176378,
                11.352395
              ],
              [
                106.176403,
                11.352379
              ],
              [
                106.176563,
                11.35228
              ],
              [
                106.17657,
                11.352277
              ],
              [
                106.176691,
                11.352237
              ],
              [
                106.176956,
                11.352144
              ],
              [
                106.177003,
                11.352126
              ],
              [
                106.177065,
                11.352103
              ],
              [
                106.177138,
                11.352082
              ],
              [
                106.177474,
                11.351984
              ],
              [
                106.177573,
                11.351928
              ],
              [
                106.177812,
                11.351861
              ],
              [
                106.177976,
                11.351815
              ],
              [
                106.17817,
                11.351713
              ],
              [
                106.178649,
                11.351434
              ],
              [
                106.178999,
                11.351248
              ],
              [
                106.179022,
                11.351204
              ],
              [
                106.179468,
                11.350976
              ],
              [
                106.179366,
                11.35046
              ],
              [
                106.179242,
                11.349828
              ],
              [
                106.179159,
                11.349408
              ],
              [
                106.179145,
                11.349333
              ],
              [
                106.179144,
                11.349332
              ],
              [
                106.179067,
                11.349271
              ],
              [
                106.178764,
                11.348853
              ],
              [
                106.178762,
                11.34885
              ],
              [
                106.178539,
                11.348573
              ],
              [
                106.178306,
                11.348283
              ],
              [
                106.178012,
                11.347901
              ],
              [
                106.177633,
                11.347352
              ],
              [
                106.177572,
                11.347253
              ],
              [
                106.177499,
                11.347126
              ],
              [
                106.177413,
                11.346972
              ],
              [
                106.17735,
                11.346857
              ],
              [
                106.177275,
                11.346724
              ],
              [
                106.177181,
                11.346556
              ],
              [
                106.177081,
                11.346381
              ],
              [
                106.177011,
                11.346259
              ],
              [
                106.176927,
                11.346119
              ],
              [
                106.176872,
                11.346022
              ],
              [
                106.176775,
                11.345848
              ],
              [
                106.176678,
                11.345677
              ],
              [
                106.176668,
                11.34566
              ],
              [
                106.176569,
                11.345485
              ],
              [
                106.176522,
                11.345416
              ],
              [
                106.176461,
                11.345322
              ],
              [
                106.176393,
                11.345252
              ],
              [
                106.176296,
                11.345184
              ],
              [
                106.176252,
                11.345153
              ],
              [
                106.176094,
                11.345029
              ],
              [
                106.175967,
                11.34493
              ],
              [
                106.176297,
                11.344584
              ],
              [
                106.176615,
                11.344252
              ],
              [
                106.176652,
                11.344209
              ],
              [
                106.177059,
                11.343748
              ],
              [
                106.177465,
                11.343287
              ],
              [
                106.177836,
                11.342877
              ],
              [
                106.17791,
                11.342763
              ],
              [
                106.177917,
                11.342753
              ],
              [
                106.177947,
                11.342736
              ],
              [
                106.178106,
                11.342759
              ],
              [
                106.178288,
                11.34278
              ],
              [
                106.178405,
                11.342794
              ],
              [
                106.178428,
                11.34279
              ],
              [
                106.178467,
                11.342287
              ],
              [
                106.178457,
                11.342195
              ],
              [
                106.178383,
                11.341742
              ],
              [
                106.178361,
                11.341592
              ],
              [
                106.178306,
                11.341279
              ],
              [
                106.178265,
                11.34111
              ],
              [
                106.178265,
                11.341109
              ],
              [
                106.178242,
                11.341
              ],
              [
                106.178221,
                11.340972
              ],
              [
                106.178185,
                11.340789
              ],
              [
                106.178176,
                11.340718
              ],
              [
                106.178132,
                11.340429
              ],
              [
                106.1781,
                11.340189
              ],
              [
                106.178101,
                11.340141
              ],
              [
                106.178095,
                11.340005
              ],
              [
                106.17809,
                11.339904
              ],
              [
                106.178079,
                11.339667
              ],
              [
                106.1782,
                11.339635
              ],
              [
                106.17794,
                11.338777
              ],
              [
                106.177747,
                11.33877
              ],
              [
                106.17775,
                11.338722
              ],
              [
                106.177753,
                11.338688
              ],
              [
                106.17776,
                11.338607
              ],
              [
                106.177768,
                11.338528
              ],
              [
                106.17778,
                11.338419
              ],
              [
                106.177791,
                11.338327
              ],
              [
                106.177803,
                11.338228
              ],
              [
                106.177806,
                11.338205
              ],
              [
                106.177817,
                11.338125
              ],
              [
                106.177849,
                11.337881
              ],
              [
                106.177878,
                11.337689
              ],
              [
                106.177888,
                11.337629
              ],
              [
                106.177905,
                11.337562
              ],
              [
                106.177907,
                11.337531
              ],
              [
                106.177914,
                11.337413
              ],
              [
                106.177919,
                11.337295
              ],
              [
                106.177932,
                11.33704
              ],
              [
                106.177942,
                11.336789
              ],
              [
                106.177945,
                11.336721
              ],
              [
                106.177963,
                11.336523
              ],
              [
                106.177991,
                11.3364
              ],
              [
                106.178033,
                11.336218
              ],
              [
                106.178057,
                11.336117
              ],
              [
                106.178081,
                11.336015
              ],
              [
                106.1781,
                11.335944
              ],
              [
                106.178119,
                11.335873
              ],
              [
                106.178135,
                11.335813
              ],
              [
                106.178152,
                11.335754
              ],
              [
                106.178164,
                11.335681
              ],
              [
                106.178176,
                11.335683
              ],
              [
                106.178273,
                11.335686
              ],
              [
                106.178362,
                11.335689
              ],
              [
                106.178706,
                11.335703
              ],
              [
                106.179019,
                11.335713
              ],
              [
                106.179152,
                11.335715
              ],
              [
                106.179227,
                11.335717
              ],
              [
                106.179298,
                11.335711
              ],
              [
                106.179585,
                11.335707
              ],
              [
                106.179827,
                11.335688
              ],
              [
                106.179878,
                11.335695
              ],
              [
                106.180047,
                11.335683
              ],
              [
                106.180085,
                11.335796
              ],
              [
                106.180232,
                11.335728
              ],
              [
                106.181318,
                11.335327
              ],
              [
                106.181874,
                11.335111
              ],
              [
                106.181885,
                11.335098
              ],
              [
                106.182071,
                11.335017
              ],
              [
                106.182128,
                11.334992
              ],
              [
                106.181982,
                11.334597
              ],
              [
                106.181947,
                11.334496
              ],
              [
                106.181939,
                11.334471
              ],
              [
                106.18185,
                11.334242
              ],
              [
                106.181817,
                11.334141
              ],
              [
                106.18177,
                11.333998
              ],
              [
                106.181768,
                11.333976
              ],
              [
                106.181728,
                11.333881
              ],
              [
                106.181715,
                11.33385
              ],
              [
                106.181715,
                11.333835
              ],
              [
                106.181657,
                11.333667
              ],
              [
                106.181779,
                11.333576
              ],
              [
                106.182376,
                11.33313
              ],
              [
                106.182399,
                11.333113
              ],
              [
                106.183126,
                11.332569
              ],
              [
                106.183148,
                11.332548
              ],
              [
                106.182913,
                11.332219
              ],
              [
                106.182659,
                11.331867
              ],
              [
                106.182523,
                11.331679
              ],
              [
                106.182347,
                11.331435
              ],
              [
                106.182124,
                11.331124
              ],
              [
                106.182082,
                11.331066
              ],
              [
                106.182104,
                11.33105
              ],
              [
                106.182133,
                11.331026
              ],
              [
                106.183617,
                11.329939
              ],
              [
                106.183711,
                11.32987
              ],
              [
                106.184401,
                11.329365
              ],
              [
                106.184621,
                11.32922
              ],
              [
                106.18509,
                11.328911
              ],
              [
                106.184986,
                11.328647
              ],
              [
                106.184792,
                11.328156
              ],
              [
                106.184911,
                11.328109
              ],
              [
                106.185026,
                11.328063
              ],
              [
                106.185153,
                11.328012
              ],
              [
                106.185838,
                11.327739
              ],
              [
                106.185909,
                11.327711
              ],
              [
                106.18598,
                11.327682
              ],
              [
                106.186022,
                11.327665
              ],
              [
                106.186107,
                11.32763
              ],
              [
                106.186698,
                11.327386
              ],
              [
                106.186698,
                11.327389
              ],
              [
                106.186831,
                11.327336
              ],
              [
                106.187146,
                11.327212
              ],
              [
                106.18787,
                11.326927
              ],
              [
                106.18786,
                11.326907
              ],
              [
                106.187861,
                11.326907
              ],
              [
                106.187794,
                11.326758
              ],
              [
                106.1877,
                11.326547
              ],
              [
                106.188058,
                11.326376
              ],
              [
                106.18809,
                11.326363
              ],
              [
                106.188051,
                11.326274
              ],
              [
                106.188077,
                11.326266
              ],
              [
                106.18833,
                11.326182
              ],
              [
                106.188503,
                11.326123
              ],
              [
                106.188519,
                11.326117
              ],
              [
                106.188486,
                11.326037
              ],
              [
                106.188472,
                11.326005
              ],
              [
                106.188392,
                11.325831
              ],
              [
                106.188359,
                11.325754
              ],
              [
                106.188345,
                11.325702
              ],
              [
                106.188351,
                11.325647
              ],
              [
                106.188364,
                11.325614
              ],
              [
                106.188523,
                11.325401
              ],
              [
                106.188559,
                11.325353
              ],
              [
                106.188571,
                11.325334
              ],
              [
                106.188742,
                11.325025
              ],
              [
                106.188772,
                11.324973
              ],
              [
                106.188821,
                11.324927
              ],
              [
                106.18902,
                11.324792
              ],
              [
                106.189097,
                11.324729
              ],
              [
                106.189125,
                11.324776
              ],
              [
                106.189264,
                11.324847
              ],
              [
                106.189289,
                11.324858
              ],
              [
                106.189435,
                11.324925
              ],
              [
                106.189926,
                11.325149
              ],
              [
                106.189979,
                11.325184
              ],
              [
                106.190134,
                11.325285
              ],
              [
                106.190151,
                11.325297
              ],
              [
                106.190625,
                11.325673
              ],
              [
                106.190751,
                11.32576
              ],
              [
                106.190772,
                11.325775
              ],
              [
                106.190788,
                11.325786
              ],
              [
                106.190886,
                11.325873
              ],
              [
                106.190959,
                11.325923
              ],
              [
                106.191048,
                11.325949
              ],
              [
                106.191208,
                11.32595
              ],
              [
                106.19131,
                11.325938
              ],
              [
                106.191419,
                11.325945
              ],
              [
                106.191623,
                11.325985
              ],
              [
                106.191772,
                11.326031
              ],
              [
                106.191805,
                11.326041
              ],
              [
                106.192067,
                11.326198
              ],
              [
                106.192075,
                11.326203
              ],
              [
                106.192208,
                11.326243
              ],
              [
                106.192339,
                11.326243
              ],
              [
                106.192599,
                11.326246
              ],
              [
                106.192807,
                11.326274
              ],
              [
                106.192824,
                11.326281
              ],
              [
                106.192992,
                11.326351
              ],
              [
                106.192994,
                11.326352
              ],
              [
                106.193053,
                11.326417
              ],
              [
                106.19308,
                11.326551
              ],
              [
                106.193107,
                11.326663
              ],
              [
                106.193137,
                11.32686
              ],
              [
                106.193168,
                11.326859
              ],
              [
                106.193343,
                11.326827
              ],
              [
                106.193537,
                11.326757
              ],
              [
                106.193711,
                11.326629
              ],
              [
                106.193829,
                11.326531
              ],
              [
                106.194153,
                11.326419
              ],
              [
                106.194578,
                11.326289
              ],
              [
                106.194667,
                11.326262
              ],
              [
                106.195025,
                11.326141
              ],
              [
                106.195558,
                11.326072
              ],
              [
                106.195648,
                11.326078
              ],
              [
                106.195701,
                11.326114
              ],
              [
                106.195787,
                11.326377
              ],
              [
                106.195846,
                11.326568
              ],
              [
                106.195864,
                11.326655
              ],
              [
                106.195871,
                11.326677
              ],
              [
                106.195879,
                11.326703
              ],
              [
                106.195898,
                11.326777
              ],
              [
                106.1959,
                11.326788
              ],
              [
                106.195956,
                11.327006
              ],
              [
                106.19597,
                11.327062
              ],
              [
                106.196053,
                11.327457
              ],
              [
                106.196119,
                11.327764
              ],
              [
                106.196195,
                11.328127
              ],
              [
                106.196238,
                11.328328
              ],
              [
                106.196609,
                11.328219
              ],
              [
                106.196593,
                11.328129
              ],
              [
                106.196675,
                11.328115
              ],
              [
                106.196978,
                11.328065
              ],
              [
                106.196986,
                11.328108
              ],
              [
                106.197021,
                11.328291
              ],
              [
                106.197612,
                11.328276
              ],
              [
                106.197975,
                11.328298
              ],
              [
                106.198594,
                11.328222
              ],
              [
                106.198588,
                11.328126
              ],
              [
                106.198601,
                11.328123
              ],
              [
                106.198655,
                11.328109
              ],
              [
                106.198726,
                11.328091
              ],
              [
                106.199408,
                11.32792
              ],
              [
                106.199779,
                11.327826
              ],
              [
                106.200318,
                11.327944
              ],
              [
                106.200751,
                11.328217
              ],
              [
                106.20213,
                11.328164
              ],
              [
                106.202132,
                11.328164
              ],
              [
                106.202094,
                11.327536
              ],
              [
                106.202054,
                11.327258
              ],
              [
                106.202031,
                11.327121
              ],
              [
                106.201992,
                11.327103
              ],
              [
                106.201614,
                11.327122
              ],
              [
                106.201533,
                11.327096
              ],
              [
                106.201381,
                11.326552
              ],
              [
                106.201262,
                11.326273
              ],
              [
                106.201365,
                11.326055
              ],
              [
                106.201439,
                11.325943
              ],
              [
                106.201695,
                11.325558
              ],
              [
                106.201981,
                11.325124
              ],
              [
                106.202116,
                11.324877
              ],
              [
                106.202129,
                11.324782
              ],
              [
                106.202137,
                11.324717
              ],
              [
                106.202145,
                11.324538
              ],
              [
                106.202851,
                11.324192
              ],
              [
                106.203021,
                11.324108
              ],
              [
                106.203667,
                11.323823
              ],
              [
                106.203897,
                11.32371
              ],
              [
                106.20396,
                11.323619
              ],
              [
                106.204013,
                11.323559
              ],
              [
                106.20409,
                11.323471
              ],
              [
                106.204359,
                11.323388
              ],
              [
                106.204523,
                11.323362
              ],
              [
                106.204795,
                11.323292
              ],
              [
                106.205057,
                11.32322
              ],
              [
                106.205184,
                11.323155
              ],
              [
                106.205411,
                11.322834
              ],
              [
                106.205578,
                11.322633
              ],
              [
                106.205694,
                11.322524
              ],
              [
                106.206132,
                11.322225
              ],
              [
                106.206744,
                11.321773
              ],
              [
                106.206992,
                11.321647
              ],
              [
                106.207054,
                11.321647
              ],
              [
                106.207101,
                11.321683
              ],
              [
                106.207277,
                11.322062
              ],
              [
                106.207387,
                11.322205
              ],
              [
                106.207412,
                11.322214
              ],
              [
                106.207482,
                11.322237
              ],
              [
                106.207612,
                11.322226
              ],
              [
                106.207798,
                11.322157
              ],
              [
                106.207993,
                11.322002
              ],
              [
                106.208167,
                11.321847
              ],
              [
                106.208276,
                11.321789
              ],
              [
                106.208668,
                11.321662
              ],
              [
                106.208991,
                11.321596
              ],
              [
                106.209039,
                11.321584
              ],
              [
                106.20934,
                11.321508
              ],
              [
                106.209674,
                11.32141
              ],
              [
                106.209772,
                11.321381
              ],
              [
                106.209807,
                11.321392
              ],
              [
                106.209813,
                11.321303
              ],
              [
                106.209821,
                11.3212
              ],
              [
                106.20984,
                11.321128
              ],
              [
                106.209908,
                11.32108
              ],
              [
                106.209935,
                11.321069
              ],
              [
                106.210214,
                11.320949
              ],
              [
                106.210231,
                11.320942
              ],
              [
                106.210348,
                11.320892
              ],
              [
                106.210395,
                11.320875
              ],
              [
                106.21074,
                11.320755
              ],
              [
                106.211393,
                11.320432
              ],
              [
                106.212034,
                11.320109
              ],
              [
                106.212765,
                11.319744
              ],
              [
                106.21279,
                11.319736
              ],
              [
                106.212963,
                11.319683
              ],
              [
                106.213441,
                11.319551
              ],
              [
                106.213565,
                11.319517
              ],
              [
                106.213784,
                11.319447
              ],
              [
                106.213946,
                11.319396
              ],
              [
                106.214607,
                11.319129
              ],
              [
                106.215061,
                11.318928
              ],
              [
                106.215185,
                11.318873
              ],
              [
                106.21557,
                11.318625
              ],
              [
                106.215717,
                11.318512
              ],
              [
                106.215874,
                11.318404
              ],
              [
                106.211332,
                11.312405
              ],
              [
                106.209604,
                11.273094
              ],
              [
                106.209562,
                11.272151
              ],
              [
                106.209557,
                11.272045
              ],
              [
                106.20955,
                11.271902
              ],
              [
                106.209518,
                11.271053
              ],
              [
                106.209485,
                11.270194
              ],
              [
                106.209454,
                11.269728
              ],
              [
                106.209419,
                11.269404
              ],
              [
                106.209382,
                11.26905
              ],
              [
                106.209299,
                11.268531
              ],
              [
                106.209094,
                11.267692
              ],
              [
                106.207229,
                11.268198
              ],
              [
                106.207094,
                11.267467
              ],
              [
                106.206873,
                11.266793
              ],
              [
                106.206827,
                11.266644
              ],
              [
                106.206629,
                11.265997
              ],
              [
                106.206401,
                11.265367
              ],
              [
                106.206313,
                11.265137
              ],
              [
                106.206102,
                11.265002
              ],
              [
                106.205745,
                11.264888
              ],
              [
                106.205548,
                11.264695
              ],
              [
                106.205343,
                11.264388
              ],
              [
                106.205109,
                11.264109
              ],
              [
                106.204996,
                11.263916
              ],
              [
                106.204138,
                11.262998
              ],
              [
                106.204006,
                11.262871
              ],
              [
                106.203917,
                11.262788
              ],
              [
                106.203856,
                11.262731
              ],
              [
                106.20381,
                11.262687
              ],
              [
                106.203597,
                11.262487
              ],
              [
                106.203593,
                11.262433
              ],
              [
                106.203591,
                11.262406
              ],
              [
                106.203587,
                11.262367
              ],
              [
                106.203578,
                11.26225
              ],
              [
                106.203576,
                11.26223
              ],
              [
                106.203551,
                11.261992
              ],
              [
                106.203527,
                11.261722
              ],
              [
                106.203523,
                11.261676
              ],
              [
                106.203513,
                11.261607
              ],
              [
                106.20351,
                11.26158
              ],
              [
                106.203508,
                11.261554
              ],
              [
                106.203453,
                11.26155
              ],
              [
                106.20347,
                11.261554
              ],
              [
                106.203088,
                11.261558
              ],
              [
                106.202822,
                11.26156
              ],
              [
                106.200506,
                11.261582
              ],
              [
                106.199384,
                11.26166
              ],
              [
                106.197771,
                11.261703
              ],
              [
                106.197749,
                11.261703
              ],
              [
                106.197662,
                11.261765
              ],
              [
                106.197672,
                11.261952
              ],
              [
                106.197701,
                11.26242
              ],
              [
                106.197712,
                11.263305
              ],
              [
                106.197723,
                11.264195
              ],
              [
                106.197734,
                11.265094
              ],
              [
                106.19774,
                11.265482
              ],
              [
                106.197749,
                11.265674
              ],
              [
                106.19856,
                11.265695
              ],
              [
                106.198589,
                11.265695
              ],
              [
                106.19872,
                11.265717
              ],
              [
                106.198735,
                11.266349
              ],
              [
                106.198753,
                11.267108
              ],
              [
                106.198755,
                11.26718
              ],
              [
                106.198755,
                11.267191
              ],
              [
                106.198767,
                11.268075
              ],
              [
                106.19879,
                11.269691
              ],
              [
                106.198738,
                11.270325
              ],
              [
                106.198765,
                11.270418
              ],
              [
                106.198792,
                11.270512
              ],
              [
                106.198878,
                11.271013
              ],
              [
                106.1989,
                11.271121
              ],
              [
                106.198929,
                11.271266
              ],
              [
                106.19902,
                11.271712
              ],
              [
                106.199033,
                11.271777
              ],
              [
                106.199073,
                11.272121
              ],
              [
                106.19924,
                11.272966
              ],
              [
                106.199318,
                11.273393
              ],
              [
                106.199414,
                11.273861
              ],
              [
                106.199612,
                11.27386
              ],
              [
                106.199969,
                11.273829
              ],
              [
                106.200152,
                11.273836
              ],
              [
                106.200274,
                11.273888
              ],
              [
                106.200388,
                11.273962
              ],
              [
                106.20048,
                11.274067
              ],
              [
                106.200541,
                11.274254
              ],
              [
                106.200565,
                11.274449
              ],
              [
                106.200589,
                11.274644
              ],
              [
                106.20061,
                11.275322
              ],
              [
                106.200628,
                11.275877
              ],
              [
                106.200644,
                11.27711
              ],
              [
                106.20065,
                11.277459
              ],
              [
                106.200597,
                11.277684
              ],
              [
                106.20055,
                11.277769
              ],
              [
                106.200522,
                11.277819
              ],
              [
                106.200408,
                11.277925
              ],
              [
                106.200135,
                11.278128
              ],
              [
                106.19987,
                11.278362
              ],
              [
                106.199792,
                11.278448
              ],
              [
                106.199534,
                11.278734
              ],
              [
                106.199344,
                11.27896
              ],
              [
                106.199265,
                11.279028
              ],
              [
                106.199185,
                11.279096
              ],
              [
                106.199003,
                11.279246
              ],
              [
                106.198821,
                11.279345
              ],
              [
                106.198632,
                11.279413
              ],
              [
                106.198525,
                11.279481
              ],
              [
                106.198438,
                11.279597
              ],
              [
                106.198415,
                11.279667
              ],
              [
                106.198333,
                11.279913
              ],
              [
                106.197864,
                11.280589
              ],
              [
                106.198067,
                11.280806
              ],
              [
                106.197987,
                11.280888
              ],
              [
                106.197927,
                11.28095
              ],
              [
                106.197807,
                11.281121
              ],
              [
                106.197709,
                11.281246
              ],
              [
                106.197835,
                11.281358
              ],
              [
                106.197923,
                11.281436
              ],
              [
                106.197295,
                11.282065
              ],
              [
                106.196286,
                11.283031
              ],
              [
                106.195258,
                11.28409
              ],
              [
                106.195185,
                11.284165
              ],
              [
                106.195341,
                11.284325
              ],
              [
                106.19532,
                11.284417
              ],
              [
                106.195294,
                11.284533
              ],
              [
                106.195217,
                11.284868
              ],
              [
                106.195179,
                11.285035
              ],
              [
                106.194905,
                11.284984
              ],
              [
                106.194655,
                11.284938
              ],
              [
                106.19465,
                11.284985
              ],
              [
                106.194527,
                11.286176
              ],
              [
                106.194521,
                11.286238
              ],
              [
                106.194445,
                11.286967
              ],
              [
                106.194282,
                11.286951
              ],
              [
                106.194501,
                11.28732
              ],
              [
                106.19453,
                11.28737
              ],
              [
                106.194592,
                11.287474
              ],
              [
                106.194549,
                11.287547
              ],
              [
                106.194524,
                11.28759
              ],
              [
                106.194471,
                11.28761
              ],
              [
                106.194409,
                11.287634
              ],
              [
                106.194347,
                11.287657
              ],
              [
                106.194346,
                11.287657
              ],
              [
                106.1943,
                11.287686
              ],
              [
                106.194276,
                11.2877
              ],
              [
                106.19423,
                11.287728
              ],
              [
                106.194208,
                11.287742
              ],
              [
                106.194053,
                11.287835
              ],
              [
                106.194015,
                11.288062
              ],
              [
                106.19387,
                11.288917
              ],
              [
                106.193557,
                11.290778
              ],
              [
                106.193539,
                11.290879
              ],
              [
                106.193527,
                11.291108
              ],
              [
                106.192893,
                11.291131
              ],
              [
                106.192539,
                11.291145
              ],
              [
                106.190813,
                11.291209
              ],
              [
                106.189638,
                11.289452
              ],
              [
                106.188702,
                11.290498
              ],
              [
                106.188683,
                11.290478
              ],
              [
                106.188248,
                11.29082
              ],
              [
                106.188138,
                11.290906
              ],
              [
                106.188063,
                11.29096
              ],
              [
                106.187773,
                11.291169
              ],
              [
                106.187343,
                11.291479
              ],
              [
                106.187292,
                11.29154
              ],
              [
                106.187217,
                11.291462
              ],
              [
                106.187036,
                11.291107
              ],
              [
                106.18695,
                11.291164
              ],
              [
                106.186851,
                11.291239
              ],
              [
                106.186295,
                11.291696
              ],
              [
                106.186251,
                11.291834
              ],
              [
                106.186223,
                11.291823
              ],
              [
                106.186,
                11.291705
              ],
              [
                106.185835,
                11.291574
              ],
              [
                106.185788,
                11.291537
              ],
              [
                106.185701,
                11.291466
              ],
              [
                106.185515,
                11.291367
              ],
              [
                106.185119,
                11.291151
              ],
              [
                106.184694,
                11.291056
              ],
              [
                106.184209,
                11.290976
              ],
              [
                106.183731,
                11.290926
              ],
              [
                106.183107,
                11.290859
              ],
              [
                106.182381,
                11.290782
              ],
              [
                106.182414,
                11.290494
              ],
              [
                106.182416,
                11.290415
              ],
              [
                106.182391,
                11.290288
              ],
              [
                106.182383,
                11.29028
              ],
              [
                106.182233,
                11.290129
              ],
              [
                106.182188,
                11.290089
              ],
              [
                106.181959,
                11.289886
              ],
              [
                106.181862,
                11.289982
              ],
              [
                106.181793,
                11.290151
              ],
              [
                106.181808,
                11.290201
              ],
              [
                106.181835,
                11.29034
              ],
              [
                106.181765,
                11.290338
              ],
              [
                106.181619,
                11.290332
              ],
              [
                106.181473,
                11.290325
              ],
              [
                106.181331,
                11.290318
              ],
              [
                106.18119,
                11.290311
              ],
              [
                106.181004,
                11.290305
              ],
              [
                106.180826,
                11.290297
              ],
              [
                106.180707,
                11.290285
              ],
              [
                106.180455,
                11.290272
              ],
              [
                106.178951,
                11.290141
              ],
              [
                106.178861,
                11.290662
              ],
              [
                106.178618,
                11.292078
              ],
              [
                106.178532,
                11.292192
              ],
              [
                106.178402,
                11.292364
              ],
              [
                106.177813,
                11.292118
              ],
              [
                106.177269,
                11.291898
              ],
              [
                106.176472,
                11.291545
              ],
              [
                106.176336,
                11.291485
              ],
              [
                106.175687,
                11.291198
              ],
              [
                106.17571,
                11.291083
              ],
              [
                106.175713,
                11.291058
              ],
              [
                106.175726,
                11.290936
              ],
              [
                106.175593,
                11.290969
              ],
              [
                106.175446,
                11.291005
              ],
              [
                106.175129,
                11.291077
              ],
              [
                106.174921,
                11.291124
              ],
              [
                106.174788,
                11.291154
              ],
              [
                106.174571,
                11.291203
              ],
              [
                106.174436,
                11.291234
              ],
              [
                106.174192,
                11.291289
              ],
              [
                106.174187,
                11.291292
              ],
              [
                106.174186,
                11.291296
              ],
              [
                106.174114,
                11.291881
              ],
              [
                106.173949,
                11.293209
              ],
              [
                106.173171,
                11.294168
              ],
              [
                106.172868,
                11.29454
              ],
              [
                106.172769,
                11.294659
              ],
              [
                106.171019,
                11.29671
              ],
              [
                106.169732,
                11.298321
              ],
              [
                106.169644,
                11.298432
              ],
              [
                106.169631,
                11.298447
              ],
              [
                106.169208,
                11.298952
              ],
              [
                106.169168,
                11.298953
              ],
              [
                106.169167,
                11.298951
              ],
              [
                106.169167,
                11.298948
              ],
              [
                106.169167,
                11.298947
              ],
              [
                106.169161,
                11.298954
              ],
              [
                106.169103,
                11.298956
              ],
              [
                106.169017,
                11.298959
              ],
              [
                106.168849,
                11.298965
              ],
              [
                106.168162,
                11.298991
              ],
              [
                106.168026,
                11.298997
              ],
              [
                106.166574,
                11.299051
              ],
              [
                106.165428,
                11.299138
              ],
              [
                106.165291,
                11.299143
              ],
              [
                106.164351,
                11.299179
              ],
              [
                106.164327,
                11.29918
              ],
              [
                106.164281,
                11.299182
              ],
              [
                106.164214,
                11.299184
              ],
              [
                106.163172,
                11.298343
              ],
              [
                106.162868,
                11.298098
              ],
              [
                106.162565,
                11.297854
              ],
              [
                106.16232,
                11.297653
              ],
              [
                106.161056,
                11.296616
              ],
              [
                106.161124,
                11.296525
              ],
              [
                106.16186,
                11.295553
              ],
              [
                106.161808,
                11.295348
              ],
              [
                106.161577,
                11.294213
              ],
              [
                106.161323,
                11.292964
              ],
              [
                106.161229,
                11.292501
              ],
              [
                106.161183,
                11.292276
              ],
              [
                106.160364,
                11.291541
              ],
              [
                106.160056,
                11.291878
              ],
              [
                106.159753,
                11.292139
              ],
              [
                106.158868,
                11.291659
              ],
              [
                106.158846,
                11.291519
              ],
              [
                106.158825,
                11.291499
              ],
              [
                106.158804,
                11.291484
              ],
              [
                106.158783,
                11.291474
              ],
              [
                106.158758,
                11.291465
              ],
              [
                106.158726,
                11.291459
              ],
              [
                106.158685,
                11.29145
              ],
              [
                106.158283,
                11.291395
              ],
              [
                106.158282,
                11.291395
              ],
              [
                106.158011,
                11.291351
              ],
              [
                106.157876,
                11.291329
              ],
              [
                106.157683,
                11.291298
              ],
              [
                106.156317,
                11.291079
              ],
              [
                106.155931,
                11.291031
              ],
              [
                106.15547,
                11.290974
              ],
              [
                106.154655,
                11.290873
              ],
              [
                106.154628,
                11.290869
              ],
              [
                106.153869,
                11.290765
              ],
              [
                106.153733,
                11.291299
              ],
              [
                106.153479,
                11.291268
              ],
              [
                106.153454,
                11.291811
              ],
              [
                106.153097,
                11.292516
              ],
              [
                106.153051,
                11.292666
              ],
              [
                106.152958,
                11.292994
              ],
              [
                106.152955,
                11.293063
              ],
              [
                106.152955,
                11.293109
              ],
              [
                106.152955,
                11.293111
              ],
              [
                106.15297,
                11.293161
              ],
              [
                106.153009,
                11.293204
              ],
              [
                106.153125,
                11.293254
              ],
              [
                106.153196,
                11.293294
              ],
              [
                106.153201,
                11.293337
              ],
              [
                106.153189,
                11.293414
              ],
              [
                106.153119,
                11.293667
              ],
              [
                106.153052,
                11.293891
              ],
              [
                106.153016,
                11.294008
              ],
              [
                106.153152,
                11.294101
              ],
              [
                106.153211,
                11.294176
              ],
              [
                106.153229,
                11.294248
              ],
              [
                106.15322,
                11.294283
              ],
              [
                106.153193,
                11.294384
              ],
              [
                106.152922,
                11.294838
              ],
              [
                106.152272,
                11.295927
              ],
              [
                106.151586,
                11.297053
              ],
              [
                106.151149,
                11.297759
              ],
              [
                106.150961,
                11.298064
              ],
              [
                106.150848,
                11.298255
              ],
              [
                106.150365,
                11.299075
              ],
              [
                106.150319,
                11.299142
              ],
              [
                106.149938,
                11.299697
              ],
              [
                106.149725,
                11.299975
              ],
              [
                106.149562,
                11.300137
              ],
              [
                106.149348,
                11.30027
              ],
              [
                106.148876,
                11.300523
              ],
              [
                106.148289,
                11.300852
              ],
              [
                106.147977,
                11.301015
              ],
              [
                106.147687,
                11.301224
              ],
              [
                106.147589,
                11.301301
              ],
              [
                106.147466,
                11.301391
              ],
              [
                106.147337,
                11.300959
              ],
              [
                106.146887,
                11.299088
              ],
              [
                106.146862,
                11.29899
              ],
              [
                106.146809,
                11.298797
              ],
              [
                106.146757,
                11.298613
              ],
              [
                106.146605,
                11.298066
              ],
              [
                106.1465,
                11.297852
              ],
              [
                106.146281,
                11.297561
              ],
              [
                106.145993,
                11.297237
              ],
              [
                106.145424,
                11.296555
              ],
              [
                106.144713,
                11.29584
              ],
              [
                106.144591,
                11.295747
              ],
              [
                106.144456,
                11.295883
              ],
              [
                106.143062,
                11.295088
              ],
              [
                106.142927,
                11.294973
              ],
              [
                106.141341,
                11.294035
              ],
              [
                106.141214,
                11.294341
              ],
              [
                106.141439,
                11.294561
              ],
              [
                106.141576,
                11.294732
              ],
              [
                106.14164,
                11.295051
              ],
              [
                106.14165,
                11.295137
              ],
              [
                106.141679,
                11.295395
              ],
              [
                106.141682,
                11.295409
              ],
              [
                106.14172,
                11.295597
              ],
              [
                106.141814,
                11.29606
              ],
              [
                106.141872,
                11.296389
              ],
              [
                106.140979,
                11.297429
              ],
              [
                106.140637,
                11.29814
              ],
              [
                106.140501,
                11.298446
              ],
              [
                106.140326,
                11.298855
              ],
              [
                106.140123,
                11.299643
              ],
              [
                106.140067,
                11.299841
              ],
              [
                106.140055,
                11.299878
              ],
              [
                106.139578,
                11.301336
              ],
              [
                106.139209,
                11.301314
              ],
              [
                106.139218,
                11.301634
              ],
              [
                106.139246,
                11.302678
              ],
              [
                106.139249,
                11.303555
              ],
              [
                106.138922,
                11.303959
              ],
              [
                106.138713,
                11.304214
              ],
              [
                106.138615,
                11.304333
              ],
              [
                106.138493,
                11.304481
              ],
              [
                106.138483,
                11.304481
              ],
              [
                106.138483,
                11.304493
              ],
              [
                106.138495,
                11.304637
              ],
              [
                106.138527,
                11.305145
              ],
              [
                106.138532,
                11.305227
              ],
              [
                106.138536,
                11.30529
              ],
              [
                106.137982,
                11.30533
              ],
              [
                106.13778,
                11.305344
              ],
              [
                106.137088,
                11.305376
              ],
              [
                106.136032,
                11.305425
              ],
              [
                106.135164,
                11.305448
              ],
              [
                106.135092,
                11.30545
              ],
              [
                106.134867,
                11.305456
              ],
              [
                106.134722,
                11.30545
              ],
              [
                106.134172,
                11.305431
              ],
              [
                106.134062,
                11.305428
              ],
              [
                106.132735,
                11.305342
              ],
              [
                106.132579,
                11.306661
              ],
              [
                106.132455,
                11.307745
              ],
              [
                106.132438,
                11.307886
              ],
              [
                106.132371,
                11.308472
              ],
              [
                106.132331,
                11.308824
              ],
              [
                106.132098,
                11.31085
              ],
              [
                106.132079,
                11.311011
              ],
              [
                106.132069,
                11.311095
              ],
              [
                106.132018,
                11.31151
              ],
              [
                106.131946,
                11.312105
              ],
              [
                106.131941,
                11.312142
              ],
              [
                106.131934,
                11.312205
              ],
              [
                106.13181,
                11.313225
              ],
              [
                106.13177,
                11.313548
              ],
              [
                106.131679,
                11.314298
              ],
              [
                106.13167,
                11.314373
              ],
              [
                106.13167,
                11.314376
              ],
              [
                106.131568,
                11.315212
              ],
              [
                106.131556,
                11.315311
              ],
              [
                106.131556,
                11.315316
              ],
              [
                106.131457,
                11.316127
              ],
              [
                106.131448,
                11.316203
              ],
              [
                106.131348,
                11.31702
              ],
              [
                106.131339,
                11.317095
              ],
              [
                106.131307,
                11.31736
              ],
              [
                106.131277,
                11.317612
              ],
              [
                106.13119,
                11.318278
              ],
              [
                106.131098,
                11.318985
              ],
              [
                106.131096,
                11.319004
              ],
              [
                106.130832,
                11.319019
              ],
              [
                106.130493,
                11.319056
              ],
              [
                106.130384,
                11.31911
              ],
              [
                106.130282,
                11.319161
              ],
              [
                106.130251,
                11.319177
              ],
              [
                106.130148,
                11.319297
              ],
              [
                106.130088,
                11.319423
              ],
              [
                106.130004,
                11.319519
              ],
              [
                106.129943,
                11.319549
              ],
              [
                106.129725,
                11.319538
              ],
              [
                106.129561,
                11.319521
              ],
              [
                106.129549,
                11.31952
              ],
              [
                106.129465,
                11.319533
              ],
              [
                106.12935,
                11.319593
              ],
              [
                106.129283,
                11.319665
              ],
              [
                106.129244,
                11.319713
              ],
              [
                106.129175,
                11.319863
              ],
              [
                106.129066,
                11.320013
              ],
              [
                106.128982,
                11.320079
              ],
              [
                106.128903,
                11.320079
              ],
              [
                106.12886,
                11.320031
              ],
              [
                106.128775,
                11.319942
              ],
              [
                106.128684,
                11.319894
              ],
              [
                106.128551,
                11.319883
              ],
              [
                106.128351,
                11.319926
              ],
              [
                106.128109,
                11.320046
              ],
              [
                106.127891,
                11.320179
              ],
              [
                106.12768,
                11.320323
              ],
              [
                106.127444,
                11.320443
              ],
              [
                106.127275,
                11.320594
              ],
              [
                106.127124,
                11.320672
              ],
              [
                106.127051,
                11.320702
              ],
              [
                106.127009,
                11.320704
              ],
              [
                106.126787,
                11.320714
              ],
              [
                106.126786,
                11.320714
              ],
              [
                106.1267,
                11.320787
              ]
            ]
          ]
        ]
      },
      "properties": {
        "code": "25567",
        "name": "Ninh Thạnh",
        "nameEn": "Ninh Thanh",
        "fullName": "Phường Ninh Thạnh",
        "fullNameEn": "Ninh Thanh Ward",
        "codeName": "ninh_thanh",
        "postalCode": "80111",
        "postalCodePrefix": "",
        "gisServerId": "diaphanhanhchinhcapxa_2025.2746",
        "areaKm2": 52.66
      }
    }
  ]
}