{
  "type": "FeatureCollection",
  "bbox": [
    106.125183,
    11.052321,
    106.269797,
    11.167653
  ],
  "features": [
    {
      "type": "Feature",
      "id": "25681",
      "bbox": [
        106.125183,
        11.052321,
        106.269797,
        11.167653
      ],
      "geometry": {
        "type": "MultiPolygon",
        "coordinates": [
          [
            [
              [
                106.185456,
                11.159468
              ],
              [
                106.185424,
                11.158207
              ],
              [
                106.185474,
                11.157314
              ],
              [
                106.186558,
                11.155654
              ],
              [
                106.188201,
                11.154019
              ],
              [
                106.189285,
                11.153107
              ],
              [
                106.190063,
                11.152567
              ],
              [
                106.190998,
                11.151891
              ],
              [
                106.191861,
                11.151362
              ],
              [
                106.192765,
                11.150951
              ],
              [
                106.193643,
                11.15071
              ],
              [
                106.194495,
                11.150681
              ],
              [
                106.195687,
                11.150813
              ],
              [
                106.196258,
                11.150968
              ],
              [
                106.196686,
                11.151112
              ],
              [
                106.197114,
                11.151257
              ],
              [
                106.197696,
                11.151468
              ],
              [
                106.198011,
                11.151604
              ],
              [
                106.198815,
                11.151886
              ],
              [
                106.200188,
                11.152197
              ],
              [
                106.202197,
                11.152434
              ],
              [
                106.203661,
                11.152543
              ],
              [
                106.204809,
                11.152637
              ],
              [
                106.205666,
                11.152786
              ],
              [
                106.206585,
                11.152958
              ],
              [
                106.207143,
                11.153129
              ],
              [
                106.207677,
                11.153311
              ],
              [
                106.209135,
                11.153703
              ],
              [
                106.210569,
                11.154121
              ],
              [
                106.211183,
                11.154322
              ],
              [
                106.212584,
                11.15479
              ],
              [
                106.213971,
                11.155297
              ],
              [
                106.215398,
                11.155896
              ],
              [
                106.216121,
                11.156179
              ],
              [
                106.216629,
                11.156372
              ],
              [
                106.217068,
                11.156555
              ],
              [
                106.218057,
                11.156831
              ],
              [
                106.218798,
                11.156921
              ],
              [
                106.219598,
                11.156984
              ],
              [
                106.22037,
                11.157007
              ],
              [
                106.223022,
                11.156903
              ],
              [
                106.224909,
                11.156436
              ],
              [
                106.22693,
                11.155601
              ],
              [
                106.227929,
                11.154913
              ],
              [
                106.22894,
                11.15408
              ],
              [
                106.229529,
                11.15341
              ],
              [
                106.229613,
                11.153315
              ],
              [
                106.229693,
                11.153172
              ],
              [
                106.230009,
                11.152609
              ],
              [
                106.230266,
                11.151473
              ],
              [
                106.230288,
                11.151236
              ],
              [
                106.230285,
                11.150596
              ],
              [
                106.230247,
                11.150046
              ],
              [
                106.230204,
                11.148376
              ],
              [
                106.230274,
                11.147707
              ],
              [
                106.230968,
                11.145893
              ],
              [
                106.231555,
                11.144345
              ],
              [
                106.232635,
                11.141481
              ],
              [
                106.233503,
                11.139389
              ],
              [
                106.234199,
                11.137947
              ],
              [
                106.235347,
                11.13603
              ],
              [
                106.236632,
                11.133917
              ],
              [
                106.237199,
                11.132918
              ],
              [
                106.237429,
                11.132504
              ],
              [
                106.23764,
                11.13192
              ],
              [
                106.237763,
                11.131517
              ],
              [
                106.237785,
                11.130819
              ],
              [
                106.237541,
                11.129755
              ],
              [
                106.237232,
                11.128319
              ],
              [
                106.236756,
                11.126734
              ],
              [
                106.236436,
                11.126103
              ],
              [
                106.236306,
                11.125909
              ],
              [
                106.235925,
                11.125475
              ],
              [
                106.235563,
                11.125029
              ],
              [
                106.235281,
                11.124734
              ],
              [
                106.234946,
                11.124437
              ],
              [
                106.234581,
                11.124178
              ],
              [
                106.234285,
                11.123986
              ],
              [
                106.234285,
                11.123986
              ],
              [
                106.234281,
                11.123984
              ],
              [
                106.234119,
                11.123837
              ],
              [
                106.233794,
                11.123614
              ],
              [
                106.23348,
                11.123537
              ],
              [
                106.233167,
                11.123525
              ],
              [
                106.232841,
                11.123539
              ],
              [
                106.232385,
                11.123604
              ],
              [
                106.231852,
                11.123824
              ],
              [
                106.231513,
                11.123984
              ],
              [
                106.231508,
                11.123986
              ],
              [
                106.23149,
                11.123995
              ],
              [
                106.230929,
                11.12426
              ],
              [
                106.229084,
                11.125178
              ],
              [
                106.228809,
                11.12527
              ],
              [
                106.22782,
                11.125418
              ],
              [
                106.226476,
                11.125525
              ],
              [
                106.226178,
                11.125514
              ],
              [
                106.225397,
                11.125383
              ],
              [
                106.224625,
                11.125153
              ],
              [
                106.224289,
                11.12502
              ],
              [
                106.223212,
                11.124268
              ],
              [
                106.22314,
                11.124164
              ],
              [
                106.223019,
                11.123987
              ],
              [
                106.222482,
                11.122823
              ],
              [
                106.222302,
                11.122043
              ],
              [
                106.222272,
                11.121038
              ],
              [
                106.222557,
                11.119513
              ],
              [
                106.223277,
                11.117359
              ],
              [
                106.223792,
                11.115142
              ],
              [
                106.223941,
                11.112519
              ],
              [
                106.224095,
                11.111217
              ],
              [
                106.224522,
                11.108307
              ],
              [
                106.224691,
                11.106878
              ],
              [
                106.224995,
                11.105301
              ],
              [
                106.225883,
                11.103062
              ],
              [
                106.226519,
                11.102015
              ],
              [
                106.227313,
                11.10111
              ],
              [
                106.22818,
                11.10041
              ],
              [
                106.229559,
                11.099638
              ],
              [
                106.22982,
                11.099516
              ],
              [
                106.231501,
                11.098732
              ],
              [
                106.23554,
                11.096695
              ],
              [
                106.237235,
                11.095709
              ],
              [
                106.239938,
                11.0941
              ],
              [
                106.24139,
                11.093004
              ],
              [
                106.242181,
                11.092343
              ],
              [
                106.242509,
                11.091949
              ],
              [
                106.242817,
                11.09146
              ],
              [
                106.243163,
                11.090741
              ],
              [
                106.243518,
                11.090108
              ],
              [
                106.244058,
                11.089398
              ],
              [
                106.244512,
                11.089013
              ],
              [
                106.245005,
                11.088724
              ],
              [
                106.245527,
                11.088588
              ],
              [
                106.245973,
                11.088595
              ],
              [
                106.246487,
                11.088756
              ],
              [
                106.247001,
                11.088964
              ],
              [
                106.247672,
                11.089536
              ],
              [
                106.24837,
                11.090323
              ],
              [
                106.249279,
                11.091539
              ],
              [
                106.250106,
                11.092349
              ],
              [
                106.25085,
                11.093009
              ],
              [
                106.251248,
                11.093313
              ],
              [
                106.251557,
                11.093516
              ],
              [
                106.251708,
                11.093592
              ],
              [
                106.251784,
                11.093616
              ],
              [
                106.251789,
                11.093617
              ],
              [
                106.252925,
                11.093856
              ],
              [
                106.253227,
                11.093867
              ],
              [
                106.253881,
                11.093816
              ],
              [
                106.254147,
                11.093764
              ],
              [
                106.254498,
                11.093694
              ],
              [
                106.255586,
                11.093271
              ],
              [
                106.25673,
                11.092533
              ],
              [
                106.257072,
                11.092292
              ],
              [
                106.257712,
                11.091763
              ],
              [
                106.258387,
                11.091066
              ],
              [
                106.25882,
                11.090382
              ],
              [
                106.259312,
                11.089316
              ],
              [
                106.259455,
                11.088789
              ],
              [
                106.259609,
                11.088118
              ],
              [
                106.259764,
                11.087448
              ],
              [
                106.260532,
                11.085842
              ],
              [
                106.261588,
                11.083577
              ],
              [
                106.26233,
                11.081372
              ],
              [
                106.263051,
                11.080042
              ],
              [
                106.264322,
                11.077792
              ],
              [
                106.264996,
                11.076708
              ],
              [
                106.266402,
                11.074769
              ],
              [
                106.26693,
                11.073638
              ],
              [
                106.267702,
                11.07148
              ],
              [
                106.267753,
                11.071338
              ],
              [
                106.269267,
                11.067552
              ],
              [
                106.269754,
                11.065703
              ],
              [
                106.26979,
                11.06508
              ],
              [
                106.269797,
                11.064535
              ],
              [
                106.269747,
                11.064105
              ],
              [
                106.269589,
                11.063464
              ],
              [
                106.26911,
                11.062423
              ],
              [
                106.268807,
                11.061917
              ],
              [
                106.268505,
                11.061451
              ],
              [
                106.268212,
                11.061043
              ],
              [
                106.267371,
                11.060187
              ],
              [
                106.265024,
                11.058226
              ],
              [
                106.265019,
                11.058222
              ],
              [
                106.263896,
                11.058846
              ],
              [
                106.263337,
                11.059127
              ],
              [
                106.263269,
                11.059171
              ],
              [
                106.262413,
                11.059626
              ],
              [
                106.261398,
                11.060176
              ],
              [
                106.260761,
                11.060545
              ],
              [
                106.259999,
                11.060935
              ],
              [
                106.259572,
                11.061124
              ],
              [
                106.259194,
                11.061219
              ],
              [
                106.258685,
                11.061199
              ],
              [
                106.257973,
                11.061059
              ],
              [
                106.257551,
                11.060888
              ],
              [
                106.257231,
                11.060818
              ],
              [
                106.256635,
                11.060827
              ],
              [
                106.256395,
                11.060785
              ],
              [
                106.256031,
                11.060679
              ],
              [
                106.255522,
                11.060516
              ],
              [
                106.255239,
                11.06051
              ],
              [
                106.254926,
                11.060562
              ],
              [
                106.254048,
                11.060838
              ],
              [
                106.253497,
                11.061027
              ],
              [
                106.253134,
                11.061086
              ],
              [
                106.252602,
                11.061164
              ],
              [
                106.252365,
                11.061169
              ],
              [
                106.251784,
                11.061201
              ],
              [
                106.251188,
                11.06114
              ],
              [
                106.250672,
                11.061082
              ],
              [
                106.250414,
                11.061072
              ],
              [
                106.249865,
                11.061081
              ],
              [
                106.249277,
                11.061116
              ],
              [
                106.248812,
                11.061121
              ],
              [
                106.248499,
                11.061037
              ],
              [
                106.247975,
                11.060841
              ],
              [
                106.247626,
                11.060728
              ],
              [
                106.247346,
                11.060704
              ],
              [
                106.247085,
                11.060741
              ],
              [
                106.24658,
                11.060941
              ],
              [
                106.246323,
                11.06106
              ],
              [
                106.246138,
                11.061075
              ],
              [
                106.245916,
                11.060968
              ],
              [
                106.245547,
                11.060579
              ],
              [
                106.245055,
                11.060103
              ],
              [
                106.244635,
                11.059725
              ],
              [
                106.243994,
                11.059204
              ],
              [
                106.242738,
                11.058552
              ],
              [
                106.241642,
                11.058127
              ],
              [
                106.241074,
                11.057727
              ],
              [
                106.240285,
                11.057154
              ],
              [
                106.239769,
                11.056735
              ],
              [
                106.23948,
                11.056492
              ],
              [
                106.239388,
                11.056373
              ],
              [
                106.239285,
                11.056113
              ],
              [
                106.239218,
                11.055828
              ],
              [
                106.23921,
                11.05563
              ],
              [
                106.23927,
                11.055376
              ],
              [
                106.239315,
                11.055254
              ],
              [
                106.239324,
                11.05516
              ],
              [
                106.239271,
                11.055067
              ],
              [
                106.239186,
                11.05501
              ],
              [
                106.239074,
                11.055006
              ],
              [
                106.238893,
                11.055071
              ],
              [
                106.238748,
                11.055125
              ],
              [
                106.238627,
                11.055125
              ],
              [
                106.238501,
                11.055078
              ],
              [
                106.238313,
                11.054892
              ],
              [
                106.238194,
                11.054749
              ],
              [
                106.238113,
                11.054572
              ],
              [
                106.238076,
                11.054431
              ],
              [
                106.2381,
                11.054247
              ],
              [
                106.238128,
                11.054086
              ],
              [
                106.238121,
                11.054003
              ],
              [
                106.23806,
                11.053931
              ],
              [
                106.237756,
                11.053736
              ],
              [
                106.237669,
                11.05366
              ],
              [
                106.237613,
                11.053584
              ],
              [
                106.237586,
                11.053488
              ],
              [
                106.237602,
                11.053359
              ],
              [
                106.237643,
                11.053244
              ],
              [
                106.23772,
                11.053136
              ],
              [
                106.237797,
                11.053038
              ],
              [
                106.237821,
                11.052947
              ],
              [
                106.23782,
                11.052817
              ],
              [
                106.237764,
                11.0527
              ],
              [
                106.237594,
                11.052524
              ],
              [
                106.237463,
                11.052443
              ],
              [
                106.237319,
                11.052379
              ],
              [
                106.23715,
                11.052342
              ],
              [
                106.236917,
                11.052321
              ],
              [
                106.236622,
                11.052339
              ],
              [
                106.236385,
                11.052364
              ],
              [
                106.236281,
                11.052412
              ],
              [
                106.236177,
                11.05252
              ],
              [
                106.236131,
                11.052652
              ],
              [
                106.236084,
                11.052812
              ],
              [
                106.236053,
                11.052892
              ],
              [
                106.235999,
                11.052935
              ],
              [
                106.235915,
                11.052938
              ],
              [
                106.235614,
                11.052886
              ],
              [
                106.235471,
                11.05286
              ],
              [
                106.234861,
                11.052884
              ],
              [
                106.234503,
                11.052905
              ],
              [
                106.234377,
                11.052934
              ],
              [
                106.233975,
                11.053039
              ],
              [
                106.233344,
                11.053259
              ],
              [
                106.233066,
                11.053322
              ],
              [
                106.232574,
                11.053406
              ],
              [
                106.232291,
                11.053491
              ],
              [
                106.232045,
                11.053518
              ],
              [
                106.231943,
                11.053538
              ],
              [
                106.231762,
                11.053598
              ],
              [
                106.231537,
                11.053683
              ],
              [
                106.231392,
                11.053767
              ],
              [
                106.231206,
                11.053911
              ],
              [
                106.231066,
                11.054
              ],
              [
                106.23095,
                11.054034
              ],
              [
                106.230765,
                11.054011
              ],
              [
                106.230608,
                11.053964
              ],
              [
                106.230448,
                11.053876
              ],
              [
                106.230268,
                11.053839
              ],
              [
                106.230002,
                11.053926
              ],
              [
                106.229758,
                11.053999
              ],
              [
                106.229598,
                11.05399
              ],
              [
                106.229474,
                11.05389
              ],
              [
                106.229366,
                11.053622
              ],
              [
                106.22932,
                11.053536
              ],
              [
                106.229269,
                11.053479
              ],
              [
                106.229169,
                11.053446
              ],
              [
                106.229077,
                11.053446
              ],
              [
                106.228964,
                11.053485
              ],
              [
                106.228773,
                11.053656
              ],
              [
                106.228421,
                11.053915
              ],
              [
                106.22824,
                11.054041
              ],
              [
                106.227926,
                11.054353
              ],
              [
                106.227925,
                11.054354
              ],
              [
                106.227682,
                11.054596
              ],
              [
                106.227494,
                11.054702
              ],
              [
                106.227257,
                11.054781
              ],
              [
                106.226787,
                11.054874
              ],
              [
                106.226315,
                11.054893
              ],
              [
                106.226076,
                11.05492
              ],
              [
                106.225918,
                11.05494
              ],
              [
                106.225517,
                11.055042
              ],
              [
                106.225183,
                11.055139
              ],
              [
                106.224861,
                11.055246
              ],
              [
                106.224547,
                11.055364
              ],
              [
                106.224066,
                11.05557
              ],
              [
                106.223606,
                11.055744
              ],
              [
                106.223333,
                11.05584
              ],
              [
                106.223173,
                11.05587
              ],
              [
                106.222987,
                11.055849
              ],
              [
                106.222773,
                11.055754
              ],
              [
                106.222652,
                11.055716
              ],
              [
                106.222514,
                11.055688
              ],
              [
                106.222376,
                11.055691
              ],
              [
                106.222206,
                11.05574
              ],
              [
                106.222105,
                11.055776
              ],
              [
                106.221882,
                11.055887
              ],
              [
                106.221712,
                11.055966
              ],
              [
                106.221391,
                11.056083
              ],
              [
                106.220945,
                11.056221
              ],
              [
                106.220782,
                11.056272
              ],
              [
                106.219788,
                11.056592
              ],
              [
                106.218735,
                11.056804
              ],
              [
                106.217726,
                11.057002
              ],
              [
                106.216593,
                11.057171
              ],
              [
                106.215664,
                11.057333
              ],
              [
                106.214858,
                11.057566
              ],
              [
                106.214147,
                11.05772
              ],
              [
                106.213653,
                11.057757
              ],
              [
                106.212396,
                11.057813
              ],
              [
                106.211844,
                11.057844
              ],
              [
                106.211263,
                11.057968
              ],
              [
                106.209797,
                11.058397
              ],
              [
                106.208832,
                11.05866
              ],
              [
                106.207431,
                11.058981
              ],
              [
                106.206226,
                11.059323
              ],
              [
                106.205587,
                11.059455
              ],
              [
                106.204931,
                11.059585
              ],
              [
                106.204484,
                11.059675
              ],
              [
                106.203199,
                11.059902
              ],
              [
                106.201863,
                11.060116
              ],
              [
                106.201267,
                11.060147
              ],
              [
                106.200918,
                11.060033
              ],
              [
                106.200711,
                11.05998
              ],
              [
                106.200708,
                11.059979
              ],
              [
                106.200577,
                11.059898
              ],
              [
                106.200323,
                11.05911
              ],
              [
                106.200248,
                11.059121
              ],
              [
                106.200203,
                11.059126
              ],
              [
                106.199806,
                11.059165
              ],
              [
                106.199328,
                11.059227
              ],
              [
                106.198638,
                11.05917
              ],
              [
                106.198159,
                11.059142
              ],
              [
                106.197505,
                11.059037
              ],
              [
                106.196978,
                11.058991
              ],
              [
                106.19656,
                11.05901
              ],
              [
                106.196294,
                11.059011
              ],
              [
                106.195706,
                11.058846
              ],
              [
                106.195451,
                11.058758
              ],
              [
                106.195221,
                11.058639
              ],
              [
                106.194457,
                11.058474
              ],
              [
                106.194038,
                11.05842
              ],
              [
                106.193784,
                11.058387
              ],
              [
                106.193203,
                11.0583
              ],
              [
                106.192942,
                11.058265
              ],
              [
                106.192615,
                11.058141
              ],
              [
                106.19219,
                11.057999
              ],
              [
                106.19194,
                11.057976
              ],
              [
                106.191572,
                11.05784
              ],
              [
                106.191372,
                11.057781
              ],
              [
                106.191136,
                11.057782
              ],
              [
                106.19096,
                11.057759
              ],
              [
                106.190584,
                11.057557
              ],
              [
                106.189887,
                11.057404
              ],
              [
                106.189878,
                11.0574
              ],
              [
                106.189445,
                11.057244
              ],
              [
                106.189124,
                11.057204
              ],
              [
                106.18893,
                11.057204
              ],
              [
                106.188784,
                11.057205
              ],
              [
                106.188536,
                11.057218
              ],
              [
                106.188373,
                11.057248
              ],
              [
                106.188185,
                11.057261
              ],
              [
                106.188034,
                11.057256
              ],
              [
                106.187876,
                11.057202
              ],
              [
                106.187707,
                11.057209
              ],
              [
                106.187598,
                11.05721
              ],
              [
                106.187428,
                11.057282
              ],
              [
                106.187235,
                11.057337
              ],
              [
                106.186993,
                11.057355
              ],
              [
                106.186738,
                11.05735
              ],
              [
                106.186527,
                11.057339
              ],
              [
                106.186333,
                11.05731
              ],
              [
                106.185899,
                11.057348
              ],
              [
                106.185883,
                11.057421
              ],
              [
                106.1841,
                11.057028
              ],
              [
                106.184098,
                11.057027
              ],
              [
                106.183367,
                11.058324
              ],
              [
                106.181551,
                11.061547
              ],
              [
                106.17881,
                11.066418
              ],
              [
                106.175847,
                11.071674
              ],
              [
                106.173307,
                11.076178
              ],
              [
                106.171052,
                11.079232
              ],
              [
                106.167671,
                11.083811
              ],
              [
                106.165389,
                11.086901
              ],
              [
                106.163124,
                11.089964
              ],
              [
                106.160878,
                11.092998
              ],
              [
                106.160443,
                11.093585
              ],
              [
                106.157463,
                11.097609
              ],
              [
                106.156097,
                11.099453
              ],
              [
                106.15408,
                11.102177
              ],
              [
                106.153324,
                11.102092
              ],
              [
                106.152397,
                11.102005
              ],
              [
                106.150901,
                11.10188
              ],
              [
                106.150882,
                11.101851
              ],
              [
                106.149167,
                11.101565
              ],
              [
                106.149124,
                11.101808
              ],
              [
                106.148392,
                11.10171
              ],
              [
                106.14785,
                11.101603
              ],
              [
                106.146856,
                11.101346
              ],
              [
                106.146861,
                11.101315
              ],
              [
                106.1467,
                11.101258
              ],
              [
                106.146243,
                11.101158
              ],
              [
                106.145704,
                11.101099
              ],
              [
                106.145696,
                11.10113
              ],
              [
                106.144946,
                11.100975
              ],
              [
                106.144386,
                11.100829
              ],
              [
                106.144385,
                11.100796
              ],
              [
                106.144191,
                11.100777
              ],
              [
                106.14406,
                11.100747
              ],
              [
                106.144079,
                11.100576
              ],
              [
                106.143943,
                11.100518
              ],
              [
                106.143911,
                11.100392
              ],
              [
                106.143818,
                11.100221
              ],
              [
                106.143326,
                11.10092
              ],
              [
                106.142818,
                11.101629
              ],
              [
                106.142389,
                11.101444
              ],
              [
                106.142212,
                11.101781
              ],
              [
                106.142067,
                11.101879
              ],
              [
                106.141837,
                11.102481
              ],
              [
                106.141544,
                11.102926
              ],
              [
                106.141504,
                11.103324
              ],
              [
                106.141427,
                11.103325
              ],
              [
                106.14148,
                11.103738
              ],
              [
                106.141127,
                11.103855
              ],
              [
                106.141207,
                11.104156
              ],
              [
                106.140844,
                11.104262
              ],
              [
                106.140768,
                11.104369
              ],
              [
                106.140274,
                11.104515
              ],
              [
                106.140583,
                11.105527
              ],
              [
                106.140621,
                11.106248
              ],
              [
                106.14086,
                11.106347
              ],
              [
                106.140771,
                11.106852
              ],
              [
                106.140752,
                11.107816
              ],
              [
                106.140294,
                11.107793
              ],
              [
                106.140213,
                11.108704
              ],
              [
                106.140271,
                11.109527
              ],
              [
                106.140051,
                11.109658
              ],
              [
                106.140137,
                11.109854
              ],
              [
                106.140096,
                11.110203
              ],
              [
                106.139995,
                11.110204
              ],
              [
                106.139994,
                11.11056
              ],
              [
                106.139786,
                11.110552
              ],
              [
                106.139784,
                11.110875
              ],
              [
                106.139651,
                11.111308
              ],
              [
                106.139646,
                11.112033
              ],
              [
                106.139575,
                11.112044
              ],
              [
                106.139505,
                11.113033
              ],
              [
                106.13995,
                11.113069
              ],
              [
                106.140028,
                11.113017
              ],
              [
                106.140131,
                11.113108
              ],
              [
                106.1398,
                11.113358
              ],
              [
                106.13965,
                11.113468
              ],
              [
                106.138998,
                11.113947
              ],
              [
                106.138934,
                11.114017
              ],
              [
                106.138704,
                11.114807
              ],
              [
                106.138634,
                11.115048
              ],
              [
                106.138474,
                11.116078
              ],
              [
                106.138766,
                11.116108
              ],
              [
                106.138657,
                11.116563
              ],
              [
                106.138153,
                11.118978
              ],
              [
                106.138142,
                11.119611
              ],
              [
                106.138114,
                11.121274
              ],
              [
                106.137803,
                11.121276
              ],
              [
                106.137696,
                11.121835
              ],
              [
                106.13679,
                11.121964
              ],
              [
                106.136658,
                11.122628
              ],
              [
                106.136651,
                11.122737
              ],
              [
                106.136676,
                11.123029
              ],
              [
                106.135767,
                11.123303
              ],
              [
                106.135633,
                11.123356
              ],
              [
                106.134985,
                11.123489
              ],
              [
                106.135101,
                11.123833
              ],
              [
                106.134701,
                11.123985
              ],
              [
                106.134163,
                11.12419
              ],
              [
                106.134458,
                11.124846
              ],
              [
                106.134214,
                11.124945
              ],
              [
                106.134069,
                11.125017
              ],
              [
                106.133994,
                11.125059
              ],
              [
                106.133813,
                11.125132
              ],
              [
                106.133789,
                11.12515
              ],
              [
                106.133772,
                11.125171
              ],
              [
                106.13371,
                11.125291
              ],
              [
                106.133677,
                11.125334
              ],
              [
                106.133625,
                11.125385
              ],
              [
                106.13344,
                11.125594
              ],
              [
                106.133424,
                11.125619
              ],
              [
                106.13341,
                11.125657
              ],
              [
                106.133391,
                11.125681
              ],
              [
                106.133142,
                11.125945
              ],
              [
                106.132781,
                11.126361
              ],
              [
                106.132714,
                11.126447
              ],
              [
                106.132473,
                11.126851
              ],
              [
                106.132469,
                11.126851
              ],
              [
                106.132184,
                11.126774
              ],
              [
                106.131449,
                11.129061
              ],
              [
                106.131285,
                11.129418
              ],
              [
                106.131108,
                11.129478
              ],
              [
                106.131095,
                11.129498
              ],
              [
                106.130942,
                11.130004
              ],
              [
                106.130682,
                11.130821
              ],
              [
                106.130583,
                11.131142
              ],
              [
                106.130344,
                11.131526
              ],
              [
                106.130187,
                11.132093
              ],
              [
                106.129931,
                11.132829
              ],
              [
                106.129742,
                11.133371
              ],
              [
                106.129476,
                11.13384
              ],
              [
                106.129324,
                11.134122
              ],
              [
                106.129306,
                11.134158
              ],
              [
                106.129077,
                11.134592
              ],
              [
                106.128946,
                11.134868
              ],
              [
                106.128927,
                11.134903
              ],
              [
                106.128887,
                11.134939
              ],
              [
                106.128866,
                11.134973
              ],
              [
                106.128678,
                11.135375
              ],
              [
                106.128406,
                11.135939
              ],
              [
                106.128164,
                11.13646
              ],
              [
                106.128144,
                11.136503
              ],
              [
                106.127984,
                11.136848
              ],
              [
                106.127942,
                11.136896
              ],
              [
                106.127891,
                11.136943
              ],
              [
                106.127787,
                11.137021
              ],
              [
                106.127303,
                11.137264
              ],
              [
                106.126788,
                11.13752
              ],
              [
                106.126786,
                11.137521
              ],
              [
                106.126785,
                11.137521
              ],
              [
                106.126785,
                11.137521
              ],
              [
                106.126526,
                11.137685
              ],
              [
                106.126145,
                11.137983
              ],
              [
                106.125958,
                11.138127
              ],
              [
                106.125866,
                11.138144
              ],
              [
                106.125813,
                11.138133
              ],
              [
                106.125538,
                11.138065
              ],
              [
                106.125301,
                11.137981
              ],
              [
                106.125183,
                11.13799
              ],
              [
                106.125309,
                11.138634
              ],
              [
                106.125459,
                11.139179
              ],
              [
                106.125601,
                11.139595
              ],
              [
                106.125821,
                11.140124
              ],
              [
                106.125976,
                11.140337
              ],
              [
                106.126508,
                11.141299
              ],
              [
                106.126627,
                11.141588
              ],
              [
                106.126785,
                11.141846
              ],
              [
                106.126788,
                11.141851
              ],
              [
                106.126831,
                11.141915
              ],
              [
                106.12689,
                11.142056
              ],
              [
                106.126966,
                11.142254
              ],
              [
                106.126994,
                11.142367
              ],
              [
                106.127001,
                11.142443
              ],
              [
                106.127011,
                11.142563
              ],
              [
                106.127046,
                11.142668
              ],
              [
                106.127133,
                11.142751
              ],
              [
                106.127359,
                11.142909
              ],
              [
                106.12744,
                11.142982
              ],
              [
                106.127715,
                11.143212
              ],
              [
                106.127773,
                11.143305
              ],
              [
                106.127804,
                11.143463
              ],
              [
                106.127814,
                11.143652
              ],
              [
                106.127808,
                11.143789
              ],
              [
                106.127818,
                11.143927
              ],
              [
                106.127846,
                11.144067
              ],
              [
                106.127907,
                11.144139
              ],
              [
                106.128131,
                11.144287
              ],
              [
                106.128403,
                11.144499
              ],
              [
                106.128455,
                11.144542
              ],
              [
                106.128578,
                11.144656
              ],
              [
                106.128782,
                11.144868
              ],
              [
                106.128843,
                11.144982
              ],
              [
                106.12893,
                11.145225
              ],
              [
                106.12905,
                11.145594
              ],
              [
                106.129256,
                11.146119
              ],
              [
                106.12949,
                11.146515
              ],
              [
                106.129909,
                11.146977
              ],
              [
                106.13005,
                11.14712
              ],
              [
                106.130293,
                11.147397
              ],
              [
                106.130371,
                11.147555
              ],
              [
                106.130435,
                11.147861
              ],
              [
                106.130508,
                11.148412
              ],
              [
                106.130578,
                11.148692
              ],
              [
                106.130687,
                11.149004
              ],
              [
                106.131008,
                11.149594
              ],
              [
                106.131217,
                11.150022
              ],
              [
                106.131322,
                11.150365
              ],
              [
                106.131352,
                11.150613
              ],
              [
                106.131441,
                11.151105
              ],
              [
                106.131456,
                11.151159
              ],
              [
                106.131481,
                11.151246
              ],
              [
                106.131573,
                11.1515
              ],
              [
                106.131696,
                11.151915
              ],
              [
                106.131741,
                11.152114
              ],
              [
                106.131835,
                11.152728
              ],
              [
                106.131864,
                11.152887
              ],
              [
                106.131898,
                11.153228
              ],
              [
                106.131903,
                11.153367
              ],
              [
                106.131929,
                11.153681
              ],
              [
                106.131965,
                11.153833
              ],
              [
                106.132092,
                11.154131
              ],
              [
                106.132571,
                11.154811
              ],
              [
                106.132671,
                11.155021
              ],
              [
                106.132718,
                11.15523
              ],
              [
                106.132772,
                11.155603
              ],
              [
                106.132879,
                11.155917
              ],
              [
                106.133045,
                11.156179
              ],
              [
                106.134488,
                11.157886
              ],
              [
                106.134874,
                11.158435
              ],
              [
                106.135043,
                11.158606
              ],
              [
                106.135316,
                11.158776
              ],
              [
                106.135658,
                11.158964
              ],
              [
                106.136103,
                11.159284
              ],
              [
                106.136289,
                11.159421
              ],
              [
                106.136794,
                11.159662
              ],
              [
                106.137624,
                11.160139
              ],
              [
                106.138321,
                11.160517
              ],
              [
                106.13864,
                11.160746
              ],
              [
                106.138826,
                11.160883
              ],
              [
                106.139045,
                11.161013
              ],
              [
                106.139696,
                11.1613
              ],
              [
                106.140174,
                11.161574
              ],
              [
                106.140354,
                11.161705
              ],
              [
                106.14056,
                11.161953
              ],
              [
                106.140985,
                11.162358
              ],
              [
                106.141218,
                11.162515
              ],
              [
                106.141583,
                11.162639
              ],
              [
                106.141868,
                11.162762
              ],
              [
                106.141968,
                11.162861
              ],
              [
                106.142081,
                11.163031
              ],
              [
                106.142447,
                11.163462
              ],
              [
                106.142586,
                11.163585
              ],
              [
                106.143021,
                11.163969
              ],
              [
                106.143555,
                11.163364
              ],
              [
                106.145373,
                11.162115
              ],
              [
                106.147422,
                11.161344
              ],
              [
                106.149032,
                11.160802
              ],
              [
                106.151966,
                11.15948
              ],
              [
                106.155295,
                11.157671
              ],
              [
                106.156213,
                11.157361
              ],
              [
                106.156909,
                11.157213
              ],
              [
                106.157591,
                11.157212
              ],
              [
                106.15854,
                11.157385
              ],
              [
                106.159178,
                11.157633
              ],
              [
                106.160276,
                11.158318
              ],
              [
                106.161008,
                11.158731
              ],
              [
                106.161722,
                11.158898
              ],
              [
                106.162467,
                11.158888
              ],
              [
                106.164063,
                11.158856
              ],
              [
                106.164711,
                11.158931
              ],
              [
                106.166167,
                11.159315
              ],
              [
                106.167259,
                11.159778
              ],
              [
                106.167696,
                11.160027
              ],
              [
                106.168073,
                11.16036
              ],
              [
                106.168992,
                11.161581
              ],
              [
                106.169581,
                11.162558
              ],
              [
                106.170095,
                11.16364
              ],
              [
                106.170366,
                11.164057
              ],
              [
                106.171279,
                11.1653
              ],
              [
                106.172447,
                11.166269
              ],
              [
                106.174109,
                11.167275
              ],
              [
                106.17474,
                11.167524
              ],
              [
                106.175395,
                11.167653
              ],
              [
                106.176532,
                11.167631
              ],
              [
                106.176785,
                11.167623
              ],
              [
                106.178457,
                11.167562
              ],
              [
                106.17982,
                11.167501
              ],
              [
                106.180207,
                11.167496
              ],
              [
                106.181495,
                11.166892
              ],
              [
                106.183008,
                11.165862
              ],
              [
                106.183802,
                11.164808
              ],
              [
                106.184568,
                11.163465
              ],
              [
                106.185121,
                11.16207
              ],
              [
                106.18538,
                11.160427
              ],
              [
                106.185456,
                11.159468
              ],
              [
                106.185456,
                11.159468
              ]
            ]
          ]
        ]
      },
      "properties": {
        "code": "25681",
        "name": "Bến Cầu",
        "nameEn": "Ben Cau",
        "fullName": "Xã Bến Cầu",
        "fullNameEn": "Ben Cau Commune",
        "codeName": "ben_cau",
        "postalCode": "80806",
        "postalCodePrefix": "",
        "gisServerId": "diaphanhanhchinhcapxa_2025.2729",
        "areaKm2": 112.02
      }
    }
  ]
}