{
  "type": "FeatureCollection",
  "bbox": [
    105.992097,
    10.522835,
    106.10246,
    10.657638
  ],
  "features": [
    {
      "type": "Feature",
      "id": "27826",
      "bbox": [
        105.992097,
        10.522835,
        106.10246,
        10.657638
      ],
      "geometry": {
        "type": "MultiPolygon",
        "coordinates": [
          [
            [
              [
                106.044128,
                10.653551
              ],
              [
                106.045608,
                10.653222
              ],
              [
                106.047795,
                10.65278
              ],
              [
                106.049542,
                10.652434
              ],
              [
                106.051852,
                10.651963
              ],
              [
                106.053672,
                10.651584
              ],
              [
                106.055122,
                10.651288
              ],
              [
                106.056442,
                10.651018
              ],
              [
                106.05778,
                10.650755
              ],
              [
                106.058291,
                10.650649
              ],
              [
                106.058621,
                10.650584
              ],
              [
                106.059179,
                10.650453
              ],
              [
                106.060876,
                10.650102
              ],
              [
                106.062714,
                10.649741
              ],
              [
                106.06328,
                10.649628
              ],
              [
                106.064113,
                10.64946
              ],
              [
                106.066173,
                10.649015
              ],
              [
                106.067677,
                10.648712
              ],
              [
                106.06966,
                10.648321
              ],
              [
                106.071274,
                10.647993
              ],
              [
                106.072934,
                10.647649
              ],
              [
                106.074214,
                10.647372
              ],
              [
                106.074751,
                10.647256
              ],
              [
                106.076404,
                10.646923
              ],
              [
                106.078659,
                10.64646
              ],
              [
                106.079859,
                10.646219
              ],
              [
                106.080787,
                10.646029
              ],
              [
                106.081878,
                10.64581
              ],
              [
                106.082339,
                10.645701
              ],
              [
                106.083622,
                10.645445
              ],
              [
                106.084558,
                10.645248
              ],
              [
                106.085101,
                10.645156
              ],
              [
                106.085645,
                10.645065
              ],
              [
                106.086088,
                10.644984
              ],
              [
                106.086479,
                10.644911
              ],
              [
                106.087888,
                10.644623
              ],
              [
                106.088667,
                10.644459
              ],
              [
                106.089175,
                10.644376
              ],
              [
                106.089332,
                10.644367
              ],
              [
                106.089384,
                10.644316
              ],
              [
                106.089402,
                10.644263
              ],
              [
                106.089365,
                10.644105
              ],
              [
                106.089211,
                10.643786
              ],
              [
                106.089014,
                10.643234
              ],
              [
                106.088771,
                10.642466
              ],
              [
                106.088632,
                10.642094
              ],
              [
                106.088494,
                10.641886
              ],
              [
                106.088326,
                10.641686
              ],
              [
                106.088289,
                10.641542
              ],
              [
                106.088186,
                10.641054
              ],
              [
                106.088163,
                10.64076
              ],
              [
                106.088155,
                10.640574
              ],
              [
                106.088184,
                10.640423
              ],
              [
                106.088299,
                10.640085
              ],
              [
                106.088435,
                10.639718
              ],
              [
                106.088449,
                10.639517
              ],
              [
                106.088383,
                10.63931
              ],
              [
                106.08823,
                10.639116
              ],
              [
                106.088026,
                10.638909
              ],
              [
                106.087807,
                10.638486
              ],
              [
                106.087565,
                10.637963
              ],
              [
                106.087208,
                10.63744
              ],
              [
                106.08696,
                10.637068
              ],
              [
                106.086516,
                10.636696
              ],
              [
                106.086123,
                10.636425
              ],
              [
                106.085919,
                10.636232
              ],
              [
                106.085875,
                10.636074
              ],
              [
                106.085904,
                10.635894
              ],
              [
                106.086084,
                10.635542
              ],
              [
                106.086249,
                10.635068
              ],
              [
                106.08645,
                10.634435
              ],
              [
                106.086681,
                10.633975
              ],
              [
                106.086731,
                10.633774
              ],
              [
                106.086694,
                10.633523
              ],
              [
                106.086628,
                10.633337
              ],
              [
                106.086445,
                10.632921
              ],
              [
                106.08632,
                10.632527
              ],
              [
                106.086253,
                10.632118
              ],
              [
                106.086281,
                10.631673
              ],
              [
                106.086308,
                10.631321
              ],
              [
                106.086293,
                10.63094
              ],
              [
                106.086342,
                10.630646
              ],
              [
                106.086501,
                10.630294
              ],
              [
                106.086761,
                10.629991
              ],
              [
                106.086963,
                10.629589
              ],
              [
                106.087063,
                10.629143
              ],
              [
                106.087069,
                10.628849
              ],
              [
                106.087031,
                10.628368
              ],
              [
                106.087059,
                10.628038
              ],
              [
                106.087123,
                10.627693
              ],
              [
                106.087223,
                10.627205
              ],
              [
                106.087279,
                10.626645
              ],
              [
                106.087494,
                10.626063
              ],
              [
                106.087624,
                10.62571
              ],
              [
                106.087652,
                10.625445
              ],
              [
                106.087627,
                10.625052
              ],
              [
                106.087761,
                10.623988
              ],
              [
                106.087862,
                10.623329
              ],
              [
                106.08797,
                10.62224
              ],
              [
                106.088174,
                10.619943
              ],
              [
                106.088494,
                10.617186
              ],
              [
                106.088742,
                10.614861
              ],
              [
                106.088904,
                10.613292
              ],
              [
                106.089072,
                10.61185
              ],
              [
                106.089267,
                10.61011
              ],
              [
                106.089667,
                10.606541
              ],
              [
                106.089834,
                10.605113
              ],
              [
                106.089911,
                10.604448
              ],
              [
                106.090098,
                10.602167
              ],
              [
                106.090326,
                10.601818
              ],
              [
                106.091421,
                10.600638
              ],
              [
                106.091456,
                10.600499
              ],
              [
                106.091465,
                10.600461
              ],
              [
                106.091395,
                10.599567
              ],
              [
                106.091238,
                10.597685
              ],
              [
                106.091027,
                10.59504
              ],
              [
                106.090829,
                10.592716
              ],
              [
                106.090591,
                10.589973
              ],
              [
                106.090311,
                10.586523
              ],
              [
                106.090107,
                10.584044
              ],
              [
                106.089886,
                10.58156
              ],
              [
                106.089804,
                10.580373
              ],
              [
                106.089797,
                10.580224
              ],
              [
                106.089811,
                10.579396
              ],
              [
                106.08988,
                10.576706
              ],
              [
                106.089909,
                10.575364
              ],
              [
                106.094084,
                10.57556
              ],
              [
                106.101239,
                10.575891
              ],
              [
                106.101274,
                10.574642
              ],
              [
                106.101315,
                10.572723
              ],
              [
                106.101361,
                10.57056
              ],
              [
                106.101402,
                10.568516
              ],
              [
                106.10143,
                10.56709
              ],
              [
                106.101468,
                10.565473
              ],
              [
                106.101506,
                10.563817
              ],
              [
                106.1016,
                10.560495
              ],
              [
                106.101637,
                10.558622
              ],
              [
                106.101681,
                10.556748
              ],
              [
                106.101718,
                10.554767
              ],
              [
                106.101762,
                10.553059
              ],
              [
                106.101807,
                10.551386
              ],
              [
                106.101874,
                10.548524
              ],
              [
                106.101932,
                10.545797
              ],
              [
                106.102009,
                10.542849
              ],
              [
                106.102066,
                10.539997
              ],
              [
                106.102144,
                10.537345
              ],
              [
                106.102213,
                10.535039
              ],
              [
                106.102245,
                10.533077
              ],
              [
                106.102286,
                10.530952
              ],
              [
                106.10238,
                10.527612
              ],
              [
                106.102422,
                10.525688
              ],
              [
                106.102454,
                10.52386
              ],
              [
                106.10246,
                10.522893
              ],
              [
                106.102454,
                10.522835
              ],
              [
                106.098828,
                10.522943
              ],
              [
                106.098146,
                10.522963
              ],
              [
                106.09766,
                10.523
              ],
              [
                106.096573,
                10.523025
              ],
              [
                106.095292,
                10.523007
              ],
              [
                106.094094,
                10.523002
              ],
              [
                106.093079,
                10.523044
              ],
              [
                106.092614,
                10.52307
              ],
              [
                106.09144,
                10.523184
              ],
              [
                106.090023,
                10.523311
              ],
              [
                106.089644,
                10.52335
              ],
              [
                106.087623,
                10.523556
              ],
              [
                106.085339,
                10.523787
              ],
              [
                106.08307,
                10.52401
              ],
              [
                106.081271,
                10.52421
              ],
              [
                106.076653,
                10.524685
              ],
              [
                106.073521,
                10.525033
              ],
              [
                106.069199,
                10.525464
              ],
              [
                106.067647,
                10.525641
              ],
              [
                106.063812,
                10.526035
              ],
              [
                106.0616,
                10.526286
              ],
              [
                106.057257,
                10.526695
              ],
              [
                106.055372,
                10.526888
              ],
              [
                106.050752,
                10.527383
              ],
              [
                106.048277,
                10.527649
              ],
              [
                106.046886,
                10.527772
              ],
              [
                106.043114,
                10.528107
              ],
              [
                106.039372,
                10.52854
              ],
              [
                106.037882,
                10.528755
              ],
              [
                106.037198,
                10.528744
              ],
              [
                106.037093,
                10.528753
              ],
              [
                106.035994,
                10.528853
              ],
              [
                106.034589,
                10.528974
              ],
              [
                106.033741,
                10.529047
              ],
              [
                106.032995,
                10.529135
              ],
              [
                106.032255,
                10.529223
              ],
              [
                106.032145,
                10.529233
              ],
              [
                106.029536,
                10.529489
              ],
              [
                106.028871,
                10.52955
              ],
              [
                106.028193,
                10.529612
              ],
              [
                106.027583,
                10.529668
              ],
              [
                106.025838,
                10.52987
              ],
              [
                106.025259,
                10.529923
              ],
              [
                106.024888,
                10.529957
              ],
              [
                106.024326,
                10.530021
              ],
              [
                106.023864,
                10.530073
              ],
              [
                106.022864,
                10.530186
              ],
              [
                106.02245,
                10.530224
              ],
              [
                106.022417,
                10.530227
              ],
              [
                106.020888,
                10.530366
              ],
              [
                106.019778,
                10.53048
              ],
              [
                106.019178,
                10.530541
              ],
              [
                106.01751,
                10.530712
              ],
              [
                106.016919,
                10.530776
              ],
              [
                106.016023,
                10.530872
              ],
              [
                106.01486,
                10.531
              ],
              [
                106.014735,
                10.531013
              ],
              [
                106.014223,
                10.531069
              ],
              [
                106.012522,
                10.531197
              ],
              [
                106.01247,
                10.531201
              ],
              [
                106.012284,
                10.53122
              ],
              [
                106.01108,
                10.531343
              ],
              [
                106.011006,
                10.53135
              ],
              [
                106.010131,
                10.531431
              ],
              [
                106.009907,
                10.531452
              ],
              [
                106.009823,
                10.53146
              ],
              [
                106.00977,
                10.531465
              ],
              [
                106.008724,
                10.531565
              ],
              [
                106.008596,
                10.531577
              ],
              [
                106.008397,
                10.531596
              ],
              [
                106.007808,
                10.531652
              ],
              [
                106.007614,
                10.531671
              ],
              [
                106.00723,
                10.531707
              ],
              [
                106.007067,
                10.531722
              ],
              [
                106.006768,
                10.53175
              ],
              [
                106.005816,
                10.531834
              ],
              [
                106.005708,
                10.531845
              ],
              [
                106.005399,
                10.531876
              ],
              [
                106.004839,
                10.531933
              ],
              [
                106.004675,
                10.53195
              ],
              [
                106.004395,
                10.531979
              ],
              [
                106.0042,
                10.531999
              ],
              [
                106.003809,
                10.532039
              ],
              [
                106.003595,
                10.532061
              ],
              [
                106.003452,
                10.532076
              ],
              [
                106.003067,
                10.532117
              ],
              [
                106.002998,
                10.532125
              ],
              [
                106.00248,
                10.53218
              ],
              [
                106.002257,
                10.5322
              ],
              [
                106.002209,
                10.532204
              ],
              [
                106.001782,
                10.532242
              ],
              [
                106.001778,
                10.532243
              ],
              [
                106.00149,
                10.532316
              ],
              [
                106.001362,
                10.532335
              ],
              [
                106.001148,
                10.532366
              ],
              [
                106.000246,
                10.532454
              ],
              [
                105.999488,
                10.532519
              ],
              [
                105.997717,
                10.532633
              ],
              [
                105.99466,
                10.532835
              ],
              [
                105.993246,
                10.532919
              ],
              [
                105.992097,
                10.532984
              ],
              [
                105.992131,
                10.533053
              ],
              [
                105.99363,
                10.535967
              ],
              [
                105.99567,
                10.540103
              ],
              [
                105.997025,
                10.542798
              ],
              [
                105.998463,
                10.545698
              ],
              [
                105.999933,
                10.548604
              ],
              [
                106.001137,
                10.55105
              ],
              [
                106.001782,
                10.552658
              ],
              [
                106.002663,
                10.554395
              ],
              [
                106.003861,
                10.556789
              ],
              [
                106.004703,
                10.558519
              ],
              [
                106.005477,
                10.560129
              ],
              [
                106.005745,
                10.560736
              ],
              [
                106.005984,
                10.561271
              ],
              [
                106.00613,
                10.561601
              ],
              [
                106.006203,
                10.561806
              ],
              [
                106.006233,
                10.562122
              ],
              [
                106.006283,
                10.562662
              ],
              [
                106.006357,
                10.562988
              ],
              [
                106.006522,
                10.563322
              ],
              [
                106.007087,
                10.564339
              ],
              [
                106.007593,
                10.565314
              ],
              [
                106.008279,
                10.566695
              ],
              [
                106.008645,
                10.567517
              ],
              [
                106.008981,
                10.568382
              ],
              [
                106.009347,
                10.56939
              ],
              [
                106.009806,
                10.570657
              ],
              [
                106.010265,
                10.571895
              ],
              [
                106.010675,
                10.57308
              ],
              [
                106.010856,
                10.573639
              ],
              [
                106.014008,
                10.573419
              ],
              [
                106.017557,
                10.573163
              ],
              [
                106.021937,
                10.572814
              ],
              [
                106.022871,
                10.574679
              ],
              [
                106.024827,
                10.578427
              ],
              [
                106.026295,
                10.581351
              ],
              [
                106.027945,
                10.58455
              ],
              [
                106.028996,
                10.586558
              ],
              [
                106.030128,
                10.58875
              ],
              [
                106.030827,
                10.590153
              ],
              [
                106.031873,
                10.592128
              ],
              [
                106.03299,
                10.594288
              ],
              [
                106.034059,
                10.596391
              ],
              [
                106.03507,
                10.598304
              ],
              [
                106.035653,
                10.599334
              ],
              [
                106.035786,
                10.599626
              ],
              [
                106.035599,
                10.599705
              ],
              [
                106.035583,
                10.599712
              ],
              [
                106.035,
                10.599965
              ],
              [
                106.034745,
                10.600076
              ],
              [
                106.031475,
                10.601183
              ],
              [
                106.029017,
                10.602009
              ],
              [
                106.027856,
                10.602399
              ],
              [
                106.028148,
                10.603941
              ],
              [
                106.02917,
                10.6088
              ],
              [
                106.029591,
                10.610997
              ],
              [
                106.029755,
                10.611856
              ],
              [
                106.029799,
                10.612085
              ],
              [
                106.02369,
                10.613203
              ],
              [
                106.016091,
                10.614649
              ],
              [
                106.012478,
                10.615309
              ],
              [
                106.012541,
                10.615499
              ],
              [
                106.013274,
                10.617283
              ],
              [
                106.01463,
                10.620695
              ],
              [
                106.015361,
                10.622605
              ],
              [
                106.015965,
                10.623986
              ],
              [
                106.017053,
                10.626676
              ],
              [
                106.017211,
                10.626927
              ],
              [
                106.018073,
                10.628822
              ],
              [
                106.018088,
                10.632556
              ],
              [
                106.01799,
                10.632729
              ],
              [
                106.017978,
                10.632966
              ],
              [
                106.017959,
                10.633081
              ],
              [
                106.017882,
                10.633196
              ],
              [
                106.017157,
                10.635852
              ],
              [
                106.017411,
                10.635935
              ],
              [
                106.018157,
                10.639376
              ],
              [
                106.019437,
                10.645512
              ],
              [
                106.01945,
                10.64564
              ],
              [
                106.019451,
                10.645641
              ],
              [
                106.018987,
                10.646399
              ],
              [
                106.018248,
                10.647607
              ],
              [
                106.017562,
                10.648759
              ],
              [
                106.017159,
                10.649418
              ],
              [
                106.01709,
                10.649526
              ],
              [
                106.017016,
                10.64964
              ],
              [
                106.01692,
                10.649736
              ],
              [
                106.016914,
                10.649739
              ],
              [
                106.016872,
                10.649799
              ],
              [
                106.016828,
                10.649805
              ],
              [
                106.01678,
                10.649815
              ],
              [
                106.01673,
                10.649826
              ],
              [
                106.016708,
                10.649831
              ],
              [
                106.016639,
                10.649871
              ],
              [
                106.016611,
                10.650015
              ],
              [
                106.016552,
                10.650274
              ],
              [
                106.016525,
                10.650393
              ],
              [
                106.016419,
                10.65058
              ],
              [
                106.016159,
                10.650964
              ],
              [
                106.015903,
                10.651316
              ],
              [
                106.015577,
                10.651765
              ],
              [
                106.014951,
                10.652642
              ],
              [
                106.014859,
                10.65277
              ],
              [
                106.014863,
                10.652772
              ],
              [
                106.014937,
                10.652806
              ],
              [
                106.022815,
                10.656942
              ],
              [
                106.024107,
                10.657573
              ],
              [
                106.024227,
                10.657632
              ],
              [
                106.024409,
                10.657638
              ],
              [
                106.024568,
                10.657602
              ],
              [
                106.02484,
                10.657504
              ],
              [
                106.025997,
                10.657263
              ],
              [
                106.0279,
                10.65688
              ],
              [
                106.029006,
                10.656643
              ],
              [
                106.030906,
                10.65626
              ],
              [
                106.032922,
                10.655848
              ],
              [
                106.034728,
                10.655483
              ],
              [
                106.03641,
                10.65513
              ],
              [
                106.037635,
                10.654878
              ],
              [
                106.038875,
                10.654608
              ],
              [
                106.040688,
                10.654243
              ],
              [
                106.041515,
                10.654072
              ],
              [
                106.043005,
                10.653805
              ],
              [
                106.043545,
                10.653685
              ],
              [
                106.044128,
                10.653551
              ],
              [
                106.044128,
                10.653551
              ]
            ]
          ]
        ]
      },
      "properties": {
        "code": "27826",
        "name": "Tân Thạnh",
        "nameEn": "Tan Thanh",
        "fullName": "Xã Tân Thạnh",
        "fullNameEn": "Tan Thanh Commune",
        "codeName": "tan_thanh",
        "postalCode": "83406",
        "postalCodePrefix": "",
        "gisServerId": "diaphanhanhchinhcapxa_2025.1291",
        "areaKm2": 118.45
      }
    }
  ]
}