{
  "type": "FeatureCollection",
  "bbox": [
    106.270615,
    10.927604,
    106.361779,
    11.025777
  ],
  "features": [
    {
      "type": "Feature",
      "id": "27943",
      "bbox": [
        106.270615,
        10.927604,
        106.361779,
        11.025777
      ],
      "geometry": {
        "type": "MultiPolygon",
        "coordinates": [
          [
            [
              [
                106.297132,
                11.02553
              ],
              [
                106.297233,
                11.024994
              ],
              [
                106.297369,
                11.024387
              ],
              [
                106.297429,
                11.024167
              ],
              [
                106.297491,
                11.024088
              ],
              [
                106.297596,
                11.024023
              ],
              [
                106.297879,
                11.023896
              ],
              [
                106.298422,
                11.023664
              ],
              [
                106.298901,
                11.023451
              ],
              [
                106.29963,
                11.023139
              ],
              [
                106.300402,
                11.02282
              ],
              [
                106.300794,
                11.022657
              ],
              [
                106.301138,
                11.022547
              ],
              [
                106.301644,
                11.022434
              ],
              [
                106.302365,
                11.022255
              ],
              [
                106.302931,
                11.022095
              ],
              [
                106.303369,
                11.021978
              ],
              [
                106.303479,
                11.021954
              ],
              [
                106.303954,
                11.021846
              ],
              [
                106.304175,
                11.021798
              ],
              [
                106.304839,
                11.021695
              ],
              [
                106.305474,
                11.021564
              ],
              [
                106.306106,
                11.021457
              ],
              [
                106.306568,
                11.021398
              ],
              [
                106.306993,
                11.021318
              ],
              [
                106.308747,
                11.020859
              ],
              [
                106.309435,
                11.020689
              ],
              [
                106.310529,
                11.020383
              ],
              [
                106.31095,
                11.020273
              ],
              [
                106.311232,
                11.020193
              ],
              [
                106.311302,
                11.020173
              ],
              [
                106.31173,
                11.020065
              ],
              [
                106.311984,
                11.019964
              ],
              [
                106.312256,
                11.019819
              ],
              [
                106.312524,
                11.019635
              ],
              [
                106.312824,
                11.019436
              ],
              [
                106.313237,
                11.019162
              ],
              [
                106.313657,
                11.018887
              ],
              [
                106.314233,
                11.01854
              ],
              [
                106.314892,
                11.01811
              ],
              [
                106.315414,
                11.017738
              ],
              [
                106.316218,
                11.0172
              ],
              [
                106.316993,
                11.01668
              ],
              [
                106.317418,
                11.016434
              ],
              [
                106.318366,
                11.015823
              ],
              [
                106.318731,
                11.015583
              ],
              [
                106.319122,
                11.015268
              ],
              [
                106.319368,
                11.015102
              ],
              [
                106.319615,
                11.014928
              ],
              [
                106.319901,
                11.014733
              ],
              [
                106.3201,
                11.0146
              ],
              [
                106.320625,
                11.01426
              ],
              [
                106.321067,
                11.013985
              ],
              [
                106.321447,
                11.013766
              ],
              [
                106.32335,
                11.012514
              ],
              [
                106.323816,
                11.012226
              ],
              [
                106.323924,
                11.012162
              ],
              [
                106.324428,
                11.011893
              ],
              [
                106.3247,
                11.01172
              ],
              [
                106.325029,
                11.011517
              ],
              [
                106.325877,
                11.011018
              ],
              [
                106.326428,
                11.010707
              ],
              [
                106.326754,
                11.010498
              ],
              [
                106.327294,
                11.010187
              ],
              [
                106.32762,
                11.010006
              ],
              [
                106.327859,
                11.009883
              ],
              [
                106.328424,
                11.009575
              ],
              [
                106.328533,
                11.009525
              ],
              [
                106.329196,
                11.009213
              ],
              [
                106.329725,
                11.008985
              ],
              [
                106.329851,
                11.008927
              ],
              [
                106.330479,
                11.008662
              ],
              [
                106.331148,
                11.008346
              ],
              [
                106.331788,
                11.008068
              ],
              [
                106.332368,
                11.007789
              ],
              [
                106.332792,
                11.00759
              ],
              [
                106.333676,
                11.007195
              ],
              [
                106.334108,
                11.007003
              ],
              [
                106.334392,
                11.006904
              ],
              [
                106.334685,
                11.006758
              ],
              [
                106.335187,
                11.006543
              ],
              [
                106.335658,
                11.006329
              ],
              [
                106.336166,
                11.006105
              ],
              [
                106.33648,
                11.005961
              ],
              [
                106.336685,
                11.005868
              ],
              [
                106.336999,
                11.005689
              ],
              [
                106.337367,
                11.005505
              ],
              [
                106.337678,
                11.005303
              ],
              [
                106.337961,
                11.00511
              ],
              [
                106.338221,
                11.004921
              ],
              [
                106.338728,
                11.004521
              ],
              [
                106.339184,
                11.004181
              ],
              [
                106.339633,
                11.003844
              ],
              [
                106.339911,
                11.003622
              ],
              [
                106.340438,
                11.003198
              ],
              [
                106.340672,
                11.003023
              ],
              [
                106.34099,
                11.00278
              ],
              [
                106.341464,
                11.002425
              ],
              [
                106.342013,
                11.00201
              ],
              [
                106.342529,
                11.001637
              ],
              [
                106.342824,
                11.001405
              ],
              [
                106.342966,
                11.001252
              ],
              [
                106.343071,
                11.001063
              ],
              [
                106.343184,
                11.000791
              ],
              [
                106.343481,
                11.000036
              ],
              [
                106.343684,
                10.999494
              ],
              [
                106.343841,
                10.998987
              ],
              [
                106.343841,
                10.998985
              ],
              [
                106.344751,
                10.996653
              ],
              [
                106.34487,
                10.996334
              ],
              [
                106.345469,
                10.994736
              ],
              [
                106.351084,
                10.998865
              ],
              [
                106.356672,
                10.991587
              ],
              [
                106.356687,
                10.991566
              ],
              [
                106.3572,
                10.990878
              ],
              [
                106.360939,
                10.985862
              ],
              [
                106.361779,
                10.984732
              ],
              [
                106.361559,
                10.984571
              ],
              [
                106.359026,
                10.982706
              ],
              [
                106.358906,
                10.982618
              ],
              [
                106.360661,
                10.980242
              ],
              [
                106.360368,
                10.979886
              ],
              [
                106.36005,
                10.979499
              ],
              [
                106.360335,
                10.979112
              ],
              [
                106.358949,
                10.978628
              ],
              [
                106.359079,
                10.978259
              ],
              [
                106.357395,
                10.977321
              ],
              [
                106.357441,
                10.976185
              ],
              [
                106.356722,
                10.975444
              ],
              [
                106.356154,
                10.9744
              ],
              [
                106.356538,
                10.972953
              ],
              [
                106.356733,
                10.972218
              ],
              [
                106.355723,
                10.971937
              ],
              [
                106.355243,
                10.971804
              ],
              [
                106.355263,
                10.970207
              ],
              [
                106.35478,
                10.969207
              ],
              [
                106.354549,
                10.968299
              ],
              [
                106.35403,
                10.967726
              ],
              [
                106.354285,
                10.967425
              ],
              [
                106.353822,
                10.96691
              ],
              [
                106.353498,
                10.967149
              ],
              [
                106.353457,
                10.967179
              ],
              [
                106.351848,
                10.965628
              ],
              [
                106.351912,
                10.96536
              ],
              [
                106.351931,
                10.965281
              ],
              [
                106.351454,
                10.965144
              ],
              [
                106.351559,
                10.9647
              ],
              [
                106.351204,
                10.964614
              ],
              [
                106.350583,
                10.964493
              ],
              [
                106.350448,
                10.964464
              ],
              [
                106.350312,
                10.964465
              ],
              [
                106.350167,
                10.964523
              ],
              [
                106.349935,
                10.964524
              ],
              [
                106.34975,
                10.964477
              ],
              [
                106.349484,
                10.964417
              ],
              [
                106.34929,
                10.964346
              ],
              [
                106.349126,
                10.964275
              ],
              [
                106.348986,
                10.964255
              ],
              [
                106.348847,
                10.964235
              ],
              [
                106.348276,
                10.964162
              ],
              [
                106.348197,
                10.964275
              ],
              [
                106.347426,
                10.965375
              ],
              [
                106.347278,
                10.965588
              ],
              [
                106.346927,
                10.966089
              ],
              [
                106.346854,
                10.966193
              ],
              [
                106.346186,
                10.967111
              ],
              [
                106.345847,
                10.967577
              ],
              [
                106.345793,
                10.967651
              ],
              [
                106.344705,
                10.969178
              ],
              [
                106.344512,
                10.969448
              ],
              [
                106.344235,
                10.969837
              ],
              [
                106.343765,
                10.970514
              ],
              [
                106.343659,
                10.97005
              ],
              [
                106.343587,
                10.969734
              ],
              [
                106.343392,
                10.968882
              ],
              [
                106.343385,
                10.96885
              ],
              [
                106.342748,
                10.969803
              ],
              [
                106.342706,
                10.969865
              ],
              [
                106.342684,
                10.969569
              ],
              [
                106.342668,
                10.969356
              ],
              [
                106.341632,
                10.969307
              ],
              [
                106.341613,
                10.969443
              ],
              [
                106.341156,
                10.96939
              ],
              [
                106.340968,
                10.969358
              ],
              [
                106.341022,
                10.969047
              ],
              [
                106.341419,
                10.967569
              ],
              [
                106.341451,
                10.967487
              ],
              [
                106.341458,
                10.967469
              ],
              [
                106.340761,
                10.967303
              ],
              [
                106.340741,
                10.967156
              ],
              [
                106.340275,
                10.967244
              ],
              [
                106.340111,
                10.966446
              ],
              [
                106.340034,
                10.966067
              ],
              [
                106.33844,
                10.966349
              ],
              [
                106.337161,
                10.966703
              ],
              [
                106.336836,
                10.966744
              ],
              [
                106.336792,
                10.966362
              ],
              [
                106.336478,
                10.966405
              ],
              [
                106.336516,
                10.966173
              ],
              [
                106.336176,
                10.966263
              ],
              [
                106.336084,
                10.965612
              ],
              [
                106.335826,
                10.965646
              ],
              [
                106.33529,
                10.965718
              ],
              [
                106.335271,
                10.965423
              ],
              [
                106.335269,
                10.965381
              ],
              [
                106.335081,
                10.96542
              ],
              [
                106.334975,
                10.965442
              ],
              [
                106.334975,
                10.965418
              ],
              [
                106.334974,
                10.964834
              ],
              [
                106.334969,
                10.964835
              ],
              [
                106.334571,
                10.964859
              ],
              [
                106.334529,
                10.964291
              ],
              [
                106.334343,
                10.964292
              ],
              [
                106.334219,
                10.964292
              ],
              [
                106.334182,
                10.964381
              ],
              [
                106.334142,
                10.964477
              ],
              [
                106.333054,
                10.964435
              ],
              [
                106.332456,
                10.964361
              ],
              [
                106.332515,
                10.964105
              ],
              [
                106.331765,
                10.964011
              ],
              [
                106.332176,
                10.96217
              ],
              [
                106.331802,
                10.96209
              ],
              [
                106.331827,
                10.962009
              ],
              [
                106.332302,
                10.960484
              ],
              [
                106.332319,
                10.960426
              ],
              [
                106.332326,
                10.960427
              ],
              [
                106.332698,
                10.960457
              ],
              [
                106.33272,
                10.960388
              ],
              [
                106.332876,
                10.959903
              ],
              [
                106.333474,
                10.959991
              ],
              [
                106.333518,
                10.959481
              ],
              [
                106.334121,
                10.959262
              ],
              [
                106.334348,
                10.959179
              ],
              [
                106.33453,
                10.957309
              ],
              [
                106.334636,
                10.956609
              ],
              [
                106.333619,
                10.956303
              ],
              [
                106.333428,
                10.956245
              ],
              [
                106.3334,
                10.956037
              ],
              [
                106.333432,
                10.955853
              ],
              [
                106.33346,
                10.955691
              ],
              [
                106.33164,
                10.955154
              ],
              [
                106.331354,
                10.954926
              ],
              [
                106.33135,
                10.954923
              ],
              [
                106.331094,
                10.954841
              ],
              [
                106.329727,
                10.954349
              ],
              [
                106.329523,
                10.954312
              ],
              [
                106.329541,
                10.954203
              ],
              [
                106.329636,
                10.953632
              ],
              [
                106.329433,
                10.953664
              ],
              [
                106.329354,
                10.953369
              ],
              [
                106.329223,
                10.953392
              ],
              [
                106.328722,
                10.953481
              ],
              [
                106.328648,
                10.95313
              ],
              [
                106.32832,
                10.952149
              ],
              [
                106.328077,
                10.951422
              ],
              [
                106.327767,
                10.950638
              ],
              [
                106.327737,
                10.95056
              ],
              [
                106.327513,
                10.949312
              ],
              [
                106.327413,
                10.94897
              ],
              [
                106.327353,
                10.948762
              ],
              [
                106.32723,
                10.948392
              ],
              [
                106.327237,
                10.947859
              ],
              [
                106.326644,
                10.947824
              ],
              [
                106.326298,
                10.947823
              ],
              [
                106.326076,
                10.947848
              ],
              [
                106.326037,
                10.947949
              ],
              [
                106.326039,
                10.948264
              ],
              [
                106.325976,
                10.948303
              ],
              [
                106.325673,
                10.948314
              ],
              [
                106.325141,
                10.948266
              ],
              [
                106.324814,
                10.948267
              ],
              [
                106.324575,
                10.948301
              ],
              [
                106.323877,
                10.948239
              ],
              [
                106.323768,
                10.948222
              ],
              [
                106.323683,
                10.94712
              ],
              [
                106.323594,
                10.947063
              ],
              [
                106.323448,
                10.947034
              ],
              [
                106.323415,
                10.946304
              ],
              [
                106.323408,
                10.946113
              ],
              [
                106.323359,
                10.946012
              ],
              [
                106.323207,
                10.945952
              ],
              [
                106.322923,
                10.945964
              ],
              [
                106.322475,
                10.945991
              ],
              [
                106.321373,
                10.946058
              ],
              [
                106.32089,
                10.946087
              ],
              [
                106.319221,
                10.94609
              ],
              [
                106.319213,
                10.946032
              ],
              [
                106.319149,
                10.94563
              ],
              [
                106.31903,
                10.944886
              ],
              [
                106.318758,
                10.943178
              ],
              [
                106.318679,
                10.942683
              ],
              [
                106.31865,
                10.942059
              ],
              [
                106.318643,
                10.941727
              ],
              [
                106.318638,
                10.941523
              ],
              [
                106.318343,
                10.940558
              ],
              [
                106.318294,
                10.940338
              ],
              [
                106.318456,
                10.939859
              ],
              [
                106.318772,
                10.939358
              ],
              [
                106.319367,
                10.938816
              ],
              [
                106.320952,
                10.937273
              ],
              [
                106.320748,
                10.937087
              ],
              [
                106.320478,
                10.936694
              ],
              [
                106.320302,
                10.93645
              ],
              [
                106.319843,
                10.936115
              ],
              [
                106.318926,
                10.935487
              ],
              [
                106.318343,
                10.935031
              ],
              [
                106.318054,
                10.934716
              ],
              [
                106.317704,
                10.934416
              ],
              [
                106.317484,
                10.934108
              ],
              [
                106.316885,
                10.933135
              ],
              [
                106.31646,
                10.932412
              ],
              [
                106.316343,
                10.932161
              ],
              [
                106.316204,
                10.931679
              ],
              [
                106.316115,
                10.931249
              ],
              [
                106.315997,
                10.930855
              ],
              [
                106.315821,
                10.930403
              ],
              [
                106.315645,
                10.930138
              ],
              [
                106.315368,
                10.929888
              ],
              [
                106.31499,
                10.929696
              ],
              [
                106.314466,
                10.929483
              ],
              [
                106.313804,
                10.929206
              ],
              [
                106.313244,
                10.929065
              ],
              [
                106.312604,
                10.92891
              ],
              [
                106.312008,
                10.928819
              ],
              [
                106.31158,
                10.928771
              ],
              [
                106.310851,
                10.928638
              ],
              [
                106.310299,
                10.928439
              ],
              [
                106.309884,
                10.92839
              ],
              [
                106.309507,
                10.928428
              ],
              [
                106.308998,
                10.928358
              ],
              [
                106.308642,
                10.928238
              ],
              [
                106.308205,
                10.928067
              ],
              [
                106.307929,
                10.928011
              ],
              [
                106.307399,
                10.92797
              ],
              [
                106.307072,
                10.927986
              ],
              [
                106.306782,
                10.928081
              ],
              [
                106.306339,
                10.928176
              ],
              [
                106.306078,
                10.928213
              ],
              [
                106.305959,
                10.9282
              ],
              [
                106.305741,
                10.928158
              ],
              [
                106.305548,
                10.928173
              ],
              [
                106.305306,
                10.928241
              ],
              [
                106.305088,
                10.928247
              ],
              [
                106.304837,
                10.928291
              ],
              [
                106.304682,
                10.928407
              ],
              [
                106.304499,
                10.928508
              ],
              [
                106.304295,
                10.928499
              ],
              [
                106.303898,
                10.928353
              ],
              [
                106.302817,
                10.927922
              ],
              [
                106.302072,
                10.927604
              ],
              [
                106.301711,
                10.929849
              ],
              [
                106.301066,
                10.933067
              ],
              [
                106.300687,
                10.934906
              ],
              [
                106.300464,
                10.936935
              ],
              [
                106.3003,
                10.939328
              ],
              [
                106.300171,
                10.940822
              ],
              [
                106.299903,
                10.941607
              ],
              [
                106.299537,
                10.942145
              ],
              [
                106.29874,
                10.942862
              ],
              [
                106.295338,
                10.94558
              ],
              [
                106.292273,
                10.948172
              ],
              [
                106.288221,
                10.951208
              ],
              [
                106.285683,
                10.953332
              ],
              [
                106.284841,
                10.954442
              ],
              [
                106.284391,
                10.955341
              ],
              [
                106.284213,
                10.956239
              ],
              [
                106.284126,
                10.957047
              ],
              [
                106.284312,
                10.958093
              ],
              [
                106.284802,
                10.959467
              ],
              [
                106.285626,
                10.961138
              ],
              [
                106.286723,
                10.962897
              ],
              [
                106.287857,
                10.965351
              ],
              [
                106.288994,
                10.967896
              ],
              [
                106.289964,
                10.970713
              ],
              [
                106.290045,
                10.97167
              ],
              [
                106.289873,
                10.972207
              ],
              [
                106.289256,
                10.972841
              ],
              [
                106.288367,
                10.973323
              ],
              [
                106.287005,
                10.973444
              ],
              [
                106.285316,
                10.973393
              ],
              [
                106.284438,
                10.973344
              ],
              [
                106.28254,
                10.973562
              ],
              [
                106.28122,
                10.973955
              ],
              [
                106.280545,
                10.973994
              ],
              [
                106.279248,
                10.974048
              ],
              [
                106.278309,
                10.974099
              ],
              [
                106.277022,
                10.97444
              ],
              [
                106.275572,
                10.974982
              ],
              [
                106.274267,
                10.975469
              ],
              [
                106.273088,
                10.975942
              ],
              [
                106.272371,
                10.976648
              ],
              [
                106.272141,
                10.97728
              ],
              [
                106.272162,
                10.978172
              ],
              [
                106.272427,
                10.979329
              ],
              [
                106.273223,
                10.981032
              ],
              [
                106.273982,
                10.981979
              ],
              [
                106.275396,
                10.983107
              ],
              [
                106.276356,
                10.983526
              ],
              [
                106.277544,
                10.983975
              ],
              [
                106.279361,
                10.984231
              ],
              [
                106.280863,
                10.984512
              ],
              [
                106.281956,
                10.985105
              ],
              [
                106.28266,
                10.985581
              ],
              [
                106.2839,
                10.986867
              ],
              [
                106.285008,
                10.988577
              ],
              [
                106.28602,
                10.99039
              ],
              [
                106.286758,
                10.99224
              ],
              [
                106.28684,
                10.992799
              ],
              [
                106.286684,
                10.993561
              ],
              [
                106.28622,
                10.994716
              ],
              [
                106.285945,
                10.995686
              ],
              [
                106.285304,
                10.997378
              ],
              [
                106.284856,
                10.998983
              ],
              [
                106.284856,
                10.998984
              ],
              [
                106.284308,
                11.000773
              ],
              [
                106.284042,
                11.001629
              ],
              [
                106.283719,
                11.002826
              ],
              [
                106.283552,
                11.003401
              ],
              [
                106.283318,
                11.003904
              ],
              [
                106.282976,
                11.004462
              ],
              [
                106.28262,
                11.004894
              ],
              [
                106.282295,
                11.005296
              ],
              [
                106.281722,
                11.005801
              ],
              [
                106.28104,
                11.006318
              ],
              [
                106.280352,
                11.006757
              ],
              [
                106.279452,
                11.007234
              ],
              [
                106.277943,
                11.008119
              ],
              [
                106.276137,
                11.00912
              ],
              [
                106.275123,
                11.009728
              ],
              [
                106.27406,
                11.010348
              ],
              [
                106.273457,
                11.010769
              ],
              [
                106.273112,
                11.011048
              ],
              [
                106.272195,
                11.011756
              ],
              [
                106.271399,
                11.012501
              ],
              [
                106.271001,
                11.012873
              ],
              [
                106.270773,
                11.013257
              ],
              [
                106.270629,
                11.013849
              ],
              [
                106.270615,
                11.014354
              ],
              [
                106.270628,
                11.014621
              ],
              [
                106.270708,
                11.015117
              ],
              [
                106.271119,
                11.016157
              ],
              [
                106.272304,
                11.018819
              ],
              [
                106.272961,
                11.020068
              ],
              [
                106.273281,
                11.020622
              ],
              [
                106.273928,
                11.021739
              ],
              [
                106.274494,
                11.021419
              ],
              [
                106.274628,
                11.021344
              ],
              [
                106.274903,
                11.021137
              ],
              [
                106.275141,
                11.020874
              ],
              [
                106.275333,
                11.020583
              ],
              [
                106.275463,
                11.02045
              ],
              [
                106.275599,
                11.020353
              ],
              [
                106.276347,
                11.01992
              ],
              [
                106.276539,
                11.019727
              ],
              [
                106.276827,
                11.019339
              ],
              [
                106.277174,
                11.018942
              ],
              [
                106.277387,
                11.018633
              ],
              [
                106.277637,
                11.018293
              ],
              [
                106.277835,
                11.017913
              ],
              [
                106.27795,
                11.017626
              ],
              [
                106.278014,
                11.017425
              ],
              [
                106.278123,
                11.017228
              ],
              [
                106.278476,
                11.016694
              ],
              [
                106.278815,
                11.016208
              ],
              [
                106.278923,
                11.015975
              ],
              [
                106.278981,
                11.015928
              ],
              [
                106.279021,
                11.015927
              ],
              [
                106.279065,
                11.015931
              ],
              [
                106.279089,
                11.016004
              ],
              [
                106.279125,
                11.016091
              ],
              [
                106.279223,
                11.016379
              ],
              [
                106.279377,
                11.016651
              ],
              [
                106.279608,
                11.01717
              ],
              [
                106.279776,
                11.017428
              ],
              [
                106.280024,
                11.017714
              ],
              [
                106.280254,
                11.017989
              ],
              [
                106.280371,
                11.018093
              ],
              [
                106.28048,
                11.018161
              ],
              [
                106.280735,
                11.018375
              ],
              [
                106.280932,
                11.018557
              ],
              [
                106.281038,
                11.018628
              ],
              [
                106.281315,
                11.018712
              ],
              [
                106.281349,
                11.018727
              ],
              [
                106.281751,
                11.018851
              ],
              [
                106.281896,
                11.01893
              ],
              [
                106.281969,
                11.019015
              ],
              [
                106.281992,
                11.019102
              ],
              [
                106.28201,
                11.019188
              ],
              [
                106.282012,
                11.019493
              ],
              [
                106.282077,
                11.019607
              ],
              [
                106.282216,
                11.019696
              ],
              [
                106.282532,
                11.019828
              ],
              [
                106.282896,
                11.020006
              ],
              [
                106.283064,
                11.020141
              ],
              [
                106.283144,
                11.020245
              ],
              [
                106.283207,
                11.020431
              ],
              [
                106.283346,
                11.020725
              ],
              [
                106.283463,
                11.020868
              ],
              [
                106.283784,
                11.021154
              ],
              [
                106.283919,
                11.02134
              ],
              [
                106.283963,
                11.021469
              ],
              [
                106.283989,
                11.021627
              ],
              [
                106.284009,
                11.021867
              ],
              [
                106.284053,
                11.02201
              ],
              [
                106.284188,
                11.022099
              ],
              [
                106.284402,
                11.022185
              ],
              [
                106.284533,
                11.022206
              ],
              [
                106.284631,
                11.022209
              ],
              [
                106.284736,
                11.022169
              ],
              [
                106.284928,
                11.022
              ],
              [
                106.2852,
                11.021761
              ],
              [
                106.285428,
                11.021617
              ],
              [
                106.28562,
                11.021534
              ],
              [
                106.285791,
                11.021511
              ],
              [
                106.285932,
                11.021547
              ],
              [
                106.286159,
                11.021618
              ],
              [
                106.286664,
                11.021852
              ],
              [
                106.286951,
                11.021933
              ],
              [
                106.287107,
                11.021943
              ],
              [
                106.287271,
                11.021914
              ],
              [
                106.287495,
                11.021802
              ],
              [
                106.287644,
                11.021762
              ],
              [
                106.287757,
                11.021754
              ],
              [
                106.28788,
                11.021779
              ],
              [
                106.287982,
                11.021857
              ],
              [
                106.288045,
                11.021961
              ],
              [
                106.288074,
                11.02209
              ],
              [
                106.288075,
                11.022226
              ],
              [
                106.288064,
                11.022514
              ],
              [
                106.287969,
                11.022894
              ],
              [
                106.287861,
                11.023225
              ],
              [
                106.287696,
                11.023588
              ],
              [
                106.287476,
                11.02403
              ],
              [
                106.287339,
                11.024307
              ],
              [
                106.2873,
                11.024462
              ],
              [
                106.287304,
                11.02453
              ],
              [
                106.287348,
                11.024576
              ],
              [
                106.287409,
                11.024583
              ],
              [
                106.287544,
                11.024561
              ],
              [
                106.287874,
                11.02442
              ],
              [
                106.287982,
                11.024361
              ],
              [
                106.288192,
                11.024218
              ],
              [
                106.288363,
                11.024177
              ],
              [
                106.288755,
                11.024064
              ],
              [
                106.289001,
                11.023956
              ],
              [
                106.289244,
                11.02384
              ],
              [
                106.289346,
                11.023796
              ],
              [
                106.289734,
                11.02359
              ],
              [
                106.289962,
                11.023521
              ],
              [
                106.29018,
                11.023459
              ],
              [
                106.290347,
                11.023466
              ],
              [
                106.290503,
                11.023469
              ],
              [
                106.290637,
                11.023461
              ],
              [
                106.290837,
                11.023413
              ],
              [
                106.290986,
                11.023413
              ],
              [
                106.29108,
                11.023423
              ],
              [
                106.291139,
                11.023477
              ],
              [
                106.291143,
                11.023545
              ],
              [
                106.29115,
                11.023638
              ],
              [
                106.291183,
                11.023706
              ],
              [
                106.291267,
                11.02376
              ],
              [
                106.291322,
                11.023838
              ],
              [
                106.291366,
                11.023978
              ],
              [
                106.291387,
                11.024498
              ],
              [
                106.291437,
                11.025201
              ],
              [
                106.291488,
                11.025287
              ],
              [
                106.291579,
                11.025348
              ],
              [
                106.291725,
                11.025408
              ],
              [
                106.292277,
                11.025514
              ],
              [
                106.292775,
                11.025572
              ],
              [
                106.293189,
                11.025567
              ],
              [
                106.293422,
                11.025527
              ],
              [
                106.293552,
                11.025483
              ],
              [
                106.294052,
                11.025187
              ],
              [
                106.294251,
                11.025049
              ],
              [
                106.29432,
                11.02502
              ],
              [
                106.294378,
                11.025027
              ],
              [
                106.294462,
                11.025117
              ],
              [
                106.294583,
                11.025227
              ],
              [
                106.294779,
                11.025327
              ],
              [
                106.295048,
                11.025417
              ],
              [
                106.295188,
                11.025457
              ],
              [
                106.29539,
                11.025507
              ],
              [
                106.295841,
                11.025656
              ],
              [
                106.296187,
                11.025734
              ],
              [
                106.296663,
                11.025775
              ],
              [
                106.296932,
                11.025777
              ],
              [
                106.297019,
                11.025748
              ],
              [
                106.297073,
                11.02569
              ],
              [
                106.297116,
                11.0256
              ],
              [
                106.297132,
                11.02553
              ],
              [
                106.297132,
                11.02553
              ]
            ]
          ]
        ]
      },
      "properties": {
        "code": "27943",
        "name": "An Ninh",
        "nameEn": "An Ninh",
        "fullName": "Xã An Ninh",
        "fullNameEn": "An Ninh Commune",
        "codeName": "an_ninh",
        "postalCode": "82726",
        "postalCodePrefix": "",
        "gisServerId": "diaphanhanhchinhcapxa_2025.1304",
        "areaKm2": 57.69
      }
    }
  ]
}