{
  "type": "FeatureCollection",
  "bbox": [
    106.417617,
    10.655272,
    106.547662,
    10.746418
  ],
  "features": [
    {
      "type": "Feature",
      "id": "28003",
      "bbox": [
        106.417617,
        10.655272,
        106.547662,
        10.746418
      ],
      "geometry": {
        "type": "MultiPolygon",
        "coordinates": [
          [
            [
              [
                106.496354,
                10.697328
              ],
              [
                106.497226,
                10.701616
              ],
              [
                106.496945,
                10.701836
              ],
              [
                106.496791,
                10.702049
              ],
              [
                106.496635,
                10.702266
              ],
              [
                106.496622,
                10.702279
              ],
              [
                106.496529,
                10.702387
              ],
              [
                106.496384,
                10.702555
              ],
              [
                106.496064,
                10.702958
              ],
              [
                106.495748,
                10.703356
              ],
              [
                106.495331,
                10.703872
              ],
              [
                106.494913,
                10.704389
              ],
              [
                106.494322,
                10.705129
              ],
              [
                106.493731,
                10.70587
              ],
              [
                106.493683,
                10.705927
              ],
              [
                106.49358,
                10.706052
              ],
              [
                106.493305,
                10.706385
              ],
              [
                106.493084,
                10.706652
              ],
              [
                106.493061,
                10.706684
              ],
              [
                106.492984,
                10.70679
              ],
              [
                106.492946,
                10.706843
              ],
              [
                106.492862,
                10.706956
              ],
              [
                106.492811,
                10.707025
              ],
              [
                106.492726,
                10.707128
              ],
              [
                106.492672,
                10.707193
              ],
              [
                106.492375,
                10.707553
              ],
              [
                106.492077,
                10.707914
              ],
              [
                106.491586,
                10.708517
              ],
              [
                106.491039,
                10.709205
              ],
              [
                106.491029,
                10.709213
              ],
              [
                106.491019,
                10.709219
              ],
              [
                106.490951,
                10.709305
              ],
              [
                106.490942,
                10.709338
              ],
              [
                106.490837,
                10.709457
              ],
              [
                106.490801,
                10.709515
              ],
              [
                106.490782,
                10.709547
              ],
              [
                106.490647,
                10.709709
              ],
              [
                106.490557,
                10.709845
              ],
              [
                106.490545,
                10.709861
              ],
              [
                106.490375,
                10.710077
              ],
              [
                106.490031,
                10.710531
              ],
              [
                106.489692,
                10.710962
              ],
              [
                106.489579,
                10.711104
              ],
              [
                106.489466,
                10.711247
              ],
              [
                106.489218,
                10.711563
              ],
              [
                106.48908,
                10.711452
              ],
              [
                106.489023,
                10.711399
              ],
              [
                106.488935,
                10.711335
              ],
              [
                106.488691,
                10.711148
              ],
              [
                106.488361,
                10.710915
              ],
              [
                106.487802,
                10.710523
              ],
              [
                106.487481,
                10.710289
              ],
              [
                106.48716,
                10.710055
              ],
              [
                106.486829,
                10.709826
              ],
              [
                106.486032,
                10.70925
              ],
              [
                106.485233,
                10.708665
              ],
              [
                106.484461,
                10.708096
              ],
              [
                106.483992,
                10.707757
              ],
              [
                106.483491,
                10.707391
              ],
              [
                106.483023,
                10.707052
              ],
              [
                106.482581,
                10.706729
              ],
              [
                106.482181,
                10.706438
              ],
              [
                106.482106,
                10.706383
              ],
              [
                106.481863,
                10.706202
              ],
              [
                106.481633,
                10.706044
              ],
              [
                106.48158,
                10.706017
              ],
              [
                106.481374,
                10.705882
              ],
              [
                106.481501,
                10.705603
              ],
              [
                106.48169,
                10.70518
              ],
              [
                106.48206,
                10.704402
              ],
              [
                106.482249,
                10.703978
              ],
              [
                106.482254,
                10.703967
              ],
              [
                106.482328,
                10.703827
              ],
              [
                106.48233,
                10.703817
              ],
              [
                106.48233,
                10.70381
              ],
              [
                106.482363,
                10.703709
              ],
              [
                106.482391,
                10.70367
              ],
              [
                106.482444,
                10.703556
              ],
              [
                106.482461,
                10.703515
              ],
              [
                106.482728,
                10.702852
              ],
              [
                106.483075,
                10.701964
              ],
              [
                106.483366,
                10.701189
              ],
              [
                106.483553,
                10.700703
              ],
              [
                106.483559,
                10.700679
              ],
              [
                106.483561,
                10.700663
              ],
              [
                106.48356,
                10.700652
              ],
              [
                106.483569,
                10.700572
              ],
              [
                106.483611,
                10.700505
              ],
              [
                106.484316,
                10.698665
              ],
              [
                106.484632,
                10.697704
              ],
              [
                106.484969,
                10.69668
              ],
              [
                106.485749,
                10.694204
              ],
              [
                106.485749,
                10.694204
              ],
              [
                106.485646,
                10.694156
              ],
              [
                106.485641,
                10.69417
              ],
              [
                106.482953,
                10.693219
              ],
              [
                106.481861,
                10.692788
              ],
              [
                106.481557,
                10.692674
              ],
              [
                106.479181,
                10.69176
              ],
              [
                106.479114,
                10.691736
              ],
              [
                106.477561,
                10.691174
              ],
              [
                106.476518,
                10.690782
              ],
              [
                106.475028,
                10.690205
              ],
              [
                106.474865,
                10.690148
              ],
              [
                106.474633,
                10.690091
              ],
              [
                106.474382,
                10.690046
              ],
              [
                106.474311,
                10.690038
              ],
              [
                106.471972,
                10.689832
              ],
              [
                106.471844,
                10.689821
              ],
              [
                106.470513,
                10.689721
              ],
              [
                106.469055,
                10.689595
              ],
              [
                106.467799,
                10.689482
              ],
              [
                106.466559,
                10.689371
              ],
              [
                106.465131,
                10.689238
              ],
              [
                106.463764,
                10.689124
              ],
              [
                106.4634,
                10.689089
              ],
              [
                106.46214,
                10.688994
              ],
              [
                106.460553,
                10.688859
              ],
              [
                106.458798,
                10.688703
              ],
              [
                106.457835,
                10.688615
              ],
              [
                106.45593,
                10.688441
              ],
              [
                106.455038,
                10.688375
              ],
              [
                106.454294,
                10.6883
              ],
              [
                106.454191,
                10.688291
              ],
              [
                106.452948,
                10.688201
              ],
              [
                106.450735,
                10.688014
              ],
              [
                106.448782,
                10.687827
              ],
              [
                106.448352,
                10.687787
              ],
              [
                106.447701,
                10.687734
              ],
              [
                106.447713,
                10.687655
              ],
              [
                106.447858,
                10.686661
              ],
              [
                106.44803,
                10.685416
              ],
              [
                106.448168,
                10.684526
              ],
              [
                106.448413,
                10.682971
              ],
              [
                106.448714,
                10.680987
              ],
              [
                106.449041,
                10.678928
              ],
              [
                106.449322,
                10.67703
              ],
              [
                106.44937,
                10.676517
              ],
              [
                106.449368,
                10.676064
              ],
              [
                106.44939,
                10.675837
              ],
              [
                106.449447,
                10.675683
              ],
              [
                106.449574,
                10.675486
              ],
              [
                106.449655,
                10.675401
              ],
              [
                106.449718,
                10.675334
              ],
              [
                106.449592,
                10.675241
              ],
              [
                106.449065,
                10.674859
              ],
              [
                106.448881,
                10.674679
              ],
              [
                106.448521,
                10.674429
              ],
              [
                106.448266,
                10.674304
              ],
              [
                106.447925,
                10.674052
              ],
              [
                106.447764,
                10.673876
              ],
              [
                106.447638,
                10.673654
              ],
              [
                106.447582,
                10.673454
              ],
              [
                106.447577,
                10.673169
              ],
              [
                106.447622,
                10.672234
              ],
              [
                106.447684,
                10.671491
              ],
              [
                106.446678,
                10.671452
              ],
              [
                106.444897,
                10.670654
              ],
              [
                106.442225,
                10.668875
              ],
              [
                106.441124,
                10.668419
              ],
              [
                106.440167,
                10.66836
              ],
              [
                106.43917,
                10.668521
              ],
              [
                106.438616,
                10.66861
              ],
              [
                106.435698,
                10.669314
              ],
              [
                106.43172,
                10.670469
              ],
              [
                106.427115,
                10.672489
              ],
              [
                106.426512,
                10.672828
              ],
              [
                106.425065,
                10.673778
              ],
              [
                106.423972,
                10.674947
              ],
              [
                106.423163,
                10.676051
              ],
              [
                106.421848,
                10.678232
              ],
              [
                106.421414,
                10.679437
              ],
              [
                106.421036,
                10.680815
              ],
              [
                106.420553,
                10.682077
              ],
              [
                106.420066,
                10.682898
              ],
              [
                106.418972,
                10.683991
              ],
              [
                106.4182,
                10.684954
              ],
              [
                106.417868,
                10.685736
              ],
              [
                106.417839,
                10.685869
              ],
              [
                106.41771,
                10.686458
              ],
              [
                106.417617,
                10.687629
              ],
              [
                106.417821,
                10.689022
              ],
              [
                106.418514,
                10.691305
              ],
              [
                106.419653,
                10.694892
              ],
              [
                106.420301,
                10.69711
              ],
              [
                106.420995,
                10.699589
              ],
              [
                106.421553,
                10.701307
              ],
              [
                106.422219,
                10.702698
              ],
              [
                106.423305,
                10.704326
              ],
              [
                106.425209,
                10.706973
              ],
              [
                106.427003,
                10.709382
              ],
              [
                106.428511,
                10.711944
              ],
              [
                106.429823,
                10.715052
              ],
              [
                106.4303,
                10.716303
              ],
              [
                106.430724,
                10.717708
              ],
              [
                106.43091,
                10.71826
              ],
              [
                106.431173,
                10.720249
              ],
              [
                106.431212,
                10.720634
              ],
              [
                106.431367,
                10.722127
              ],
              [
                106.431515,
                10.723954
              ],
              [
                106.431517,
                10.724353
              ],
              [
                106.431738,
                10.724352
              ],
              [
                106.432084,
                10.724436
              ],
              [
                106.432507,
                10.72469
              ],
              [
                106.432873,
                10.724935
              ],
              [
                106.433191,
                10.725058
              ],
              [
                106.433527,
                10.725132
              ],
              [
                106.434103,
                10.725177
              ],
              [
                106.435121,
                10.725229
              ],
              [
                106.436609,
                10.72527
              ],
              [
                106.438299,
                10.725328
              ],
              [
                106.439171,
                10.725391
              ],
              [
                106.440137,
                10.725374
              ],
              [
                106.442545,
                10.72542
              ],
              [
                106.444181,
                10.725527
              ],
              [
                106.444665,
                10.725616
              ],
              [
                106.445488,
                10.725825
              ],
              [
                106.44655,
                10.726223
              ],
              [
                106.447481,
                10.726697
              ],
              [
                106.448529,
                10.727376
              ],
              [
                106.449068,
                10.727792
              ],
              [
                106.449554,
                10.728177
              ],
              [
                106.450718,
                10.729053
              ],
              [
                106.452267,
                10.730254
              ],
              [
                106.453246,
                10.731025
              ],
              [
                106.454441,
                10.731939
              ],
              [
                106.455127,
                10.732445
              ],
              [
                106.456022,
                10.733125
              ],
              [
                106.457218,
                10.734066
              ],
              [
                106.458634,
                10.735164
              ],
              [
                106.460237,
                10.736319
              ],
              [
                106.461031,
                10.736962
              ],
              [
                106.461602,
                10.737415
              ],
              [
                106.462211,
                10.737891
              ],
              [
                106.462843,
                10.738344
              ],
              [
                106.463722,
                10.739024
              ],
              [
                106.4646,
                10.739688
              ],
              [
                106.466103,
                10.74085
              ],
              [
                106.467063,
                10.741575
              ],
              [
                106.47215,
                10.74544
              ],
              [
                106.473375,
                10.746418
              ],
              [
                106.473638,
                10.746131
              ],
              [
                106.473997,
                10.745772
              ],
              [
                106.474446,
                10.74532
              ],
              [
                106.474602,
                10.745127
              ],
              [
                106.47473,
                10.744945
              ],
              [
                106.475081,
                10.744465
              ],
              [
                106.477193,
                10.741681
              ],
              [
                106.478291,
                10.740194
              ],
              [
                106.479641,
                10.738455
              ],
              [
                106.480924,
                10.736818
              ],
              [
                106.481023,
                10.736687
              ],
              [
                106.481756,
                10.735716
              ],
              [
                106.481974,
                10.735427
              ],
              [
                106.482193,
                10.73558
              ],
              [
                106.482258,
                10.735627
              ],
              [
                106.482293,
                10.735645
              ],
              [
                106.482336,
                10.735639
              ],
              [
                106.482376,
                10.735613
              ],
              [
                106.482433,
                10.735546
              ],
              [
                106.483361,
                10.734361
              ],
              [
                106.484742,
                10.732632
              ],
              [
                106.486161,
                10.730863
              ],
              [
                106.486965,
                10.729837
              ],
              [
                106.486965,
                10.729836
              ],
              [
                106.487012,
                10.729809
              ],
              [
                106.487051,
                10.729813
              ],
              [
                106.487506,
                10.73014
              ],
              [
                106.487743,
                10.73033
              ],
              [
                106.487967,
                10.730529
              ],
              [
                106.488452,
                10.730927
              ],
              [
                106.488655,
                10.731089
              ],
              [
                106.488825,
                10.731225
              ],
              [
                106.488896,
                10.731172
              ],
              [
                106.489513,
                10.730737
              ],
              [
                106.490272,
                10.730277
              ],
              [
                106.49099,
                10.729822
              ],
              [
                106.491107,
                10.729732
              ],
              [
                106.491379,
                10.729518
              ],
              [
                106.491665,
                10.729351
              ],
              [
                106.491799,
                10.729256
              ],
              [
                106.491817,
                10.729237
              ],
              [
                106.492003,
                10.72909
              ],
              [
                106.49218,
                10.728987
              ],
              [
                106.492642,
                10.728758
              ],
              [
                106.492954,
                10.72859
              ],
              [
                106.492975,
                10.728582
              ],
              [
                106.493104,
                10.728528
              ],
              [
                106.493142,
                10.728513
              ],
              [
                106.493306,
                10.728438
              ],
              [
                106.493816,
                10.728125
              ],
              [
                106.493989,
                10.728018
              ],
              [
                106.494136,
                10.727928
              ],
              [
                106.495133,
                10.727343
              ],
              [
                106.49521,
                10.727289
              ],
              [
                106.495425,
                10.727455
              ],
              [
                106.495614,
                10.727592
              ],
              [
                106.495648,
                10.727603
              ],
              [
                106.495686,
                10.727599
              ],
              [
                106.495723,
                10.727586
              ],
              [
                106.495907,
                10.727441
              ],
              [
                106.496696,
                10.726807
              ],
              [
                106.497294,
                10.726329
              ],
              [
                106.497323,
                10.726307
              ],
              [
                106.497901,
                10.725949
              ],
              [
                106.498495,
                10.725628
              ],
              [
                106.499265,
                10.725153
              ],
              [
                106.499318,
                10.725117
              ],
              [
                106.499485,
                10.725012
              ],
              [
                106.499554,
                10.72499
              ],
              [
                106.499585,
                10.724996
              ],
              [
                106.499626,
                10.725015
              ],
              [
                106.499908,
                10.725237
              ],
              [
                106.50055,
                10.725732
              ],
              [
                106.501266,
                10.726295
              ],
              [
                106.501452,
                10.726424
              ],
              [
                106.50148,
                10.726446
              ],
              [
                106.501535,
                10.726467
              ],
              [
                106.501557,
                10.726468
              ],
              [
                106.501574,
                10.726464
              ],
              [
                106.501591,
                10.726459
              ],
              [
                106.501657,
                10.726442
              ],
              [
                106.50167,
                10.72644
              ],
              [
                106.501782,
                10.726425
              ],
              [
                106.501787,
                10.726419
              ],
              [
                106.501928,
                10.726286
              ],
              [
                106.502047,
                10.726148
              ],
              [
                106.502282,
                10.725848
              ],
              [
                106.502476,
                10.725601
              ],
              [
                106.502867,
                10.725096
              ],
              [
                106.503785,
                10.723971
              ],
              [
                106.505549,
                10.721776
              ],
              [
                106.507151,
                10.719777
              ],
              [
                106.508362,
                10.71836
              ],
              [
                106.509335,
                10.717134
              ],
              [
                106.509384,
                10.717072
              ],
              [
                106.510942,
                10.717978
              ],
              [
                106.510966,
                10.717992
              ],
              [
                106.511171,
                10.718142
              ],
              [
                106.511709,
                10.718474
              ],
              [
                106.512668,
                10.719048
              ],
              [
                106.51311,
                10.719298
              ],
              [
                106.513605,
                10.719559
              ],
              [
                106.514712,
                10.72025
              ],
              [
                106.514815,
                10.720315
              ],
              [
                106.516087,
                10.72114
              ],
              [
                106.516615,
                10.721469
              ],
              [
                106.517322,
                10.721902
              ],
              [
                106.518189,
                10.722409
              ],
              [
                106.518853,
                10.722813
              ],
              [
                106.519502,
                10.723246
              ],
              [
                106.519931,
                10.723525
              ],
              [
                106.520129,
                10.723641
              ],
              [
                106.520187,
                10.723658
              ],
              [
                106.520277,
                10.723615
              ],
              [
                106.520287,
                10.723608
              ],
              [
                106.520708,
                10.723294
              ],
              [
                106.521094,
                10.723001
              ],
              [
                106.521564,
                10.722633
              ],
              [
                106.522331,
                10.722055
              ],
              [
                106.522892,
                10.721647
              ],
              [
                106.523869,
                10.720948
              ],
              [
                106.524938,
                10.720302
              ],
              [
                106.525232,
                10.720137
              ],
              [
                106.525661,
                10.719864
              ],
              [
                106.525976,
                10.71969
              ],
              [
                106.526182,
                10.719564
              ],
              [
                106.526223,
                10.719549
              ],
              [
                106.526233,
                10.719545
              ],
              [
                106.526284,
                10.71956
              ],
              [
                106.52632,
                10.719585
              ],
              [
                106.526378,
                10.719595
              ],
              [
                106.526402,
                10.719592
              ],
              [
                106.526411,
                10.719591
              ],
              [
                106.526523,
                10.719512
              ],
              [
                106.526671,
                10.719411
              ],
              [
                106.527044,
                10.719215
              ],
              [
                106.527652,
                10.718903
              ],
              [
                106.528238,
                10.718567
              ],
              [
                106.528557,
                10.718393
              ],
              [
                106.528918,
                10.718168
              ],
              [
                106.530098,
                10.71739
              ],
              [
                106.53014,
                10.717363
              ],
              [
                106.530206,
                10.717319
              ],
              [
                106.530205,
                10.717265
              ],
              [
                106.530165,
                10.717194
              ],
              [
                106.529671,
                10.716622
              ],
              [
                106.529416,
                10.716283
              ],
              [
                106.529076,
                10.715875
              ],
              [
                106.528856,
                10.715588
              ],
              [
                106.528418,
                10.714953
              ],
              [
                106.528335,
                10.714864
              ],
              [
                106.528365,
                10.714357
              ],
              [
                106.527963,
                10.712433
              ],
              [
                106.527583,
                10.710989
              ],
              [
                106.527348,
                10.71
              ],
              [
                106.527202,
                10.709363
              ],
              [
                106.527187,
                10.709224
              ],
              [
                106.527201,
                10.7091
              ],
              [
                106.527295,
                10.708688
              ],
              [
                106.527433,
                10.708066
              ],
              [
                106.527737,
                10.706793
              ],
              [
                106.528389,
                10.70424
              ],
              [
                106.528961,
                10.702228
              ],
              [
                106.529696,
                10.700014
              ],
              [
                106.530328,
                10.698248
              ],
              [
                106.531498,
                10.695197
              ],
              [
                106.531889,
                10.694035
              ],
              [
                106.532215,
                10.693486
              ],
              [
                106.532266,
                10.693021
              ],
              [
                106.532516,
                10.692358
              ],
              [
                106.533098,
                10.690683
              ],
              [
                106.533593,
                10.689053
              ],
              [
                106.533859,
                10.688119
              ],
              [
                106.534292,
                10.687615
              ],
              [
                106.534566,
                10.687317
              ],
              [
                106.534667,
                10.687246
              ],
              [
                106.534783,
                10.687227
              ],
              [
                106.53487,
                10.687205
              ],
              [
                106.534942,
                10.687158
              ],
              [
                106.535051,
                10.687043
              ],
              [
                106.535238,
                10.686737
              ],
              [
                106.535378,
                10.686467
              ],
              [
                106.535515,
                10.686291
              ],
              [
                106.535587,
                10.686179
              ],
              [
                106.535637,
                10.686057
              ],
              [
                106.535651,
                10.685949
              ],
              [
                106.535621,
                10.685795
              ],
              [
                106.535608,
                10.685731
              ],
              [
                106.535591,
                10.685652
              ],
              [
                106.535606,
                10.685598
              ],
              [
                106.535638,
                10.685565
              ],
              [
                106.535675,
                10.685529
              ],
              [
                106.53569,
                10.685529
              ],
              [
                106.53572,
                10.685525
              ],
              [
                106.535738,
                10.685524
              ],
              [
                106.53576,
                10.685523
              ],
              [
                106.535825,
                10.685526
              ],
              [
                106.535908,
                10.685532
              ],
              [
                106.535997,
                10.685541
              ],
              [
                106.536084,
                10.685553
              ],
              [
                106.536105,
                10.685557
              ],
              [
                106.536132,
                10.685561
              ],
              [
                106.536155,
                10.685567
              ],
              [
                106.536496,
                10.685648
              ],
              [
                106.536564,
                10.685664
              ],
              [
                106.536602,
                10.685677
              ],
              [
                106.537491,
                10.685977
              ],
              [
                106.53763,
                10.686018
              ],
              [
                106.537809,
                10.68607
              ],
              [
                106.537844,
                10.686081
              ],
              [
                106.537959,
                10.686087
              ],
              [
                106.538144,
                10.686098
              ],
              [
                106.538509,
                10.686086
              ],
              [
                106.53901,
                10.686056
              ],
              [
                106.53945,
                10.686063
              ],
              [
                106.539803,
                10.686073
              ],
              [
                106.540668,
                10.686201
              ],
              [
                106.540868,
                10.686231
              ],
              [
                106.541672,
                10.686354
              ],
              [
                106.542771,
                10.686487
              ],
              [
                106.543584,
                10.686583
              ],
              [
                106.543867,
                10.686635
              ],
              [
                106.544528,
                10.686756
              ],
              [
                106.545824,
                10.686972
              ],
              [
                106.545956,
                10.686994
              ],
              [
                106.547298,
                10.687145
              ],
              [
                106.547345,
                10.687065
              ],
              [
                106.54741,
                10.686985
              ],
              [
                106.54754,
                10.686822
              ],
              [
                106.547662,
                10.686692
              ],
              [
                106.547617,
                10.686228
              ],
              [
                106.547632,
                10.685507
              ],
              [
                106.54748,
                10.681713
              ],
              [
                106.547387,
                10.681091
              ],
              [
                106.546192,
                10.680801
              ],
              [
                106.545564,
                10.680715
              ],
              [
                106.545111,
                10.679622
              ],
              [
                106.544779,
                10.678913
              ],
              [
                106.544478,
                10.6785
              ],
              [
                106.544153,
                10.67832
              ],
              [
                106.543965,
                10.678227
              ],
              [
                106.543689,
                10.67816
              ],
              [
                106.543286,
                10.678124
              ],
              [
                106.542949,
                10.67802
              ],
              [
                106.542656,
                10.677987
              ],
              [
                106.542241,
                10.677981
              ],
              [
                106.541911,
                10.677982
              ],
              [
                106.540983,
                10.677999
              ],
              [
                106.540261,
                10.677844
              ],
              [
                106.540043,
                10.677772
              ],
              [
                106.539488,
                10.677675
              ],
              [
                106.539228,
                10.677708
              ],
              [
                106.538981,
                10.677714
              ],
              [
                106.537679,
                10.677506
              ],
              [
                106.537416,
                10.677544
              ],
              [
                106.537352,
                10.677552
              ],
              [
                106.537159,
                10.677273
              ],
              [
                106.537062,
                10.677147
              ],
              [
                106.537033,
                10.677121
              ],
              [
                106.536952,
                10.677044
              ],
              [
                106.536897,
                10.677016
              ],
              [
                106.536795,
                10.676992
              ],
              [
                106.536744,
                10.676988
              ],
              [
                106.536671,
                10.676994
              ],
              [
                106.536543,
                10.67705
              ],
              [
                106.536302,
                10.67722
              ],
              [
                106.536187,
                10.677274
              ],
              [
                106.536063,
                10.677296
              ],
              [
                106.535858,
                10.677246
              ],
              [
                106.535644,
                10.677125
              ],
              [
                106.535484,
                10.67702
              ],
              [
                106.535302,
                10.676899
              ],
              [
                106.535067,
                10.676728
              ],
              [
                106.534964,
                10.676561
              ],
              [
                106.535074,
                10.676259
              ],
              [
                106.535278,
                10.676033
              ],
              [
                106.535531,
                10.675707
              ],
              [
                106.535612,
                10.675546
              ],
              [
                106.535627,
                10.675221
              ],
              [
                106.535623,
                10.674891
              ],
              [
                106.535624,
                10.674606
              ],
              [
                106.535643,
                10.674405
              ],
              [
                106.535729,
                10.674092
              ],
              [
                106.535854,
                10.673849
              ],
              [
                106.536173,
                10.673387
              ],
              [
                106.536359,
                10.672976
              ],
              [
                106.536468,
                10.67269
              ],
              [
                106.536476,
                10.672672
              ],
              [
                106.536717,
                10.672055
              ],
              [
                106.536837,
                10.671769
              ],
              [
                106.536836,
                10.671623
              ],
              [
                106.536817,
                10.671522
              ],
              [
                106.536739,
                10.671452
              ],
              [
                106.536604,
                10.671383
              ],
              [
                106.536291,
                10.671326
              ],
              [
                106.536182,
                10.67129
              ],
              [
                106.536051,
                10.671233
              ],
              [
                106.535939,
                10.671129
              ],
              [
                106.535842,
                10.671014
              ],
              [
                106.535774,
                10.670905
              ],
              [
                106.53569,
                10.670675
              ],
              [
                106.535582,
                10.670399
              ],
              [
                106.535509,
                10.670246
              ],
              [
                106.535441,
                10.670107
              ],
              [
                106.535324,
                10.669931
              ],
              [
                106.535284,
                10.669821
              ],
              [
                106.535255,
                10.669695
              ],
              [
                106.535265,
                10.669439
              ],
              [
                106.535306,
                10.669213
              ],
              [
                106.535372,
                10.669022
              ],
              [
                106.535475,
                10.668859
              ],
              [
                106.535591,
                10.66876
              ],
              [
                106.535776,
                10.66867
              ],
              [
                106.535975,
                10.668657
              ],
              [
                106.536591,
                10.668724
              ],
              [
                106.53788,
                10.668793
              ],
              [
                106.53806,
                10.668761
              ],
              [
                106.53822,
                10.668652
              ],
              [
                106.538366,
                10.668512
              ],
              [
                106.538527,
                10.668289
              ],
              [
                106.538647,
                10.668068
              ],
              [
                106.538671,
                10.667958
              ],
              [
                106.53867,
                10.667819
              ],
              [
                106.53865,
                10.667752
              ],
              [
                106.538597,
                10.667709
              ],
              [
                106.538476,
                10.667652
              ],
              [
                106.538267,
                10.667601
              ],
              [
                106.538021,
                10.667583
              ],
              [
                106.537711,
                10.66758
              ],
              [
                106.537537,
                10.66756
              ],
              [
                106.537337,
                10.667517
              ],
              [
                106.537218,
                10.667447
              ],
              [
                106.537072,
                10.667318
              ],
              [
                106.536835,
                10.667132
              ],
              [
                106.536475,
                10.666978
              ],
              [
                106.536189,
                10.666898
              ],
              [
                106.536009,
                10.666818
              ],
              [
                106.535878,
                10.666718
              ],
              [
                106.535733,
                10.66658
              ],
              [
                106.535645,
                10.666494
              ],
              [
                106.535572,
                10.66637
              ],
              [
                106.535528,
                10.66626
              ],
              [
                106.535488,
                10.666088
              ],
              [
                106.535458,
                10.665931
              ],
              [
                106.535448,
                10.665711
              ],
              [
                106.535461,
                10.665303
              ],
              [
                106.535481,
                10.66502
              ],
              [
                106.535496,
                10.664918
              ],
              [
                106.535543,
                10.664509
              ],
              [
                106.535598,
                10.663974
              ],
              [
                106.535567,
                10.663452
              ],
              [
                106.535566,
                10.663399
              ],
              [
                106.535532,
                10.66316
              ],
              [
                106.535483,
                10.663008
              ],
              [
                106.535394,
                10.662883
              ],
              [
                106.535153,
                10.662698
              ],
              [
                106.534959,
                10.66262
              ],
              [
                106.534513,
                10.662514
              ],
              [
                106.534319,
                10.662429
              ],
              [
                106.534207,
                10.662329
              ],
              [
                106.534095,
                10.662167
              ],
              [
                106.534021,
                10.661948
              ],
              [
                106.533996,
                10.661728
              ],
              [
                106.534014,
                10.661393
              ],
              [
                106.534037,
                10.661139
              ],
              [
                106.534031,
                10.660943
              ],
              [
                106.533982,
                10.660814
              ],
              [
                106.533845,
                10.660609
              ],
              [
                106.533577,
                10.660261
              ],
              [
                106.533412,
                10.660118
              ],
              [
                106.533247,
                10.660038
              ],
              [
                106.533131,
                10.660014
              ],
              [
                106.532991,
                10.66002
              ],
              [
                106.532861,
                10.660035
              ],
              [
                106.532672,
                10.660131
              ],
              [
                106.532495,
                10.660319
              ],
              [
                106.532164,
                10.66066
              ],
              [
                106.531923,
                10.660878
              ],
              [
                106.531799,
                10.660975
              ],
              [
                106.531501,
                10.661146
              ],
              [
                106.531227,
                10.661344
              ],
              [
                106.531078,
                10.66145
              ],
              [
                106.530943,
                10.661494
              ],
              [
                106.530827,
                10.661494
              ],
              [
                106.53073,
                10.661447
              ],
              [
                106.530574,
                10.661328
              ],
              [
                106.530355,
                10.66109
              ],
              [
                106.53017,
                10.660837
              ],
              [
                106.529994,
                10.660479
              ],
              [
                106.529877,
                10.660241
              ],
              [
                106.529751,
                10.660064
              ],
              [
                106.529493,
                10.659726
              ],
              [
                106.529298,
                10.659449
              ],
              [
                106.529224,
                10.65932
              ],
              [
                106.529204,
                10.659196
              ],
              [
                106.529134,
                10.658488
              ],
              [
                106.529104,
                10.658178
              ],
              [
                106.529071,
                10.657809
              ],
              [
                106.529024,
                10.657614
              ],
              [
                106.528959,
                10.657354
              ],
              [
                106.528857,
                10.657003
              ],
              [
                106.528813,
                10.656865
              ],
              [
                106.528801,
                10.656711
              ],
              [
                106.528811,
                10.65657
              ],
              [
                106.528901,
                10.656208
              ],
              [
                106.528905,
                10.656064
              ],
              [
                106.528897,
                10.655926
              ],
              [
                106.528865,
                10.655857
              ],
              [
                106.528591,
                10.655639
              ],
              [
                106.528067,
                10.655324
              ],
              [
                106.527931,
                10.655285
              ],
              [
                106.52777,
                10.655272
              ],
              [
                106.527653,
                10.655322
              ],
              [
                106.527516,
                10.655396
              ],
              [
                106.527371,
                10.655452
              ],
              [
                106.527143,
                10.655457
              ],
              [
                106.526779,
                10.655415
              ],
              [
                106.526596,
                10.655426
              ],
              [
                106.526516,
                10.655442
              ],
              [
                106.526243,
                10.655678
              ],
              [
                106.525995,
                10.656009
              ],
              [
                106.52587,
                10.656322
              ],
              [
                106.525713,
                10.656741
              ],
              [
                106.525659,
                10.656803
              ],
              [
                106.525592,
                10.656853
              ],
              [
                106.525513,
                10.656884
              ],
              [
                106.525403,
                10.656902
              ],
              [
                106.525196,
                10.656882
              ],
              [
                106.524536,
                10.656766
              ],
              [
                106.524052,
                10.656686
              ],
              [
                106.523885,
                10.656615
              ],
              [
                106.523846,
                10.65674
              ],
              [
                106.523792,
                10.657025
              ],
              [
                106.523778,
                10.657264
              ],
              [
                106.523719,
                10.657462
              ],
              [
                106.5235,
                10.657825
              ],
              [
                106.523156,
                10.658482
              ],
              [
                106.522728,
                10.659268
              ],
              [
                106.522542,
                10.65961
              ],
              [
                106.522102,
                10.660444
              ],
              [
                106.521894,
                10.660838
              ],
              [
                106.521828,
                10.660962
              ],
              [
                106.520659,
                10.66314
              ],
              [
                106.520064,
                10.664248
              ],
              [
                106.520009,
                10.664353
              ],
              [
                106.519925,
                10.664509
              ],
              [
                106.519688,
                10.664948
              ],
              [
                106.519237,
                10.665868
              ],
              [
                106.519152,
                10.665965
              ],
              [
                106.51913,
                10.666002
              ],
              [
                106.51907,
                10.666106
              ],
              [
                106.518712,
                10.666732
              ],
              [
                106.518171,
                10.667769
              ],
              [
                106.517945,
                10.668192
              ],
              [
                106.517486,
                10.669064
              ],
              [
                106.517427,
                10.669163
              ],
              [
                106.51604,
                10.671793
              ],
              [
                106.514273,
                10.67515
              ],
              [
                106.513904,
                10.675852
              ],
              [
                106.513318,
                10.677178
              ],
              [
                106.513122,
                10.677134
              ],
              [
                106.512944,
                10.677094
              ],
              [
                106.512652,
                10.677029
              ],
              [
                106.512447,
                10.678189
              ],
              [
                106.512503,
                10.678388
              ],
              [
                106.512521,
                10.67845
              ],
              [
                106.512671,
                10.678953
              ],
              [
                106.51272,
                10.679155
              ],
              [
                106.512079,
                10.679241
              ],
              [
                106.511311,
                10.678757
              ],
              [
                106.510217,
                10.678062
              ],
              [
                106.510166,
                10.678204
              ],
              [
                106.510148,
                10.678247
              ],
              [
                106.510128,
                10.678291
              ],
              [
                106.510107,
                10.67833
              ],
              [
                106.510106,
                10.678334
              ],
              [
                106.510082,
                10.678374
              ],
              [
                106.510059,
                10.678413
              ],
              [
                106.510037,
                10.678447
              ],
              [
                106.510016,
                10.678475
              ],
              [
                106.509996,
                10.678499
              ],
              [
                106.509975,
                10.678523
              ],
              [
                106.50995,
                10.678547
              ],
              [
                106.509921,
                10.67857
              ],
              [
                106.509895,
                10.678589
              ],
              [
                106.509893,
                10.67859
              ],
              [
                106.509868,
                10.678607
              ],
              [
                106.509835,
                10.678627
              ],
              [
                106.509798,
                10.678647
              ],
              [
                106.509759,
                10.678664
              ],
              [
                106.509724,
                10.67868
              ],
              [
                106.509689,
                10.678695
              ],
              [
                106.509647,
                10.678713
              ],
              [
                106.5096,
                10.678734
              ],
              [
                106.509569,
                10.678749
              ],
              [
                106.509138,
                10.679015
              ],
              [
                106.509117,
                10.679028
              ],
              [
                106.509101,
                10.679051
              ],
              [
                106.50901,
                10.679187
              ],
              [
                106.508974,
                10.679239
              ],
              [
                106.508954,
                10.679286
              ],
              [
                106.508887,
                10.67944
              ],
              [
                106.508882,
                10.679451
              ],
              [
                106.50887,
                10.679478
              ],
              [
                106.50886,
                10.679502
              ],
              [
                106.508804,
                10.679623
              ],
              [
                106.508802,
                10.679627
              ],
              [
                106.508679,
                10.679786
              ],
              [
                106.508675,
                10.679791
              ],
              [
                106.508664,
                10.679805
              ],
              [
                106.508544,
                10.679928
              ],
              [
                106.508489,
                10.679983
              ],
              [
                106.508258,
                10.680163
              ],
              [
                106.507865,
                10.6805
              ],
              [
                106.507584,
                10.68065
              ],
              [
                106.507284,
                10.680745
              ],
              [
                106.506834,
                10.68084
              ],
              [
                106.506496,
                10.680917
              ],
              [
                106.50629,
                10.681011
              ],
              [
                106.506103,
                10.681179
              ],
              [
                106.505916,
                10.681292
              ],
              [
                106.505749,
                10.681307
              ],
              [
                106.50566,
                10.681393
              ],
              [
                106.505597,
                10.681411
              ],
              [
                106.505552,
                10.681424
              ],
              [
                106.505538,
                10.681428
              ],
              [
                106.505347,
                10.681425
              ],
              [
                106.505278,
                10.681418
              ],
              [
                106.505169,
                10.681405
              ],
              [
                106.504895,
                10.681332
              ],
              [
                106.504727,
                10.681308
              ],
              [
                106.504515,
                10.681252
              ],
              [
                106.504318,
                10.68135
              ],
              [
                106.504214,
                10.68146
              ],
              [
                106.504037,
                10.681646
              ],
              [
                106.503981,
                10.681712
              ],
              [
                106.503927,
                10.681742
              ],
              [
                106.503846,
                10.681762
              ],
              [
                106.503689,
                10.681778
              ],
              [
                106.503679,
                10.68178
              ],
              [
                106.50362,
                10.681792
              ],
              [
                106.503401,
                10.681871
              ],
              [
                106.503336,
                10.681858
              ],
              [
                106.503239,
                10.681836
              ],
              [
                106.503117,
                10.681855
              ],
              [
                106.502678,
                10.681957
              ],
              [
                106.502498,
                10.681998
              ],
              [
                106.502307,
                10.68215
              ],
              [
                106.502035,
                10.68233
              ],
              [
                106.501969,
                10.682382
              ],
              [
                106.501908,
                10.682436
              ],
              [
                106.501939,
                10.68315
              ],
              [
                106.501944,
                10.683277
              ],
              [
                106.501967,
                10.683621
              ],
              [
                106.502004,
                10.683846
              ],
              [
                106.502026,
                10.68404
              ],
              [
                106.502024,
                10.684215
              ],
              [
                106.50211,
                10.684248
              ],
              [
                106.502174,
                10.68436
              ],
              [
                106.502859,
                10.685077
              ],
              [
                106.504271,
                10.686305
              ],
              [
                106.504997,
                10.686953
              ],
              [
                106.50592,
                10.687796
              ],
              [
                106.506032,
                10.687891
              ],
              [
                106.502757,
                10.690739
              ],
              [
                106.501781,
                10.691614
              ],
              [
                106.501158,
                10.691987
              ],
              [
                106.501016,
                10.692112
              ],
              [
                106.500874,
                10.692238
              ],
              [
                106.500735,
                10.69236
              ],
              [
                106.500406,
                10.692651
              ],
              [
                106.499833,
                10.693188
              ],
              [
                106.49967,
                10.69332
              ],
              [
                106.499652,
                10.693386
              ],
              [
                106.499835,
                10.693579
              ],
              [
                106.499804,
                10.69363
              ],
              [
                106.499106,
                10.694764
              ],
              [
                106.499101,
                10.694772
              ],
              [
                106.499013,
                10.694926
              ],
              [
                106.497092,
                10.697775
              ],
              [
                106.496354,
                10.697328
              ],
              [
                106.496354,
                10.697328
              ]
            ]
          ]
        ]
      },
      "properties": {
        "code": "28003",
        "name": "Lương Hoà",
        "nameEn": "Luong Hoa",
        "fullName": "Xã Lương Hoà",
        "fullNameEn": "Luong Hoa Commune",
        "codeName": "luong_hoa",
        "postalCode": "82614",
        "postalCodePrefix": "",
        "gisServerId": "diaphanhanhchinhcapxa_2025.1311",
        "areaKm2": 62.16
      }
    }
  ]
}