{
  "type": "FeatureCollection",
  "bbox": [
    106.304208,
    10.578889,
    106.396251,
    10.694417
  ],
  "features": [
    {
      "type": "Feature",
      "id": "28051",
      "bbox": [
        106.304208,
        10.578889,
        106.396251,
        10.694417
      ],
      "geometry": {
        "type": "MultiPolygon",
        "coordinates": [
          [
            [
              [
                106.382749,
                10.62655
              ],
              [
                106.382779,
                10.62655
              ],
              [
                106.38281,
                10.626506
              ],
              [
                106.383064,
                10.625833
              ],
              [
                106.383196,
                10.625492
              ],
              [
                106.383264,
                10.625305
              ],
              [
                106.383551,
                10.624561
              ],
              [
                106.383763,
                10.623983
              ],
              [
                106.383834,
                10.623845
              ],
              [
                106.383951,
                10.623611
              ],
              [
                106.384047,
                10.623298
              ],
              [
                106.384144,
                10.62305
              ],
              [
                106.38439,
                10.622448
              ],
              [
                106.38466,
                10.62179
              ],
              [
                106.384631,
                10.621768
              ],
              [
                106.384556,
                10.621694
              ],
              [
                106.384597,
                10.621593
              ],
              [
                106.384651,
                10.621459
              ],
              [
                106.38468,
                10.621383
              ],
              [
                106.384726,
                10.621264
              ],
              [
                106.384815,
                10.62104
              ],
              [
                106.384934,
                10.620742
              ],
              [
                106.38505,
                10.620455
              ],
              [
                106.385128,
                10.620265
              ],
              [
                106.38518,
                10.620133
              ],
              [
                106.385241,
                10.619973
              ],
              [
                106.385255,
                10.619939
              ],
              [
                106.385314,
                10.619784
              ],
              [
                106.385367,
                10.619645
              ],
              [
                106.385393,
                10.619578
              ],
              [
                106.38541,
                10.61954
              ],
              [
                106.385431,
                10.619493
              ],
              [
                106.385473,
                10.619396
              ],
              [
                106.385532,
                10.619257
              ],
              [
                106.385571,
                10.619167
              ],
              [
                106.385588,
                10.619134
              ],
              [
                106.3856,
                10.619109
              ],
              [
                106.385628,
                10.619042
              ],
              [
                106.385699,
                10.618865
              ],
              [
                106.385799,
                10.618613
              ],
              [
                106.385877,
                10.61842
              ],
              [
                106.385919,
                10.618316
              ],
              [
                106.385942,
                10.618259
              ],
              [
                106.385942,
                10.618259
              ],
              [
                106.385963,
                10.618206
              ],
              [
                106.386023,
                10.618055
              ],
              [
                106.386091,
                10.617879
              ],
              [
                106.386157,
                10.61771
              ],
              [
                106.386335,
                10.617251
              ],
              [
                106.386514,
                10.616785
              ],
              [
                106.386671,
                10.616377
              ],
              [
                106.386687,
                10.616334
              ],
              [
                106.386838,
                10.615945
              ],
              [
                106.386975,
                10.615598
              ],
              [
                106.387115,
                10.615248
              ],
              [
                106.387243,
                10.614921
              ],
              [
                106.387267,
                10.61486
              ],
              [
                106.387373,
                10.614585
              ],
              [
                106.387508,
                10.614234
              ],
              [
                106.387603,
                10.613981
              ],
              [
                106.387641,
                10.613877
              ],
              [
                106.387652,
                10.613843
              ],
              [
                106.387664,
                10.613807
              ],
              [
                106.387679,
                10.613758
              ],
              [
                106.387696,
                10.613706
              ],
              [
                106.387716,
                10.613651
              ],
              [
                106.38773,
                10.613624
              ],
              [
                106.387744,
                10.613596
              ],
              [
                106.387777,
                10.61354
              ],
              [
                106.387814,
                10.613474
              ],
              [
                106.387859,
                10.61337
              ],
              [
                106.38791,
                10.613228
              ],
              [
                106.387952,
                10.613106
              ],
              [
                106.387985,
                10.613005
              ],
              [
                106.388024,
                10.612884
              ],
              [
                106.388039,
                10.612837
              ],
              [
                106.388071,
                10.612735
              ],
              [
                106.388115,
                10.612589
              ],
              [
                106.388159,
                10.612429
              ],
              [
                106.388204,
                10.612255
              ],
              [
                106.388241,
                10.612108
              ],
              [
                106.388271,
                10.611988
              ],
              [
                106.388298,
                10.61187
              ],
              [
                106.38832,
                10.611767
              ],
              [
                106.388343,
                10.611662
              ],
              [
                106.388371,
                10.611527
              ],
              [
                106.388404,
                10.611363
              ],
              [
                106.388439,
                10.611186
              ],
              [
                106.388474,
                10.611014
              ],
              [
                106.388503,
                10.610877
              ],
              [
                106.388521,
                10.610796
              ],
              [
                106.388535,
                10.610749
              ],
              [
                106.38855,
                10.610714
              ],
              [
                106.388568,
                10.610683
              ],
              [
                106.388587,
                10.610653
              ],
              [
                106.388608,
                10.610622
              ],
              [
                106.388633,
                10.610589
              ],
              [
                106.388659,
                10.610559
              ],
              [
                106.388689,
                10.610532
              ],
              [
                106.388719,
                10.610509
              ],
              [
                106.38872,
                10.610508
              ],
              [
                106.388754,
                10.610482
              ],
              [
                106.388796,
                10.610452
              ],
              [
                106.388848,
                10.610417
              ],
              [
                106.388901,
                10.610383
              ],
              [
                106.38896,
                10.610348
              ],
              [
                106.389046,
                10.610301
              ],
              [
                106.389177,
                10.610238
              ],
              [
                106.38919,
                10.610232
              ],
              [
                106.389333,
                10.610166
              ],
              [
                106.389464,
                10.610104
              ],
              [
                106.389573,
                10.61005
              ],
              [
                106.389681,
                10.609994
              ],
              [
                106.389753,
                10.609953
              ],
              [
                106.389791,
                10.609929
              ],
              [
                106.389813,
                10.609916
              ],
              [
                106.389868,
                10.609886
              ],
              [
                106.389908,
                10.609878
              ],
              [
                106.38994,
                10.609872
              ],
              [
                106.390006,
                10.609861
              ],
              [
                106.390093,
                10.609849
              ],
              [
                106.390162,
                10.60984
              ],
              [
                106.390204,
                10.609835
              ],
              [
                106.390235,
                10.609833
              ],
              [
                106.390287,
                10.609828
              ],
              [
                106.390362,
                10.60982
              ],
              [
                106.390421,
                10.609814
              ],
              [
                106.39046,
                10.609807
              ],
              [
                106.390498,
                10.609795
              ],
              [
                106.390544,
                10.60978
              ],
              [
                106.390596,
                10.609767
              ],
              [
                106.390643,
                10.609759
              ],
              [
                106.390689,
                10.609751
              ],
              [
                106.390741,
                10.609744
              ],
              [
                106.390784,
                10.60974
              ],
              [
                106.390816,
                10.609738
              ],
              [
                106.390842,
                10.609734
              ],
              [
                106.390865,
                10.609728
              ],
              [
                106.390888,
                10.609721
              ],
              [
                106.39091,
                10.609713
              ],
              [
                106.390934,
                10.6097
              ],
              [
                106.390976,
                10.609674
              ],
              [
                106.391031,
                10.609639
              ],
              [
                106.391041,
                10.609632
              ],
              [
                106.391051,
                10.609624
              ],
              [
                106.391069,
                10.609611
              ],
              [
                106.391076,
                10.609604
              ],
              [
                106.391089,
                10.609592
              ],
              [
                106.391092,
                10.60959
              ],
              [
                106.391114,
                10.60957
              ],
              [
                106.391122,
                10.609565
              ],
              [
                106.391129,
                10.609559
              ],
              [
                106.391162,
                10.609535
              ],
              [
                106.391244,
                10.609482
              ],
              [
                106.391245,
                10.609482
              ],
              [
                106.391342,
                10.60942
              ],
              [
                106.391438,
                10.609355
              ],
              [
                106.391518,
                10.609296
              ],
              [
                106.391566,
                10.60926
              ],
              [
                106.3916,
                10.609233
              ],
              [
                106.39165,
                10.609192
              ],
              [
                106.391715,
                10.609137
              ],
              [
                106.391763,
                10.609093
              ],
              [
                106.391789,
                10.609064
              ],
              [
                106.391805,
                10.609038
              ],
              [
                106.391818,
                10.609013
              ],
              [
                106.39183,
                10.608989
              ],
              [
                106.39184,
                10.608963
              ],
              [
                106.391848,
                10.608935
              ],
              [
                106.391856,
                10.608904
              ],
              [
                106.391865,
                10.608871
              ],
              [
                106.391875,
                10.608841
              ],
              [
                106.391884,
                10.608814
              ],
              [
                106.391892,
                10.608796
              ],
              [
                106.391908,
                10.608762
              ],
              [
                106.391954,
                10.608728
              ],
              [
                106.391992,
                10.608684
              ],
              [
                106.392037,
                10.608651
              ],
              [
                106.392075,
                10.608606
              ],
              [
                106.392087,
                10.608576
              ],
              [
                106.392105,
                10.608553
              ],
              [
                106.392117,
                10.608523
              ],
              [
                106.392136,
                10.608501
              ],
              [
                106.392155,
                10.608445
              ],
              [
                106.392159,
                10.608428
              ],
              [
                106.392166,
                10.608399
              ],
              [
                106.392174,
                10.608365
              ],
              [
                106.392177,
                10.608332
              ],
              [
                106.392176,
                10.6083
              ],
              [
                106.392172,
                10.608268
              ],
              [
                106.392167,
                10.608234
              ],
              [
                106.392162,
                10.608198
              ],
              [
                106.392159,
                10.60816
              ],
              [
                106.392157,
                10.60812
              ],
              [
                106.392155,
                10.608085
              ],
              [
                106.392154,
                10.60805
              ],
              [
                106.392155,
                10.608006
              ],
              [
                106.39216,
                10.60795
              ],
              [
                106.392171,
                10.607864
              ],
              [
                106.392193,
                10.607736
              ],
              [
                106.39222,
                10.607589
              ],
              [
                106.392247,
                10.607444
              ],
              [
                106.392257,
                10.607389
              ],
              [
                106.392268,
                10.60733
              ],
              [
                106.392279,
                10.60726
              ],
              [
                106.392284,
                10.607213
              ],
              [
                106.392285,
                10.607196
              ],
              [
                106.392287,
                10.607172
              ],
              [
                106.392287,
                10.607132
              ],
              [
                106.392282,
                10.607092
              ],
              [
                106.392275,
                10.60705
              ],
              [
                106.392267,
                10.607009
              ],
              [
                106.392259,
                10.60697
              ],
              [
                106.392248,
                10.606929
              ],
              [
                106.392234,
                10.606883
              ],
              [
                106.392212,
                10.606824
              ],
              [
                106.392185,
                10.606753
              ],
              [
                106.392158,
                10.606688
              ],
              [
                106.39213,
                10.606623
              ],
              [
                106.392101,
                10.606554
              ],
              [
                106.392077,
                10.606499
              ],
              [
                106.392059,
                10.606465
              ],
              [
                106.392046,
                10.606435
              ],
              [
                106.392035,
                10.606394
              ],
              [
                106.392027,
                10.606344
              ],
              [
                106.392023,
                10.606295
              ],
              [
                106.392026,
                10.606247
              ],
              [
                106.392033,
                10.606201
              ],
              [
                106.39204,
                10.606158
              ],
              [
                106.392047,
                10.606106
              ],
              [
                106.392061,
                10.606052
              ],
              [
                106.392079,
                10.605991
              ],
              [
                106.392097,
                10.605911
              ],
              [
                106.392117,
                10.605815
              ],
              [
                106.392142,
                10.605711
              ],
              [
                106.392169,
                10.605609
              ],
              [
                106.392195,
                10.605513
              ],
              [
                106.392215,
                10.60544
              ],
              [
                106.392225,
                10.605401
              ],
              [
                106.392231,
                10.605375
              ],
              [
                106.392239,
                10.605349
              ],
              [
                106.392247,
                10.605323
              ],
              [
                106.392254,
                10.605296
              ],
              [
                106.39226,
                10.605261
              ],
              [
                106.392277,
                10.605216
              ],
              [
                106.392321,
                10.605168
              ],
              [
                106.39238,
                10.60512
              ],
              [
                106.392434,
                10.605074
              ],
              [
                106.392474,
                10.605037
              ],
              [
                106.392511,
                10.605001
              ],
              [
                106.392547,
                10.604959
              ],
              [
                106.392574,
                10.604926
              ],
              [
                106.392595,
                10.604901
              ],
              [
                106.392619,
                10.604876
              ],
              [
                106.392649,
                10.604851
              ],
              [
                106.39268,
                10.604825
              ],
              [
                106.392713,
                10.604799
              ],
              [
                106.392749,
                10.604775
              ],
              [
                106.392786,
                10.604753
              ],
              [
                106.392828,
                10.604734
              ],
              [
                106.392876,
                10.604715
              ],
              [
                106.392921,
                10.604699
              ],
              [
                106.392969,
                10.604682
              ],
              [
                106.393024,
                10.604663
              ],
              [
                106.393074,
                10.604645
              ],
              [
                106.393117,
                10.604628
              ],
              [
                106.393159,
                10.604611
              ],
              [
                106.393204,
                10.60459
              ],
              [
                106.393268,
                10.604551
              ],
              [
                106.3933,
                10.604527
              ],
              [
                106.393354,
                10.604488
              ],
              [
                106.393446,
                10.604415
              ],
              [
                106.393539,
                10.604342
              ],
              [
                106.393631,
                10.604273
              ],
              [
                106.393704,
                10.604218
              ],
              [
                106.393759,
                10.604176
              ],
              [
                106.393809,
                10.604137
              ],
              [
                106.393849,
                10.6041
              ],
              [
                106.39388,
                10.60406
              ],
              [
                106.393908,
                10.604015
              ],
              [
                106.393935,
                10.603969
              ],
              [
                106.393957,
                10.603924
              ],
              [
                106.393971,
                10.603884
              ],
              [
                106.393979,
                10.603847
              ],
              [
                106.393985,
                10.603811
              ],
              [
                106.39399,
                10.603777
              ],
              [
                106.39399,
                10.603746
              ],
              [
                106.393988,
                10.603719
              ],
              [
                106.393986,
                10.603701
              ],
              [
                106.393982,
                10.603658
              ],
              [
                106.393973,
                10.603637
              ],
              [
                106.393958,
                10.60361
              ],
              [
                106.393949,
                10.603589
              ],
              [
                106.393931,
                10.603566
              ],
              [
                106.393916,
                10.603539
              ],
              [
                106.393899,
                10.603516
              ],
              [
                106.393743,
                10.603403
              ],
              [
                106.393655,
                10.603335
              ],
              [
                106.393546,
                10.603251
              ],
              [
                106.39343,
                10.603159
              ],
              [
                106.393307,
                10.603059
              ],
              [
                106.393215,
                10.60298
              ],
              [
                106.393167,
                10.602931
              ],
              [
                106.393139,
                10.602893
              ],
              [
                106.393115,
                10.602859
              ],
              [
                106.393097,
                10.602825
              ],
              [
                106.393086,
                10.602793
              ],
              [
                106.393082,
                10.602763
              ],
              [
                106.393081,
                10.60273
              ],
              [
                106.393081,
                10.602693
              ],
              [
                106.393081,
                10.602658
              ],
              [
                106.393083,
                10.602624
              ],
              [
                106.393087,
                10.602588
              ],
              [
                106.393094,
                10.602553
              ],
              [
                106.39311,
                10.602506
              ],
              [
                106.393135,
                10.602447
              ],
              [
                106.393162,
                10.602391
              ],
              [
                106.393196,
                10.602327
              ],
              [
                106.393238,
                10.602252
              ],
              [
                106.393282,
                10.602179
              ],
              [
                106.393337,
                10.602094
              ],
              [
                106.393405,
                10.601992
              ],
              [
                106.393478,
                10.601886
              ],
              [
                106.393561,
                10.601767
              ],
              [
                106.39364,
                10.601648
              ],
              [
                106.393668,
                10.601606
              ],
              [
                106.393707,
                10.601548
              ],
              [
                106.39377,
                10.601464
              ],
              [
                106.393819,
                10.601407
              ],
              [
                106.393849,
                10.601377
              ],
              [
                106.393869,
                10.601359
              ],
              [
                106.393885,
                10.601343
              ],
              [
                106.393901,
                10.601322
              ],
              [
                106.393916,
                10.601297
              ],
              [
                106.393928,
                10.60127
              ],
              [
                106.393938,
                10.601242
              ],
              [
                106.393943,
                10.60121
              ],
              [
                106.393946,
                10.601174
              ],
              [
                106.393947,
                10.601156
              ],
              [
                106.393949,
                10.601136
              ],
              [
                106.393951,
                10.601099
              ],
              [
                106.393952,
                10.601068
              ],
              [
                106.393952,
                10.601039
              ],
              [
                106.39395,
                10.601018
              ],
              [
                106.39394,
                10.600961
              ],
              [
                106.393928,
                10.600939
              ],
              [
                106.393923,
                10.600928
              ],
              [
                106.393914,
                10.600913
              ],
              [
                106.393905,
                10.600899
              ],
              [
                106.393893,
                10.600887
              ],
              [
                106.393871,
                10.600873
              ],
              [
                106.39383,
                10.600852
              ],
              [
                106.393771,
                10.600821
              ],
              [
                106.393706,
                10.600782
              ],
              [
                106.393655,
                10.600746
              ],
              [
                106.393606,
                10.600709
              ],
              [
                106.393551,
                10.600668
              ],
              [
                106.393513,
                10.600627
              ],
              [
                106.393491,
                10.60059
              ],
              [
                106.393477,
                10.600552
              ],
              [
                106.393465,
                10.600511
              ],
              [
                106.393455,
                10.600468
              ],
              [
                106.39345,
                10.600428
              ],
              [
                106.393452,
                10.600394
              ],
              [
                106.393457,
                10.600364
              ],
              [
                106.393466,
                10.600335
              ],
              [
                106.393476,
                10.600308
              ],
              [
                106.393488,
                10.600279
              ],
              [
                106.393502,
                10.600251
              ],
              [
                106.393517,
                10.600224
              ],
              [
                106.393529,
                10.6002
              ],
              [
                106.393541,
                10.600177
              ],
              [
                106.393558,
                10.600148
              ],
              [
                106.393582,
                10.600117
              ],
              [
                106.393611,
                10.600086
              ],
              [
                106.393638,
                10.600052
              ],
              [
                106.393661,
                10.600015
              ],
              [
                106.393679,
                10.599976
              ],
              [
                106.393687,
                10.599938
              ],
              [
                106.393687,
                10.599893
              ],
              [
                106.393674,
                10.599812
              ],
              [
                106.393642,
                10.599671
              ],
              [
                106.393598,
                10.599501
              ],
              [
                106.393564,
                10.599361
              ],
              [
                106.393545,
                10.599296
              ],
              [
                106.393352,
                10.598605
              ],
              [
                106.393195,
                10.598558
              ],
              [
                106.393134,
                10.59853
              ],
              [
                106.393062,
                10.598451
              ],
              [
                106.393049,
                10.598309
              ],
              [
                106.393057,
                10.598151
              ],
              [
                106.393059,
                10.598104
              ],
              [
                106.39307,
                10.598055
              ],
              [
                106.393091,
                10.597948
              ],
              [
                106.393101,
                10.597899
              ],
              [
                106.39313,
                10.597736
              ],
              [
                106.393169,
                10.597521
              ],
              [
                106.393198,
                10.597359
              ],
              [
                106.393214,
                10.597276
              ],
              [
                106.393225,
                10.597213
              ],
              [
                106.39323,
                10.597186
              ],
              [
                106.393262,
                10.597007
              ],
              [
                106.393276,
                10.596928
              ],
              [
                106.393305,
                10.596766
              ],
              [
                106.393348,
                10.59655
              ],
              [
                106.393389,
                10.596378
              ],
              [
                106.39343,
                10.596223
              ],
              [
                106.39347,
                10.596077
              ],
              [
                106.393499,
                10.595958
              ],
              [
                106.393512,
                10.595887
              ],
              [
                106.393515,
                10.595845
              ],
              [
                106.393516,
                10.59581
              ],
              [
                106.393515,
                10.595777
              ],
              [
                106.39351,
                10.595748
              ],
              [
                106.393503,
                10.595724
              ],
              [
                106.393496,
                10.5957
              ],
              [
                106.393487,
                10.595672
              ],
              [
                106.393476,
                10.59564
              ],
              [
                106.393464,
                10.595605
              ],
              [
                106.393451,
                10.595569
              ],
              [
                106.393442,
                10.595536
              ],
              [
                106.393437,
                10.595507
              ],
              [
                106.393435,
                10.59548
              ],
              [
                106.393435,
                10.595455
              ],
              [
                106.393435,
                10.595428
              ],
              [
                106.393438,
                10.595398
              ],
              [
                106.393448,
                10.595355
              ],
              [
                106.39347,
                10.595288
              ],
              [
                106.393509,
                10.595199
              ],
              [
                106.39356,
                10.595107
              ],
              [
                106.3936,
                10.595038
              ],
              [
                106.393637,
                10.594976
              ],
              [
                106.393689,
                10.594889
              ],
              [
                106.393752,
                10.594784
              ],
              [
                106.393804,
                10.594694
              ],
              [
                106.393836,
                10.594629
              ],
              [
                106.393857,
                10.594577
              ],
              [
                106.393873,
                10.594524
              ],
              [
                106.39389,
                10.594447
              ],
              [
                106.393908,
                10.594334
              ],
              [
                106.393927,
                10.594211
              ],
              [
                106.393945,
                10.594088
              ],
              [
                106.393964,
                10.593973
              ],
              [
                106.393981,
                10.593888
              ],
              [
                106.393999,
                10.593818
              ],
              [
                106.394025,
                10.593737
              ],
              [
                106.394057,
                10.593648
              ],
              [
                106.394085,
                10.593569
              ],
              [
                106.394111,
                10.5935
              ],
              [
                106.394136,
                10.593436
              ],
              [
                106.394153,
                10.593394
              ],
              [
                106.394159,
                10.593378
              ],
              [
                106.394162,
                10.593372
              ],
              [
                106.394167,
                10.593362
              ],
              [
                106.394178,
                10.593341
              ],
              [
                106.394195,
                10.59331
              ],
              [
                106.394208,
                10.593285
              ],
              [
                106.394225,
                10.593255
              ],
              [
                106.394265,
                10.593182
              ],
              [
                106.394208,
                10.593154
              ],
              [
                106.394152,
                10.593082
              ],
              [
                106.394091,
                10.592987
              ],
              [
                106.394009,
                10.592903
              ],
              [
                106.393782,
                10.592811
              ],
              [
                106.393598,
                10.592767
              ],
              [
                106.393575,
                10.592751
              ],
              [
                106.393534,
                10.592663
              ],
              [
                106.393529,
                10.592617
              ],
              [
                106.393539,
                10.592508
              ],
              [
                106.393553,
                10.592425
              ],
              [
                106.393541,
                10.592349
              ],
              [
                106.393514,
                10.59233
              ],
              [
                106.393352,
                10.592278
              ],
              [
                106.393177,
                10.592256
              ],
              [
                106.393057,
                10.592203
              ],
              [
                106.392728,
                10.591915
              ],
              [
                106.392654,
                10.591809
              ],
              [
                106.392603,
                10.591743
              ],
              [
                106.392552,
                10.59171
              ],
              [
                106.392478,
                10.591704
              ],
              [
                106.392228,
                10.59178
              ],
              [
                106.392156,
                10.591775
              ],
              [
                106.392132,
                10.591731
              ],
              [
                106.392133,
                10.591619
              ],
              [
                106.392158,
                10.591528
              ],
              [
                106.392209,
                10.591428
              ],
              [
                106.392274,
                10.591384
              ],
              [
                106.392404,
                10.591352
              ],
              [
                106.392463,
                10.591251
              ],
              [
                106.392503,
                10.591127
              ],
              [
                106.392502,
                10.59107
              ],
              [
                106.392464,
                10.591037
              ],
              [
                106.392446,
                10.591032
              ],
              [
                106.392359,
                10.591007
              ],
              [
                106.392235,
                10.590991
              ],
              [
                106.392077,
                10.590908
              ],
              [
                106.391964,
                10.590855
              ],
              [
                106.391835,
                10.590821
              ],
              [
                106.391726,
                10.59083
              ],
              [
                106.391586,
                10.590874
              ],
              [
                106.391515,
                10.590889
              ],
              [
                106.391456,
                10.590857
              ],
              [
                106.391408,
                10.590769
              ],
              [
                106.391387,
                10.590654
              ],
              [
                106.391355,
                10.590635
              ],
              [
                106.391236,
                10.590622
              ],
              [
                106.391026,
                10.59062
              ],
              [
                106.390912,
                10.590618
              ],
              [
                106.39084,
                10.590601
              ],
              [
                106.390731,
                10.590576
              ],
              [
                106.390546,
                10.590476
              ],
              [
                106.39045,
                10.59037
              ],
              [
                106.390305,
                10.590196
              ],
              [
                106.390201,
                10.590026
              ],
              [
                106.390102,
                10.589906
              ],
              [
                106.390056,
                10.589871
              ],
              [
                106.389998,
                10.589865
              ],
              [
                106.38986,
                10.589887
              ],
              [
                106.389793,
                10.589885
              ],
              [
                106.389736,
                10.589914
              ],
              [
                106.389674,
                10.589987
              ],
              [
                106.38963,
                10.590077
              ],
              [
                106.389566,
                10.590131
              ],
              [
                106.389416,
                10.590189
              ],
              [
                106.389336,
                10.590193
              ],
              [
                106.389273,
                10.590175
              ],
              [
                106.389229,
                10.590131
              ],
              [
                106.389191,
                10.590029
              ],
              [
                106.389187,
                10.589873
              ],
              [
                106.389188,
                10.589709
              ],
              [
                106.389165,
                10.589652
              ],
              [
                106.389134,
                10.589644
              ],
              [
                106.389069,
                10.589661
              ],
              [
                106.388923,
                10.589793
              ],
              [
                106.388806,
                10.589962
              ],
              [
                106.388741,
                10.58999
              ],
              [
                106.388694,
                10.589981
              ],
              [
                106.388645,
                10.589944
              ],
              [
                106.388595,
                10.589938
              ],
              [
                106.388527,
                10.589973
              ],
              [
                106.388454,
                10.589972
              ],
              [
                106.388395,
                10.589931
              ],
              [
                106.388261,
                10.589785
              ],
              [
                106.38816,
                10.589716
              ],
              [
                106.387662,
                10.58953
              ],
              [
                106.387166,
                10.589275
              ],
              [
                106.387053,
                10.589236
              ],
              [
                106.386526,
                10.589075
              ],
              [
                106.386237,
                10.588922
              ],
              [
                106.385977,
                10.588656
              ],
              [
                106.3853,
                10.587909
              ],
              [
                106.384865,
                10.587471
              ],
              [
                106.384246,
                10.586785
              ],
              [
                106.384024,
                10.586584
              ],
              [
                106.383912,
                10.586414
              ],
              [
                106.38388,
                10.586351
              ],
              [
                106.383752,
                10.586102
              ],
              [
                106.383674,
                10.585873
              ],
              [
                106.383615,
                10.585772
              ],
              [
                106.383518,
                10.585683
              ],
              [
                106.383339,
                10.585541
              ],
              [
                106.383292,
                10.585444
              ],
              [
                106.383259,
                10.5852
              ],
              [
                106.383224,
                10.584935
              ],
              [
                106.383155,
                10.584752
              ],
              [
                106.383032,
                10.584547
              ],
              [
                106.382958,
                10.584487
              ],
              [
                106.382871,
                10.584447
              ],
              [
                106.38276,
                10.584419
              ],
              [
                106.382593,
                10.584416
              ],
              [
                106.382473,
                10.584433
              ],
              [
                106.382333,
                10.584479
              ],
              [
                106.382274,
                10.58446
              ],
              [
                106.382192,
                10.584422
              ],
              [
                106.382096,
                10.584401
              ],
              [
                106.381859,
                10.584398
              ],
              [
                106.381563,
                10.584395
              ],
              [
                106.381404,
                10.584347
              ],
              [
                106.381349,
                10.584322
              ],
              [
                106.38131,
                10.584275
              ],
              [
                106.381311,
                10.58423
              ],
              [
                106.381352,
                10.584191
              ],
              [
                106.381696,
                10.583971
              ],
              [
                106.381773,
                10.583872
              ],
              [
                106.38179,
                10.58382
              ],
              [
                106.381761,
                10.583767
              ],
              [
                106.381681,
                10.583739
              ],
              [
                106.381596,
                10.583738
              ],
              [
                106.381516,
                10.583759
              ],
              [
                106.381433,
                10.583762
              ],
              [
                106.381391,
                10.583718
              ],
              [
                106.381349,
                10.583593
              ],
              [
                106.381289,
                10.583501
              ],
              [
                106.381248,
                10.583491
              ],
              [
                106.38118,
                10.583495
              ],
              [
                106.381123,
                10.583494
              ],
              [
                106.380949,
                10.583465
              ],
              [
                106.380884,
                10.58348
              ],
              [
                106.380797,
                10.58354
              ],
              [
                106.380695,
                10.583606
              ],
              [
                106.380641,
                10.583616
              ],
              [
                106.380605,
                10.583589
              ],
              [
                106.380593,
                10.583541
              ],
              [
                106.380633,
                10.58344
              ],
              [
                106.380666,
                10.583372
              ],
              [
                106.380662,
                10.583305
              ],
              [
                106.380646,
                10.583273
              ],
              [
                106.380622,
                10.583254
              ],
              [
                106.380531,
                10.583182
              ],
              [
                106.380501,
                10.583153
              ],
              [
                106.380451,
                10.5831
              ],
              [
                106.380376,
                10.583014
              ],
              [
                106.380291,
                10.582915
              ],
              [
                106.380206,
                10.582813
              ],
              [
                106.380127,
                10.582719
              ],
              [
                106.380086,
                10.582668
              ],
              [
                106.380069,
                10.582647
              ],
              [
                106.380028,
                10.582591
              ],
              [
                106.379993,
                10.582541
              ],
              [
                106.379964,
                10.582497
              ],
              [
                106.379946,
                10.582461
              ],
              [
                106.379932,
                10.582431
              ],
              [
                106.37992,
                10.582401
              ],
              [
                106.379909,
                10.582371
              ],
              [
                106.379901,
                10.582341
              ],
              [
                106.379896,
                10.58231
              ],
              [
                106.37989,
                10.58228
              ],
              [
                106.379885,
                10.582255
              ],
              [
                106.37988,
                10.582234
              ],
              [
                106.379873,
                10.582213
              ],
              [
                106.37986,
                10.582192
              ],
              [
                106.379836,
                10.582173
              ],
              [
                106.379804,
                10.582164
              ],
              [
                106.379775,
                10.582164
              ],
              [
                106.379749,
                10.582169
              ],
              [
                106.379723,
                10.582176
              ],
              [
                106.379698,
                10.582182
              ],
              [
                106.379672,
                10.582191
              ],
              [
                106.379642,
                10.582201
              ],
              [
                106.379614,
                10.58221
              ],
              [
                106.379592,
                10.582215
              ],
              [
                106.379574,
                10.582215
              ],
              [
                106.379557,
                10.582215
              ],
              [
                106.379538,
                10.582213
              ],
              [
                106.37952,
                10.582207
              ],
              [
                106.379505,
                10.582195
              ],
              [
                106.379493,
                10.58218
              ],
              [
                106.379482,
                10.582163
              ],
              [
                106.379472,
                10.582146
              ],
              [
                106.379463,
                10.582118
              ],
              [
                106.379455,
                10.582074
              ],
              [
                106.37945,
                10.582028
              ],
              [
                106.379444,
                10.581981
              ],
              [
                106.379437,
                10.581928
              ],
              [
                106.379429,
                10.581878
              ],
              [
                106.379419,
                10.581836
              ],
              [
                106.379405,
                10.581796
              ],
              [
                106.37939,
                10.581759
              ],
              [
                106.379374,
                10.581723
              ],
              [
                106.379254,
                10.581459
              ],
              [
                106.379252,
                10.581455
              ],
              [
                106.379166,
                10.581234
              ],
              [
                106.378949,
                10.580671
              ],
              [
                106.378935,
                10.580634
              ],
              [
                106.378906,
                10.580665
              ],
              [
                106.378816,
                10.580761
              ],
              [
                106.378746,
                10.580837
              ],
              [
                106.378707,
                10.580881
              ],
              [
                106.378682,
                10.580908
              ],
              [
                106.378568,
                10.581027
              ],
              [
                106.378365,
                10.581233
              ],
              [
                106.378109,
                10.581492
              ],
              [
                106.377871,
                10.581735
              ],
              [
                106.377648,
                10.581968
              ],
              [
                106.377428,
                10.582228
              ],
              [
                106.3774,
                10.582253
              ],
              [
                106.377152,
                10.58248
              ],
              [
                106.376781,
                10.582896
              ],
              [
                106.375391,
                10.584451
              ],
              [
                106.373867,
                10.585974
              ],
              [
                106.372633,
                10.587103
              ],
              [
                106.371634,
                10.587743
              ],
              [
                106.370533,
                10.588467
              ],
              [
                106.369298,
                10.589174
              ],
              [
                106.368807,
                10.589392
              ],
              [
                106.36818,
                10.58968
              ],
              [
                106.367595,
                10.589907
              ],
              [
                106.366915,
                10.590031
              ],
              [
                106.36614,
                10.59011
              ],
              [
                106.365356,
                10.590151
              ],
              [
                106.365035,
                10.590152
              ],
              [
                106.364618,
                10.590069
              ],
              [
                106.364258,
                10.589912
              ],
              [
                106.36368,
                10.589512
              ],
              [
                106.363424,
                10.589214
              ],
              [
                106.363009,
                10.5885
              ],
              [
                106.362856,
                10.58806
              ],
              [
                106.36276,
                10.587649
              ],
              [
                106.36272,
                10.587256
              ],
              [
                106.362712,
                10.586531
              ],
              [
                106.362745,
                10.585492
              ],
              [
                106.362723,
                10.584734
              ],
              [
                106.362611,
                10.583878
              ],
              [
                106.362408,
                10.582999
              ],
              [
                106.362083,
                10.582112
              ],
              [
                106.361488,
                10.581202
              ],
              [
                106.360519,
                10.58013
              ],
              [
                106.360026,
                10.579729
              ],
              [
                106.359486,
                10.579404
              ],
              [
                106.358899,
                10.579145
              ],
              [
                106.358388,
                10.57896
              ],
              [
                106.357839,
                10.578897
              ],
              [
                106.357376,
                10.578889
              ],
              [
                106.356611,
                10.578958
              ],
              [
                106.355884,
                10.579186
              ],
              [
                106.355172,
                10.579521
              ],
              [
                106.355039,
                10.579611
              ],
              [
                106.354672,
                10.57986
              ],
              [
                106.352952,
                10.581079
              ],
              [
                106.351766,
                10.58203
              ],
              [
                106.349328,
                10.583937
              ],
              [
                106.347863,
                10.585184
              ],
              [
                106.347242,
                10.585832
              ],
              [
                106.346499,
                10.586584
              ],
              [
                106.346095,
                10.587054
              ],
              [
                106.344959,
                10.588663
              ],
              [
                106.344522,
                10.58932
              ],
              [
                106.344329,
                10.589611
              ],
              [
                106.343573,
                10.591196
              ],
              [
                106.343334,
                10.591858
              ],
              [
                106.343061,
                10.593141
              ],
              [
                106.342953,
                10.593711
              ],
              [
                106.342956,
                10.594446
              ],
              [
                106.343012,
                10.594666
              ],
              [
                106.343162,
                10.594885
              ],
              [
                106.343385,
                10.595123
              ],
              [
                106.343646,
                10.595324
              ],
              [
                106.343906,
                10.595452
              ],
              [
                106.344111,
                10.595506
              ],
              [
                106.344612,
                10.595559
              ],
              [
                106.344946,
                10.595539
              ],
              [
                106.345354,
                10.595482
              ],
              [
                106.345873,
                10.59537
              ],
              [
                106.346632,
                10.595146
              ],
              [
                106.347848,
                10.594866
              ],
              [
                106.349609,
                10.594546
              ],
              [
                106.35048,
                10.594432
              ],
              [
                106.351927,
                10.594444
              ],
              [
                106.352484,
                10.594497
              ],
              [
                106.35319,
                10.594733
              ],
              [
                106.353962,
                10.595234
              ],
              [
                106.354503,
                10.595783
              ],
              [
                106.354746,
                10.596223
              ],
              [
                106.354859,
                10.596645
              ],
              [
                106.354954,
                10.597104
              ],
              [
                106.35509,
                10.598481
              ],
              [
                106.355256,
                10.600491
              ],
              [
                106.355587,
                10.603925
              ],
              [
                106.35561,
                10.604953
              ],
              [
                106.355472,
                10.606373
              ],
              [
                106.355373,
                10.606888
              ],
              [
                106.355061,
                10.607853
              ],
              [
                106.354649,
                10.609003
              ],
              [
                106.354237,
                10.610011
              ],
              [
                106.354016,
                10.610453
              ],
              [
                106.353768,
                10.610858
              ],
              [
                106.353352,
                10.611337
              ],
              [
                106.35292,
                10.611713
              ],
              [
                106.351414,
                10.612745
              ],
              [
                106.350148,
                10.613733
              ],
              [
                106.349537,
                10.61413
              ],
              [
                106.348602,
                10.614594
              ],
              [
                106.347885,
                10.614895
              ],
              [
                106.34669,
                10.615304
              ],
              [
                106.34529,
                10.615669
              ],
              [
                106.343349,
                10.616122
              ],
              [
                106.342663,
                10.616217
              ],
              [
                106.342236,
                10.616237
              ],
              [
                106.341911,
                10.616193
              ],
              [
                106.341549,
                10.616102
              ],
              [
                106.340787,
                10.615922
              ],
              [
                106.339979,
                10.615622
              ],
              [
                106.339421,
                10.615248
              ],
              [
                106.33902,
                10.61491
              ],
              [
                106.338871,
                10.614672
              ],
              [
                106.338492,
                10.613925
              ],
              [
                106.33835,
                10.613375
              ],
              [
                106.338302,
                10.613007
              ],
              [
                106.338311,
                10.61275
              ],
              [
                106.338356,
                10.61252
              ],
              [
                106.338447,
                10.612235
              ],
              [
                106.338765,
                10.611743
              ],
              [
                106.339615,
                10.610802
              ],
              [
                106.339938,
                10.61036
              ],
              [
                106.340269,
                10.609872
              ],
              [
                106.340716,
                10.609103
              ],
              [
                106.341111,
                10.608128
              ],
              [
                106.34134,
                10.607502
              ],
              [
                106.341439,
                10.60696
              ],
              [
                106.341452,
                10.606533
              ],
              [
                106.341459,
                10.606055
              ],
              [
                106.341418,
                10.605284
              ],
              [
                106.341276,
                10.604486
              ],
              [
                106.340792,
                10.603124
              ],
              [
                106.340343,
                10.602336
              ],
              [
                106.339951,
                10.601777
              ],
              [
                106.339495,
                10.601311
              ],
              [
                106.338932,
                10.600914
              ],
              [
                106.338476,
                10.600668
              ],
              [
                106.33803,
                10.600495
              ],
              [
                106.337696,
                10.600386
              ],
              [
                106.337222,
                10.600315
              ],
              [
                106.336675,
                10.60029
              ],
              [
                106.336369,
                10.600309
              ],
              [
                106.336026,
                10.600366
              ],
              [
                106.335414,
                10.600589
              ],
              [
                106.334928,
                10.600852
              ],
              [
                106.334367,
                10.601235
              ],
              [
                106.333062,
                10.601936
              ],
              [
                106.331704,
                10.602645
              ],
              [
                106.331143,
                10.603057
              ],
              [
                106.330701,
                10.603484
              ],
              [
                106.330261,
                10.604126
              ],
              [
                106.32988,
                10.60489
              ],
              [
                106.329704,
                10.605359
              ],
              [
                106.329647,
                10.605696
              ],
              [
                106.329589,
                10.606092
              ],
              [
                106.329592,
                10.606781
              ],
              [
                106.3297,
                10.607787
              ],
              [
                106.329887,
                10.609876
              ],
              [
                106.329879,
                10.611648
              ],
              [
                106.329764,
                10.612279
              ],
              [
                106.329603,
                10.612792
              ],
              [
                106.329413,
                10.613218
              ],
              [
                106.329207,
                10.613483
              ],
              [
                106.328973,
                10.613686
              ],
              [
                106.328427,
                10.614011
              ],
              [
                106.32788,
                10.614218
              ],
              [
                106.326715,
                10.614501
              ],
              [
                106.325931,
                10.614636
              ],
              [
                106.323612,
                10.614981
              ],
              [
                106.32234,
                10.615147
              ],
              [
                106.321482,
                10.615371
              ],
              [
                106.320421,
                10.615798
              ],
              [
                106.318885,
                10.616478
              ],
              [
                106.317644,
                10.616996
              ],
              [
                106.316138,
                10.617691
              ],
              [
                106.31537,
                10.618148
              ],
              [
                106.3136,
                10.619457
              ],
              [
                106.313549,
                10.619495
              ],
              [
                106.312687,
                10.620181
              ],
              [
                106.312236,
                10.62054
              ],
              [
                106.311661,
                10.620908
              ],
              [
                106.31045,
                10.621587
              ],
              [
                106.309772,
                10.622073
              ],
              [
                106.309093,
                10.62269
              ],
              [
                106.309044,
                10.622746
              ],
              [
                106.307948,
                10.623983
              ],
              [
                106.307561,
                10.624403
              ],
              [
                106.307401,
                10.624786
              ],
              [
                106.307354,
                10.625529
              ],
              [
                106.307398,
                10.625838
              ],
              [
                106.307447,
                10.626187
              ],
              [
                106.307638,
                10.626675
              ],
              [
                106.307932,
                10.627168
              ],
              [
                106.308501,
                10.627957
              ],
              [
                106.309332,
                10.628781
              ],
              [
                106.310007,
                10.629249
              ],
              [
                106.310791,
                10.629682
              ],
              [
                106.312011,
                10.630215
              ],
              [
                106.31417,
                10.631616
              ],
              [
                106.314399,
                10.631819
              ],
              [
                106.314554,
                10.631981
              ],
              [
                106.314857,
                10.63231
              ],
              [
                106.314986,
                10.63287
              ],
              [
                106.315045,
                10.63329
              ],
              [
                106.315028,
                10.633784
              ],
              [
                106.31498,
                10.634103
              ],
              [
                106.314689,
                10.634602
              ],
              [
                106.314216,
                10.635206
              ],
              [
                106.31417,
                10.635251
              ],
              [
                106.313781,
                10.635749
              ],
              [
                106.313332,
                10.63617
              ],
              [
                106.312279,
                10.636998
              ],
              [
                106.310884,
                10.638316
              ],
              [
                106.310265,
                10.638949
              ],
              [
                106.309363,
                10.639827
              ],
              [
                106.308408,
                10.640673
              ],
              [
                106.307362,
                10.641481
              ],
              [
                106.306601,
                10.6421
              ],
              [
                106.305735,
                10.642712
              ],
              [
                106.304958,
                10.643204
              ],
              [
                106.304208,
                10.643627
              ],
              [
                106.304742,
                10.644112
              ],
              [
                106.304746,
                10.644116
              ],
              [
                106.304868,
                10.644185
              ],
              [
                106.305053,
                10.644321
              ],
              [
                106.30528,
                10.644506
              ],
              [
                106.305542,
                10.644873
              ],
              [
                106.30573,
                10.645036
              ],
              [
                106.305936,
                10.645137
              ],
              [
                106.306275,
                10.645213
              ],
              [
                106.306408,
                10.645264
              ],
              [
                106.306502,
                10.645329
              ],
              [
                106.306596,
                10.645427
              ],
              [
                106.30687,
                10.645839
              ],
              [
                106.307025,
                10.646066
              ],
              [
                106.307113,
                10.646155
              ],
              [
                106.307267,
                10.646202
              ],
              [
                106.307491,
                10.646216
              ],
              [
                106.307766,
                10.646185
              ],
              [
                106.308274,
                10.646054
              ],
              [
                106.308694,
                10.646032
              ],
              [
                106.308872,
                10.646037
              ],
              [
                106.309105,
                10.646048
              ],
              [
                106.309329,
                10.646077
              ],
              [
                106.309571,
                10.646139
              ],
              [
                106.309725,
                10.64621
              ],
              [
                106.309929,
                10.64637
              ],
              [
                106.310026,
                10.646418
              ],
              [
                106.310204,
                10.646393
              ],
              [
                106.310524,
                10.646365
              ],
              [
                106.310633,
                10.646379
              ],
              [
                106.310703,
                10.646424
              ],
              [
                106.310797,
                10.646549
              ],
              [
                106.310955,
                10.646737
              ],
              [
                106.311031,
                10.646764
              ],
              [
                106.311334,
                10.646894
              ],
              [
                106.311591,
                10.647012
              ],
              [
                106.311721,
                10.647117
              ],
              [
                106.311922,
                10.64734
              ],
              [
                106.312098,
                10.647447
              ],
              [
                106.312273,
                10.647473
              ],
              [
                106.31243,
                10.647434
              ],
              [
                106.312599,
                10.647292
              ],
              [
                106.312837,
                10.647115
              ],
              [
                106.312973,
                10.64706
              ],
              [
                106.313136,
                10.647054
              ],
              [
                106.313814,
                10.647308
              ],
              [
                106.313953,
                10.647328
              ],
              [
                106.314129,
                10.647382
              ],
              [
                106.314287,
                10.647483
              ],
              [
                106.314715,
                10.647878
              ],
              [
                106.314912,
                10.648039
              ],
              [
                106.315112,
                10.648095
              ],
              [
                106.315375,
                10.648097
              ],
              [
                106.315598,
                10.64812
              ],
              [
                106.315813,
                10.648164
              ],
              [
                106.31598,
                10.648244
              ],
              [
                106.316259,
                10.648449
              ],
              [
                106.316432,
                10.648553
              ],
              [
                106.316565,
                10.648603
              ],
              [
                106.317261,
                10.648789
              ],
              [
                106.317364,
                10.648839
              ],
              [
                106.317516,
                10.648952
              ],
              [
                106.317652,
                10.649095
              ],
              [
                106.317968,
                10.64942
              ],
              [
                106.318132,
                10.649617
              ],
              [
                106.318314,
                10.649789
              ],
              [
                106.318445,
                10.649884
              ],
              [
                106.318595,
                10.650028
              ],
              [
                106.318897,
                10.650592
              ],
              [
                106.319043,
                10.650816
              ],
              [
                106.319261,
                10.650963
              ],
              [
                106.319591,
                10.651053
              ],
              [
                106.320006,
                10.650975
              ],
              [
                106.320302,
                10.650978
              ],
              [
                106.320486,
                10.651035
              ],
              [
                106.320796,
                10.651268
              ],
              [
                106.320966,
                10.651401
              ],
              [
                106.32104,
                10.651621
              ],
              [
                106.321172,
                10.652118
              ],
              [
                106.321266,
                10.652429
              ],
              [
                106.3213,
                10.652639
              ],
              [
                106.321335,
                10.652931
              ],
              [
                106.3214,
                10.653242
              ],
              [
                106.32152,
                10.654208
              ],
              [
                106.321645,
                10.65514
              ],
              [
                106.321754,
                10.655857
              ],
              [
                106.32199,
                10.656641
              ],
              [
                106.32249,
                10.658156
              ],
              [
                106.322857,
                10.659283
              ],
              [
                106.323279,
                10.66054
              ],
              [
                106.323347,
                10.660688
              ],
              [
                106.323997,
                10.659958
              ],
              [
                106.325922,
                10.657715
              ],
              [
                106.327448,
                10.655948
              ],
              [
                106.327598,
                10.655809
              ],
              [
                106.328588,
                10.65668
              ],
              [
                106.331924,
                10.659494
              ],
              [
                106.33413,
                10.661307
              ],
              [
                106.337284,
                10.663985
              ],
              [
                106.339905,
                10.66617
              ],
              [
                106.339948,
                10.666209
              ],
              [
                106.340146,
                10.666384
              ],
              [
                106.34268,
                10.668498
              ],
              [
                106.346132,
                10.67139
              ],
              [
                106.348805,
                10.67366
              ],
              [
                106.351434,
                10.675845
              ],
              [
                106.352987,
                10.677177
              ],
              [
                106.353139,
                10.677308
              ],
              [
                106.353282,
                10.677431
              ],
              [
                106.353955,
                10.678008
              ],
              [
                106.355382,
                10.6792
              ],
              [
                106.357422,
                10.680928
              ],
              [
                106.359527,
                10.682699
              ],
              [
                106.361588,
                10.684441
              ],
              [
                106.365172,
                10.687454
              ],
              [
                106.366738,
                10.688797
              ],
              [
                106.368821,
                10.690524
              ],
              [
                106.372295,
                10.693495
              ],
              [
                106.373373,
                10.694417
              ],
              [
                106.374938,
                10.693838
              ],
              [
                106.375805,
                10.692822
              ],
              [
                106.376546,
                10.691939
              ],
              [
                106.37667,
                10.691793
              ],
              [
                106.37667,
                10.691792
              ],
              [
                106.376782,
                10.691666
              ],
              [
                106.377064,
                10.691347
              ],
              [
                106.377499,
                10.690835
              ],
              [
                106.378171,
                10.690056
              ],
              [
                106.378685,
                10.689459
              ],
              [
                106.378859,
                10.689254
              ],
              [
                106.379422,
                10.688627
              ],
              [
                106.380427,
                10.687414
              ],
              [
                106.38073,
                10.687066
              ],
              [
                106.381246,
                10.686458
              ],
              [
                106.38141,
                10.686259
              ],
              [
                106.382313,
                10.685223
              ],
              [
                106.383161,
                10.684193
              ],
              [
                106.383223,
                10.684122
              ],
              [
                106.383829,
                10.683407
              ],
              [
                106.385016,
                10.682012
              ],
              [
                106.385092,
                10.681925
              ],
              [
                106.385583,
                10.68137
              ],
              [
                106.386902,
                10.679809
              ],
              [
                106.387609,
                10.678982
              ],
              [
                106.387974,
                10.678555
              ],
              [
                106.388127,
                10.678366
              ],
              [
                106.388388,
                10.678006
              ],
              [
                106.388959,
                10.677202
              ],
              [
                106.389512,
                10.67642
              ],
              [
                106.389831,
                10.675957
              ],
              [
                106.390538,
                10.674941
              ],
              [
                106.391125,
                10.674154
              ],
              [
                106.391533,
                10.67365
              ],
              [
                106.392236,
                10.672833
              ],
              [
                106.393354,
                10.671523
              ],
              [
                106.394034,
                10.670727
              ],
              [
                106.394803,
                10.669799
              ],
              [
                106.395539,
                10.668947
              ],
              [
                106.396123,
                10.668255
              ],
              [
                106.396251,
                10.668103
              ],
              [
                106.382932,
                10.656939
              ],
              [
                106.375722,
                10.650969
              ],
              [
                106.375518,
                10.651304
              ],
              [
                106.365599,
                10.643493
              ],
              [
                106.362022,
                10.640631
              ],
              [
                106.368443,
                10.6339
              ],
              [
                106.371612,
                10.630432
              ],
              [
                106.378164,
                10.623494
              ],
              [
                106.382749,
                10.62655
              ],
              [
                106.382749,
                10.62655
              ]
            ]
          ]
        ]
      },
      "properties": {
        "code": "28051",
        "name": "Mỹ Thạnh",
        "nameEn": "My Thanh",
        "fullName": "Xã Mỹ Thạnh",
        "fullNameEn": "My Thanh Commune",
        "codeName": "my_thanh",
        "postalCode": "83513",
        "postalCodePrefix": "",
        "gisServerId": "diaphanhanhchinhcapxa_2025.1316",
        "areaKm2": 63.7
      }
    }
  ]
}