{
  "type": "FeatureCollection",
  "bbox": [
    106.286175,
    10.543297,
    106.383631,
    10.616237
  ],
  "features": [
    {
      "type": "Feature",
      "id": "28066",
      "bbox": [
        106.286175,
        10.543297,
        106.383631,
        10.616237
      ],
      "geometry": {
        "type": "MultiPolygon",
        "coordinates": [
          [
            [
              [
                106.355256,
                10.600491
              ],
              [
                106.35509,
                10.598481
              ],
              [
                106.354954,
                10.597104
              ],
              [
                106.354859,
                10.596645
              ],
              [
                106.354746,
                10.596223
              ],
              [
                106.354503,
                10.595783
              ],
              [
                106.353962,
                10.595234
              ],
              [
                106.35319,
                10.594733
              ],
              [
                106.352484,
                10.594497
              ],
              [
                106.351927,
                10.594444
              ],
              [
                106.35048,
                10.594432
              ],
              [
                106.349609,
                10.594546
              ],
              [
                106.347848,
                10.594866
              ],
              [
                106.346632,
                10.595146
              ],
              [
                106.345873,
                10.59537
              ],
              [
                106.345354,
                10.595482
              ],
              [
                106.344946,
                10.595539
              ],
              [
                106.344612,
                10.595559
              ],
              [
                106.344111,
                10.595506
              ],
              [
                106.343906,
                10.595452
              ],
              [
                106.343646,
                10.595324
              ],
              [
                106.343385,
                10.595123
              ],
              [
                106.343162,
                10.594885
              ],
              [
                106.343012,
                10.594666
              ],
              [
                106.342956,
                10.594446
              ],
              [
                106.342953,
                10.593711
              ],
              [
                106.343061,
                10.593141
              ],
              [
                106.343334,
                10.591858
              ],
              [
                106.343573,
                10.591196
              ],
              [
                106.344329,
                10.589611
              ],
              [
                106.344522,
                10.58932
              ],
              [
                106.344959,
                10.588663
              ],
              [
                106.346095,
                10.587054
              ],
              [
                106.346499,
                10.586584
              ],
              [
                106.347242,
                10.585832
              ],
              [
                106.347863,
                10.585184
              ],
              [
                106.349328,
                10.583937
              ],
              [
                106.351766,
                10.58203
              ],
              [
                106.352952,
                10.581079
              ],
              [
                106.354672,
                10.57986
              ],
              [
                106.355039,
                10.579611
              ],
              [
                106.355172,
                10.579521
              ],
              [
                106.355884,
                10.579186
              ],
              [
                106.356611,
                10.578958
              ],
              [
                106.357376,
                10.578889
              ],
              [
                106.357839,
                10.578897
              ],
              [
                106.358388,
                10.57896
              ],
              [
                106.358899,
                10.579145
              ],
              [
                106.359486,
                10.579404
              ],
              [
                106.360026,
                10.579729
              ],
              [
                106.360519,
                10.58013
              ],
              [
                106.361488,
                10.581202
              ],
              [
                106.362083,
                10.582112
              ],
              [
                106.362408,
                10.582999
              ],
              [
                106.362611,
                10.583878
              ],
              [
                106.362723,
                10.584734
              ],
              [
                106.362745,
                10.585492
              ],
              [
                106.362712,
                10.586531
              ],
              [
                106.36272,
                10.587256
              ],
              [
                106.36276,
                10.587649
              ],
              [
                106.362856,
                10.58806
              ],
              [
                106.363009,
                10.5885
              ],
              [
                106.363424,
                10.589214
              ],
              [
                106.36368,
                10.589512
              ],
              [
                106.364258,
                10.589912
              ],
              [
                106.364618,
                10.590069
              ],
              [
                106.365035,
                10.590152
              ],
              [
                106.365356,
                10.590151
              ],
              [
                106.36614,
                10.59011
              ],
              [
                106.366915,
                10.590031
              ],
              [
                106.367595,
                10.589907
              ],
              [
                106.36818,
                10.58968
              ],
              [
                106.368807,
                10.589392
              ],
              [
                106.369298,
                10.589174
              ],
              [
                106.370533,
                10.588467
              ],
              [
                106.371634,
                10.587743
              ],
              [
                106.372633,
                10.587103
              ],
              [
                106.373867,
                10.585974
              ],
              [
                106.375391,
                10.584451
              ],
              [
                106.376781,
                10.582896
              ],
              [
                106.377152,
                10.58248
              ],
              [
                106.3774,
                10.582253
              ],
              [
                106.377428,
                10.582228
              ],
              [
                106.377648,
                10.581968
              ],
              [
                106.377871,
                10.581735
              ],
              [
                106.378109,
                10.581492
              ],
              [
                106.378365,
                10.581233
              ],
              [
                106.378568,
                10.581027
              ],
              [
                106.378682,
                10.580908
              ],
              [
                106.378707,
                10.580881
              ],
              [
                106.378746,
                10.580837
              ],
              [
                106.378816,
                10.580761
              ],
              [
                106.378906,
                10.580665
              ],
              [
                106.378935,
                10.580634
              ],
              [
                106.378995,
                10.580569
              ],
              [
                106.37909,
                10.580466
              ],
              [
                106.379217,
                10.580331
              ],
              [
                106.379375,
                10.58016
              ],
              [
                106.379556,
                10.579955
              ],
              [
                106.379722,
                10.579759
              ],
              [
                106.379813,
                10.579643
              ],
              [
                106.379851,
                10.57958
              ],
              [
                106.379881,
                10.579518
              ],
              [
                106.379915,
                10.579452
              ],
              [
                106.379964,
                10.579379
              ],
              [
                106.380063,
                10.579258
              ],
              [
                106.380204,
                10.579094
              ],
              [
                106.380217,
                10.579078
              ],
              [
                106.380363,
                10.578919
              ],
              [
                106.380499,
                10.578773
              ],
              [
                106.380676,
                10.578574
              ],
              [
                106.380892,
                10.578326
              ],
              [
                106.381095,
                10.57809
              ],
              [
                106.381299,
                10.57785
              ],
              [
                106.381467,
                10.577651
              ],
              [
                106.38152,
                10.577589
              ],
              [
                106.381712,
                10.577356
              ],
              [
                106.381865,
                10.577162
              ],
              [
                106.382005,
                10.576984
              ],
              [
                106.382139,
                10.576812
              ],
              [
                106.382218,
                10.57671
              ],
              [
                106.38226,
                10.576656
              ],
              [
                106.38236,
                10.576516
              ],
              [
                106.382448,
                10.576382
              ],
              [
                106.382531,
                10.576252
              ],
              [
                106.382571,
                10.576188
              ],
              [
                106.382809,
                10.575797
              ],
              [
                106.382947,
                10.575551
              ],
              [
                106.382969,
                10.575501
              ],
              [
                106.383123,
                10.575161
              ],
              [
                106.38316,
                10.575053
              ],
              [
                106.383319,
                10.57459
              ],
              [
                106.383331,
                10.574555
              ],
              [
                106.383386,
                10.574379
              ],
              [
                106.383437,
                10.574209
              ],
              [
                106.383477,
                10.574057
              ],
              [
                106.383508,
                10.573919
              ],
              [
                106.383537,
                10.573781
              ],
              [
                106.383562,
                10.573633
              ],
              [
                106.383583,
                10.573469
              ],
              [
                106.383601,
                10.573299
              ],
              [
                106.383618,
                10.573134
              ],
              [
                106.383629,
                10.572998
              ],
              [
                106.383631,
                10.572895
              ],
              [
                106.383626,
                10.572769
              ],
              [
                106.383625,
                10.57275
              ],
              [
                106.383613,
                10.572558
              ],
              [
                106.383595,
                10.57229
              ],
              [
                106.383579,
                10.57205
              ],
              [
                106.383561,
                10.571832
              ],
              [
                106.383539,
                10.571608
              ],
              [
                106.383516,
                10.571433
              ],
              [
                106.38349,
                10.571297
              ],
              [
                106.383459,
                10.571155
              ],
              [
                106.383425,
                10.571009
              ],
              [
                106.383381,
                10.570851
              ],
              [
                106.383327,
                10.570691
              ],
              [
                106.38327,
                10.570535
              ],
              [
                106.383213,
                10.570384
              ],
              [
                106.383157,
                10.570236
              ],
              [
                106.383113,
                10.57014
              ],
              [
                106.383085,
                10.570077
              ],
              [
                106.382994,
                10.569901
              ],
              [
                106.382905,
                10.569745
              ],
              [
                106.382809,
                10.569597
              ],
              [
                106.382695,
                10.569421
              ],
              [
                106.382579,
                10.569233
              ],
              [
                106.382495,
                10.569097
              ],
              [
                106.382444,
                10.569015
              ],
              [
                106.382396,
                10.568942
              ],
              [
                106.382327,
                10.568856
              ],
              [
                106.382252,
                10.56877
              ],
              [
                106.382192,
                10.568702
              ],
              [
                106.382133,
                10.568639
              ],
              [
                106.382071,
                10.568579
              ],
              [
                106.382065,
                10.568573
              ],
              [
                106.382,
                10.56852
              ],
              [
                106.38191,
                10.568458
              ],
              [
                106.38176,
                10.56836
              ],
              [
                106.381572,
                10.568235
              ],
              [
                106.381371,
                10.568104
              ],
              [
                106.381155,
                10.567962
              ],
              [
                106.3809,
                10.567795
              ],
              [
                106.380612,
                10.567606
              ],
              [
                106.380323,
                10.567414
              ],
              [
                106.380057,
                10.567233
              ],
              [
                106.379846,
                10.567081
              ],
              [
                106.37966,
                10.566936
              ],
              [
                106.379445,
                10.566762
              ],
              [
                106.379196,
                10.566563
              ],
              [
                106.378541,
                10.566119
              ],
              [
                106.377902,
                10.565642
              ],
              [
                106.377166,
                10.565143
              ],
              [
                106.376783,
                10.564883
              ],
              [
                106.37678,
                10.564881
              ],
              [
                106.376651,
                10.564793
              ],
              [
                106.375746,
                10.564377
              ],
              [
                106.375616,
                10.564317
              ],
              [
                106.375412,
                10.564208
              ],
              [
                106.372053,
                10.563114
              ],
              [
                106.371431,
                10.562911
              ],
              [
                106.370533,
                10.562542
              ],
              [
                106.370455,
                10.56251
              ],
              [
                106.370199,
                10.562409
              ],
              [
                106.370068,
                10.562357
              ],
              [
                106.369851,
                10.562218
              ],
              [
                106.369809,
                10.562172
              ],
              [
                106.369732,
                10.562086
              ],
              [
                106.369488,
                10.56159
              ],
              [
                106.369082,
                10.560694
              ],
              [
                106.368948,
                10.560553
              ],
              [
                106.368873,
                10.560474
              ],
              [
                106.368716,
                10.560364
              ],
              [
                106.367978,
                10.559498
              ],
              [
                106.367606,
                10.559103
              ],
              [
                106.367082,
                10.558547
              ],
              [
                106.365517,
                10.557399
              ],
              [
                106.364178,
                10.556335
              ],
              [
                106.363385,
                10.555764
              ],
              [
                106.362722,
                10.555157
              ],
              [
                106.362329,
                10.554909
              ],
              [
                106.361595,
                10.554444
              ],
              [
                106.360612,
                10.553399
              ],
              [
                106.360407,
                10.55319
              ],
              [
                106.360041,
                10.552882
              ],
              [
                106.359802,
                10.552736
              ],
              [
                106.359707,
                10.552686
              ],
              [
                106.358766,
                10.552188
              ],
              [
                106.358341,
                10.551976
              ],
              [
                106.358065,
                10.551808
              ],
              [
                106.357211,
                10.551108
              ],
              [
                106.356797,
                10.550787
              ],
              [
                106.356778,
                10.550772
              ],
              [
                106.356494,
                10.550567
              ],
              [
                106.356271,
                10.550442
              ],
              [
                106.355987,
                10.550318
              ],
              [
                106.355652,
                10.550202
              ],
              [
                106.354371,
                10.549824
              ],
              [
                106.354133,
                10.549686
              ],
              [
                106.353983,
                10.549546
              ],
              [
                106.35362,
                10.549029
              ],
              [
                106.353426,
                10.548794
              ],
              [
                106.353247,
                10.548625
              ],
              [
                106.35306,
                10.548493
              ],
              [
                106.352814,
                10.548391
              ],
              [
                106.352323,
                10.548276
              ],
              [
                106.351921,
                10.54816
              ],
              [
                106.351653,
                10.548013
              ],
              [
                106.351488,
                10.547874
              ],
              [
                106.351324,
                10.547728
              ],
              [
                106.351122,
                10.547485
              ],
              [
                106.350564,
                10.546562
              ],
              [
                106.3504,
                10.546342
              ],
              [
                106.350265,
                10.546181
              ],
              [
                106.350093,
                10.54602
              ],
              [
                106.349862,
                10.545859
              ],
              [
                106.349206,
                10.545626
              ],
              [
                106.349028,
                10.545553
              ],
              [
                106.348767,
                10.545378
              ],
              [
                106.348134,
                10.544736
              ],
              [
                106.347947,
                10.544546
              ],
              [
                106.347784,
                10.544414
              ],
              [
                106.34719,
                10.543956
              ],
              [
                106.346623,
                10.54356
              ],
              [
                106.346213,
                10.543324
              ],
              [
                106.346072,
                10.543297
              ],
              [
                106.345609,
                10.543453
              ],
              [
                106.345037,
                10.543595
              ],
              [
                106.344678,
                10.543747
              ],
              [
                106.344013,
                10.544152
              ],
              [
                106.343377,
                10.54479
              ],
              [
                106.342887,
                10.545352
              ],
              [
                106.34255,
                10.545601
              ],
              [
                106.342018,
                10.545757
              ],
              [
                106.341855,
                10.545837
              ],
              [
                106.341491,
                10.54642
              ],
              [
                106.341239,
                10.546672
              ],
              [
                106.341139,
                10.546719
              ],
              [
                106.340954,
                10.546726
              ],
              [
                106.340779,
                10.546631
              ],
              [
                106.340668,
                10.546526
              ],
              [
                106.340536,
                10.546292
              ],
              [
                106.34045,
                10.546167
              ],
              [
                106.340351,
                10.546025
              ],
              [
                106.34025,
                10.546072
              ],
              [
                106.340203,
                10.546113
              ],
              [
                106.340045,
                10.546248
              ],
              [
                106.339989,
                10.546401
              ],
              [
                106.339918,
                10.546582
              ],
              [
                106.339912,
                10.546676
              ],
              [
                106.33996,
                10.546756
              ],
              [
                106.340056,
                10.546791
              ],
              [
                106.340214,
                10.546864
              ],
              [
                106.340283,
                10.546946
              ],
              [
                106.340272,
                10.547005
              ],
              [
                106.340174,
                10.547088
              ],
              [
                106.34015,
                10.547236
              ],
              [
                106.340163,
                10.547392
              ],
              [
                106.340202,
                10.547454
              ],
              [
                106.340253,
                10.547534
              ],
              [
                106.340289,
                10.547601
              ],
              [
                106.340272,
                10.547693
              ],
              [
                106.340215,
                10.547776
              ],
              [
                106.34007,
                10.547974
              ],
              [
                106.340045,
                10.548007
              ],
              [
                106.34002,
                10.548039
              ],
              [
                106.340011,
                10.548101
              ],
              [
                106.34002,
                10.548157
              ],
              [
                106.340044,
                10.548199
              ],
              [
                106.340061,
                10.548205
              ],
              [
                106.340125,
                10.548228
              ],
              [
                106.339954,
                10.54838
              ],
              [
                106.339865,
                10.548413
              ],
              [
                106.339493,
                10.548409
              ],
              [
                106.339269,
                10.548407
              ],
              [
                106.339253,
                10.54838
              ],
              [
                106.339195,
                10.548305
              ],
              [
                106.339092,
                10.548203
              ],
              [
                106.338786,
                10.548357
              ],
              [
                106.3385,
                10.54847
              ],
              [
                106.338316,
                10.548561
              ],
              [
                106.338032,
                10.548804
              ],
              [
                106.337545,
                10.54925
              ],
              [
                106.337543,
                10.549252
              ],
              [
                106.336986,
                10.549757
              ],
              [
                106.336242,
                10.550327
              ],
              [
                106.335651,
                10.550906
              ],
              [
                106.33557,
                10.551028
              ],
              [
                106.33555,
                10.551241
              ],
              [
                106.335561,
                10.551332
              ],
              [
                106.335664,
                10.551635
              ],
              [
                106.335655,
                10.551726
              ],
              [
                106.335614,
                10.551848
              ],
              [
                106.33532,
                10.552295
              ],
              [
                106.33464,
                10.553258
              ],
              [
                106.333655,
                10.554779
              ],
              [
                106.333563,
                10.554875
              ],
              [
                106.333261,
                10.555189
              ],
              [
                106.333095,
                10.555457
              ],
              [
                106.332983,
                10.555623
              ],
              [
                106.332687,
                10.555933
              ],
              [
                106.332484,
                10.556138
              ],
              [
                106.332344,
                10.55622
              ],
              [
                106.332315,
                10.556237
              ],
              [
                106.332067,
                10.556512
              ],
              [
                106.331917,
                10.556697
              ],
              [
                106.331586,
                10.556969
              ],
              [
                106.33133,
                10.557118
              ],
              [
                106.331157,
                10.557258
              ],
              [
                106.330998,
                10.557464
              ],
              [
                106.330878,
                10.557637
              ],
              [
                106.330507,
                10.558031
              ],
              [
                106.330286,
                10.558348
              ],
              [
                106.330171,
                10.558697
              ],
              [
                106.330027,
                10.558889
              ],
              [
                106.329936,
                10.55895
              ],
              [
                106.329801,
                10.559039
              ],
              [
                106.329658,
                10.559218
              ],
              [
                106.329632,
                10.55925
              ],
              [
                106.32942,
                10.559466
              ],
              [
                106.329252,
                10.559586
              ],
              [
                106.32861,
                10.559938
              ],
              [
                106.328326,
                10.560208
              ],
              [
                106.328315,
                10.560214
              ],
              [
                106.327998,
                10.56041
              ],
              [
                106.327825,
                10.560569
              ],
              [
                106.327782,
                10.560618
              ],
              [
                106.327363,
                10.561102
              ],
              [
                106.326867,
                10.561665
              ],
              [
                106.326776,
                10.561769
              ],
              [
                106.326169,
                10.562446
              ],
              [
                106.325943,
                10.562811
              ],
              [
                106.325741,
                10.563089
              ],
              [
                106.3254,
                10.563507
              ],
              [
                106.325246,
                10.563761
              ],
              [
                106.324645,
                10.564572
              ],
              [
                106.324299,
                10.564966
              ],
              [
                106.324048,
                10.565178
              ],
              [
                106.323634,
                10.56551
              ],
              [
                106.323157,
                10.56599
              ],
              [
                106.322965,
                10.566288
              ],
              [
                106.32273,
                10.566781
              ],
              [
                106.322538,
                10.567141
              ],
              [
                106.322245,
                10.567578
              ],
              [
                106.322097,
                10.568033
              ],
              [
                106.321732,
                10.568508
              ],
              [
                106.321284,
                10.569084
              ],
              [
                106.32102,
                10.569348
              ],
              [
                106.320701,
                10.569536
              ],
              [
                106.320103,
                10.569836
              ],
              [
                106.319099,
                10.570409
              ],
              [
                106.318569,
                10.570724
              ],
              [
                106.318516,
                10.570756
              ],
              [
                106.318439,
                10.570795
              ],
              [
                106.318041,
                10.57049
              ],
              [
                106.317614,
                10.570157
              ],
              [
                106.316217,
                10.569234
              ],
              [
                106.314612,
                10.568165
              ],
              [
                106.313836,
                10.567665
              ],
              [
                106.313378,
                10.567359
              ],
              [
                106.312557,
                10.56681
              ],
              [
                106.312557,
                10.56681
              ],
              [
                106.312557,
                10.56681
              ],
              [
                106.312556,
                10.56681
              ],
              [
                106.311891,
                10.566329
              ],
              [
                106.31136,
                10.566038
              ],
              [
                106.310878,
                10.565773
              ],
              [
                106.310538,
                10.565551
              ],
              [
                106.310513,
                10.565535
              ],
              [
                106.310382,
                10.565449
              ],
              [
                106.310158,
                10.565719
              ],
              [
                106.309782,
                10.566268
              ],
              [
                106.309701,
                10.566387
              ],
              [
                106.30959,
                10.56646
              ],
              [
                106.309384,
                10.566595
              ],
              [
                106.308937,
                10.566868
              ],
              [
                106.308368,
                10.567309
              ],
              [
                106.307216,
                10.568176
              ],
              [
                106.306435,
                10.568781
              ],
              [
                106.305721,
                10.569355
              ],
              [
                106.305281,
                10.569578
              ],
              [
                106.304913,
                10.569756
              ],
              [
                106.304555,
                10.570056
              ],
              [
                106.303685,
                10.57084
              ],
              [
                106.302935,
                10.571475
              ],
              [
                106.302209,
                10.572082
              ],
              [
                106.301555,
                10.572634
              ],
              [
                106.300738,
                10.573316
              ],
              [
                106.300088,
                10.573864
              ],
              [
                106.299358,
                10.574445
              ],
              [
                106.298718,
                10.574964
              ],
              [
                106.298357,
                10.575292
              ],
              [
                106.297738,
                10.575804
              ],
              [
                106.297084,
                10.576345
              ],
              [
                106.296452,
                10.576861
              ],
              [
                106.295686,
                10.577528
              ],
              [
                106.294938,
                10.578234
              ],
              [
                106.294031,
                10.579139
              ],
              [
                106.293367,
                10.579816
              ],
              [
                106.292218,
                10.580937
              ],
              [
                106.291503,
                10.58165
              ],
              [
                106.290614,
                10.582526
              ],
              [
                106.289982,
                10.583189
              ],
              [
                106.289043,
                10.584106
              ],
              [
                106.28857,
                10.58455
              ],
              [
                106.286849,
                10.586256
              ],
              [
                106.286272,
                10.586869
              ],
              [
                106.286175,
                10.587009
              ],
              [
                106.287186,
                10.587101
              ],
              [
                106.28867,
                10.587224
              ],
              [
                106.290706,
                10.587421
              ],
              [
                106.291914,
                10.587516
              ],
              [
                106.29387,
                10.58772
              ],
              [
                106.295307,
                10.587861
              ],
              [
                106.297295,
                10.588061
              ],
              [
                106.299135,
                10.588244
              ],
              [
                106.301142,
                10.588443
              ],
              [
                106.30251,
                10.588574
              ],
              [
                106.303827,
                10.588701
              ],
              [
                106.30637,
                10.588939
              ],
              [
                106.30809,
                10.589118
              ],
              [
                106.308901,
                10.589189
              ],
              [
                106.30985,
                10.589272
              ],
              [
                106.311643,
                10.589448
              ],
              [
                106.313032,
                10.589557
              ],
              [
                106.313472,
                10.589599
              ],
              [
                106.315083,
                10.589753
              ],
              [
                106.316705,
                10.589918
              ],
              [
                106.317643,
                10.589988
              ],
              [
                106.319377,
                10.589131
              ],
              [
                106.320042,
                10.588647
              ],
              [
                106.321244,
                10.587611
              ],
              [
                106.323684,
                10.58603
              ],
              [
                106.324215,
                10.585723
              ],
              [
                106.325503,
                10.584964
              ],
              [
                106.326487,
                10.584307
              ],
              [
                106.327345,
                10.583642
              ],
              [
                106.327879,
                10.583291
              ],
              [
                106.328016,
                10.583218
              ],
              [
                106.328128,
                10.583178
              ],
              [
                106.328251,
                10.583159
              ],
              [
                106.328349,
                10.583163
              ],
              [
                106.330558,
                10.583231
              ],
              [
                106.330878,
                10.583241
              ],
              [
                106.33148,
                10.583181
              ],
              [
                106.33156,
                10.583173
              ],
              [
                106.331656,
                10.583597
              ],
              [
                106.331769,
                10.583866
              ],
              [
                106.331814,
                10.584081
              ],
              [
                106.331801,
                10.58449
              ],
              [
                106.331962,
                10.584787
              ],
              [
                106.33205,
                10.584984
              ],
              [
                106.332087,
                10.585235
              ],
              [
                106.332091,
                10.58525
              ],
              [
                106.33215,
                10.585507
              ],
              [
                106.332253,
                10.58574
              ],
              [
                106.332529,
                10.58589
              ],
              [
                106.332712,
                10.586066
              ],
              [
                106.33293,
                10.586355
              ],
              [
                106.33323,
                10.587046
              ],
              [
                106.333532,
                10.587602
              ],
              [
                106.333568,
                10.587668
              ],
              [
                106.333989,
                10.587877
              ],
              [
                106.334446,
                10.588094
              ],
              [
                106.334674,
                10.588486
              ],
              [
                106.334767,
                10.588749
              ],
              [
                106.334721,
                10.589003
              ],
              [
                106.334701,
                10.589113
              ],
              [
                106.334614,
                10.589257
              ],
              [
                106.334596,
                10.589544
              ],
              [
                106.334631,
                10.589724
              ],
              [
                106.334893,
                10.590023
              ],
              [
                106.334981,
                10.590097
              ],
              [
                106.33508,
                10.590182
              ],
              [
                106.335102,
                10.590251
              ],
              [
                106.335123,
                10.590315
              ],
              [
                106.335136,
                10.590577
              ],
              [
                106.335114,
                10.590944
              ],
              [
                106.335054,
                10.591272
              ],
              [
                106.335037,
                10.591472
              ],
              [
                106.335089,
                10.591586
              ],
              [
                106.335292,
                10.591842
              ],
              [
                106.335348,
                10.592036
              ],
              [
                106.335355,
                10.592335
              ],
              [
                106.33535,
                10.592595
              ],
              [
                106.335322,
                10.592771
              ],
              [
                106.33528,
                10.593032
              ],
              [
                106.335265,
                10.593128
              ],
              [
                106.335079,
                10.593592
              ],
              [
                106.335037,
                10.593688
              ],
              [
                106.334798,
                10.59382
              ],
              [
                106.334705,
                10.593919
              ],
              [
                106.334688,
                10.594031
              ],
              [
                106.334646,
                10.594129
              ],
              [
                106.33442,
                10.594295
              ],
              [
                106.334212,
                10.59443
              ],
              [
                106.33411,
                10.594512
              ],
              [
                106.333996,
                10.594694
              ],
              [
                106.333894,
                10.594952
              ],
              [
                106.333792,
                10.595129
              ],
              [
                106.333786,
                10.595138
              ],
              [
                106.333646,
                10.595401
              ],
              [
                106.333647,
                10.595489
              ],
              [
                106.333662,
                10.595583
              ],
              [
                106.333704,
                10.595739
              ],
              [
                106.333757,
                10.595836
              ],
              [
                106.333844,
                10.595996
              ],
              [
                106.333918,
                10.596139
              ],
              [
                106.333967,
                10.596339
              ],
              [
                106.333921,
                10.596768
              ],
              [
                106.333923,
                10.596893
              ],
              [
                106.3339,
                10.597713
              ],
              [
                106.333895,
                10.597894
              ],
              [
                106.333893,
                10.597957
              ],
              [
                106.333989,
                10.598212
              ],
              [
                106.334103,
                10.598463
              ],
              [
                106.334191,
                10.598657
              ],
              [
                106.334287,
                10.599295
              ],
              [
                106.334303,
                10.599399
              ],
              [
                106.334544,
                10.600273
              ],
              [
                106.334546,
                10.60028
              ],
              [
                106.334928,
                10.600852
              ],
              [
                106.335414,
                10.600589
              ],
              [
                106.336026,
                10.600366
              ],
              [
                106.336369,
                10.600309
              ],
              [
                106.336675,
                10.60029
              ],
              [
                106.337222,
                10.600315
              ],
              [
                106.337696,
                10.600386
              ],
              [
                106.33803,
                10.600495
              ],
              [
                106.338476,
                10.600668
              ],
              [
                106.338932,
                10.600914
              ],
              [
                106.339495,
                10.601311
              ],
              [
                106.339951,
                10.601777
              ],
              [
                106.340343,
                10.602336
              ],
              [
                106.340792,
                10.603124
              ],
              [
                106.341276,
                10.604486
              ],
              [
                106.341418,
                10.605284
              ],
              [
                106.341459,
                10.606055
              ],
              [
                106.341452,
                10.606533
              ],
              [
                106.341439,
                10.60696
              ],
              [
                106.34134,
                10.607502
              ],
              [
                106.341111,
                10.608128
              ],
              [
                106.340716,
                10.609103
              ],
              [
                106.340269,
                10.609872
              ],
              [
                106.339938,
                10.61036
              ],
              [
                106.339615,
                10.610802
              ],
              [
                106.338765,
                10.611743
              ],
              [
                106.338447,
                10.612235
              ],
              [
                106.338356,
                10.61252
              ],
              [
                106.338311,
                10.61275
              ],
              [
                106.338302,
                10.613007
              ],
              [
                106.33835,
                10.613375
              ],
              [
                106.338492,
                10.613925
              ],
              [
                106.338871,
                10.614672
              ],
              [
                106.33902,
                10.61491
              ],
              [
                106.339421,
                10.615248
              ],
              [
                106.339979,
                10.615622
              ],
              [
                106.340787,
                10.615922
              ],
              [
                106.341549,
                10.616102
              ],
              [
                106.341911,
                10.616193
              ],
              [
                106.342236,
                10.616237
              ],
              [
                106.342663,
                10.616217
              ],
              [
                106.343349,
                10.616122
              ],
              [
                106.34529,
                10.615669
              ],
              [
                106.34669,
                10.615304
              ],
              [
                106.347885,
                10.614895
              ],
              [
                106.348602,
                10.614594
              ],
              [
                106.349537,
                10.61413
              ],
              [
                106.350148,
                10.613733
              ],
              [
                106.351414,
                10.612745
              ],
              [
                106.35292,
                10.611713
              ],
              [
                106.353352,
                10.611337
              ],
              [
                106.353768,
                10.610858
              ],
              [
                106.354016,
                10.610453
              ],
              [
                106.354237,
                10.610011
              ],
              [
                106.354649,
                10.609003
              ],
              [
                106.355061,
                10.607853
              ],
              [
                106.355373,
                10.606888
              ],
              [
                106.355472,
                10.606373
              ],
              [
                106.35561,
                10.604953
              ],
              [
                106.355587,
                10.603925
              ],
              [
                106.355256,
                10.600491
              ],
              [
                106.355256,
                10.600491
              ]
            ]
          ]
        ]
      },
      "properties": {
        "code": "28066",
        "name": "Mỹ An",
        "nameEn": "My An",
        "fullName": "Xã Mỹ An",
        "fullNameEn": "My An Commune",
        "codeName": "my_an",
        "postalCode": "83514",
        "postalCodePrefix": "",
        "gisServerId": "diaphanhanhchinhcapxa_2025.1317",
        "areaKm2": 32.76
      }
    }
  ]
}