{
  "type": "FeatureCollection",
  "bbox": [
    105.454483,
    10.830782,
    105.588343,
    10.96469
  ],
  "features": [
    {
      "type": "Feature",
      "id": "29938",
      "bbox": [
        105.454483,
        10.830782,
        105.588343,
        10.96469
      ],
      "geometry": {
        "type": "MultiPolygon",
        "coordinates": [
          [
            [
              [
                105.536271,
                10.843401
              ],
              [
                105.535755,
                10.844873
              ],
              [
                105.534668,
                10.847802
              ],
              [
                105.532971,
                10.852308
              ],
              [
                105.531431,
                10.85653
              ],
              [
                105.531014,
                10.857644
              ],
              [
                105.52963,
                10.861218
              ],
              [
                105.528012,
                10.865699
              ],
              [
                105.527228,
                10.867719
              ],
              [
                105.526263,
                10.870335
              ],
              [
                105.525401,
                10.872459
              ],
              [
                105.524566,
                10.874764
              ],
              [
                105.522869,
                10.879374
              ],
              [
                105.521799,
                10.882275
              ],
              [
                105.521094,
                10.884191
              ],
              [
                105.520154,
                10.886678
              ],
              [
                105.519945,
                10.887092
              ],
              [
                105.519657,
                10.887404
              ],
              [
                105.518872,
                10.888311
              ],
              [
                105.516018,
                10.891292
              ],
              [
                105.515023,
                10.892355
              ],
              [
                105.512117,
                10.895518
              ],
              [
                105.509106,
                10.898758
              ],
              [
                105.507118,
                10.900914
              ],
              [
                105.505616,
                10.902542
              ],
              [
                105.504969,
                10.903243
              ],
              [
                105.504367,
                10.903865
              ],
              [
                105.501788,
                10.906576
              ],
              [
                105.499399,
                10.909538
              ],
              [
                105.495091,
                10.914139
              ],
              [
                105.490464,
                10.918961
              ],
              [
                105.485722,
                10.923806
              ],
              [
                105.48098,
                10.928538
              ],
              [
                105.476329,
                10.933315
              ],
              [
                105.471678,
                10.938137
              ],
              [
                105.469075,
                10.940736
              ],
              [
                105.467425,
                10.942385
              ],
              [
                105.462466,
                10.947465
              ],
              [
                105.461281,
                10.948729
              ],
              [
                105.457952,
                10.952011
              ],
              [
                105.455398,
                10.954651
              ],
              [
                105.454483,
                10.955628
              ],
              [
                105.454665,
                10.955632
              ],
              [
                105.454695,
                10.955632
              ],
              [
                105.454766,
                10.95562
              ],
              [
                105.454806,
                10.955613
              ],
              [
                105.454849,
                10.955619
              ],
              [
                105.454876,
                10.955623
              ],
              [
                105.45496,
                10.955634
              ],
              [
                105.4551,
                10.95564
              ],
              [
                105.45526,
                10.955662
              ],
              [
                105.455569,
                10.955755
              ],
              [
                105.455953,
                10.955962
              ],
              [
                105.456101,
                10.95604
              ],
              [
                105.456193,
                10.956085
              ],
              [
                105.456264,
                10.956118
              ],
              [
                105.456386,
                10.956188
              ],
              [
                105.45649,
                10.956253
              ],
              [
                105.456543,
                10.956295
              ],
              [
                105.456607,
                10.956345
              ],
              [
                105.456633,
                10.956377
              ],
              [
                105.456664,
                10.956414
              ],
              [
                105.456699,
                10.956466
              ],
              [
                105.456729,
                10.956524
              ],
              [
                105.456764,
                10.956604
              ],
              [
                105.456796,
                10.956665
              ],
              [
                105.456833,
                10.956769
              ],
              [
                105.456882,
                10.956888
              ],
              [
                105.456918,
                10.957006
              ],
              [
                105.456978,
                10.957234
              ],
              [
                105.456996,
                10.957305
              ],
              [
                105.457004,
                10.957343
              ],
              [
                105.457045,
                10.957494
              ],
              [
                105.457078,
                10.9576
              ],
              [
                105.45711,
                10.957679
              ],
              [
                105.457141,
                10.957791
              ],
              [
                105.457171,
                10.95786
              ],
              [
                105.457202,
                10.95795
              ],
              [
                105.457239,
                10.958035
              ],
              [
                105.457289,
                10.958131
              ],
              [
                105.457325,
                10.958196
              ],
              [
                105.457353,
                10.95824
              ],
              [
                105.45741,
                10.958316
              ],
              [
                105.457479,
                10.958414
              ],
              [
                105.457601,
                10.958551
              ],
              [
                105.457646,
                10.958596
              ],
              [
                105.457696,
                10.95866
              ],
              [
                105.457734,
                10.958703
              ],
              [
                105.457972,
                10.958919
              ],
              [
                105.458441,
                10.959346
              ],
              [
                105.458766,
                10.959677
              ],
              [
                105.458899,
                10.959808
              ],
              [
                105.459049,
                10.959962
              ],
              [
                105.459121,
                10.960023
              ],
              [
                105.459139,
                10.960042
              ],
              [
                105.459174,
                10.960079
              ],
              [
                105.459226,
                10.960143
              ],
              [
                105.459369,
                10.960292
              ],
              [
                105.459453,
                10.960391
              ],
              [
                105.45946,
                10.960396
              ],
              [
                105.459845,
                10.960764
              ],
              [
                105.460205,
                10.961024
              ],
              [
                105.46053,
                10.961238
              ],
              [
                105.460876,
                10.961478
              ],
              [
                105.461215,
                10.961752
              ],
              [
                105.461616,
                10.962013
              ],
              [
                105.462153,
                10.962323
              ],
              [
                105.46249,
                10.96252
              ],
              [
                105.462911,
                10.962788
              ],
              [
                105.463291,
                10.963095
              ],
              [
                105.463599,
                10.963359
              ],
              [
                105.463658,
                10.963409
              ],
              [
                105.463678,
                10.963429
              ],
              [
                105.463744,
                10.963493
              ],
              [
                105.463847,
                10.963616
              ],
              [
                105.463907,
                10.963692
              ],
              [
                105.463913,
                10.963702
              ],
              [
                105.463963,
                10.963766
              ],
              [
                105.464022,
                10.963836
              ],
              [
                105.464064,
                10.963881
              ],
              [
                105.464103,
                10.96391
              ],
              [
                105.464195,
                10.963997
              ],
              [
                105.464451,
                10.964211
              ],
              [
                105.464621,
                10.964298
              ],
              [
                105.464903,
                10.964371
              ],
              [
                105.465069,
                10.964405
              ],
              [
                105.465167,
                10.964428
              ],
              [
                105.465271,
                10.96444
              ],
              [
                105.465548,
                10.964457
              ],
              [
                105.465605,
                10.964467
              ],
              [
                105.465747,
                10.964485
              ],
              [
                105.465805,
                10.964491
              ],
              [
                105.465859,
                10.964489
              ],
              [
                105.465896,
                10.96449
              ],
              [
                105.465919,
                10.964493
              ],
              [
                105.465955,
                10.964498
              ],
              [
                105.466146,
                10.964501
              ],
              [
                105.466545,
                10.964516
              ],
              [
                105.466864,
                10.964495
              ],
              [
                105.467026,
                10.964482
              ],
              [
                105.46723,
                10.964435
              ],
              [
                105.467385,
                10.964361
              ],
              [
                105.46781,
                10.9641
              ],
              [
                105.467949,
                10.964018
              ],
              [
                105.468104,
                10.963908
              ],
              [
                105.46822,
                10.963835
              ],
              [
                105.46833,
                10.963776
              ],
              [
                105.468474,
                10.963706
              ],
              [
                105.468576,
                10.963662
              ],
              [
                105.46882,
                10.963569
              ],
              [
                105.468939,
                10.96353
              ],
              [
                105.468989,
                10.963516
              ],
              [
                105.469175,
                10.963463
              ],
              [
                105.469346,
                10.963431
              ],
              [
                105.469491,
                10.963389
              ],
              [
                105.46967,
                10.963347
              ],
              [
                105.469783,
                10.96331
              ],
              [
                105.469912,
                10.963266
              ],
              [
                105.470018,
                10.963229
              ],
              [
                105.470337,
                10.963124
              ],
              [
                105.470534,
                10.963084
              ],
              [
                105.470724,
                10.96307
              ],
              [
                105.470886,
                10.96309
              ],
              [
                105.471103,
                10.96317
              ],
              [
                105.471293,
                10.963277
              ],
              [
                105.471568,
                10.963504
              ],
              [
                105.47163,
                10.963568
              ],
              [
                105.471727,
                10.963652
              ],
              [
                105.471856,
                10.963764
              ],
              [
                105.471899,
                10.963815
              ],
              [
                105.471939,
                10.963849
              ],
              [
                105.472236,
                10.964106
              ],
              [
                105.472474,
                10.964279
              ],
              [
                105.472591,
                10.964358
              ],
              [
                105.472879,
                10.964581
              ],
              [
                105.472998,
                10.964644
              ],
              [
                105.473047,
                10.964663
              ],
              [
                105.47311,
                10.964677
              ],
              [
                105.47325,
                10.96469
              ],
              [
                105.473504,
                10.964686
              ],
              [
                105.473642,
                10.964673
              ],
              [
                105.473781,
                10.964581
              ],
              [
                105.473896,
                10.964476
              ],
              [
                105.473939,
                10.964424
              ],
              [
                105.473955,
                10.964379
              ],
              [
                105.473966,
                10.96419
              ],
              [
                105.473976,
                10.964068
              ],
              [
                105.474001,
                10.963925
              ],
              [
                105.474041,
                10.963773
              ],
              [
                105.474063,
                10.963704
              ],
              [
                105.474125,
                10.963568
              ],
              [
                105.474202,
                10.963399
              ],
              [
                105.474284,
                10.963273
              ],
              [
                105.474357,
                10.963177
              ],
              [
                105.474367,
                10.963161
              ],
              [
                105.474424,
                10.963078
              ],
              [
                105.474486,
                10.96302
              ],
              [
                105.474566,
                10.962945
              ],
              [
                105.474651,
                10.962886
              ],
              [
                105.474773,
                10.962801
              ],
              [
                105.474794,
                10.962787
              ],
              [
                105.474883,
                10.962749
              ],
              [
                105.475,
                10.96271
              ],
              [
                105.475051,
                10.962697
              ],
              [
                105.475197,
                10.96267
              ],
              [
                105.475318,
                10.962647
              ],
              [
                105.475439,
                10.962637
              ],
              [
                105.475637,
                10.962614
              ],
              [
                105.475828,
                10.962608
              ],
              [
                105.476009,
                10.962581
              ],
              [
                105.476163,
                10.962566
              ],
              [
                105.476528,
                10.962553
              ],
              [
                105.47664,
                10.962553
              ],
              [
                105.476674,
                10.962555
              ],
              [
                105.476766,
                10.962553
              ],
              [
                105.476939,
                10.962547
              ],
              [
                105.477143,
                10.962549
              ],
              [
                105.477175,
                10.962551
              ],
              [
                105.477298,
                10.96255
              ],
              [
                105.477454,
                10.962543
              ],
              [
                105.477575,
                10.962533
              ],
              [
                105.477692,
                10.962508
              ],
              [
                105.477835,
                10.962475
              ],
              [
                105.477939,
                10.962434
              ],
              [
                105.478062,
                10.962393
              ],
              [
                105.478191,
                10.962331
              ],
              [
                105.478355,
                10.962234
              ],
              [
                105.478439,
                10.962183
              ],
              [
                105.478505,
                10.962138
              ],
              [
                105.478623,
                10.962043
              ],
              [
                105.478668,
                10.961999
              ],
              [
                105.478789,
                10.961876
              ],
              [
                105.478834,
                10.961821
              ],
              [
                105.47895,
                10.961679
              ],
              [
                105.479052,
                10.961426
              ],
              [
                105.479158,
                10.961167
              ],
              [
                105.479289,
                10.960782
              ],
              [
                105.479338,
                10.960621
              ],
              [
                105.479362,
                10.960551
              ],
              [
                105.479377,
                10.960518
              ],
              [
                105.479416,
                10.960374
              ],
              [
                105.479431,
                10.960329
              ],
              [
                105.479443,
                10.960263
              ],
              [
                105.479478,
                10.960153
              ],
              [
                105.479512,
                10.960094
              ],
              [
                105.479572,
                10.960004
              ],
              [
                105.479636,
                10.959911
              ],
              [
                105.479719,
                10.959807
              ],
              [
                105.47984,
                10.959661
              ],
              [
                105.479956,
                10.95955
              ],
              [
                105.480048,
                10.959464
              ],
              [
                105.480124,
                10.959394
              ],
              [
                105.480204,
                10.959327
              ],
              [
                105.480281,
                10.959271
              ],
              [
                105.480409,
                10.959212
              ],
              [
                105.480492,
                10.959173
              ],
              [
                105.480567,
                10.959144
              ],
              [
                105.480726,
                10.959085
              ],
              [
                105.480908,
                10.95904
              ],
              [
                105.481123,
                10.958992
              ],
              [
                105.481245,
                10.958963
              ],
              [
                105.481247,
                10.958963
              ],
              [
                105.48126,
                10.95896
              ],
              [
                105.481483,
                10.958921
              ],
              [
                105.48175,
                10.958857
              ],
              [
                105.48196,
                10.958815
              ],
              [
                105.482133,
                10.958765
              ],
              [
                105.482283,
                10.958714
              ],
              [
                105.482548,
                10.958627
              ],
              [
                105.482709,
                10.958572
              ],
              [
                105.482842,
                10.958521
              ],
              [
                105.482946,
                10.958463
              ],
              [
                105.483077,
                10.958384
              ],
              [
                105.483212,
                10.958296
              ],
              [
                105.483266,
                10.958243
              ],
              [
                105.483328,
                10.958199
              ],
              [
                105.48338,
                10.958139
              ],
              [
                105.483405,
                10.958075
              ],
              [
                105.483451,
                10.957963
              ],
              [
                105.48347,
                10.957912
              ],
              [
                105.483474,
                10.957864
              ],
              [
                105.483477,
                10.957835
              ],
              [
                105.483453,
                10.957667
              ],
              [
                105.483388,
                10.957493
              ],
              [
                105.483247,
                10.957265
              ],
              [
                105.483113,
                10.957042
              ],
              [
                105.483088,
                10.957007
              ],
              [
                105.483059,
                10.956942
              ],
              [
                105.483044,
                10.956919
              ],
              [
                105.483027,
                10.956885
              ],
              [
                105.483007,
                10.956832
              ],
              [
                105.482947,
                10.956704
              ],
              [
                105.482933,
                10.956636
              ],
              [
                105.482883,
                10.9565
              ],
              [
                105.482783,
                10.956216
              ],
              [
                105.482757,
                10.956142
              ],
              [
                105.482675,
                10.955947
              ],
              [
                105.482565,
                10.955625
              ],
              [
                105.48256,
                10.95561
              ],
              [
                105.48249,
                10.955419
              ],
              [
                105.482455,
                10.955294
              ],
              [
                105.48243,
                10.955224
              ],
              [
                105.482421,
                10.955148
              ],
              [
                105.482403,
                10.95504
              ],
              [
                105.482403,
                10.954913
              ],
              [
                105.482401,
                10.954838
              ],
              [
                105.482411,
                10.954728
              ],
              [
                105.482409,
                10.954574
              ],
              [
                105.482443,
                10.954416
              ],
              [
                105.482461,
                10.954293
              ],
              [
                105.482478,
                10.954221
              ],
              [
                105.482537,
                10.95402
              ],
              [
                105.482591,
                10.953857
              ],
              [
                105.482591,
                10.953856
              ],
              [
                105.482615,
                10.953772
              ],
              [
                105.482662,
                10.953614
              ],
              [
                105.482668,
                10.953597
              ],
              [
                105.482708,
                10.953432
              ],
              [
                105.482756,
                10.953292
              ],
              [
                105.482792,
                10.953157
              ],
              [
                105.482831,
                10.953059
              ],
              [
                105.482884,
                10.952952
              ],
              [
                105.482939,
                10.952862
              ],
              [
                105.483057,
                10.952745
              ],
              [
                105.483152,
                10.952635
              ],
              [
                105.483218,
                10.95256
              ],
              [
                105.48331,
                10.952486
              ],
              [
                105.483443,
                10.95239
              ],
              [
                105.483574,
                10.952299
              ],
              [
                105.483798,
                10.952169
              ],
              [
                105.483941,
                10.952098
              ],
              [
                105.484111,
                10.952024
              ],
              [
                105.484288,
                10.951957
              ],
              [
                105.484456,
                10.951901
              ],
              [
                105.484585,
                10.951865
              ],
              [
                105.484752,
                10.951839
              ],
              [
                105.484875,
                10.951817
              ],
              [
                105.484897,
                10.951817
              ],
              [
                105.485065,
                10.951825
              ],
              [
                105.485279,
                10.951822
              ],
              [
                105.485446,
                10.951816
              ],
              [
                105.48558,
                10.951816
              ],
              [
                105.48573,
                10.951798
              ],
              [
                105.485878,
                10.951778
              ],
              [
                105.48594,
                10.951764
              ],
              [
                105.486122,
                10.951714
              ],
              [
                105.486199,
                10.951691
              ],
              [
                105.486365,
                10.951623
              ],
              [
                105.48652,
                10.95154
              ],
              [
                105.486581,
                10.951505
              ],
              [
                105.486746,
                10.951385
              ],
              [
                105.486954,
                10.951257
              ],
              [
                105.486977,
                10.951241
              ],
              [
                105.487049,
                10.951194
              ],
              [
                105.487267,
                10.951047
              ],
              [
                105.487461,
                10.950932
              ],
              [
                105.48766,
                10.950806
              ],
              [
                105.48793,
                10.950646
              ],
              [
                105.48793,
                10.950646
              ],
              [
                105.488005,
                10.950594
              ],
              [
                105.488085,
                10.950549
              ],
              [
                105.488196,
                10.950499
              ],
              [
                105.488409,
                10.950371
              ],
              [
                105.488751,
                10.950215
              ],
              [
                105.489017,
                10.950107
              ],
              [
                105.489258,
                10.950026
              ],
              [
                105.489453,
                10.949965
              ],
              [
                105.489606,
                10.949934
              ],
              [
                105.489785,
                10.949902
              ],
              [
                105.489997,
                10.94988
              ],
              [
                105.490363,
                10.949859
              ],
              [
                105.49046,
                10.949855
              ],
              [
                105.490633,
                10.949844
              ],
              [
                105.49101,
                10.949815
              ],
              [
                105.491255,
                10.949791
              ],
              [
                105.491479,
                10.949746
              ],
              [
                105.491675,
                10.949712
              ],
              [
                105.491765,
                10.949681
              ],
              [
                105.491983,
                10.949605
              ],
              [
                105.492156,
                10.949545
              ],
              [
                105.492292,
                10.94948
              ],
              [
                105.49257,
                10.94933
              ],
              [
                105.492725,
                10.949229
              ],
              [
                105.492798,
                10.949174
              ],
              [
                105.492913,
                10.949071
              ],
              [
                105.493089,
                10.948958
              ],
              [
                105.493177,
                10.9489
              ],
              [
                105.493275,
                10.948846
              ],
              [
                105.493439,
                10.948767
              ],
              [
                105.493541,
                10.94872
              ],
              [
                105.493663,
                10.948672
              ],
              [
                105.493713,
                10.948662
              ],
              [
                105.493825,
                10.948657
              ],
              [
                105.493984,
                10.948643
              ],
              [
                105.494036,
                10.948644
              ],
              [
                105.494071,
                10.948649
              ],
              [
                105.494247,
                10.948683
              ],
              [
                105.494303,
                10.94869
              ],
              [
                105.494371,
                10.948719
              ],
              [
                105.4944,
                10.948724
              ],
              [
                105.494441,
                10.948735
              ],
              [
                105.494475,
                10.948735
              ],
              [
                105.494658,
                10.948779
              ],
              [
                105.494772,
                10.948786
              ],
              [
                105.494775,
                10.948787
              ],
              [
                105.49498,
                10.948802
              ],
              [
                105.495187,
                10.948826
              ],
              [
                105.495298,
                10.94882
              ],
              [
                105.495366,
                10.948806
              ],
              [
                105.495471,
                10.948772
              ],
              [
                105.495556,
                10.948722
              ],
              [
                105.495636,
                10.948673
              ],
              [
                105.495694,
                10.948609
              ],
              [
                105.49581,
                10.948438
              ],
              [
                105.49589,
                10.948289
              ],
              [
                105.495984,
                10.948085
              ],
              [
                105.496057,
                10.94794
              ],
              [
                105.496239,
                10.947595
              ],
              [
                105.49635,
                10.947497
              ],
              [
                105.496435,
                10.94744
              ],
              [
                105.496519,
                10.947394
              ],
              [
                105.496606,
                10.947373
              ],
              [
                105.496654,
                10.9474
              ],
              [
                105.496694,
                10.947439
              ],
              [
                105.496748,
                10.947516
              ],
              [
                105.496822,
                10.94779
              ],
              [
                105.496842,
                10.947991
              ],
              [
                105.496883,
                10.948184
              ],
              [
                105.496927,
                10.948461
              ],
              [
                105.497027,
                10.948976
              ],
              [
                105.497073,
                10.949271
              ],
              [
                105.497097,
                10.949503
              ],
              [
                105.49716,
                10.950007
              ],
              [
                105.497161,
                10.950013
              ],
              [
                105.497182,
                10.950194
              ],
              [
                105.497187,
                10.950429
              ],
              [
                105.497194,
                10.950717
              ],
              [
                105.497195,
                10.950762
              ],
              [
                105.497183,
                10.9509
              ],
              [
                105.497169,
                10.950952
              ],
              [
                105.497172,
                10.95114
              ],
              [
                105.497156,
                10.951205
              ],
              [
                105.497159,
                10.951268
              ],
              [
                105.497158,
                10.951321
              ],
              [
                105.49717,
                10.951403
              ],
              [
                105.497176,
                10.951522
              ],
              [
                105.497184,
                10.951565
              ],
              [
                105.49719,
                10.95165
              ],
              [
                105.497207,
                10.951763
              ],
              [
                105.497218,
                10.951808
              ],
              [
                105.497243,
                10.951895
              ],
              [
                105.497263,
                10.951984
              ],
              [
                105.497281,
                10.952046
              ],
              [
                105.497305,
                10.952121
              ],
              [
                105.497349,
                10.952233
              ],
              [
                105.49737,
                10.952309
              ],
              [
                105.497427,
                10.952409
              ],
              [
                105.497452,
                10.952461
              ],
              [
                105.497495,
                10.95252
              ],
              [
                105.497554,
                10.952609
              ],
              [
                105.497616,
                10.952682
              ],
              [
                105.497722,
                10.952803
              ],
              [
                105.497756,
                10.952843
              ],
              [
                105.497847,
                10.952922
              ],
              [
                105.497963,
                10.953018
              ],
              [
                105.498066,
                10.953081
              ],
              [
                105.4982,
                10.95315
              ],
              [
                105.498383,
                10.953211
              ],
              [
                105.498531,
                10.953242
              ],
              [
                105.498601,
                10.953251
              ],
              [
                105.498799,
                10.95326
              ],
              [
                105.498869,
                10.953261
              ],
              [
                105.49893,
                10.953254
              ],
              [
                105.499116,
                10.953282
              ],
              [
                105.499319,
                10.953196
              ],
              [
                105.499378,
                10.953156
              ],
              [
                105.499391,
                10.953146
              ],
              [
                105.499496,
                10.953063
              ],
              [
                105.4996,
                10.952992
              ],
              [
                105.499778,
                10.952874
              ],
              [
                105.499798,
                10.952861
              ],
              [
                105.499846,
                10.952832
              ],
              [
                105.49998,
                10.952736
              ],
              [
                105.500087,
                10.952659
              ],
              [
                105.500098,
                10.952652
              ],
              [
                105.500114,
                10.952641
              ],
              [
                105.500134,
                10.952602
              ],
              [
                105.500257,
                10.952358
              ],
              [
                105.500355,
                10.952162
              ],
              [
                105.50048,
                10.95196
              ],
              [
                105.500824,
                10.951284
              ],
              [
                105.501043,
                10.950918
              ],
              [
                105.501449,
                10.950303
              ],
              [
                105.501468,
                10.950273
              ],
              [
                105.501627,
                10.949965
              ],
              [
                105.50167,
                10.949839
              ],
              [
                105.501702,
                10.949624
              ],
              [
                105.501717,
                10.949452
              ],
              [
                105.501785,
                10.949221
              ],
              [
                105.501785,
                10.94922
              ],
              [
                105.503608,
                10.945415
              ],
              [
                105.503779,
                10.945264
              ],
              [
                105.504168,
                10.944853
              ],
              [
                105.504405,
                10.94461
              ],
              [
                105.504591,
                10.944414
              ],
              [
                105.504712,
                10.944244
              ],
              [
                105.504789,
                10.944131
              ],
              [
                105.50481,
                10.944092
              ],
              [
                105.504839,
                10.943976
              ],
              [
                105.504922,
                10.943681
              ],
              [
                105.505023,
                10.943362
              ],
              [
                105.505076,
                10.9432
              ],
              [
                105.505091,
                10.943165
              ],
              [
                105.505212,
                10.942982
              ],
              [
                105.505293,
                10.942857
              ],
              [
                105.505358,
                10.942761
              ],
              [
                105.505652,
                10.942263
              ],
              [
                105.505725,
                10.942143
              ],
              [
                105.505889,
                10.941864
              ],
              [
                105.505939,
                10.941779
              ],
              [
                105.505948,
                10.941763
              ],
              [
                105.506123,
                10.941462
              ],
              [
                105.50638,
                10.941032
              ],
              [
                105.506537,
                10.940755
              ],
              [
                105.506634,
                10.9406
              ],
              [
                105.506838,
                10.940236
              ],
              [
                105.507074,
                10.939836
              ],
              [
                105.507112,
                10.93978
              ],
              [
                105.507301,
                10.939477
              ],
              [
                105.507532,
                10.939077
              ],
              [
                105.507764,
                10.938688
              ],
              [
                105.507983,
                10.938318
              ],
              [
                105.508214,
                10.937939
              ],
              [
                105.508446,
                10.937539
              ],
              [
                105.50866,
                10.937172
              ],
              [
                105.509043,
                10.936529
              ],
              [
                105.509059,
                10.936503
              ],
              [
                105.509098,
                10.93642
              ],
              [
                105.509149,
                10.936312
              ],
              [
                105.512822,
                10.928546
              ],
              [
                105.51363,
                10.926175
              ],
              [
                105.513712,
                10.926082
              ],
              [
                105.513788,
                10.925989
              ],
              [
                105.51386,
                10.925898
              ],
              [
                105.513921,
                10.925818
              ],
              [
                105.513965,
                10.925751
              ],
              [
                105.514004,
                10.925685
              ],
              [
                105.514045,
                10.925613
              ],
              [
                105.514086,
                10.925536
              ],
              [
                105.514124,
                10.925463
              ],
              [
                105.514151,
                10.925406
              ],
              [
                105.514163,
                10.925371
              ],
              [
                105.514171,
                10.925333
              ],
              [
                105.51418,
                10.925281
              ],
              [
                105.514187,
                10.925243
              ],
              [
                105.514191,
                10.925222
              ],
              [
                105.514196,
                10.925207
              ],
              [
                105.5142,
                10.925193
              ],
              [
                105.514204,
                10.92518
              ],
              [
                105.514208,
                10.925167
              ],
              [
                105.514212,
                10.925149
              ],
              [
                105.514219,
                10.925113
              ],
              [
                105.514228,
                10.925063
              ],
              [
                105.514233,
                10.925026
              ],
              [
                105.514235,
                10.925007
              ],
              [
                105.514235,
                10.924991
              ],
              [
                105.514236,
                10.924973
              ],
              [
                105.51424,
                10.924945
              ],
              [
                105.514247,
                10.924911
              ],
              [
                105.514252,
                10.924883
              ],
              [
                105.514254,
                10.924863
              ],
              [
                105.514256,
                10.924847
              ],
              [
                105.514258,
                10.92483
              ],
              [
                105.514263,
                10.924804
              ],
              [
                105.514266,
                10.924783
              ],
              [
                105.514269,
                10.92476
              ],
              [
                105.514273,
                10.924703
              ],
              [
                105.514274,
                10.924667
              ],
              [
                105.514275,
                10.92463
              ],
              [
                105.514278,
                10.924551
              ],
              [
                105.51428,
                10.924505
              ],
              [
                105.514281,
                10.924485
              ],
              [
                105.514283,
                10.924467
              ],
              [
                105.514285,
                10.924447
              ],
              [
                105.514288,
                10.924422
              ],
              [
                105.514291,
                10.924368
              ],
              [
                105.514298,
                10.924279
              ],
              [
                105.514307,
                10.924188
              ],
              [
                105.514314,
                10.924115
              ],
              [
                105.514314,
                10.924049
              ],
              [
                105.514309,
                10.923981
              ],
              [
                105.514303,
                10.923913
              ],
              [
                105.514296,
                10.923835
              ],
              [
                105.514287,
                10.923743
              ],
              [
                105.514276,
                10.923646
              ],
              [
                105.514265,
                10.923549
              ],
              [
                105.514264,
                10.923539
              ],
              [
                105.514255,
                10.923458
              ],
              [
                105.514245,
                10.92337
              ],
              [
                105.514234,
                10.923287
              ],
              [
                105.514223,
                10.923231
              ],
              [
                105.514215,
                10.923197
              ],
              [
                105.514206,
                10.923172
              ],
              [
                105.514194,
                10.923147
              ],
              [
                105.514439,
                10.923061
              ],
              [
                105.518716,
                10.921551
              ],
              [
                105.546273,
                10.90882
              ],
              [
                105.546313,
                10.908802
              ],
              [
                105.552633,
                10.906012
              ],
              [
                105.553584,
                10.905525
              ],
              [
                105.554221,
                10.905199
              ],
              [
                105.55484,
                10.904882
              ],
              [
                105.556355,
                10.904107
              ],
              [
                105.567056,
                10.899221
              ],
              [
                105.570874,
                10.897963
              ],
              [
                105.573993,
                10.896577
              ],
              [
                105.578719,
                10.894119
              ],
              [
                105.579464,
                10.893618
              ],
              [
                105.580043,
                10.893526
              ],
              [
                105.580468,
                10.893343
              ],
              [
                105.582655,
                10.892124
              ],
              [
                105.584034,
                10.889404
              ],
              [
                105.584082,
                10.889325
              ],
              [
                105.584129,
                10.889247
              ],
              [
                105.585278,
                10.88695
              ],
              [
                105.586388,
                10.884814
              ],
              [
                105.588343,
                10.88067
              ],
              [
                105.587523,
                10.879952
              ],
              [
                105.586365,
                10.87887
              ],
              [
                105.584984,
                10.87762
              ],
              [
                105.58445,
                10.877204
              ],
              [
                105.582239,
                10.87577
              ],
              [
                105.581298,
                10.875123
              ],
              [
                105.5794,
                10.87372
              ],
              [
                105.578239,
                10.872918
              ],
              [
                105.578195,
                10.872835
              ],
              [
                105.578194,
                10.872746
              ],
              [
                105.578262,
                10.872657
              ],
              [
                105.578509,
                10.872411
              ],
              [
                105.578554,
                10.8723
              ],
              [
                105.578565,
                10.872089
              ],
              [
                105.578508,
                10.871855
              ],
              [
                105.578067,
                10.871022
              ],
              [
                105.577852,
                10.870711
              ],
              [
                105.577706,
                10.870622
              ],
              [
                105.577514,
                10.870578
              ],
              [
                105.577311,
                10.870634
              ],
              [
                105.577041,
                10.870768
              ],
              [
                105.576962,
                10.870768
              ],
              [
                105.576917,
                10.870757
              ],
              [
                105.576657,
                10.870357
              ],
              [
                105.575865,
                10.869024
              ],
              [
                105.5747,
                10.866824
              ],
              [
                105.574655,
                10.866702
              ],
              [
                105.574677,
                10.866535
              ],
              [
                105.574756,
                10.866457
              ],
              [
                105.574857,
                10.866379
              ],
              [
                105.574891,
                10.866301
              ],
              [
                105.574879,
                10.866123
              ],
              [
                105.574573,
                10.865056
              ],
              [
                105.574301,
                10.8642
              ],
              [
                105.57421,
                10.864
              ],
              [
                105.574109,
                10.863944
              ],
              [
                105.574019,
                10.863956
              ],
              [
                105.573974,
                10.864023
              ],
              [
                105.573782,
                10.864234
              ],
              [
                105.573614,
                10.864368
              ],
              [
                105.573377,
                10.864424
              ],
              [
                105.573276,
                10.864391
              ],
              [
                105.573095,
                10.86428
              ],
              [
                105.572982,
                10.864169
              ],
              [
                105.572824,
                10.863891
              ],
              [
                105.572597,
                10.863302
              ],
              [
                105.572529,
                10.86278
              ],
              [
                105.572301,
                10.861512
              ],
              [
                105.571972,
                10.860623
              ],
              [
                105.571497,
                10.859534
              ],
              [
                105.570796,
                10.858267
              ],
              [
                105.570072,
                10.856989
              ],
              [
                105.569688,
                10.856401
              ],
              [
                105.569529,
                10.856201
              ],
              [
                105.569338,
                10.856023
              ],
              [
                105.569089,
                10.855901
              ],
              [
                105.568323,
                10.855625
              ],
              [
                105.567736,
                10.855281
              ],
              [
                105.567273,
                10.854948
              ],
              [
                105.567002,
                10.854704
              ],
              [
                105.56681,
                10.854437
              ],
              [
                105.566234,
                10.85346
              ],
              [
                105.565555,
                10.852171
              ],
              [
                105.56482,
                10.85096
              ],
              [
                105.563645,
                10.849216
              ],
              [
                105.562684,
                10.847883
              ],
              [
                105.561995,
                10.847046
              ],
              [
                105.561913,
                10.846912
              ],
              [
                105.561813,
                10.846635
              ],
              [
                105.561565,
                10.845701
              ],
              [
                105.561044,
                10.843818
              ],
              [
                105.560851,
                10.843297
              ],
              [
                105.560663,
                10.842789
              ],
              [
                105.560291,
                10.841786
              ],
              [
                105.560206,
                10.84101
              ],
              [
                105.560144,
                10.840519
              ],
              [
                105.559939,
                10.839875
              ],
              [
                105.559748,
                10.839432
              ],
              [
                105.559393,
                10.838935
              ],
              [
                105.558746,
                10.838083
              ],
              [
                105.557997,
                10.837225
              ],
              [
                105.557071,
                10.836306
              ],
              [
                105.555866,
                10.835314
              ],
              [
                105.555437,
                10.834871
              ],
              [
                105.55458,
                10.834134
              ],
              [
                105.553912,
                10.833537
              ],
              [
                105.55377,
                10.833524
              ],
              [
                105.553634,
                10.833591
              ],
              [
                105.553485,
                10.833733
              ],
              [
                105.553342,
                10.833746
              ],
              [
                105.553145,
                10.833666
              ],
              [
                105.552675,
                10.833143
              ],
              [
                105.552559,
                10.833022
              ],
              [
                105.55245,
                10.833029
              ],
              [
                105.552335,
                10.83312
              ],
              [
                105.55211,
                10.833332
              ],
              [
                105.551557,
                10.833812
              ],
              [
                105.551388,
                10.833879
              ],
              [
                105.551253,
                10.833891
              ],
              [
                105.551174,
                10.833857
              ],
              [
                105.550902,
                10.833613
              ],
              [
                105.550585,
                10.83329
              ],
              [
                105.550427,
                10.833145
              ],
              [
                105.550336,
                10.833101
              ],
              [
                105.550246,
                10.833101
              ],
              [
                105.550145,
                10.83319
              ],
              [
                105.550078,
                10.833268
              ],
              [
                105.54984,
                10.833548
              ],
              [
                105.549693,
                10.833637
              ],
              [
                105.549468,
                10.833649
              ],
              [
                105.549298,
                10.833604
              ],
              [
                105.549174,
                10.833526
              ],
              [
                105.549027,
                10.833393
              ],
              [
                105.548467,
                10.832981
              ],
              [
                105.547146,
                10.831667
              ],
              [
                105.546302,
                10.830782
              ],
              [
                105.54622,
                10.830916
              ],
              [
                105.545922,
                10.83132
              ],
              [
                105.545081,
                10.832423
              ],
              [
                105.544893,
                10.832981
              ],
              [
                105.54475,
                10.833428
              ],
              [
                105.544635,
                10.833637
              ],
              [
                105.5445,
                10.833694
              ],
              [
                105.544395,
                10.833694
              ],
              [
                105.544308,
                10.833647
              ],
              [
                105.544145,
                10.833505
              ],
              [
                105.543914,
                10.833268
              ],
              [
                105.543654,
                10.832981
              ],
              [
                105.543591,
                10.832815
              ],
              [
                105.540786,
                10.831361
              ],
              [
                105.539026,
                10.836043
              ],
              [
                105.536278,
                10.843382
              ],
              [
                105.536272,
                10.843402
              ],
              [
                105.536271,
                10.843401
              ],
              [
                105.536271,
                10.843401
              ]
            ]
          ]
        ]
      },
      "properties": {
        "code": "29938",
        "name": "Tân Thành",
        "nameEn": "Tan Thanh",
        "fullName": "Xã Tân Thành",
        "fullNameEn": "Tan Thanh Commune",
        "codeName": "tan_thanh",
        "postalCode": "81416",
        "postalCodePrefix": "",
        "gisServerId": "diaphanhanhchinhcapxa_2025.3301",
        "areaKm2": 64.8
      }
    }
  ]
}