{
  "type": "FeatureCollection",
  "bbox": [
    105.470893,
    10.68747,
    105.593519,
    10.812225
  ],
  "features": [
    {
      "type": "Feature",
      "id": "30010",
      "bbox": [
        105.470893,
        10.68747,
        105.593519,
        10.812225
      ],
      "geometry": {
        "type": "MultiPolygon",
        "coordinates": [
          [
            [
              [
                105.552083,
                10.795105
              ],
              [
                105.552408,
                10.794716
              ],
              [
                105.552571,
                10.794522
              ],
              [
                105.552636,
                10.794443
              ],
              [
                105.5527,
                10.794366
              ],
              [
                105.552751,
                10.794304
              ],
              [
                105.552767,
                10.794286
              ],
              [
                105.552887,
                10.794141
              ],
              [
                105.553111,
                10.793873
              ],
              [
                105.553499,
                10.793409
              ],
              [
                105.553599,
                10.793289
              ],
              [
                105.553604,
                10.793283
              ],
              [
                105.553817,
                10.793028
              ],
              [
                105.553956,
                10.792862
              ],
              [
                105.554403,
                10.792323
              ],
              [
                105.554406,
                10.79232
              ],
              [
                105.554661,
                10.792012
              ],
              [
                105.554781,
                10.791866
              ],
              [
                105.554858,
                10.791774
              ],
              [
                105.555016,
                10.791583
              ],
              [
                105.555237,
                10.791317
              ],
              [
                105.555597,
                10.790884
              ],
              [
                105.555603,
                10.790877
              ],
              [
                105.555652,
                10.790818
              ],
              [
                105.555781,
                10.790663
              ],
              [
                105.555949,
                10.790461
              ],
              [
                105.556054,
                10.790335
              ],
              [
                105.556439,
                10.789875
              ],
              [
                105.556481,
                10.789824
              ],
              [
                105.556783,
                10.789467
              ],
              [
                105.556941,
                10.789284
              ],
              [
                105.55708,
                10.78913
              ],
              [
                105.557276,
                10.788911
              ],
              [
                105.557291,
                10.788893
              ],
              [
                105.557321,
                10.78886
              ],
              [
                105.557633,
                10.78851
              ],
              [
                105.5577,
                10.788436
              ],
              [
                105.557801,
                10.788326
              ],
              [
                105.557864,
                10.788257
              ],
              [
                105.557921,
                10.788195
              ],
              [
                105.558164,
                10.787946
              ],
              [
                105.558427,
                10.78769
              ],
              [
                105.558619,
                10.787508
              ],
              [
                105.558741,
                10.787391
              ],
              [
                105.559056,
                10.787094
              ],
              [
                105.559377,
                10.786792
              ],
              [
                105.559716,
                10.78647
              ],
              [
                105.559764,
                10.786424
              ],
              [
                105.560047,
                10.786153
              ],
              [
                105.560417,
                10.7858
              ],
              [
                105.560839,
                10.785397
              ],
              [
                105.560881,
                10.785357
              ],
              [
                105.561221,
                10.785033
              ],
              [
                105.561511,
                10.784756
              ],
              [
                105.561599,
                10.784671
              ],
              [
                105.562001,
                10.784289
              ],
              [
                105.562322,
                10.783983
              ],
              [
                105.562587,
                10.783729
              ],
              [
                105.562897,
                10.783426
              ],
              [
                105.563015,
                10.78331
              ],
              [
                105.563246,
                10.783083
              ],
              [
                105.563401,
                10.782927
              ],
              [
                105.563516,
                10.782811
              ],
              [
                105.563686,
                10.782633
              ],
              [
                105.563861,
                10.78245
              ],
              [
                105.563877,
                10.782433
              ],
              [
                105.56413,
                10.782176
              ],
              [
                105.564183,
                10.782124
              ],
              [
                105.564333,
                10.781977
              ],
              [
                105.564473,
                10.781848
              ],
              [
                105.564626,
                10.781717
              ],
              [
                105.564755,
                10.781603
              ],
              [
                105.564879,
                10.781492
              ],
              [
                105.565224,
                10.78117
              ],
              [
                105.565517,
                10.780888
              ],
              [
                105.56577,
                10.780643
              ],
              [
                105.566099,
                10.780329
              ],
              [
                105.566463,
                10.779981
              ],
              [
                105.566708,
                10.779732
              ],
              [
                105.566847,
                10.77958
              ],
              [
                105.566958,
                10.779472
              ],
              [
                105.566961,
                10.77947
              ],
              [
                105.567048,
                10.779391
              ],
              [
                105.567721,
                10.778758
              ],
              [
                105.567854,
                10.778631
              ],
              [
                105.56801,
                10.778481
              ],
              [
                105.568305,
                10.778197
              ],
              [
                105.568851,
                10.77767
              ],
              [
                105.569494,
                10.777042
              ],
              [
                105.57004,
                10.776502
              ],
              [
                105.570134,
                10.776408
              ],
              [
                105.570775,
                10.775776
              ],
              [
                105.571406,
                10.775161
              ],
              [
                105.571876,
                10.774712
              ],
              [
                105.572126,
                10.774478
              ],
              [
                105.572254,
                10.77436
              ],
              [
                105.57236,
                10.774264
              ],
              [
                105.572536,
                10.774102
              ],
              [
                105.57268,
                10.773967
              ],
              [
                105.572782,
                10.77387
              ],
              [
                105.572979,
                10.773679
              ],
              [
                105.573173,
                10.773488
              ],
              [
                105.573469,
                10.773199
              ],
              [
                105.573834,
                10.772848
              ],
              [
                105.574216,
                10.772481
              ],
              [
                105.574616,
                10.772099
              ],
              [
                105.57467,
                10.772048
              ],
              [
                105.575103,
                10.771635
              ],
              [
                105.575668,
                10.771096
              ],
              [
                105.576176,
                10.770612
              ],
              [
                105.576675,
                10.770134
              ],
              [
                105.577218,
                10.769616
              ],
              [
                105.577642,
                10.769211
              ],
              [
                105.577906,
                10.768962
              ],
              [
                105.577987,
                10.768888
              ],
              [
                105.578098,
                10.768785
              ],
              [
                105.57827,
                10.768628
              ],
              [
                105.578394,
                10.768512
              ],
              [
                105.578453,
                10.768451
              ],
              [
                105.578481,
                10.768419
              ],
              [
                105.578506,
                10.768384
              ],
              [
                105.578527,
                10.768327
              ],
              [
                105.578531,
                10.768297
              ],
              [
                105.578534,
                10.768267
              ],
              [
                105.578528,
                10.768226
              ],
              [
                105.5785,
                10.768191
              ],
              [
                105.578446,
                10.768147
              ],
              [
                105.578392,
                10.7681
              ],
              [
                105.578349,
                10.768055
              ],
              [
                105.578309,
                10.76801
              ],
              [
                105.57827,
                10.767965
              ],
              [
                105.578238,
                10.767923
              ],
              [
                105.578219,
                10.767886
              ],
              [
                105.578206,
                10.767847
              ],
              [
                105.578191,
                10.767802
              ],
              [
                105.578182,
                10.767758
              ],
              [
                105.578192,
                10.767718
              ],
              [
                105.578219,
                10.767676
              ],
              [
                105.578249,
                10.767631
              ],
              [
                105.578284,
                10.767581
              ],
              [
                105.578335,
                10.76751
              ],
              [
                105.578428,
                10.76739
              ],
              [
                105.578552,
                10.767234
              ],
              [
                105.578665,
                10.767092
              ],
              [
                105.578772,
                10.766957
              ],
              [
                105.57887,
                10.766837
              ],
              [
                105.579168,
                10.766459
              ],
              [
                105.57925,
                10.766355
              ],
              [
                105.579362,
                10.766203
              ],
              [
                105.57956,
                10.765933
              ],
              [
                105.579583,
                10.765904
              ],
              [
                105.579813,
                10.765613
              ],
              [
                105.580163,
                10.765157
              ],
              [
                105.580579,
                10.764608
              ],
              [
                105.581009,
                10.764039
              ],
              [
                105.58143,
                10.763483
              ],
              [
                105.581794,
                10.763004
              ],
              [
                105.582033,
                10.762693
              ],
              [
                105.58206,
                10.762658
              ],
              [
                105.582285,
                10.762365
              ],
              [
                105.582502,
                10.762084
              ],
              [
                105.582564,
                10.762003
              ],
              [
                105.582912,
                10.761552
              ],
              [
                105.583312,
                10.761037
              ],
              [
                105.58378,
                10.760439
              ],
              [
                105.584261,
                10.759823
              ],
              [
                105.584728,
                10.759224
              ],
              [
                105.585118,
                10.758727
              ],
              [
                105.585296,
                10.758503
              ],
              [
                105.585328,
                10.758462
              ],
              [
                105.585475,
                10.758277
              ],
              [
                105.585677,
                10.758024
              ],
              [
                105.585877,
                10.757772
              ],
              [
                105.586099,
                10.757493
              ],
              [
                105.586423,
                10.757083
              ],
              [
                105.58683,
                10.756562
              ],
              [
                105.58725,
                10.756019
              ],
              [
                105.587611,
                10.755552
              ],
              [
                105.587908,
                10.755164
              ],
              [
                105.588193,
                10.754787
              ],
              [
                105.588458,
                10.75444
              ],
              [
                105.588683,
                10.754147
              ],
              [
                105.58875,
                10.75406
              ],
              [
                105.589077,
                10.753634
              ],
              [
                105.589348,
                10.753284
              ],
              [
                105.589538,
                10.753041
              ],
              [
                105.589748,
                10.752766
              ],
              [
                105.590066,
                10.75235
              ],
              [
                105.590447,
                10.751851
              ],
              [
                105.590839,
                10.751342
              ],
              [
                105.591079,
                10.75103
              ],
              [
                105.591226,
                10.75084
              ],
              [
                105.59158,
                10.75038
              ],
              [
                105.591835,
                10.75005
              ],
              [
                105.591959,
                10.749889
              ],
              [
                105.592044,
                10.749789
              ],
              [
                105.592167,
                10.74966
              ],
              [
                105.592676,
                10.74899
              ],
              [
                105.593263,
                10.748252
              ],
              [
                105.593415,
                10.748061
              ],
              [
                105.593519,
                10.74793
              ],
              [
                105.592544,
                10.7471
              ],
              [
                105.59044,
                10.74529
              ],
              [
                105.588472,
                10.743571
              ],
              [
                105.58678,
                10.742101
              ],
              [
                105.584118,
                10.739761
              ],
              [
                105.582005,
                10.737908
              ],
              [
                105.579833,
                10.736036
              ],
              [
                105.578621,
                10.734985
              ],
              [
                105.577274,
                10.733815
              ],
              [
                105.576416,
                10.733056
              ],
              [
                105.57639,
                10.733027
              ],
              [
                105.576332,
                10.732985
              ],
              [
                105.576159,
                10.732798
              ],
              [
                105.576106,
                10.732704
              ],
              [
                105.576042,
                10.732591
              ],
              [
                105.575943,
                10.73242
              ],
              [
                105.575904,
                10.732355
              ],
              [
                105.575829,
                10.732234
              ],
              [
                105.575724,
                10.732063
              ],
              [
                105.575617,
                10.731889
              ],
              [
                105.575491,
                10.731688
              ],
              [
                105.575328,
                10.731424
              ],
              [
                105.57508,
                10.731028
              ],
              [
                105.574681,
                10.730388
              ],
              [
                105.574175,
                10.729576
              ],
              [
                105.573667,
                10.72876
              ],
              [
                105.573251,
                10.728088
              ],
              [
                105.573003,
                10.727681
              ],
              [
                105.572816,
                10.727372
              ],
              [
                105.57254,
                10.726916
              ],
              [
                105.572191,
                10.726342
              ],
              [
                105.571911,
                10.725879
              ],
              [
                105.571741,
                10.725599
              ],
              [
                105.57163,
                10.725416
              ],
              [
                105.571521,
                10.725239
              ],
              [
                105.57133,
                10.724925
              ],
              [
                105.571028,
                10.724428
              ],
              [
                105.570729,
                10.723926
              ],
              [
                105.570467,
                10.723475
              ],
              [
                105.570211,
                10.723028
              ],
              [
                105.569963,
                10.722594
              ],
              [
                105.569747,
                10.722221
              ],
              [
                105.569574,
                10.721927
              ],
              [
                105.569399,
                10.721642
              ],
              [
                105.569155,
                10.721257
              ],
              [
                105.568727,
                10.720587
              ],
              [
                105.568156,
                10.719692
              ],
              [
                105.567601,
                10.718817
              ],
              [
                105.567036,
                10.717924
              ],
              [
                105.566427,
                10.71696
              ],
              [
                105.565866,
                10.71608
              ],
              [
                105.565354,
                10.715291
              ],
              [
                105.564845,
                10.714516
              ],
              [
                105.564345,
                10.713758
              ],
              [
                105.563894,
                10.713069
              ],
              [
                105.563527,
                10.712501
              ],
              [
                105.563199,
                10.711993
              ],
              [
                105.562906,
                10.711555
              ],
              [
                105.562714,
                10.711284
              ],
              [
                105.562556,
                10.711059
              ],
              [
                105.562316,
                10.71069
              ],
              [
                105.562011,
                10.710211
              ],
              [
                105.56175,
                10.709799
              ],
              [
                105.561559,
                10.709497
              ],
              [
                105.561395,
                10.70924
              ],
              [
                105.561242,
                10.709001
              ],
              [
                105.56112,
                10.708805
              ],
              [
                105.56105,
                10.708686
              ],
              [
                105.561015,
                10.708617
              ],
              [
                105.560989,
                10.708564
              ],
              [
                105.560963,
                10.708507
              ],
              [
                105.560928,
                10.708426
              ],
              [
                105.560862,
                10.708253
              ],
              [
                105.560737,
                10.707914
              ],
              [
                105.560571,
                10.707459
              ],
              [
                105.560398,
                10.706983
              ],
              [
                105.560222,
                10.706496
              ],
              [
                105.560014,
                10.705917
              ],
              [
                105.559764,
                10.70522
              ],
              [
                105.559514,
                10.704527
              ],
              [
                105.559218,
                10.703704
              ],
              [
                105.558864,
                10.702722
              ],
              [
                105.558517,
                10.701767
              ],
              [
                105.558186,
                10.700868
              ],
              [
                105.557854,
                10.69998
              ],
              [
                105.557529,
                10.699109
              ],
              [
                105.55723,
                10.698313
              ],
              [
                105.556966,
                10.697617
              ],
              [
                105.556677,
                10.696856
              ],
              [
                105.556335,
                10.695958
              ],
              [
                105.556006,
                10.695093
              ],
              [
                105.555673,
                10.694214
              ],
              [
                105.555311,
                10.693246
              ],
              [
                105.554991,
                10.692364
              ],
              [
                105.554725,
                10.69161
              ],
              [
                105.554714,
                10.691578
              ],
              [
                105.554486,
                10.690924
              ],
              [
                105.554309,
                10.690414
              ],
              [
                105.554225,
                10.690167
              ],
              [
                105.554194,
                10.690077
              ],
              [
                105.554179,
                10.690031
              ],
              [
                105.554,
                10.689661
              ],
              [
                105.553877,
                10.689479
              ],
              [
                105.553481,
                10.688887
              ],
              [
                105.553471,
                10.688873
              ],
              [
                105.553241,
                10.68861
              ],
              [
                105.553185,
                10.688581
              ],
              [
                105.553182,
                10.688579
              ],
              [
                105.553488,
                10.688083
              ],
              [
                105.552229,
                10.68747
              ],
              [
                105.550683,
                10.688443
              ],
              [
                105.549892,
                10.68889
              ],
              [
                105.546907,
                10.69058
              ],
              [
                105.54635,
                10.690895
              ],
              [
                105.544638,
                10.691863
              ],
              [
                105.543856,
                10.692306
              ],
              [
                105.543392,
                10.692569
              ],
              [
                105.542386,
                10.693138
              ],
              [
                105.542433,
                10.693226
              ],
              [
                105.542433,
                10.693442
              ],
              [
                105.54238,
                10.693573
              ],
              [
                105.542318,
                10.693729
              ],
              [
                105.5421,
                10.693844
              ],
              [
                105.541867,
                10.693855
              ],
              [
                105.541781,
                10.693859
              ],
              [
                105.541287,
                10.693803
              ],
              [
                105.541211,
                10.693803
              ],
              [
                105.539621,
                10.694703
              ],
              [
                105.539173,
                10.694957
              ],
              [
                105.537697,
                10.695791
              ],
              [
                105.536764,
                10.696319
              ],
              [
                105.535362,
                10.697113
              ],
              [
                105.534739,
                10.697466
              ],
              [
                105.534647,
                10.697434
              ],
              [
                105.534284,
                10.697535
              ],
              [
                105.53382,
                10.697837
              ],
              [
                105.533637,
                10.698089
              ],
              [
                105.532617,
                10.698666
              ],
              [
                105.531174,
                10.699483
              ],
              [
                105.528423,
                10.70104
              ],
              [
                105.527526,
                10.701547
              ],
              [
                105.526463,
                10.702148
              ],
              [
                105.526369,
                10.702202
              ],
              [
                105.520615,
                10.705508
              ],
              [
                105.511732,
                10.710464
              ],
              [
                105.501852,
                10.715804
              ],
              [
                105.501784,
                10.715945
              ],
              [
                105.501308,
                10.717011
              ],
              [
                105.501308,
                10.717013
              ],
              [
                105.501309,
                10.71702
              ],
              [
                105.501306,
                10.71703
              ],
              [
                105.501295,
                10.717056
              ],
              [
                105.501251,
                10.717154
              ],
              [
                105.50114,
                10.717406
              ],
              [
                105.500976,
                10.717778
              ],
              [
                105.5008,
                10.71818
              ],
              [
                105.5006,
                10.718637
              ],
              [
                105.500375,
                10.719153
              ],
              [
                105.500148,
                10.719674
              ],
              [
                105.499951,
                10.720122
              ],
              [
                105.499812,
                10.72044
              ],
              [
                105.499674,
                10.720754
              ],
              [
                105.499484,
                10.721182
              ],
              [
                105.499267,
                10.721671
              ],
              [
                105.499017,
                10.72223
              ],
              [
                105.498745,
                10.722832
              ],
              [
                105.49853,
                10.723303
              ],
              [
                105.498398,
                10.72359
              ],
              [
                105.498325,
                10.723749
              ],
              [
                105.498241,
                10.723936
              ],
              [
                105.498064,
                10.724334
              ],
              [
                105.498006,
                10.724464
              ],
              [
                105.497813,
                10.724897
              ],
              [
                105.497587,
                10.725402
              ],
              [
                105.497384,
                10.725852
              ],
              [
                105.497288,
                10.726063
              ],
              [
                105.497169,
                10.726327
              ],
              [
                105.496945,
                10.726819
              ],
              [
                105.496706,
                10.727347
              ],
              [
                105.496478,
                10.727852
              ],
              [
                105.496293,
                10.728265
              ],
              [
                105.496121,
                10.728651
              ],
              [
                105.495956,
                10.72902
              ],
              [
                105.495851,
                10.729253
              ],
              [
                105.495799,
                10.729369
              ],
              [
                105.495762,
                10.729452
              ],
              [
                105.495709,
                10.729569
              ],
              [
                105.495631,
                10.729742
              ],
              [
                105.495549,
                10.729924
              ],
              [
                105.495459,
                10.730122
              ],
              [
                105.495339,
                10.730388
              ],
              [
                105.495187,
                10.730723
              ],
              [
                105.495021,
                10.731089
              ],
              [
                105.494848,
                10.731475
              ],
              [
                105.494653,
                10.731909
              ],
              [
                105.49445,
                10.732369
              ],
              [
                105.494278,
                10.732759
              ],
              [
                105.49414,
                10.733076
              ],
              [
                105.493994,
                10.733409
              ],
              [
                105.493833,
                10.733776
              ],
              [
                105.493711,
                10.734053
              ],
              [
                105.493621,
                10.734258
              ],
              [
                105.493526,
                10.734473
              ],
              [
                105.49343,
                10.734693
              ],
              [
                105.493313,
                10.734961
              ],
              [
                105.493179,
                10.735266
              ],
              [
                105.493068,
                10.735519
              ],
              [
                105.492997,
                10.735677
              ],
              [
                105.492932,
                10.735822
              ],
              [
                105.49282,
                10.73607
              ],
              [
                105.492664,
                10.73641
              ],
              [
                105.492522,
                10.736723
              ],
              [
                105.492387,
                10.737023
              ],
              [
                105.492228,
                10.737375
              ],
              [
                105.492065,
                10.737732
              ],
              [
                105.491957,
                10.73797
              ],
              [
                105.491897,
                10.738104
              ],
              [
                105.491859,
                10.738192
              ],
              [
                105.491834,
                10.738251
              ],
              [
                105.491803,
                10.738322
              ],
              [
                105.491737,
                10.73848
              ],
              [
                105.49162,
                10.738754
              ],
              [
                105.491476,
                10.739094
              ],
              [
                105.491326,
                10.739447
              ],
              [
                105.491174,
                10.739808
              ],
              [
                105.491009,
                10.740194
              ],
              [
                105.490836,
                10.740599
              ],
              [
                105.49068,
                10.740968
              ],
              [
                105.490531,
                10.741317
              ],
              [
                105.490374,
                10.741682
              ],
              [
                105.490226,
                10.742023
              ],
              [
                105.490084,
                10.742341
              ],
              [
                105.489948,
                10.742641
              ],
              [
                105.489818,
                10.742928
              ],
              [
                105.489709,
                10.743167
              ],
              [
                105.48965,
                10.743297
              ],
              [
                105.489617,
                10.743369
              ],
              [
                105.489572,
                10.74347
              ],
              [
                105.489506,
                10.743614
              ],
              [
                105.489427,
                10.743788
              ],
              [
                105.489305,
                10.744059
              ],
              [
                105.489132,
                10.744448
              ],
              [
                105.488938,
                10.744884
              ],
              [
                105.488741,
                10.74533
              ],
              [
                105.488542,
                10.745785
              ],
              [
                105.488317,
                10.746307
              ],
              [
                105.488066,
                10.746888
              ],
              [
                105.487837,
                10.747416
              ],
              [
                105.487618,
                10.747916
              ],
              [
                105.487147,
                10.748989
              ],
              [
                105.48711,
                10.749042
              ],
              [
                105.487048,
                10.74913
              ],
              [
                105.487032,
                10.749156
              ],
              [
                105.486977,
                10.749261
              ],
              [
                105.486848,
                10.749543
              ],
              [
                105.486596,
                10.750112
              ],
              [
                105.486268,
                10.750855
              ],
              [
                105.485934,
                10.751613
              ],
              [
                105.485642,
                10.75227
              ],
              [
                105.485423,
                10.752754
              ],
              [
                105.485249,
                10.753134
              ],
              [
                105.485088,
                10.753484
              ],
              [
                105.484942,
                10.753807
              ],
              [
                105.484819,
                10.754089
              ],
              [
                105.484711,
                10.754345
              ],
              [
                105.484607,
                10.754594
              ],
              [
                105.484505,
                10.754835
              ],
              [
                105.484404,
                10.755069
              ],
              [
                105.484302,
                10.755299
              ],
              [
                105.484208,
                10.755516
              ],
              [
                105.48409,
                10.755808
              ],
              [
                105.484037,
                10.755994
              ],
              [
                105.484052,
                10.756
              ],
              [
                105.484067,
                10.756007
              ],
              [
                105.484125,
                10.756017
              ],
              [
                105.48416,
                10.756027
              ],
              [
                105.484169,
                10.756029
              ],
              [
                105.484209,
                10.756042
              ],
              [
                105.484242,
                10.756049
              ],
              [
                105.484225,
                10.756186
              ],
              [
                105.484218,
                10.756243
              ],
              [
                105.48421,
                10.756318
              ],
              [
                105.484209,
                10.756328
              ],
              [
                105.484206,
                10.756347
              ],
              [
                105.484203,
                10.756371
              ],
              [
                105.484199,
                10.756401
              ],
              [
                105.484193,
                10.756432
              ],
              [
                105.484182,
                10.756509
              ],
              [
                105.484148,
                10.756753
              ],
              [
                105.484203,
                10.756762
              ],
              [
                105.484272,
                10.756772
              ],
              [
                105.484347,
                10.756783
              ],
              [
                105.484462,
                10.756797
              ],
              [
                105.484626,
                10.756817
              ],
              [
                105.484776,
                10.756837
              ],
              [
                105.484913,
                10.756856
              ],
              [
                105.485064,
                10.756873
              ],
              [
                105.485223,
                10.756889
              ],
              [
                105.485384,
                10.756904
              ],
              [
                105.485549,
                10.756918
              ],
              [
                105.485737,
                10.756933
              ],
              [
                105.485951,
                10.75695
              ],
              [
                105.486167,
                10.756967
              ],
              [
                105.48637,
                10.756984
              ],
              [
                105.486533,
                10.757
              ],
              [
                105.486653,
                10.757012
              ],
              [
                105.486737,
                10.757021
              ],
              [
                105.486794,
                10.757028
              ],
              [
                105.486839,
                10.757034
              ],
              [
                105.486908,
                10.757041
              ],
              [
                105.487002,
                10.757048
              ],
              [
                105.487067,
                10.757055
              ],
              [
                105.487103,
                10.757065
              ],
              [
                105.487129,
                10.757075
              ],
              [
                105.487208,
                10.75711
              ],
              [
                105.487275,
                10.757108
              ],
              [
                105.487341,
                10.757105
              ],
              [
                105.487108,
                10.757509
              ],
              [
                105.487065,
                10.757568
              ],
              [
                105.486977,
                10.757728
              ],
              [
                105.486828,
                10.758026
              ],
              [
                105.486629,
                10.758426
              ],
              [
                105.486466,
                10.758757
              ],
              [
                105.486336,
                10.759024
              ],
              [
                105.486163,
                10.75937
              ],
              [
                105.485929,
                10.759837
              ],
              [
                105.4857,
                10.760295
              ],
              [
                105.485503,
                10.760697
              ],
              [
                105.485313,
                10.761084
              ],
              [
                105.485122,
                10.761479
              ],
              [
                105.484917,
                10.76191
              ],
              [
                105.484699,
                10.762377
              ],
              [
                105.484477,
                10.762852
              ],
              [
                105.484255,
                10.763329
              ],
              [
                105.484032,
                10.763801
              ],
              [
                105.483819,
                10.764247
              ],
              [
                105.483656,
                10.764589
              ],
              [
                105.483561,
                10.76479
              ],
              [
                105.48346,
                10.764999
              ],
              [
                105.483296,
                10.765336
              ],
              [
                105.483093,
                10.765754
              ],
              [
                105.482834,
                10.766287
              ],
              [
                105.48248,
                10.767017
              ],
              [
                105.482068,
                10.767864
              ],
              [
                105.481656,
                10.768713
              ],
              [
                105.481288,
                10.769472
              ],
              [
                105.480956,
                10.770151
              ],
              [
                105.480627,
                10.770817
              ],
              [
                105.480333,
                10.771404
              ],
              [
                105.480028,
                10.772005
              ],
              [
                105.479692,
                10.772667
              ],
              [
                105.479433,
                10.773174
              ],
              [
                105.479289,
                10.773458
              ],
              [
                105.479199,
                10.773639
              ],
              [
                105.479122,
                10.773795
              ],
              [
                105.479058,
                10.773924
              ],
              [
                105.479011,
                10.774021
              ],
              [
                105.478957,
                10.774129
              ],
              [
                105.478859,
                10.774322
              ],
              [
                105.478717,
                10.7746
              ],
              [
                105.478547,
                10.774931
              ],
              [
                105.478305,
                10.775402
              ],
              [
                105.478036,
                10.775923
              ],
              [
                105.477877,
                10.776232
              ],
              [
                105.477818,
                10.776357
              ],
              [
                105.477792,
                10.776434
              ],
              [
                105.477768,
                10.776506
              ],
              [
                105.477733,
                10.776581
              ],
              [
                105.477672,
                10.776696
              ],
              [
                105.477504,
                10.777017
              ],
              [
                105.477171,
                10.777655
              ],
              [
                105.476787,
                10.778384
              ],
              [
                105.476444,
                10.779032
              ],
              [
                105.476126,
                10.779629
              ],
              [
                105.475884,
                10.780083
              ],
              [
                105.475705,
                10.780416
              ],
              [
                105.475491,
                10.780814
              ],
              [
                105.475199,
                10.781366
              ],
              [
                105.474884,
                10.781976
              ],
              [
                105.474557,
                10.782609
              ],
              [
                105.474201,
                10.783288
              ],
              [
                105.473841,
                10.783981
              ],
              [
                105.473492,
                10.784669
              ],
              [
                105.473159,
                10.785327
              ],
              [
                105.472889,
                10.785863
              ],
              [
                105.472721,
                10.786195
              ],
              [
                105.472598,
                10.786434
              ],
              [
                105.472454,
                10.78672
              ],
              [
                105.472286,
                10.787055
              ],
              [
                105.472116,
                10.787398
              ],
              [
                105.471957,
                10.787723
              ],
              [
                105.471824,
                10.788004
              ],
              [
                105.471708,
                10.788251
              ],
              [
                105.471595,
                10.788494
              ],
              [
                105.471477,
                10.788753
              ],
              [
                105.471356,
                10.789034
              ],
              [
                105.471237,
                10.789324
              ],
              [
                105.471126,
                10.789598
              ],
              [
                105.471053,
                10.789782
              ],
              [
                105.470893,
                10.790165
              ],
              [
                105.470969,
                10.790189
              ],
              [
                105.471016,
                10.790206
              ],
              [
                105.471044,
                10.790216
              ],
              [
                105.471093,
                10.79023
              ],
              [
                105.471249,
                10.790269
              ],
              [
                105.471522,
                10.790337
              ],
              [
                105.471768,
                10.790399
              ],
              [
                105.471987,
                10.790454
              ],
              [
                105.472288,
                10.790531
              ],
              [
                105.472659,
                10.790625
              ],
              [
                105.47298,
                10.790707
              ],
              [
                105.473246,
                10.790776
              ],
              [
                105.473576,
                10.790867
              ],
              [
                105.474038,
                10.790997
              ],
              [
                105.474572,
                10.791146
              ],
              [
                105.475121,
                10.791299
              ],
              [
                105.475675,
                10.791448
              ],
              [
                105.476285,
                10.79161
              ],
              [
                105.476939,
                10.791785
              ],
              [
                105.477504,
                10.791938
              ],
              [
                105.478007,
                10.792079
              ],
              [
                105.478516,
                10.792222
              ],
              [
                105.478894,
                10.79233
              ],
              [
                105.479152,
                10.792401
              ],
              [
                105.479397,
                10.792467
              ],
              [
                105.479638,
                10.79253
              ],
              [
                105.479912,
                10.792603
              ],
              [
                105.480219,
                10.792685
              ],
              [
                105.480492,
                10.792767
              ],
              [
                105.4807,
                10.792845
              ],
              [
                105.480869,
                10.792918
              ],
              [
                105.481019,
                10.792991
              ],
              [
                105.481152,
                10.793059
              ],
              [
                105.481274,
                10.793122
              ],
              [
                105.481376,
                10.793178
              ],
              [
                105.48147,
                10.793233
              ],
              [
                105.481577,
                10.793292
              ],
              [
                105.481707,
                10.793358
              ],
              [
                105.481924,
                10.793446
              ],
              [
                105.482264,
                10.793562
              ],
              [
                105.482668,
                10.793688
              ],
              [
                105.483089,
                10.793817
              ],
              [
                105.483525,
                10.793949
              ],
              [
                105.483989,
                10.794089
              ],
              [
                105.48447,
                10.794234
              ],
              [
                105.484947,
                10.794377
              ],
              [
                105.485382,
                10.794507
              ],
              [
                105.485739,
                10.794614
              ],
              [
                105.486041,
                10.794704
              ],
              [
                105.486324,
                10.794788
              ],
              [
                105.486566,
                10.794861
              ],
              [
                105.48675,
                10.79492
              ],
              [
                105.486897,
                10.794972
              ],
              [
                105.487037,
                10.795022
              ],
              [
                105.487171,
                10.795069
              ],
              [
                105.487285,
                10.795108
              ],
              [
                105.487377,
                10.795138
              ],
              [
                105.487462,
                10.795167
              ],
              [
                105.487537,
                10.795194
              ],
              [
                105.487588,
                10.795214
              ],
              [
                105.487624,
                10.795229
              ],
              [
                105.487658,
                10.795245
              ],
              [
                105.487682,
                10.795256
              ],
              [
                105.487757,
                10.7953
              ],
              [
                105.488079,
                10.79549
              ],
              [
                105.48813,
                10.795403
              ],
              [
                105.488237,
                10.795236
              ],
              [
                105.4883,
                10.795158
              ],
              [
                105.488357,
                10.795093
              ],
              [
                105.488448,
                10.794967
              ],
              [
                105.488476,
                10.794922
              ],
              [
                105.488913,
                10.7951
              ],
              [
                105.489011,
                10.795132
              ],
              [
                105.489122,
                10.79516
              ],
              [
                105.489258,
                10.795192
              ],
              [
                105.489495,
                10.795247
              ],
              [
                105.489873,
                10.79533
              ],
              [
                105.490326,
                10.795427
              ],
              [
                105.490794,
                10.795527
              ],
              [
                105.491265,
                10.795629
              ],
              [
                105.491791,
                10.795747
              ],
              [
                105.492376,
                10.795879
              ],
              [
                105.492911,
                10.796001
              ],
              [
                105.493451,
                10.796123
              ],
              [
                105.494034,
                10.796253
              ],
              [
                105.494511,
                10.796359
              ],
              [
                105.494854,
                10.796436
              ],
              [
                105.495153,
                10.796504
              ],
              [
                105.495466,
                10.796576
              ],
              [
                105.49587,
                10.79667
              ],
              [
                105.496372,
                10.796788
              ],
              [
                105.49687,
                10.796905
              ],
              [
                105.497363,
                10.797021
              ],
              [
                105.497837,
                10.797132
              ],
              [
                105.498181,
                10.797212
              ],
              [
                105.498393,
                10.797261
              ],
              [
                105.498509,
                10.797288
              ],
              [
                105.498561,
                10.797299
              ],
              [
                105.498644,
                10.797317
              ],
              [
                105.498926,
                10.79738
              ],
              [
                105.499482,
                10.797502
              ],
              [
                105.500166,
                10.79765
              ],
              [
                105.500848,
                10.797797
              ],
              [
                105.501784,
                10.797997
              ],
              [
                105.501923,
                10.798038
              ],
              [
                105.501976,
                10.798051
              ],
              [
                105.501992,
                10.798055
              ],
              [
                105.502613,
                10.798208
              ],
              [
                105.503015,
                10.798303
              ],
              [
                105.503465,
                10.798411
              ],
              [
                105.503991,
                10.798538
              ],
              [
                105.504541,
                10.798665
              ],
              [
                105.505172,
                10.798806
              ],
              [
                105.505898,
                10.798966
              ],
              [
                105.506001,
                10.798988
              ],
              [
                105.50663,
                10.799127
              ],
              [
                105.507283,
                10.799271
              ],
              [
                105.507395,
                10.799296
              ],
              [
                105.507727,
                10.799369
              ],
              [
                105.507995,
                10.799428
              ],
              [
                105.508213,
                10.799475
              ],
              [
                105.508374,
                10.799511
              ],
              [
                105.508515,
                10.799543
              ],
              [
                105.508755,
                10.799598
              ],
              [
                105.509121,
                10.799682
              ],
              [
                105.509495,
                10.799767
              ],
              [
                105.509891,
                10.799857
              ],
              [
                105.510363,
                10.799965
              ],
              [
                105.510776,
                10.800058
              ],
              [
                105.511019,
                10.800112
              ],
              [
                105.511202,
                10.800154
              ],
              [
                105.511476,
                10.800215
              ],
              [
                105.51184,
                10.800297
              ],
              [
                105.512193,
                10.800378
              ],
              [
                105.512201,
                10.80038
              ],
              [
                105.5124,
                10.800426
              ],
              [
                105.512577,
                10.800467
              ],
              [
                105.512985,
                10.800562
              ],
              [
                105.513396,
                10.800657
              ],
              [
                105.513786,
                10.800748
              ],
              [
                105.514151,
                10.800833
              ],
              [
                105.514433,
                10.800898
              ],
              [
                105.514592,
                10.800934
              ],
              [
                105.515129,
                10.801053
              ],
              [
                105.515591,
                10.801153
              ],
              [
                105.51595,
                10.80123
              ],
              [
                105.516346,
                10.801314
              ],
              [
                105.516586,
                10.801365
              ],
              [
                105.516826,
                10.801416
              ],
              [
                105.517256,
                10.801509
              ],
              [
                105.517547,
                10.801574
              ],
              [
                105.517608,
                10.801588
              ],
              [
                105.517879,
                10.80165
              ],
              [
                105.518168,
                10.801716
              ],
              [
                105.518599,
                10.801815
              ],
              [
                105.519157,
                10.801943
              ],
              [
                105.519511,
                10.802023
              ],
              [
                105.519854,
                10.802101
              ],
              [
                105.520662,
                10.802285
              ],
              [
                105.52142,
                10.802459
              ],
              [
                105.522152,
                10.802628
              ],
              [
                105.522338,
                10.80267
              ],
              [
                105.522814,
                10.802778
              ],
              [
                105.523196,
                10.802864
              ],
              [
                105.523233,
                10.802873
              ],
              [
                105.523457,
                10.802924
              ],
              [
                105.523853,
                10.803016
              ],
              [
                105.524094,
                10.803072
              ],
              [
                105.524153,
                10.803085
              ],
              [
                105.524338,
                10.803128
              ],
              [
                105.52473,
                10.803219
              ],
              [
                105.524937,
                10.803266
              ],
              [
                105.525073,
                10.803295
              ],
              [
                105.525297,
                10.803344
              ],
              [
                105.5256,
                10.803412
              ],
              [
                105.525645,
                10.803422
              ],
              [
                105.525816,
                10.80346
              ],
              [
                105.525911,
                10.803481
              ],
              [
                105.525955,
                10.803492
              ],
              [
                105.525964,
                10.803495
              ],
              [
                105.526055,
                10.803519
              ],
              [
                105.526287,
                10.80358
              ],
              [
                105.526503,
                10.803637
              ],
              [
                105.52672,
                10.803695
              ],
              [
                105.527197,
                10.803822
              ],
              [
                105.527306,
                10.803845
              ],
              [
                105.527493,
                10.803888
              ],
              [
                105.527659,
                10.803926
              ],
              [
                105.527824,
                10.803963
              ],
              [
                105.528249,
                10.804058
              ],
              [
                105.528684,
                10.804155
              ],
              [
                105.529067,
                10.804239
              ],
              [
                105.529349,
                10.804301
              ],
              [
                105.529561,
                10.804347
              ],
              [
                105.529763,
                10.804391
              ],
              [
                105.53002,
                10.804445
              ],
              [
                105.5304,
                10.804529
              ],
              [
                105.530866,
                10.804633
              ],
              [
                105.531321,
                10.804735
              ],
              [
                105.531779,
                10.804838
              ],
              [
                105.532249,
                10.804944
              ],
              [
                105.532632,
                10.805029
              ],
              [
                105.532642,
                10.805031
              ],
              [
                105.532888,
                10.805086
              ],
              [
                105.533084,
                10.805128
              ],
              [
                105.533297,
                10.805175
              ],
              [
                105.533634,
                10.805249
              ],
              [
                105.53416,
                10.805361
              ],
              [
                105.534775,
                10.805489
              ],
              [
                105.535252,
                10.805587
              ],
              [
                105.535382,
                10.805614
              ],
              [
                105.535868,
                10.805717
              ],
              [
                105.536136,
                10.805775
              ],
              [
                105.536374,
                10.805827
              ],
              [
                105.536466,
                10.805847
              ],
              [
                105.536805,
                10.805921
              ],
              [
                105.537384,
                10.806047
              ],
              [
                105.537982,
                10.806178
              ],
              [
                105.53851,
                10.806294
              ],
              [
                105.53886,
                10.806372
              ],
              [
                105.539042,
                10.806413
              ],
              [
                105.539198,
                10.806448
              ],
              [
                105.539411,
                10.806496
              ],
              [
                105.539643,
                10.80655
              ],
              [
                105.539898,
                10.806609
              ],
              [
                105.540222,
                10.806683
              ],
              [
                105.540603,
                10.806771
              ],
              [
                105.540605,
                10.806772
              ],
              [
                105.541019,
                10.806867
              ],
              [
                105.541516,
                10.806977
              ],
              [
                105.542145,
                10.807112
              ],
              [
                105.542847,
                10.807262
              ],
              [
                105.543519,
                10.807407
              ],
              [
                105.544168,
                10.807551
              ],
              [
                105.544821,
                10.807698
              ],
              [
                105.545399,
                10.807832
              ],
              [
                105.545898,
                10.807951
              ],
              [
                105.546093,
                10.807999
              ],
              [
                105.54638,
                10.808068
              ],
              [
                105.546882,
                10.80819
              ],
              [
                105.547468,
                10.808332
              ],
              [
                105.548129,
                10.808491
              ],
              [
                105.548758,
                10.808643
              ],
              [
                105.54937,
                10.80879
              ],
              [
                105.549526,
                10.808827
              ],
              [
                105.54994,
                10.808927
              ],
              [
                105.550334,
                10.809022
              ],
              [
                105.5506,
                10.809085
              ],
              [
                105.550806,
                10.809134
              ],
              [
                105.550937,
                10.809165
              ],
              [
                105.551076,
                10.809198
              ],
              [
                105.551324,
                10.809258
              ],
              [
                105.551656,
                10.809341
              ],
              [
                105.552004,
                10.809428
              ],
              [
                105.552314,
                10.809506
              ],
              [
                105.55258,
                10.809572
              ],
              [
                105.552833,
                10.809635
              ],
              [
                105.553073,
                10.809691
              ],
              [
                105.553332,
                10.809744
              ],
              [
                105.553619,
                10.809801
              ],
              [
                105.553902,
                10.809857
              ],
              [
                105.554129,
                10.809904
              ],
              [
                105.554274,
                10.809933
              ],
              [
                105.554439,
                10.809964
              ],
              [
                105.554741,
                10.810022
              ],
              [
                105.555147,
                10.810099
              ],
              [
                105.555571,
                10.810181
              ],
              [
                105.555977,
                10.810262
              ],
              [
                105.556348,
                10.810339
              ],
              [
                105.556744,
                10.810422
              ],
              [
                105.557147,
                10.810506
              ],
              [
                105.557415,
                10.810562
              ],
              [
                105.557606,
                10.810602
              ],
              [
                105.557616,
                10.810604
              ],
              [
                105.557902,
                10.810663
              ],
              [
                105.558306,
                10.810745
              ],
              [
                105.558727,
                10.810831
              ],
              [
                105.558731,
                10.810832
              ],
              [
                105.559014,
                10.810887
              ],
              [
                105.559175,
                10.810918
              ],
              [
                105.559318,
                10.810945
              ],
              [
                105.55953,
                10.81099
              ],
              [
                105.559914,
                10.811079
              ],
              [
                105.560423,
                10.811198
              ],
              [
                105.560883,
                10.811307
              ],
              [
                105.561334,
                10.811414
              ],
              [
                105.561832,
                10.811532
              ],
              [
                105.562241,
                10.811631
              ],
              [
                105.562558,
                10.81171
              ],
              [
                105.562851,
                10.811783
              ],
              [
                105.563091,
                10.811841
              ],
              [
                105.56327,
                10.81188
              ],
              [
                105.563458,
                10.81192
              ],
              [
                105.563684,
                10.81197
              ],
              [
                105.563887,
                10.812017
              ],
              [
                105.564026,
                10.812048
              ],
              [
                105.564131,
                10.812077
              ],
              [
                105.564314,
                10.812117
              ],
              [
                105.564562,
                10.812166
              ],
              [
                105.564749,
                10.812203
              ],
              [
                105.56484,
                10.812221
              ],
              [
                105.564858,
                10.812225
              ],
              [
                105.564968,
                10.812083
              ],
              [
                105.565079,
                10.81194
              ],
              [
                105.565086,
                10.81193
              ],
              [
                105.565213,
                10.811788
              ],
              [
                105.565332,
                10.811652
              ],
              [
                105.565392,
                10.811583
              ],
              [
                105.565674,
                10.811256
              ],
              [
                105.566045,
                10.810825
              ],
              [
                105.566402,
                10.810412
              ],
              [
                105.566792,
                10.809965
              ],
              [
                105.56723,
                10.809467
              ],
              [
                105.567321,
                10.809363
              ],
              [
                105.567576,
                10.809075
              ],
              [
                105.567768,
                10.808857
              ],
              [
                105.56787,
                10.808739
              ],
              [
                105.567953,
                10.808643
              ],
              [
                105.568028,
                10.808556
              ],
              [
                105.56807,
                10.808504
              ],
              [
                105.568094,
                10.808471
              ],
              [
                105.568127,
                10.808432
              ],
              [
                105.568065,
                10.808398
              ],
              [
                105.567981,
                10.808354
              ],
              [
                105.567922,
                10.808322
              ],
              [
                105.567839,
                10.808279
              ],
              [
                105.567834,
                10.808276
              ],
              [
                105.567806,
                10.808261
              ],
              [
                105.56774,
                10.808223
              ],
              [
                105.56764,
                10.808164
              ],
              [
                105.567494,
                10.808077
              ],
              [
                105.567326,
                10.80798
              ],
              [
                105.567126,
                10.807862
              ],
              [
                105.566789,
                10.807657
              ],
              [
                105.566214,
                10.807303
              ],
              [
                105.565479,
                10.806851
              ],
              [
                105.565478,
                10.80685
              ],
              [
                105.564735,
                10.806394
              ],
              [
                105.564115,
                10.806014
              ],
              [
                105.563734,
                10.805783
              ],
              [
                105.563481,
                10.805632
              ],
              [
                105.563167,
                10.805444
              ],
              [
                105.562815,
                10.805235
              ],
              [
                105.56277,
                10.805208
              ],
              [
                105.562365,
                10.804964
              ],
              [
                105.561915,
                10.804694
              ],
              [
                105.561394,
                10.804381
              ],
              [
                105.561176,
                10.80425
              ],
              [
                105.56107,
                10.804186
              ],
              [
                105.560818,
                10.804033
              ],
              [
                105.560234,
                10.803678
              ],
              [
                105.559745,
                10.803381
              ],
              [
                105.559266,
                10.803089
              ],
              [
                105.558741,
                10.80277
              ],
              [
                105.558317,
                10.802513
              ],
              [
                105.558012,
                10.802329
              ],
              [
                105.557925,
                10.802276
              ],
              [
                105.557731,
                10.80216
              ],
              [
                105.557353,
                10.801932
              ],
              [
                105.556805,
                10.801603
              ],
              [
                105.556163,
                10.801217
              ],
              [
                105.555509,
                10.800824
              ],
              [
                105.55541,
                10.800765
              ],
              [
                105.554896,
                10.800455
              ],
              [
                105.55432,
                10.800108
              ],
              [
                105.553766,
                10.799774
              ],
              [
                105.553296,
                10.79949
              ],
              [
                105.552893,
                10.799248
              ],
              [
                105.552553,
                10.799041
              ],
              [
                105.552502,
                10.79901
              ],
              [
                105.552277,
                10.798874
              ],
              [
                105.55219,
                10.798821
              ],
              [
                105.551918,
                10.798655
              ],
              [
                105.551622,
                10.798472
              ],
              [
                105.551328,
                10.798291
              ],
              [
                105.551004,
                10.798092
              ],
              [
                105.550655,
                10.797877
              ],
              [
                105.550577,
                10.797827
              ],
              [
                105.55044,
                10.797742
              ],
              [
                105.550387,
                10.797709
              ],
              [
                105.550257,
                10.797623
              ],
              [
                105.550208,
                10.797584
              ],
              [
                105.550186,
                10.79756
              ],
              [
                105.550173,
                10.797541
              ],
              [
                105.550164,
                10.797521
              ],
              [
                105.55016,
                10.7975
              ],
              [
                105.550157,
                10.797476
              ],
              [
                105.55016,
                10.797448
              ],
              [
                105.550174,
                10.797408
              ],
              [
                105.550203,
                10.797359
              ],
              [
                105.55021,
                10.797349
              ],
              [
                105.550217,
                10.797339
              ],
              [
                105.550253,
                10.79729
              ],
              [
                105.550292,
                10.797241
              ],
              [
                105.550385,
                10.797127
              ],
              [
                105.550509,
                10.796979
              ],
              [
                105.550632,
                10.796833
              ],
              [
                105.550636,
                10.796828
              ],
              [
                105.550654,
                10.796807
              ],
              [
                105.550733,
                10.796713
              ],
              [
                105.550927,
                10.796483
              ],
              [
                105.550983,
                10.796417
              ],
              [
                105.551124,
                10.796249
              ],
              [
                105.55123,
                10.796123
              ],
              [
                105.551524,
                10.795774
              ],
              [
                105.551761,
                10.79549
              ],
              [
                105.551788,
                10.795458
              ],
              [
                105.551851,
                10.795382
              ],
              [
                105.552083,
                10.795105
              ],
              [
                105.552083,
                10.795105
              ]
            ]
          ]
        ]
      },
      "properties": {
        "code": "30010",
        "name": "Tam Nông",
        "nameEn": "Tam Nong",
        "fullName": "Xã Tam Nông",
        "fullNameEn": "Tam Nong Commune",
        "codeName": "tam_nong",
        "postalCode": "81318",
        "postalCodePrefix": "",
        "gisServerId": "diaphanhanhchinhcapxa_2025.414",
        "areaKm2": 102.7
      }
    }
  ]
}